{
"type": "FeatureCollection",
"name": "alabama_optimized_districts_all",
"crs": { "type": "name", "properties": { "name": "urn:ogc:def:crs:OGC:1.3:CRS84" } },
"features": [
{ "type": "Feature", "properties": { "opt_all": 1, "population": 719747.0, "voting_age_pop": 559682.0, "dem_votes": 108254.0, "rep_votes": 176399.0, "minority_pop": 192959.0, "dem_pct": 0.38030163027254177, "rep_pct": 0.6196983693761533 }, "geometry": { "type": "Polygon", "coordinates": [ [ [ -88.406201000002312, 30.58970800000289 ], [ -88.408013000001944, 30.636947000003211 ], [ -88.414820000001995, 30.785616000002467 ], [ -88.425807000002152, 31.001130000003069 ], [ -88.432007000001704, 31.114298000003082 ], [ -88.439295000002105, 31.258225000003211 ], [ -88.446170000001771, 31.370152000002459 ], [ -88.454453000002388, 31.529705000002959 ], [ -88.457729000002459, 31.589589000002537 ], [ -88.464430000002309, 31.697952000002893 ], [ -88.466597000001613, 31.750035000002573 ], [ -88.471214000001822, 31.851385000002619 ], [ -88.47309100000254, 31.889616000003159 ], [ -88.46888300000164, 31.93032400000277 ], [ -88.451568000002325, 32.067339000002718 ], [ -88.436972000002214, 32.183500000003285 ], [ -88.430984000002482, 32.230811000003108 ], [ -88.421453000002543, 32.308680000002482 ], [ -88.321950000002232, 32.307741000002807 ], [ -88.222162000001731, 32.307518000002645 ], [ -88.182227000001859, 32.308009000003054 ], [ -88.124300000002535, 32.308700000002673 ], [ -87.930661000001848, 32.310574000003093 ], [ -87.929700000002228, 32.292516000003133 ], [ -87.948354000001785, 32.304090000002674 ], [ -88.019145000002069, 32.285240000002489 ], [ -88.015200000002082, 32.237586000002409 ], [ -88.011087000002021, 32.169956000002678 ], [ -88.016846000001664, 32.153413000002622 ], [ -88.041726000002114, 32.128827000002559 ], [ -88.052203000001782, 32.10177000000261 ], [ -88.044715000001787, 32.082256000002943 ], [ -88.070615000002277, 32.061700000002702 ], [ -88.114541000002063, 32.057651000002643 ], [ -88.116915000001683, 32.021313000002877 ], [ -88.073490000002053, 31.99018200000279 ], [ -87.952106000002189, 31.989870000003201 ], [ -87.80529700000244, 31.990456000003107 ], [ -87.866715000002301, 32.04487100000302 ], [ -87.853500000001915, 32.088045000003063 ], [ -87.783088000002536, 32.096666000002692 ], [ -87.745268000002142, 32.128176000002846 ], [ -87.735153000001858, 32.127710000003248 ], [ -87.692933000002554, 32.119934000003177 ], [ -87.667076000001742, 32.088990000003129 ], [ -87.623358000002369, 32.064548000003214 ], [ -87.622927000001795, 32.034173000003172 ], [ -87.6227560000018, 32.005482000002623 ], [ -87.658094000002521, 32.002926000002759 ], [ -87.667769000002224, 31.991355000002667 ], [ -87.667287000001679, 31.931878000002563 ], [ -87.667143000001872, 31.914099000003205 ], [ -87.666836000002206, 31.875747000002782 ], [ -87.620951000002151, 31.870395000002695 ], [ -87.62017800000234, 31.832232000002939 ], [ -87.540101000001627, 31.82809200000283 ], [ -87.502620000001755, 31.829199000003342 ], [ -87.500930000002199, 31.829251000002976 ], [ -87.382340000001832, 31.830274000002863 ], [ -87.381245000002338, 31.830312000002657 ], [ -87.300706000001554, 31.831197000002511 ], [ -87.232732000001732, 31.831563000002877 ], [ -87.177543000001805, 31.828481000002551 ], [ -87.162832000002169, 31.828416000003333 ], [ -87.058038000002483, 31.829429000002719 ], [ -86.989497000001691, 31.829996000002801 ], [ -86.90689900000153, 31.83062800000317 ], [ -86.905899000001497, 31.753035000003099 ], [ -86.989320000001541, 31.718562000002549 ], [ -87.023797000002062, 31.712730000002551 ], [ -87.048903000002213, 31.719321000003109 ], [ -87.050785000002477, 31.718595000003216 ], [ -87.055967000001942, 31.677381000002903 ], [ -87.09485400000213, 31.652136000002997 ], [ -87.136320000001803, 31.640902000002761 ], [ -87.145126000001568, 31.587168000003174 ], [ -87.165662000002243, 31.542897000002817 ], [ -87.193452000001855, 31.48465900000291 ], [ -87.225113000001897, 31.454908000003009 ], [ -87.241619000002075, 31.441164000002992 ], [ -87.271107000002502, 31.416198000003305 ], [ -87.296721000001767, 31.401278000003099 ], [ -87.361303000002223, 31.316815000003157 ], [ -87.374903000001794, 31.31117200000298 ], [ -87.420784000002214, 31.27652400000267 ], [ -87.427455000002155, 31.26038600000285 ], [ -87.489206000002511, 31.260076000002918 ], [ -87.537772000001681, 31.236630000002847 ], [ -87.589000000002187, 31.23906700000305 ], [ -87.615890000002082, 31.244458000002719 ], [ -87.615951000001829, 31.169230000002734 ], [ -87.61566900000183, 31.128443000002473 ], [ -87.615417000002211, 31.041002000003189 ], [ -87.598829000001956, 30.997455000002784 ], [ -87.588862000001953, 30.965790000002471 ], [ -87.634836000002323, 30.866107000002597 ], [ -87.626582000002315, 30.847258000002952 ], [ -87.544789000002467, 30.778395000002572 ], [ -87.530237000002401, 30.741266000003133 ], [ -87.473631000001802, 30.704813000002549 ], [ -87.406356000001878, 30.674437000002545 ], [ -87.393294000001518, 30.627218000002983 ], [ -87.412357000001975, 30.57358100000333 ], [ -87.445103000001879, 30.528909000002507 ], [ -87.434794000002341, 30.481888000002922 ], [ -87.414677000002158, 30.457296000003321 ], [ -87.369383000001903, 30.431948000003317 ], [ -87.440678000001753, 30.391498000002709 ], [ -87.450778000002259, 30.346999000003187 ], [ -87.492045000002037, 30.33087200000303 ], [ -87.499980000002481, 30.328957000002809 ], [ -87.505810000001631, 30.315086000002744 ], [ -87.518380000001841, 30.283901000002803 ], [ -87.518346000002069, 30.229506000003145 ], [ -87.660348000001719, 30.198179000003289 ], [ -87.831673000001942, 30.177068000003285 ], [ -87.925756000002153, 30.179561000003211 ], [ -88.003618000001779, 30.173417000003219 ], [ -88.037309000002224, 30.146561000002919 ], [ -88.060689000002426, 30.144425000002691 ], [ -88.131610000001956, 30.17362100000269 ], [ -88.162022000002182, 30.200093000002603 ], [ -88.310302000002167, 30.177816000002885 ], [ -88.347719000001675, 30.190088000003183 ], [ -88.384431000001783, 30.158543000003156 ], [ -88.393787000002376, 30.34566000000294 ], [ -88.400353000002056, 30.472571000002521 ], [ -88.402278000001843, 30.510759000003254 ], [ -88.406201000002312, 30.58970800000289 ] ] ] } },
{ "type": "Feature", "properties": { "opt_all": 2, "population": 715258.0, "voting_age_pop": 559280.0, "dem_votes": 92248.0, "rep_votes": 166731.0, "minority_pop": 203692.0, "dem_pct": 0.35619876501330272, "rep_pct": 0.6438012346005656 }, "geometry": { "type": "Polygon", "coordinates": [ [ [ -86.542488000002407, 30.994270000003031 ], [ -86.539127000001514, 31.032337000002673 ], [ -86.50920100000171, 31.062704000002785 ], [ -86.483149000002271, 31.088554000002603 ], [ -86.435764000002322, 31.095063000003243 ], [ -86.393514000001701, 31.059397000002928 ], [ -86.363935000002073, 31.070609000002815 ], [ -86.378332000001834, 31.122071000003103 ], [ -86.38131500000155, 31.147394000002517 ], [ -86.360804000001735, 31.190822000002942 ], [ -86.331466000002351, 31.248196000003027 ], [ -86.355890000002404, 31.31749500000323 ], [ -86.331931000002328, 31.381217000002728 ], [ -86.289460000001711, 31.369711000003292 ], [ -86.274676000001946, 31.396541000002784 ], [ -86.276055000001719, 31.455604000002818 ], [ -86.280155000001614, 31.528510000003319 ], [ -86.289114000002428, 31.528604000002996 ], [ -86.338539000002314, 31.487560000002834 ], [ -86.363624000002005, 31.484784000003152 ], [ -86.398546000002455, 31.451944000002669 ], [ -86.398610000001781, 31.455842000002971 ], [ -86.398884000001985, 31.468025000003177 ], [ -86.399940000002474, 31.527128000002847 ], [ -86.485946000002428, 31.525365000002974 ], [ -86.499213000002484, 31.525331000002833 ], [ -86.499533000002259, 31.655247000003143 ], [ -86.448635000002355, 31.655617000002842 ], [ -86.448398000001944, 31.684063000002613 ], [ -86.445832000001587, 31.711633000002845 ], [ -86.446087000002436, 31.748558000002554 ], [ -86.44640500000169, 31.818077000003299 ], [ -86.44229100000193, 31.832986000002784 ], [ -86.447401000002003, 31.864791000003311 ], [ -86.44766700000153, 31.870498000002588 ], [ -86.448034000001883, 31.961791000003089 ], [ -86.448198000001639, 31.964629000002709 ], [ -86.405005000002305, 31.963775000002972 ], [ -86.406276000002109, 32.050731000002976 ], [ -86.303513000002397, 32.050309000003232 ], [ -86.302534000002169, 32.016089000002523 ], [ -86.284296000001504, 31.965393000003083 ], [ -86.229540000001847, 31.966280000002563 ], [ -86.191379000002485, 31.966453000002911 ], [ -86.185458000001873, 31.966479000003183 ], [ -86.105931000002371, 31.96724200000325 ], [ -86.091930000002165, 31.967248000002726 ], [ -86.0388340000017, 31.967297000002489 ], [ -85.995515000001987, 31.979340000003017 ], [ -85.996853000002332, 32.051049000003076 ], [ -85.997859000001696, 32.141605000003224 ], [ -85.999157000002427, 32.250543000002892 ], [ -85.986557000002179, 32.272342000002908 ], [ -85.919293000002398, 32.274382000002817 ], [ -85.954133000002415, 32.301847000003015 ], [ -85.967796000001698, 32.33026100000275 ], [ -85.975748000001474, 32.333486000003013 ], [ -86.014579000002328, 32.384290000002522 ], [ -86.023012000002268, 32.419978000002956 ], [ -85.968088000002084, 32.451135000002765 ], [ -85.946831000002163, 32.443748000002955 ], [ -85.894420000002285, 32.447578000003176 ], [ -85.886148000002436, 32.493053000002618 ], [ -85.889456000002355, 32.49729400000259 ], [ -85.887642000002245, 32.557983000003361 ], [ -85.890066000001525, 32.578919000002678 ], [ -85.894559000001962, 32.603876000003048 ], [ -85.890283000001816, 32.633162000002585 ], [ -85.91171400000222, 32.677840000003087 ], [ -85.904224000001932, 32.703111000002892 ], [ -85.884585000001564, 32.7352220000028 ], [ -85.895368000001739, 32.754581000003164 ], [ -85.972159000001824, 32.754930000002815 ], [ -86.007187000002205, 32.754984000002629 ], [ -86.012772000002158, 32.821350000002511 ], [ -86.007847000002187, 32.887614000003268 ], [ -86.008204000001925, 32.922635000002842 ], [ -86.008260000002167, 32.967391000002493 ], [ -86.008342000001676, 32.997798000003378 ], [ -86.008480000002365, 33.018451000003111 ], [ -86.009170000002257, 33.090260000002637 ], [ -85.968998000001491, 33.105293000003186 ], [ -85.957125000001525, 33.105313000002951 ], [ -85.870807000001776, 33.104855000002701 ], [ -85.841259000001628, 33.104456000003069 ], [ -85.817146000001657, 33.104359000002695 ], [ -85.753628000001541, 33.105280000002715 ], [ -85.716179000001929, 33.105756000003154 ], [ -85.65365400000168, 33.106634000003041 ], [ -85.653179000002154, 33.200311000002614 ], [ -85.652015000002265, 33.252380000003377 ], [ -85.651303000002329, 33.269809000002716 ], [ -85.618398000001847, 33.262096000003034 ], [ -85.607686000002232, 33.300809000003198 ], [ -85.573938000001817, 33.312088000002575 ], [ -85.601734000001983, 33.335361000003388 ], [ -85.648139000002104, 33.35909500000286 ], [ -85.644780000002015, 33.422789000002616 ], [ -85.643482000002379, 33.495885000002872 ], [ -85.740983000002288, 33.49837600000285 ], [ -85.78124400000172, 33.48362500000281 ], [ -85.782735000001509, 33.469349000003227 ], [ -85.870053000001647, 33.476757000002515 ], [ -85.851890000002044, 33.498742000002608 ], [ -85.796852000001536, 33.541849000002649 ], [ -85.796054000002172, 33.55622000000271 ], [ -85.744118000002274, 33.556075000002792 ], [ -85.742300000001833, 33.60000600000334 ], [ -85.723670000002329, 33.613492000002942 ], [ -85.690140000001762, 33.615815000002968 ], [ -85.638586000001581, 33.649158000002593 ], [ -85.638049000002013, 33.773339000002622 ], [ -85.621019000002249, 33.782331000002785 ], [ -85.603465000001918, 33.788474000003077 ], [ -85.585985000002381, 33.80209500000317 ], [ -85.585201000002314, 33.845920000002849 ], [ -85.637126000002382, 33.84649700000314 ], [ -85.637014000002296, 33.875944000002804 ], [ -85.597063000001839, 33.889703000002733 ], [ -85.531812000001963, 33.903049000002746 ], [ -85.530094000001625, 33.941423000003084 ], [ -85.495289000002259, 33.956910000003056 ], [ -85.398837000002146, 33.964129000003304 ], [ -85.379509000001434, 33.866280000003151 ], [ -85.364593000002444, 33.788445000002582 ], [ -85.34405200000171, 33.682686000002739 ], [ -85.342726000001591, 33.675952000003342 ], [ -85.323753000001943, 33.580338000002861 ], [ -85.304439000001977, 33.482884000003082 ], [ -85.291527000002134, 33.416569000003385 ], [ -85.273453000001879, 33.322822000003363 ], [ -85.255659000001501, 33.229942000003057 ], [ -85.240449000001576, 33.15050000000253 ], [ -85.232378000002186, 33.108077000003128 ], [ -85.210733000002449, 33.000124000003169 ], [ -85.193301000001398, 32.912861000002799 ], [ -85.186989000001773, 32.881642000002593 ], [ -85.178422000002058, 32.854602000002679 ], [ -85.154855000001973, 32.8396890000027 ], [ -85.165635000001799, 32.808222000003063 ], [ -85.122326000001678, 32.774383000002764 ], [ -85.135038000002467, 32.746530000002693 ], [ -85.115237000001727, 32.68733400000275 ], [ -85.10543200000221, 32.644934000003325 ], [ -85.080288000001502, 32.603577000002822 ], [ -85.001020000002214, 32.510157000002984 ], [ -84.995310000001552, 32.477393000002998 ], [ -84.99803600000169, 32.463462000003375 ], [ -84.995245000001802, 32.453122000002857 ], [ -84.963222000002347, 32.423428000002765 ], [ -84.979431000001682, 32.412244000002836 ], [ -84.983866000001754, 32.36238600000317 ], [ -85.002791000001679, 32.322428000003015 ], [ -84.955537000001399, 32.306694000003347 ], [ -84.901191000001802, 32.258374000003016 ], [ -84.930727000002136, 32.218950000003282 ], [ -84.958173000001864, 32.217853000002634 ], [ -84.963728000001908, 32.19585200000315 ], [ -85.009224000002433, 32.181646000003241 ], [ -85.062060000001466, 32.132486000003368 ], [ -85.045063000001662, 32.088063000003132 ], [ -85.056029000001644, 32.063055000003075 ], [ -85.054242000002418, 32.026654000003056 ], [ -85.082130000001541, 31.944658000002601 ], [ -85.140731000001793, 31.85746100000306 ], [ -85.131231000002046, 31.8152620000029 ], [ -85.141876000002298, 31.782181000002787 ], [ -85.127329000001865, 31.762563000003087 ], [ -85.125930000002086, 31.696265000003152 ], [ -85.064628000002273, 31.623898000002637 ], [ -85.057960000002424, 31.5708400000028 ], [ -85.041428000002085, 31.539293000003212 ], [ -85.047983000002262, 31.51431500000292 ], [ -85.071621000002253, 31.468384000002739 ], [ -85.079818000002206, 31.411732000003266 ], [ -85.088252000001958, 31.371514000002769 ], [ -85.087651000001415, 31.308677000003204 ], [ -85.11326100000197, 31.2643430000028 ], [ -85.096843000001499, 31.225239000003373 ], [ -85.107544000001795, 31.189841000003348 ], [ -85.055821000001984, 31.123423000003235 ], [ -85.037062000002251, 31.109753000003259 ], [ -85.011391000002106, 31.053547000002915 ], [ -85.00249900000145, 31.000685000002957 ], [ -85.21312300000244, 31.000802000002579 ], [ -85.349681000002235, 30.999025000003076 ], [ -85.488298000002402, 30.997064000003096 ], [ -85.599984000001768, 30.996067000002697 ], [ -85.644397000001973, 30.995814000003136 ], [ -85.690699000002127, 30.995580000003145 ], [ -85.779657000002175, 30.994572000002723 ], [ -85.831123000001881, 30.994120000002685 ], [ -85.965668000001727, 30.993041000003149 ], [ -85.997290000002423, 30.99287700000259 ], [ -86.187246000001792, 30.994021000002611 ], [ -86.350230000002398, 30.994391000003041 ], [ -86.542488000002407, 30.994270000003031 ] ] ] } },
{ "type": "Feature", "properties": { "opt_all": 3, "population": 717972.0, "voting_age_pop": 559214.0, "dem_votes": 78563.0, "rep_votes": 208563.0, "minority_pop": 141540.0, "dem_pct": 0.27361855064549412, "rep_pct": 0.7263814490062267 }, "geometry": { "type": "Polygon", "coordinates": [ [ [ -86.771532000002352, 32.660717000002819 ], [ -86.917595000001555, 32.664169000002772 ], [ -87.01766000000174, 32.663269000002856 ], [ -87.01776200000235, 32.729532000003019 ], [ -87.017763000002276, 32.741861000002551 ], [ -87.01915700000221, 32.837034000002788 ], [ -87.098183000002521, 32.836008000002792 ], [ -87.116315000002501, 32.835597000002885 ], [ -87.212528000002521, 32.835172000002572 ], [ -87.319184000001869, 32.831522000003162 ], [ -87.31947300000229, 32.875124000002593 ], [ -87.421200000001718, 32.874508000002521 ], [ -87.420798000001753, 32.926163000002582 ], [ -87.421936000001864, 33.003379000002909 ], [ -87.318539000001522, 33.006179000002476 ], [ -87.314773000002319, 33.058728000002489 ], [ -87.312265000002427, 33.086219000003325 ], [ -87.312110000002122, 33.088055000003131 ], [ -87.29942100000163, 33.110076000002671 ], [ -87.281945000001755, 33.133060000002928 ], [ -87.199317000002225, 33.130657000002898 ], [ -87.199069000002453, 33.181883000002813 ], [ -87.194897000001959, 33.199866000002764 ], [ -87.152071000002081, 33.232484000002522 ], [ -87.104101000001734, 33.221457000002957 ], [ -87.065738000002028, 33.246907000002686 ], [ -87.026846000002351, 33.246459000002574 ], [ -86.978360000002468, 33.256222000002474 ], [ -86.926167000001954, 33.278160000002963 ], [ -86.895591000002412, 33.316069000002862 ], [ -86.855559000002387, 33.332467000002701 ], [ -86.839232000002369, 33.332158000003169 ], [ -86.83068800000251, 33.332015000002798 ], [ -86.83059500000229, 33.342803000002782 ], [ -86.83022900000239, 33.360766000003274 ], [ -86.778514000001834, 33.372298000003333 ], [ -86.778499000001673, 33.379273000002705 ], [ -86.752344000001827, 33.416031000002903 ], [ -86.739551000002294, 33.416803000002623 ], [ -86.727831000002396, 33.416437000003306 ], [ -86.710613000001899, 33.430571000003155 ], [ -86.698610000001821, 33.441131000002983 ], [ -86.691955000002153, 33.451401000002889 ], [ -86.646519000001746, 33.466806000002691 ], [ -86.604626000002241, 33.467127000003011 ], [ -86.577860000002261, 33.496122000002771 ], [ -86.560624000002406, 33.517512000002533 ], [ -86.517199000001824, 33.52413600000294 ], [ -86.516783000002491, 33.546020000003132 ], [ -86.516778000002148, 33.547106000002572 ], [ -86.516733000001651, 33.548853000002865 ], [ -86.548485000001889, 33.561381000003017 ], [ -86.551992000001974, 33.561023000002479 ], [ -86.551917000002305, 33.566247000002619 ], [ -86.551411000001977, 33.614587000003134 ], [ -86.525124000002265, 33.64870800000282 ], [ -86.525373000001949, 33.694129000002917 ], [ -86.531113000001923, 33.721243000003234 ], [ -86.542758000002436, 33.765154000003214 ], [ -86.577799000001804, 33.765316000002748 ], [ -86.577528000002147, 33.801977000003262 ], [ -86.521771000001564, 33.801901000002978 ], [ -86.484599000002191, 33.81571300000283 ], [ -86.428362000002494, 33.822882000002942 ], [ -86.399571000002041, 33.84153000000282 ], [ -86.37721400000143, 33.861903000002528 ], [ -86.339338000001462, 33.894843000003121 ], [ -86.331816000002448, 33.92300800000271 ], [ -86.325622000001701, 33.940147000002632 ], [ -86.290011000002053, 33.983719000003333 ], [ -86.246658000002228, 33.971544000003242 ], [ -86.192386000001633, 33.984158000003319 ], [ -86.183634000001859, 33.972202000002973 ], [ -86.177676000001924, 33.96886500000295 ], [ -86.166162000001989, 33.94469700000311 ], [ -86.138499000002227, 33.89838600000256 ], [ -86.108729000002086, 33.902122000003011 ], [ -86.096668000001628, 33.861365000002706 ], [ -86.068120000002438, 33.865686000003372 ], [ -86.065272000001428, 33.842198000002497 ], [ -86.021271000002457, 33.851498000003339 ], [ -85.987542000002392, 33.879205000003068 ], [ -85.969170000002094, 33.914598000002464 ], [ -85.899568000001892, 33.906399000002637 ], [ -85.89956900000233, 33.922137000003111 ], [ -85.89966800000245, 33.942999000003255 ], [ -85.814674000001517, 33.94800100000262 ], [ -85.795039000002006, 33.944810000002846 ], [ -85.740968000001587, 33.935301000002596 ], [ -85.738975000001886, 33.968460000002523 ], [ -85.75133000000146, 34.01564000000279 ], [ -85.789466000002321, 34.086297000002595 ], [ -85.794876000002347, 34.128157000003199 ], [ -85.841365000001744, 34.110695000002664 ], [ -85.842162000002176, 34.152290000002786 ], [ -85.842878000001662, 34.173373000003338 ], [ -85.843617000002098, 34.200006000002524 ], [ -85.843801000002088, 34.244595000002469 ], [ -85.774165000001631, 34.259094000002854 ], [ -85.747851000002257, 34.281642000002854 ], [ -85.675283000001784, 34.343396000002592 ], [ -85.636645000002446, 34.36662200000292 ], [ -85.627512000001772, 34.395920000002555 ], [ -85.589437000001965, 34.424203000002521 ], [ -85.582341000002288, 34.459129000003244 ], [ -85.560386000001415, 34.489909000002598 ], [ -85.513612000001586, 34.523825000002567 ], [ -85.484369000002161, 34.39293800000295 ], [ -85.4817260000017, 34.38066100000318 ], [ -85.463260000001767, 34.2915500000028 ], [ -85.444671000001804, 34.199900000003048 ], [ -85.434375000002106, 34.148376000003204 ], [ -85.412420000001489, 34.031756000003405 ], [ -85.398837000002146, 33.964129000003304 ], [ -85.495289000002259, 33.956910000003056 ], [ -85.530094000001625, 33.941423000003084 ], [ -85.531812000001963, 33.903049000002746 ], [ -85.597063000001839, 33.889703000002733 ], [ -85.637014000002296, 33.875944000002804 ], [ -85.637126000002382, 33.84649700000314 ], [ -85.585201000002314, 33.845920000002849 ], [ -85.585985000002381, 33.80209500000317 ], [ -85.603465000001918, 33.788474000003077 ], [ -85.621019000002249, 33.782331000002785 ], [ -85.638049000002013, 33.773339000002622 ], [ -85.638586000001581, 33.649158000002593 ], [ -85.690140000001762, 33.615815000002968 ], [ -85.723670000002329, 33.613492000002942 ], [ -85.742300000001833, 33.60000600000334 ], [ -85.744118000002274, 33.556075000002792 ], [ -85.796054000002172, 33.55622000000271 ], [ -85.796852000001536, 33.541849000002649 ], [ -85.851890000002044, 33.498742000002608 ], [ -85.870053000001647, 33.476757000002515 ], [ -85.782735000001509, 33.469349000003227 ], [ -85.78124400000172, 33.48362500000281 ], [ -85.740983000002288, 33.49837600000285 ], [ -85.643482000002379, 33.495885000002872 ], [ -85.644780000002015, 33.422789000002616 ], [ -85.648139000002104, 33.35909500000286 ], [ -85.601734000001983, 33.335361000003388 ], [ -85.573938000001817, 33.312088000002575 ], [ -85.607686000002232, 33.300809000003198 ], [ -85.618398000001847, 33.262096000003034 ], [ -85.651303000002329, 33.269809000002716 ], [ -85.652015000002265, 33.252380000003377 ], [ -85.653179000002154, 33.200311000002614 ], [ -85.65365400000168, 33.106634000003041 ], [ -85.716179000001929, 33.105756000003154 ], [ -85.753628000001541, 33.105280000002715 ], [ -85.817146000001657, 33.104359000002695 ], [ -85.841259000001628, 33.104456000003069 ], [ -85.870807000001776, 33.104855000002701 ], [ -85.957125000001525, 33.105313000002951 ], [ -85.968998000001491, 33.105293000003186 ], [ -86.009170000002257, 33.090260000002637 ], [ -86.008480000002365, 33.018451000003111 ], [ -86.008342000001676, 32.997798000003378 ], [ -86.008260000002167, 32.967391000002493 ], [ -86.008204000001925, 32.922635000002842 ], [ -86.007847000002187, 32.887614000003268 ], [ -86.012772000002158, 32.821350000002511 ], [ -86.007187000002205, 32.754984000002629 ], [ -85.972159000001824, 32.754930000002815 ], [ -85.895368000001739, 32.754581000003164 ], [ -85.884585000001564, 32.7352220000028 ], [ -85.904224000001932, 32.703111000002892 ], [ -85.91171400000222, 32.677840000003087 ], [ -85.890283000001816, 32.633162000002585 ], [ -85.894559000001962, 32.603876000003048 ], [ -85.890066000001525, 32.578919000002678 ], [ -85.887642000002245, 32.557983000003361 ], [ -85.889456000002355, 32.49729400000259 ], [ -85.886148000002436, 32.493053000002618 ], [ -85.894420000002285, 32.447578000003176 ], [ -85.946831000002163, 32.443748000002955 ], [ -85.968088000002084, 32.451135000002765 ], [ -86.023012000002268, 32.419978000002956 ], [ -86.046402000002431, 32.406146000002984 ], [ -86.086196000002346, 32.421578000002533 ], [ -86.116329000001713, 32.417026000002608 ], [ -86.192284000001493, 32.436130000003004 ], [ -86.188885000001491, 32.456297000003133 ], [ -86.237068000001912, 32.494980000002705 ], [ -86.262894000002362, 32.50124600000256 ], [ -86.284593000002403, 32.479224000002873 ], [ -86.307697000001994, 32.468253000003152 ], [ -86.306722000002225, 32.419347000003377 ], [ -86.357692000002018, 32.430636000002501 ], [ -86.401775000002417, 32.411505000003089 ], [ -86.411172000002068, 32.409937000003218 ], [ -86.411348000001951, 32.42399700000307 ], [ -86.411675000001566, 32.459798000002998 ], [ -86.411971000001799, 32.485754000002814 ], [ -86.411981000002157, 32.491740000003333 ], [ -86.412333000001794, 32.5486580000033 ], [ -86.412497000002276, 32.589422000003061 ], [ -86.412826000001544, 32.635879000003087 ], [ -86.413035000002154, 32.687713000002795 ], [ -86.413116000002375, 32.707386000002877 ], [ -86.524693000001761, 32.707057000002948 ], [ -86.560171000002029, 32.706877000003196 ], [ -86.626190000001472, 32.706381000002693 ], [ -86.693530000002227, 32.70590500000251 ], [ -86.714219000001663, 32.705694000003128 ], [ -86.731640000002159, 32.661518000003056 ], [ -86.771532000002352, 32.660717000002819 ] ] ] } },
{ "type": "Feature", "properties": { "opt_all": 4, "population": 719041.0, "voting_age_pop": 561847.0, "dem_votes": 68798.0, "rep_votes": 215535.0, "minority_pop": 106026.0, "dem_pct": 0.24196276892166482, "rep_pct": 0.75803723072663487 }, "geometry": { "type": "Polygon", "coordinates": [ [ [ -88.163190000001748, 33.019456000002911 ], [ -88.172293000001517, 33.000515000002608 ], [ -88.171852000002275, 32.995860000003255 ], [ -88.340432000002465, 32.99119900000327 ], [ -88.311584000002583, 33.229759000003149 ], [ -88.308227000002432, 33.257824000002849 ], [ -88.295836000002282, 33.359137000002512 ], [ -88.29106300000177, 33.39905300000261 ], [ -88.289705000001717, 33.410302000002616 ], [ -88.278765000002053, 33.500500000002653 ], [ -88.274619000002545, 33.534008000002807 ], [ -88.271368000001615, 33.560119000003112 ], [ -88.265985000001578, 33.602412000002708 ], [ -88.259886000002339, 33.652705000003152 ], [ -88.24780900000232, 33.751867000003216 ], [ -88.234889000001644, 33.851021000003193 ], [ -88.229092000001671, 33.891941000002809 ], [ -88.217218000002276, 33.981396000002974 ], [ -88.207229000002243, 34.058333000003124 ], [ -88.194547000002089, 34.157707000003093 ], [ -88.180937000001578, 34.263995000002595 ], [ -88.173632000002186, 34.321054000003123 ], [ -88.165732000001654, 34.382806000002788 ], [ -88.149284000002069, 34.515301000002836 ], [ -88.139988000002589, 34.58170300000257 ], [ -88.130200000001651, 34.648724000003057 ], [ -88.113649000002354, 34.765759000002873 ], [ -88.097888000002385, 34.892202000002463 ], [ -88.152413000002056, 34.919741000003157 ], [ -88.202959000001911, 35.008028000003115 ], [ -87.973664000001648, 35.00591900000309 ], [ -87.821136000001886, 35.005187000002387 ], [ -87.688710000001947, 35.003753000003094 ], [ -87.577478000002344, 35.003542000002511 ], [ -87.437074000002085, 35.002776000002683 ], [ -87.299222000001492, 35.000777000002522 ], [ -87.210759000002383, 34.99902400000316 ], [ -87.1226480000023, 34.997199000002581 ], [ -87.030095000002461, 34.995480000002715 ], [ -86.92740100000205, 34.993424000002733 ], [ -86.783628000001883, 34.991948000002537 ], [ -86.783696000001726, 34.933403000002968 ], [ -86.783975000002101, 34.884636000003198 ], [ -86.784518000001938, 34.860018000003194 ], [ -86.785328000001869, 34.805803000002463 ], [ -86.785885000001713, 34.772841000003289 ], [ -86.786113000002132, 34.747684000002671 ], [ -86.786359000001539, 34.728976000002731 ], [ -86.786643000001533, 34.682382000002782 ], [ -86.786928000001893, 34.662612000002781 ], [ -86.788692000001561, 34.597249000002776 ], [ -86.790056000002423, 34.550790000002834 ], [ -86.749308000002429, 34.55908100000272 ], [ -86.723833000001676, 34.581011000002732 ], [ -86.676558000002302, 34.577794000002733 ], [ -86.636195000002118, 34.555198000002925 ], [ -86.61416900000188, 34.577227000002722 ], [ -86.57704700000177, 34.580603000002846 ], [ -86.550166000002463, 34.545963000002928 ], [ -86.559573000001734, 34.501763000003187 ], [ -86.57365600000206, 34.418158000003167 ], [ -86.57853000000172, 34.387617000002976 ], [ -86.581936000001861, 34.304694000003224 ], [ -86.520320000001462, 34.303376000002658 ], [ -86.513120000001521, 34.303191000002663 ], [ -86.477525000002316, 34.302758000002711 ], [ -86.451111000001916, 34.274539000002868 ], [ -86.453020000002041, 34.259317000002923 ], [ -86.514881000001992, 34.254370000002673 ], [ -86.541854000001592, 34.217474000002618 ], [ -86.556970000002252, 34.178850000002782 ], [ -86.594729000002118, 34.135440000002845 ], [ -86.577397000002335, 34.107838000002914 ], [ -86.518889000002417, 34.104463000003101 ], [ -86.575976000001987, 34.051169000002986 ], [ -86.554581000002386, 34.037253000002735 ], [ -86.597560000002218, 34.003964000003279 ], [ -86.637113000002003, 33.938429000003168 ], [ -86.677824000002474, 33.922035000003099 ], [ -86.706298000002278, 33.915434000002911 ], [ -86.673269000001468, 33.900524000002861 ], [ -86.732046000001731, 33.858794000002497 ], [ -86.74393400000163, 33.831426000002864 ], [ -86.753324000002237, 33.837150000002595 ], [ -86.788372000002255, 33.841035000002762 ], [ -86.825273000001474, 33.841831000003033 ], [ -86.879088000001801, 33.843174000002676 ], [ -86.953664000001993, 33.815297000002644 ], [ -86.955770000002175, 33.800828000003023 ], [ -87.022168000001642, 33.772717000002622 ], [ -87.040638000002261, 33.728969000003325 ], [ -87.040051000002194, 33.696311000002652 ], [ -87.039818000001802, 33.687461000003218 ], [ -87.057757000002169, 33.656363000002486 ], [ -87.092641000001734, 33.654022000003152 ], [ -87.092733000001971, 33.627850000002788 ], [ -87.144473000001653, 33.628198000002541 ], [ -87.197556000001541, 33.591232000003046 ], [ -87.18651600000149, 33.556951000003259 ], [ -87.230183000002299, 33.538843000003098 ], [ -87.266923000001867, 33.512929000002764 ], [ -87.318237000001545, 33.514166000003073 ], [ -87.318532000001724, 33.587393000002969 ], [ -87.371040000001628, 33.587065000002902 ], [ -87.392706000002292, 33.601666000002822 ], [ -87.423701000001543, 33.60209600000244 ], [ -87.485901000002258, 33.603665000002827 ], [ -87.548180000002176, 33.606002000002441 ], [ -87.571397000002221, 33.606814000002764 ], [ -87.631707000001512, 33.607071000002641 ], [ -87.631610000001814, 33.580669000002487 ], [ -87.666633000001895, 33.577316000002838 ], [ -87.673461000002121, 33.521383000003084 ], [ -87.687565000001669, 33.521087000002993 ], [ -87.77250000000241, 33.521662000002905 ], [ -87.776044000001662, 33.521870000003091 ], [ -87.84068300000223, 33.524839000003226 ], [ -87.838605000001948, 33.431767000003184 ], [ -87.838264000002098, 33.36123800000307 ], [ -87.838021000001589, 33.284133000003308 ], [ -87.838279000001563, 33.253900000002787 ], [ -87.836661000002209, 33.183664000002487 ], [ -87.837521000001928, 33.153637000003172 ], [ -87.927146000002395, 33.121104000002823 ], [ -87.96883800000181, 33.077641000002622 ], [ -88.026971000001865, 33.063602000002561 ], [ -88.043020000001633, 33.033108000003267 ], [ -88.057055000002549, 33.039707000002743 ], [ -88.115209000002366, 33.041804000002713 ], [ -88.163190000001748, 33.019456000002911 ] ] ] } },
{ "type": "Feature", "properties": { "opt_all": 5, "population": 717065.0, "voting_age_pop": 557314.0, "dem_votes": 96494.0, "rep_votes": 181511.0, "minority_pop": 158944.0, "dem_pct": 0.34709447659319276, "rep_pct": 0.65290552304710148 }, "geometry": { "type": "Polygon", "coordinates": [ [ [ -86.192386000001633, 33.984158000003319 ], [ -86.246658000002228, 33.971544000003242 ], [ -86.290011000002053, 33.983719000003333 ], [ -86.325622000001701, 33.940147000002632 ], [ -86.3494930000019, 33.957253000003071 ], [ -86.332395000002293, 34.013844000002663 ], [ -86.332355000002167, 34.037800000002697 ], [ -86.324594000002008, 34.067173000002953 ], [ -86.303516000001665, 34.099073000003294 ], [ -86.346408000002327, 34.141659000002591 ], [ -86.406599000002188, 34.202514000003241 ], [ -86.433486000001551, 34.172887000003335 ], [ -86.430086000002376, 34.098714000003127 ], [ -86.456114000002444, 34.099365000002813 ], [ -86.516094000002198, 34.107839000002897 ], [ -86.518889000002417, 34.104463000003101 ], [ -86.577397000002335, 34.107838000002914 ], [ -86.594729000002118, 34.135440000002845 ], [ -86.556970000002252, 34.178850000002782 ], [ -86.541854000001592, 34.217474000002618 ], [ -86.514881000001992, 34.254370000002673 ], [ -86.453020000002041, 34.259317000002923 ], [ -86.451111000001916, 34.274539000002868 ], [ -86.477525000002316, 34.302758000002711 ], [ -86.513120000001521, 34.303191000002663 ], [ -86.520320000001462, 34.303376000002658 ], [ -86.581936000001861, 34.304694000003224 ], [ -86.57853000000172, 34.387617000002976 ], [ -86.57365600000206, 34.418158000003167 ], [ -86.559573000001734, 34.501763000003187 ], [ -86.550166000002463, 34.545963000002928 ], [ -86.57704700000177, 34.580603000002846 ], [ -86.61416900000188, 34.577227000002722 ], [ -86.636195000002118, 34.555198000002925 ], [ -86.676558000002302, 34.577794000002733 ], [ -86.723833000001676, 34.581011000002732 ], [ -86.749308000002429, 34.55908100000272 ], [ -86.790056000002423, 34.550790000002834 ], [ -86.788692000001561, 34.597249000002776 ], [ -86.786928000001893, 34.662612000002781 ], [ -86.786643000001533, 34.682382000002782 ], [ -86.786359000001539, 34.728976000002731 ], [ -86.786113000002132, 34.747684000002671 ], [ -86.785885000001713, 34.772841000003289 ], [ -86.785328000001869, 34.805803000002463 ], [ -86.784518000001938, 34.860018000003194 ], [ -86.783975000002101, 34.884636000003198 ], [ -86.783696000001726, 34.933403000002968 ], [ -86.783628000001883, 34.991948000002537 ], [ -86.64139300000177, 34.9916870000025 ], [ -86.522460000001871, 34.990656000002922 ], [ -86.473299000002456, 34.990543000002432 ], [ -86.311274000001845, 34.991098000002587 ], [ -86.218907000001536, 34.990262000002993 ], [ -86.073010000001503, 34.989540000002933 ], [ -86.061620000001668, 34.989467000002712 ], [ -85.860921000001852, 34.988243000002456 ], [ -85.700824000002044, 34.98633300000283 ], [ -85.612697000001731, 34.984868000003125 ], [ -85.589103000001558, 34.891877000002673 ], [ -85.583145000001707, 34.860371000003276 ], [ -85.513612000001586, 34.523825000002567 ], [ -85.560386000001415, 34.489909000002598 ], [ -85.582341000002288, 34.459129000003244 ], [ -85.589437000001965, 34.424203000002521 ], [ -85.627512000001772, 34.395920000002555 ], [ -85.636645000002446, 34.36662200000292 ], [ -85.675283000001784, 34.343396000002592 ], [ -85.747851000002257, 34.281642000002854 ], [ -85.774165000001631, 34.259094000002854 ], [ -85.843801000002088, 34.244595000002469 ], [ -85.843617000002098, 34.200006000002524 ], [ -85.842878000001662, 34.173373000003338 ], [ -85.842162000002176, 34.152290000002786 ], [ -85.841365000001744, 34.110695000002664 ], [ -85.794876000002347, 34.128157000003199 ], [ -85.789466000002321, 34.086297000002595 ], [ -85.75133000000146, 34.01564000000279 ], [ -85.738975000001886, 33.968460000002523 ], [ -85.740968000001587, 33.935301000002596 ], [ -85.795039000002006, 33.944810000002846 ], [ -85.814674000001517, 33.94800100000262 ], [ -85.89966800000245, 33.942999000003255 ], [ -85.89956900000233, 33.922137000003111 ], [ -85.899568000001892, 33.906399000002637 ], [ -85.969170000002094, 33.914598000002464 ], [ -85.987542000002392, 33.879205000003068 ], [ -86.021271000002457, 33.851498000003339 ], [ -86.065272000001428, 33.842198000002497 ], [ -86.068120000002438, 33.865686000003372 ], [ -86.096668000001628, 33.861365000002706 ], [ -86.108729000002086, 33.902122000003011 ], [ -86.138499000002227, 33.89838600000256 ], [ -86.166162000001989, 33.94469700000311 ], [ -86.177676000001924, 33.96886500000295 ], [ -86.183634000001859, 33.972202000002973 ], [ -86.192386000001633, 33.984158000003319 ] ] ] } },
{ "type": "Feature", "properties": { "opt_all": 6, "population": 720065.0, "voting_age_pop": 561962.0, "dem_votes": 163873.0, "rep_votes": 139940.0, "minority_pop": 266894.0, "dem_pct": 0.53938771529217389, "rep_pct": 0.46061228437867624 }, "geometry": { "type": "Polygon", "coordinates": [ [ [ -87.177736000002128, 33.233092000002699 ], [ -87.172636000002498, 33.274653000002971 ], [ -87.145774000002248, 33.306083000002836 ], [ -87.179754000002205, 33.328010000003133 ], [ -87.194841000001674, 33.343069000002679 ], [ -87.23199900000219, 33.365851000002507 ], [ -87.232045000002103, 33.395137000002705 ], [ -87.28436300000223, 33.440578000002702 ], [ -87.31439500000188, 33.441719000002713 ], [ -87.341698000002239, 33.470501000002812 ], [ -87.338327000001527, 33.474072000003055 ], [ -87.285024000002466, 33.485785000002451 ], [ -87.266923000001867, 33.512929000002764 ], [ -87.230183000002299, 33.538843000003098 ], [ -87.18651600000149, 33.556951000003259 ], [ -87.197556000001541, 33.591232000003046 ], [ -87.144473000001653, 33.628198000002541 ], [ -87.092733000001971, 33.627850000002788 ], [ -87.092641000001734, 33.654022000003152 ], [ -87.057757000002169, 33.656363000002486 ], [ -87.039818000001802, 33.687461000003218 ], [ -87.040051000002194, 33.696311000002652 ], [ -87.040638000002261, 33.728969000003325 ], [ -87.022168000001642, 33.772717000002622 ], [ -86.955770000002175, 33.800828000003023 ], [ -86.953664000001993, 33.815297000002644 ], [ -86.879088000001801, 33.843174000002676 ], [ -86.825273000001474, 33.841831000003033 ], [ -86.788372000002255, 33.841035000002762 ], [ -86.753324000002237, 33.837150000002595 ], [ -86.74393400000163, 33.831426000002864 ], [ -86.732046000001731, 33.858794000002497 ], [ -86.673269000001468, 33.900524000002861 ], [ -86.706298000002278, 33.915434000002911 ], [ -86.677824000002474, 33.922035000003099 ], [ -86.637113000002003, 33.938429000003168 ], [ -86.597560000002218, 34.003964000003279 ], [ -86.554581000002386, 34.037253000002735 ], [ -86.575976000001987, 34.051169000002986 ], [ -86.518889000002417, 34.104463000003101 ], [ -86.516094000002198, 34.107839000002897 ], [ -86.456114000002444, 34.099365000002813 ], [ -86.430086000002376, 34.098714000003127 ], [ -86.433486000001551, 34.172887000003335 ], [ -86.406599000002188, 34.202514000003241 ], [ -86.346408000002327, 34.141659000002591 ], [ -86.303516000001665, 34.099073000003294 ], [ -86.324594000002008, 34.067173000002953 ], [ -86.332355000002167, 34.037800000002697 ], [ -86.332395000002293, 34.013844000002663 ], [ -86.3494930000019, 33.957253000003071 ], [ -86.325622000001701, 33.940147000002632 ], [ -86.331816000002448, 33.92300800000271 ], [ -86.339338000001462, 33.894843000003121 ], [ -86.37721400000143, 33.861903000002528 ], [ -86.399571000002041, 33.84153000000282 ], [ -86.428362000002494, 33.822882000002942 ], [ -86.484599000002191, 33.81571300000283 ], [ -86.521771000001564, 33.801901000002978 ], [ -86.577528000002147, 33.801977000003262 ], [ -86.577799000001804, 33.765316000002748 ], [ -86.542758000002436, 33.765154000003214 ], [ -86.531113000001923, 33.721243000003234 ], [ -86.525373000001949, 33.694129000002917 ], [ -86.525124000002265, 33.64870800000282 ], [ -86.551411000001977, 33.614587000003134 ], [ -86.551917000002305, 33.566247000002619 ], [ -86.551992000001974, 33.561023000002479 ], [ -86.548485000001889, 33.561381000003017 ], [ -86.516733000001651, 33.548853000002865 ], [ -86.516778000002148, 33.547106000002572 ], [ -86.516783000002491, 33.546020000003132 ], [ -86.517199000001824, 33.52413600000294 ], [ -86.560624000002406, 33.517512000002533 ], [ -86.577860000002261, 33.496122000002771 ], [ -86.604626000002241, 33.467127000003011 ], [ -86.646519000001746, 33.466806000002691 ], [ -86.691955000002153, 33.451401000002889 ], [ -86.698610000001821, 33.441131000002983 ], [ -86.710613000001899, 33.430571000003155 ], [ -86.727831000002396, 33.416437000003306 ], [ -86.739551000002294, 33.416803000002623 ], [ -86.752344000001827, 33.416031000002903 ], [ -86.778499000001673, 33.379273000002705 ], [ -86.778514000001834, 33.372298000003333 ], [ -86.83022900000239, 33.360766000003274 ], [ -86.83059500000229, 33.342803000002782 ], [ -86.83068800000251, 33.332015000002798 ], [ -86.839232000002369, 33.332158000003169 ], [ -86.855559000002387, 33.332467000002701 ], [ -86.895591000002412, 33.316069000002862 ], [ -86.926167000001954, 33.278160000002963 ], [ -86.978360000002468, 33.256222000002474 ], [ -87.026846000002351, 33.246459000002574 ], [ -87.065738000002028, 33.246907000002686 ], [ -87.104101000001734, 33.221457000002957 ], [ -87.152071000002081, 33.232484000002522 ], [ -87.194897000001959, 33.199866000002764 ], [ -87.203958000002373, 33.212482000002908 ], [ -87.21257600000159, 33.232827000002537 ], [ -87.177736000002128, 33.233092000002699 ] ] ] } },
{ "type": "Feature", "properties": { "opt_all": 7, "population": 715131.0, "voting_age_pop": 557867.0, "dem_votes": 149530.0, "rep_votes": 132265.0, "minority_pop": 282567.0, "dem_pct": 0.53063397131580259, "rep_pct": 0.46936602832932944 }, "geometry": { "type": "Polygon", "coordinates": [ [ [ -87.6227560000018, 32.005482000002623 ], [ -87.622927000001795, 32.034173000003172 ], [ -87.623358000002369, 32.064548000003214 ], [ -87.667076000001742, 32.088990000003129 ], [ -87.692933000002554, 32.119934000003177 ], [ -87.735153000001858, 32.127710000003248 ], [ -87.745268000002142, 32.128176000002846 ], [ -87.783088000002536, 32.096666000002692 ], [ -87.853500000001915, 32.088045000003063 ], [ -87.866715000002301, 32.04487100000302 ], [ -87.80529700000244, 31.990456000003107 ], [ -87.952106000002189, 31.989870000003201 ], [ -88.073490000002053, 31.99018200000279 ], [ -88.116915000001683, 32.021313000002877 ], [ -88.114541000002063, 32.057651000002643 ], [ -88.070615000002277, 32.061700000002702 ], [ -88.044715000001787, 32.082256000002943 ], [ -88.052203000001782, 32.10177000000261 ], [ -88.041726000002114, 32.128827000002559 ], [ -88.016846000001664, 32.153413000002622 ], [ -88.011087000002021, 32.169956000002678 ], [ -88.015200000002082, 32.237586000002409 ], [ -88.019145000002069, 32.285240000002489 ], [ -87.948354000001785, 32.304090000002674 ], [ -87.929700000002228, 32.292516000003133 ], [ -87.930661000001848, 32.310574000003093 ], [ -88.124300000002535, 32.308700000002673 ], [ -88.182227000001859, 32.308009000003054 ], [ -88.222162000001731, 32.307518000002645 ], [ -88.321950000002232, 32.307741000002807 ], [ -88.421453000002543, 32.308680000002482 ], [ -88.416603000002326, 32.350138000002836 ], [ -88.390769000002095, 32.560268000002765 ], [ -88.377187000002237, 32.676166000002922 ], [ -88.364293000001936, 32.784965000003119 ], [ -88.347454000002358, 32.932738000003219 ], [ -88.340432000002465, 32.99119900000327 ], [ -88.171852000002275, 32.995860000003255 ], [ -88.172293000001517, 33.000515000002608 ], [ -88.163190000001748, 33.019456000002911 ], [ -88.115209000002366, 33.041804000002713 ], [ -88.057055000002549, 33.039707000002743 ], [ -88.043020000001633, 33.033108000003267 ], [ -88.026971000001865, 33.063602000002561 ], [ -87.96883800000181, 33.077641000002622 ], [ -87.927146000002395, 33.121104000002823 ], [ -87.837521000001928, 33.153637000003172 ], [ -87.836661000002209, 33.183664000002487 ], [ -87.838279000001563, 33.253900000002787 ], [ -87.838021000001589, 33.284133000003308 ], [ -87.838264000002098, 33.36123800000307 ], [ -87.838605000001948, 33.431767000003184 ], [ -87.84068300000223, 33.524839000003226 ], [ -87.776044000001662, 33.521870000003091 ], [ -87.77250000000241, 33.521662000002905 ], [ -87.687565000001669, 33.521087000002993 ], [ -87.673461000002121, 33.521383000003084 ], [ -87.666633000001895, 33.577316000002838 ], [ -87.631610000001814, 33.580669000002487 ], [ -87.631707000001512, 33.607071000002641 ], [ -87.571397000002221, 33.606814000002764 ], [ -87.548180000002176, 33.606002000002441 ], [ -87.485901000002258, 33.603665000002827 ], [ -87.423701000001543, 33.60209600000244 ], [ -87.392706000002292, 33.601666000002822 ], [ -87.371040000001628, 33.587065000002902 ], [ -87.318532000001724, 33.587393000002969 ], [ -87.318237000001545, 33.514166000003073 ], [ -87.266923000001867, 33.512929000002764 ], [ -87.285024000002466, 33.485785000002451 ], [ -87.338327000001527, 33.474072000003055 ], [ -87.341698000002239, 33.470501000002812 ], [ -87.31439500000188, 33.441719000002713 ], [ -87.28436300000223, 33.440578000002702 ], [ -87.232045000002103, 33.395137000002705 ], [ -87.23199900000219, 33.365851000002507 ], [ -87.194841000001674, 33.343069000002679 ], [ -87.179754000002205, 33.328010000003133 ], [ -87.145774000002248, 33.306083000002836 ], [ -87.172636000002498, 33.274653000002971 ], [ -87.177736000002128, 33.233092000002699 ], [ -87.21257600000159, 33.232827000002537 ], [ -87.203958000002373, 33.212482000002908 ], [ -87.194897000001959, 33.199866000002764 ], [ -87.199069000002453, 33.181883000002813 ], [ -87.199317000002225, 33.130657000002898 ], [ -87.281945000001755, 33.133060000002928 ], [ -87.29942100000163, 33.110076000002671 ], [ -87.312110000002122, 33.088055000003131 ], [ -87.312265000002427, 33.086219000003325 ], [ -87.314773000002319, 33.058728000002489 ], [ -87.318539000001522, 33.006179000002476 ], [ -87.421936000001864, 33.003379000002909 ], [ -87.420798000001753, 32.926163000002582 ], [ -87.421200000001718, 32.874508000002521 ], [ -87.31947300000229, 32.875124000002593 ], [ -87.319184000001869, 32.831522000003162 ], [ -87.212528000002521, 32.835172000002572 ], [ -87.116315000002501, 32.835597000002885 ], [ -87.098183000002521, 32.836008000002792 ], [ -87.01915700000221, 32.837034000002788 ], [ -87.017763000002276, 32.741861000002551 ], [ -87.01776200000235, 32.729532000003019 ], [ -87.01766000000174, 32.663269000002856 ], [ -86.917595000001555, 32.664169000002772 ], [ -86.771532000002352, 32.660717000002819 ], [ -86.731640000002159, 32.661518000003056 ], [ -86.714219000001663, 32.705694000003128 ], [ -86.693530000002227, 32.70590500000251 ], [ -86.626190000001472, 32.706381000002693 ], [ -86.560171000002029, 32.706877000003196 ], [ -86.524693000001761, 32.707057000002948 ], [ -86.413116000002375, 32.707386000002877 ], [ -86.413035000002154, 32.687713000002795 ], [ -86.412826000001544, 32.635879000003087 ], [ -86.412497000002276, 32.589422000003061 ], [ -86.412333000001794, 32.5486580000033 ], [ -86.411981000002157, 32.491740000003333 ], [ -86.411971000001799, 32.485754000002814 ], [ -86.411675000001566, 32.459798000002998 ], [ -86.411348000001951, 32.42399700000307 ], [ -86.411172000002068, 32.409937000003218 ], [ -86.401775000002417, 32.411505000003089 ], [ -86.357692000002018, 32.430636000002501 ], [ -86.306722000002225, 32.419347000003377 ], [ -86.307697000001994, 32.468253000003152 ], [ -86.284593000002403, 32.479224000002873 ], [ -86.262894000002362, 32.50124600000256 ], [ -86.237068000001912, 32.494980000002705 ], [ -86.188885000001491, 32.456297000003133 ], [ -86.192284000001493, 32.436130000003004 ], [ -86.116329000001713, 32.417026000002608 ], [ -86.086196000002346, 32.421578000002533 ], [ -86.046402000002431, 32.406146000002984 ], [ -86.023012000002268, 32.419978000002956 ], [ -86.014579000002328, 32.384290000002522 ], [ -85.975748000001474, 32.333486000003013 ], [ -85.967796000001698, 32.33026100000275 ], [ -85.954133000002415, 32.301847000003015 ], [ -85.919293000002398, 32.274382000002817 ], [ -85.986557000002179, 32.272342000002908 ], [ -85.999157000002427, 32.250543000002892 ], [ -85.997859000001696, 32.141605000003224 ], [ -85.996853000002332, 32.051049000003076 ], [ -85.995515000001987, 31.979340000003017 ], [ -86.0388340000017, 31.967297000002489 ], [ -86.091930000002165, 31.967248000002726 ], [ -86.105931000002371, 31.96724200000325 ], [ -86.185458000001873, 31.966479000003183 ], [ -86.191379000002485, 31.966453000002911 ], [ -86.229540000001847, 31.966280000002563 ], [ -86.284296000001504, 31.965393000003083 ], [ -86.302534000002169, 32.016089000002523 ], [ -86.303513000002397, 32.050309000003232 ], [ -86.406276000002109, 32.050731000002976 ], [ -86.405005000002305, 31.963775000002972 ], [ -86.448198000001639, 31.964629000002709 ], [ -86.448034000001883, 31.961791000003089 ], [ -86.44766700000153, 31.870498000002588 ], [ -86.447401000002003, 31.864791000003311 ], [ -86.44229100000193, 31.832986000002784 ], [ -86.44640500000169, 31.818077000003299 ], [ -86.446087000002436, 31.748558000002554 ], [ -86.445832000001587, 31.711633000002845 ], [ -86.448398000001944, 31.684063000002613 ], [ -86.448635000002355, 31.655617000002842 ], [ -86.499533000002259, 31.655247000003143 ], [ -86.499213000002484, 31.525331000002833 ], [ -86.485946000002428, 31.525365000002974 ], [ -86.399940000002474, 31.527128000002847 ], [ -86.398884000001985, 31.468025000003177 ], [ -86.398610000001781, 31.455842000002971 ], [ -86.398546000002455, 31.451944000002669 ], [ -86.363624000002005, 31.484784000003152 ], [ -86.338539000002314, 31.487560000002834 ], [ -86.289114000002428, 31.528604000002996 ], [ -86.280155000001614, 31.528510000003319 ], [ -86.276055000001719, 31.455604000002818 ], [ -86.274676000001946, 31.396541000002784 ], [ -86.289460000001711, 31.369711000003292 ], [ -86.331931000002328, 31.381217000002728 ], [ -86.355890000002404, 31.31749500000323 ], [ -86.331466000002351, 31.248196000003027 ], [ -86.360804000001735, 31.190822000002942 ], [ -86.38131500000155, 31.147394000002517 ], [ -86.378332000001834, 31.122071000003103 ], [ -86.363935000002073, 31.070609000002815 ], [ -86.393514000001701, 31.059397000002928 ], [ -86.435764000002322, 31.095063000003243 ], [ -86.483149000002271, 31.088554000002603 ], [ -86.50920100000171, 31.062704000002785 ], [ -86.539127000001514, 31.032337000002673 ], [ -86.542488000002407, 30.994270000003031 ], [ -86.688317000001874, 30.994507000002852 ], [ -86.809959000002223, 30.99719500000327 ], [ -86.982097000001758, 30.998438000003084 ], [ -87.163653000002284, 30.999029000002572 ], [ -87.174802000002089, 30.998742000002871 ], [ -87.257139000001672, 30.997863000002688 ], [ -87.363884000002557, 30.997896000002616 ], [ -87.425631000001914, 30.997741000003241 ], [ -87.49837600000167, 30.997938000003082 ], [ -87.514945000002101, 30.997543000003084 ], [ -87.598829000001956, 30.997455000002784 ], [ -87.615417000002211, 31.041002000003189 ], [ -87.61566900000183, 31.128443000002473 ], [ -87.615951000001829, 31.169230000002734 ], [ -87.615890000002082, 31.244458000002719 ], [ -87.589000000002187, 31.23906700000305 ], [ -87.537772000001681, 31.236630000002847 ], [ -87.489206000002511, 31.260076000002918 ], [ -87.427455000002155, 31.26038600000285 ], [ -87.420784000002214, 31.27652400000267 ], [ -87.374903000001794, 31.31117200000298 ], [ -87.361303000002223, 31.316815000003157 ], [ -87.296721000001767, 31.401278000003099 ], [ -87.271107000002502, 31.416198000003305 ], [ -87.241619000002075, 31.441164000002992 ], [ -87.225113000001897, 31.454908000003009 ], [ -87.193452000001855, 31.48465900000291 ], [ -87.165662000002243, 31.542897000002817 ], [ -87.145126000001568, 31.587168000003174 ], [ -87.136320000001803, 31.640902000002761 ], [ -87.09485400000213, 31.652136000002997 ], [ -87.055967000001942, 31.677381000002903 ], [ -87.050785000002477, 31.718595000003216 ], [ -87.048903000002213, 31.719321000003109 ], [ -87.023797000002062, 31.712730000002551 ], [ -86.989320000001541, 31.718562000002549 ], [ -86.905899000001497, 31.753035000003099 ], [ -86.90689900000153, 31.83062800000317 ], [ -86.989497000001691, 31.829996000002801 ], [ -87.058038000002483, 31.829429000002719 ], [ -87.162832000002169, 31.828416000003333 ], [ -87.177543000001805, 31.828481000002551 ], [ -87.232732000001732, 31.831563000002877 ], [ -87.300706000001554, 31.831197000002511 ], [ -87.381245000002338, 31.830312000002657 ], [ -87.382340000001832, 31.830274000002863 ], [ -87.500930000002199, 31.829251000002976 ], [ -87.502620000001755, 31.829199000003342 ], [ -87.540101000001627, 31.82809200000283 ], [ -87.62017800000234, 31.832232000002939 ], [ -87.620951000002151, 31.870395000002695 ], [ -87.666836000002206, 31.875747000002782 ], [ -87.667143000001872, 31.914099000003205 ], [ -87.667287000001679, 31.931878000002563 ], [ -87.667769000002224, 31.991355000002667 ], [ -87.658094000002521, 32.002926000002759 ], [ -87.6227560000018, 32.005482000002623 ] ] ] } }
]
}
