{
"type": "FeatureCollection",
"name": "alabama_enacted_districts",
"crs": { "type": "name", "properties": { "name": "urn:ogc:def:crs:OGC:1.3:CRS84" } },
"features": [
{ "type": "Feature", "properties": { "enacted_district": 1, "population": 717620.0, "voting_age_pop": 557432.0, "dem_votes": 103677.0, "rep_votes": 174513.0, "minority_pop": 189552.0, "dem_pct": 0.37268413660710875, "rep_pct": 0.62731586303342468 }, "geometry": { "type": "Polygon", "coordinates": [ [ [ -88.131610000001956, 30.17362100000269 ], [ -88.162022000002182, 30.200093000002603 ], [ -88.310302000002167, 30.177816000002885 ], [ -88.347719000001675, 30.190088000003183 ], [ -88.384431000001783, 30.158543000003156 ], [ -88.393787000002376, 30.34566000000294 ], [ -88.400353000002056, 30.472571000002521 ], [ -88.402278000001843, 30.510759000003254 ], [ -88.406201000002312, 30.58970800000289 ], [ -88.408013000001944, 30.636947000003211 ], [ -88.414820000001995, 30.785616000002467 ], [ -88.425807000002152, 31.001130000003069 ], [ -88.432007000001704, 31.114298000003082 ], [ -88.439295000002105, 31.258225000003211 ], [ -88.446170000001771, 31.370152000002459 ], [ -88.454453000002388, 31.529705000002959 ], [ -88.457729000002459, 31.589589000002537 ], [ -88.464430000002309, 31.697952000002893 ], [ -88.362174000001758, 31.69824000000327 ], [ -88.31302400000196, 31.698450000002406 ], [ -88.265615000002128, 31.698488000003231 ], [ -88.265335000002409, 31.69849100000264 ], [ -88.088288000002109, 31.699303000002715 ], [ -88.087274000002409, 31.688673000002719 ], [ -88.080207000002559, 31.677064000002787 ], [ -88.078863000002386, 31.662555000002605 ], [ -88.089388000002202, 31.658747000003224 ], [ -88.069482000001898, 31.592733000002919 ], [ -88.027693000002103, 31.584251000002517 ], [ -88.007847000001902, 31.549085000002929 ], [ -87.936534000002155, 31.521947000003017 ], [ -87.907399000001604, 31.494438000003303 ], [ -87.921979000001812, 31.436537000003209 ], [ -87.911139000002109, 31.424402000002747 ], [ -87.927818000001807, 31.407842000003164 ], [ -87.907342000002004, 31.406068000002815 ], [ -87.888857000002105, 31.364023000003137 ], [ -87.924525000001921, 31.312907000003339 ], [ -87.955848000001694, 31.284605000002458 ], [ -87.938092000002356, 31.220680000002968 ], [ -87.946588000002009, 31.192930000003063 ], [ -87.913637000001842, 31.187356000003071 ], [ -87.873887000001972, 31.20149600000309 ], [ -87.841158000001883, 31.242769000003051 ], [ -87.828313000002225, 31.275304000002521 ], [ -87.7855230000022, 31.275790000002761 ], [ -87.765152000001692, 31.297346000003103 ], [ -87.784796000002416, 31.324672000002607 ], [ -87.762796000002069, 31.364280000002925 ], [ -87.725837000002002, 31.373741000003129 ], [ -87.70604500000168, 31.400957000003121 ], [ -87.665572000001987, 31.423166000003175 ], [ -87.594827000002226, 31.41507600000315 ], [ -87.577002000002352, 31.432096000003344 ], [ -87.565708000002331, 31.481683000003041 ], [ -87.621428000001757, 31.514639000003019 ], [ -87.609240000002501, 31.524110000002949 ], [ -87.565413000001641, 31.553573000002551 ], [ -87.566402000002043, 31.65804400000286 ], [ -87.566421000001554, 31.659982000002643 ], [ -87.566841000001602, 31.697115000003127 ], [ -87.516253000002521, 31.707452000003016 ], [ -87.518363000002367, 31.814386000003282 ], [ -87.500930000002199, 31.829251000002976 ], [ -87.382340000001832, 31.830274000002863 ], [ -87.381245000002338, 31.830312000002657 ], [ -87.300706000001554, 31.831197000002511 ], [ -87.232732000001732, 31.831563000002877 ], [ -87.177543000001805, 31.828481000002551 ], [ -87.162832000002169, 31.828416000003333 ], [ -87.058038000002483, 31.829429000002719 ], [ -86.989497000001691, 31.829996000002801 ], [ -86.90689900000153, 31.83062800000317 ], [ -86.905899000001497, 31.753035000003099 ], [ -86.989320000001541, 31.718562000002549 ], [ -87.023797000002062, 31.712730000002551 ], [ -87.048903000002213, 31.719321000003109 ], [ -87.050785000002477, 31.718595000003216 ], [ -87.055967000001942, 31.677381000002903 ], [ -87.09485400000213, 31.652136000002997 ], [ -87.136320000001803, 31.640902000002761 ], [ -87.145126000001568, 31.587168000003174 ], [ -87.165662000002243, 31.542897000002817 ], [ -87.193452000001855, 31.48465900000291 ], [ -87.225113000001897, 31.454908000003009 ], [ -87.241619000002075, 31.441164000002992 ], [ -87.271107000002502, 31.416198000003305 ], [ -87.296721000001767, 31.401278000003099 ], [ -87.361303000002223, 31.316815000003157 ], [ -87.374903000001794, 31.31117200000298 ], [ -87.420784000002214, 31.27652400000267 ], [ -87.427455000002155, 31.26038600000285 ], [ -87.390128000002278, 31.260470000003114 ], [ -87.285270000001987, 31.260593000003031 ], [ -87.22548000000171, 31.260639000002865 ], [ -87.192839000001513, 31.260696000002831 ], [ -87.095805000002301, 31.26104500000308 ], [ -87.071242000001689, 31.261009000002645 ], [ -86.922475000002422, 31.261784000002638 ], [ -86.947923000001651, 31.235497000002479 ], [ -86.950186000002503, 31.180107000003357 ], [ -86.917915000002026, 31.09649600000262 ], [ -86.890722000002128, 31.099900000002879 ], [ -86.852022000001497, 31.138527000002863 ], [ -86.822607000001952, 31.132395000002685 ], [ -86.833349000001675, 31.113070000002654 ], [ -86.804322000002344, 31.067210000003143 ], [ -86.829603000001995, 31.021651000002645 ], [ -86.809959000002223, 30.99719500000327 ], [ -86.982097000001758, 30.998438000003084 ], [ -87.163653000002284, 30.999029000002572 ], [ -87.174802000002089, 30.998742000002871 ], [ -87.257139000001672, 30.997863000002688 ], [ -87.363884000002557, 30.997896000002616 ], [ -87.425631000001914, 30.997741000003241 ], [ -87.49837600000167, 30.997938000003082 ], [ -87.514945000002101, 30.997543000003084 ], [ -87.598829000001956, 30.997455000002784 ], [ -87.588862000001953, 30.965790000002471 ], [ -87.634836000002323, 30.866107000002597 ], [ -87.626582000002315, 30.847258000002952 ], [ -87.544789000002467, 30.778395000002572 ], [ -87.530237000002401, 30.741266000003133 ], [ -87.473631000001802, 30.704813000002549 ], [ -87.406356000001878, 30.674437000002545 ], [ -87.393294000001518, 30.627218000002983 ], [ -87.412357000001975, 30.57358100000333 ], [ -87.445103000001879, 30.528909000002507 ], [ -87.434794000002341, 30.481888000002922 ], [ -87.414677000002158, 30.457296000003321 ], [ -87.369383000001903, 30.431948000003317 ], [ -87.440678000001753, 30.391498000002709 ], [ -87.450778000002259, 30.346999000003187 ], [ -87.492045000002037, 30.33087200000303 ], [ -87.499980000002481, 30.328957000002809 ], [ -87.505810000001631, 30.315086000002744 ], [ -87.518380000001841, 30.283901000002803 ], [ -87.518346000002069, 30.229506000003145 ], [ -87.660348000001719, 30.198179000003289 ], [ -87.831673000001942, 30.177068000003285 ], [ -87.925756000002153, 30.179561000003211 ], [ -88.003618000001779, 30.173417000003219 ], [ -88.037309000002224, 30.146561000002919 ], [ -88.060689000002426, 30.144425000002691 ], [ -88.131610000001956, 30.17362100000269 ] ] ] } },
{ "type": "Feature", "properties": { "enacted_district": 2, "population": 718705.0, "voting_age_pop": 558406.0, "dem_votes": 98344.0, "rep_votes": 177190.0, "minority_pop": 212302.0, "dem_pct": 0.35692146872729991, "rep_pct": 0.64307853090976841 }, "geometry": { "type": "Polygon", "coordinates": [ [ [ -86.829603000001995, 31.021651000002645 ], [ -86.804322000002344, 31.067210000003143 ], [ -86.833349000001675, 31.113070000002654 ], [ -86.822607000001952, 31.132395000002685 ], [ -86.852022000001497, 31.138527000002863 ], [ -86.890722000002128, 31.099900000002879 ], [ -86.917915000002026, 31.09649600000262 ], [ -86.950186000002503, 31.180107000003357 ], [ -86.947923000001651, 31.235497000002479 ], [ -86.922475000002422, 31.261784000002638 ], [ -87.071242000001689, 31.261009000002645 ], [ -87.095805000002301, 31.26104500000308 ], [ -87.192839000001513, 31.260696000002831 ], [ -87.22548000000171, 31.260639000002865 ], [ -87.285270000001987, 31.260593000003031 ], [ -87.390128000002278, 31.260470000003114 ], [ -87.427455000002155, 31.26038600000285 ], [ -87.420784000002214, 31.27652400000267 ], [ -87.374903000001794, 31.31117200000298 ], [ -87.361303000002223, 31.316815000003157 ], [ -87.296721000001767, 31.401278000003099 ], [ -87.271107000002502, 31.416198000003305 ], [ -87.241619000002075, 31.441164000002992 ], [ -87.225113000001897, 31.454908000003009 ], [ -87.193452000001855, 31.48465900000291 ], [ -87.165662000002243, 31.542897000002817 ], [ -87.145126000001568, 31.587168000003174 ], [ -87.136320000001803, 31.640902000002761 ], [ -87.09485400000213, 31.652136000002997 ], [ -87.055967000001942, 31.677381000002903 ], [ -87.050785000002477, 31.718595000003216 ], [ -87.048903000002213, 31.719321000003109 ], [ -87.023797000002062, 31.712730000002551 ], [ -86.989320000001541, 31.718562000002549 ], [ -86.905899000001497, 31.753035000003099 ], [ -86.90689900000153, 31.83062800000317 ], [ -86.90735200000195, 31.865742000002935 ], [ -86.907731000001917, 31.883864000002564 ], [ -86.908597000001791, 31.921842000002837 ], [ -86.90893900000205, 31.96167300000301 ], [ -86.857583000002236, 31.96216700000328 ], [ -86.85117300000239, 31.962177000002601 ], [ -86.709086000001989, 31.962629000003211 ], [ -86.708274000001936, 31.962641000003213 ], [ -86.584958000001492, 31.963840000003099 ], [ -86.54074200000187, 31.963684000003095 ], [ -86.539190000001568, 31.963683000002838 ], [ -86.448198000001639, 31.964629000002709 ], [ -86.405005000002305, 31.963775000002972 ], [ -86.406276000002109, 32.050731000002976 ], [ -86.408052000002343, 32.194363000003307 ], [ -86.408313000002337, 32.209980000002751 ], [ -86.389812000001911, 32.227249000002743 ], [ -86.348914000002111, 32.210790000002767 ], [ -86.344608000001728, 32.240547000002756 ], [ -86.300769000001821, 32.219544000002685 ], [ -86.307114000002315, 32.285060000002694 ], [ -86.277565000002426, 32.285379000003303 ], [ -86.239063000001735, 32.3066910000028 ], [ -86.229056000002018, 32.315688000002929 ], [ -86.245423000001523, 32.327162000003213 ], [ -86.246367000002067, 32.327164000002618 ], [ -86.264809000001591, 32.327087000002834 ], [ -86.264928000002442, 32.327453000003118 ], [ -86.260833000002066, 32.337714000002741 ], [ -86.299732000002166, 32.351892000003033 ], [ -86.30670600000218, 32.351781000003015 ], [ -86.304309000001666, 32.359141000002566 ], [ -86.281497000002204, 32.357892000002536 ], [ -86.267215000001855, 32.372467000003063 ], [ -86.270967000002344, 32.372433000002623 ], [ -86.304740000001715, 32.371885000002663 ], [ -86.305092000001622, 32.379905000003035 ], [ -86.316106000002193, 32.395601000002586 ], [ -86.319617000002495, 32.392609000002608 ], [ -86.357692000002018, 32.430636000002501 ], [ -86.401775000002417, 32.411505000003089 ], [ -86.411172000002068, 32.409937000003218 ], [ -86.456273000002142, 32.405837000002471 ], [ -86.463564000002521, 32.377288000002615 ], [ -86.496774000002404, 32.344437000003225 ], [ -86.532531000002507, 32.33877500000299 ], [ -86.542537000002085, 32.363517000002965 ], [ -86.588261000001808, 32.367749000002554 ], [ -86.614841000002158, 32.374266000002635 ], [ -86.618000000002525, 32.405717000002817 ], [ -86.653419000002287, 32.397247000003027 ], [ -86.655597000002388, 32.37614700000303 ], [ -86.677215000001681, 32.356630000002966 ], [ -86.686199000001594, 32.353735000003162 ], [ -86.711337000001734, 32.360767000002909 ], [ -86.719028000002041, 32.372059000002999 ], [ -86.719967000002001, 32.391154000002921 ], [ -86.717812000002169, 32.396001000003096 ], [ -86.717897000002509, 32.402814000002543 ], [ -86.720954000002379, 32.404812000002757 ], [ -86.727181000001735, 32.404497000002827 ], [ -86.749981000001569, 32.389105000002793 ], [ -86.78135400000194, 32.392494000003147 ], [ -86.773163000001603, 32.340728000003054 ], [ -86.814912000001939, 32.340803000002936 ], [ -86.815399000002344, 32.370821000002636 ], [ -86.8437580000015, 32.400416000002743 ], [ -86.855291000002055, 32.438512000002731 ], [ -86.88196000000228, 32.494590000003051 ], [ -86.893808000001982, 32.514221000002543 ], [ -86.906742000002353, 32.536977000002572 ], [ -86.904776000002414, 32.58771500000298 ], [ -86.917595000001555, 32.664169000002772 ], [ -86.771532000002352, 32.660717000002819 ], [ -86.731640000002159, 32.661518000003056 ], [ -86.714219000001663, 32.705694000003128 ], [ -86.693530000002227, 32.70590500000251 ], [ -86.626190000001472, 32.706381000002693 ], [ -86.560171000002029, 32.706877000003196 ], [ -86.524693000001761, 32.707057000002948 ], [ -86.413116000002375, 32.707386000002877 ], [ -86.413335000002348, 32.750591000002586 ], [ -86.371151000001575, 32.750627000002545 ], [ -86.374974000001473, 32.75358000000319 ], [ -86.296069000001893, 32.753537000003178 ], [ -86.280875000002254, 32.75343400000326 ], [ -86.231580000002495, 32.753483000002959 ], [ -86.229360000002075, 32.753453000003141 ], [ -86.136260000001485, 32.754302000002816 ], [ -86.007187000002205, 32.754984000002629 ], [ -85.972159000001824, 32.754930000002815 ], [ -85.895368000001739, 32.754581000003164 ], [ -85.884585000001564, 32.7352220000028 ], [ -85.904224000001932, 32.703111000002892 ], [ -85.91171400000222, 32.677840000003087 ], [ -85.890283000001816, 32.633162000002585 ], [ -85.894559000001962, 32.603876000003048 ], [ -85.890066000001525, 32.578919000002678 ], [ -85.887642000002245, 32.557983000003361 ], [ -85.889456000002355, 32.49729400000259 ], [ -85.886148000002436, 32.493053000002618 ], [ -85.894420000002285, 32.447578000003176 ], [ -85.946831000002163, 32.443748000002955 ], [ -85.968088000002084, 32.451135000002765 ], [ -86.023012000002268, 32.419978000002956 ], [ -86.014579000002328, 32.384290000002522 ], [ -85.975748000001474, 32.333486000003013 ], [ -85.967796000001698, 32.33026100000275 ], [ -85.954133000002415, 32.301847000003015 ], [ -85.919293000002398, 32.274382000002817 ], [ -85.877868000001826, 32.291528000002785 ], [ -85.876061000001826, 32.246344000002615 ], [ -85.854967000001579, 32.231996000002944 ], [ -85.795324000001486, 32.232932000003146 ], [ -85.781104000001989, 32.233269000002942 ], [ -85.70930100000173, 32.233444000003274 ], [ -85.621293000002083, 32.233506000002976 ], [ -85.594832000002413, 32.23322300000271 ], [ -85.433543000002317, 32.23464800000324 ], [ -85.42744100000148, 32.146551000002525 ], [ -85.410241000002259, 32.146651000002798 ], [ -85.257747000001558, 32.148251000002745 ], [ -85.245495000001426, 32.119143000002659 ], [ -85.185067000002064, 32.061708000002717 ], [ -85.157913000002154, 32.062055000003021 ], [ -85.113202000002005, 32.068965000002549 ], [ -85.056029000001644, 32.063055000003075 ], [ -85.054242000002418, 32.026654000003056 ], [ -85.082130000001541, 31.944658000002601 ], [ -85.140731000001793, 31.85746100000306 ], [ -85.131231000002046, 31.8152620000029 ], [ -85.141876000002298, 31.782181000002787 ], [ -85.127329000001865, 31.762563000003087 ], [ -85.125930000002086, 31.696265000003152 ], [ -85.064628000002273, 31.623898000002637 ], [ -85.057960000002424, 31.5708400000028 ], [ -85.041428000002085, 31.539293000003212 ], [ -85.047983000002262, 31.51431500000292 ], [ -85.071621000002253, 31.468384000002739 ], [ -85.079818000002206, 31.411732000003266 ], [ -85.088252000001958, 31.371514000002769 ], [ -85.087651000001415, 31.308677000003204 ], [ -85.11326100000197, 31.2643430000028 ], [ -85.096843000001499, 31.225239000003373 ], [ -85.107544000001795, 31.189841000003348 ], [ -85.055821000001984, 31.123423000003235 ], [ -85.037062000002251, 31.109753000003259 ], [ -85.011391000002106, 31.053547000002915 ], [ -85.00249900000145, 31.000685000002957 ], [ -85.21312300000244, 31.000802000002579 ], [ -85.349681000002235, 30.999025000003076 ], [ -85.488298000002402, 30.997064000003096 ], [ -85.599984000001768, 30.996067000002697 ], [ -85.644397000001973, 30.995814000003136 ], [ -85.690699000002127, 30.995580000003145 ], [ -85.779657000002175, 30.994572000002723 ], [ -85.831123000001881, 30.994120000002685 ], [ -85.965668000001727, 30.993041000003149 ], [ -85.997290000002423, 30.99287700000259 ], [ -86.187246000001792, 30.994021000002611 ], [ -86.350230000002398, 30.994391000003041 ], [ -86.542488000002407, 30.994270000003031 ], [ -86.688317000001874, 30.994507000002852 ], [ -86.809959000002223, 30.99719500000327 ], [ -86.829603000001995, 31.021651000002645 ] ] ] } },
{ "type": "Feature", "properties": { "enacted_district": 3, "population": 718018.0, "voting_age_pop": 564484.0, "dem_votes": 90821.0, "rep_votes": 175389.0, "minority_pop": 182080.0, "dem_pct": 0.34116299149499907, "rep_pct": 0.65883700812935764 }, "geometry": { "type": "Polygon", "coordinates": [ [ [ -86.622433000001948, 32.793776000002538 ], [ -86.63292700000197, 32.840708000002792 ], [ -86.677381000001532, 32.889851000003162 ], [ -86.675563000001858, 32.890980000003154 ], [ -86.6409130000022, 32.912353000002661 ], [ -86.664901000001819, 32.942197000003326 ], [ -86.616584000002462, 32.928010000002836 ], [ -86.59050300000213, 32.968277000002601 ], [ -86.595920000002437, 33.004346000003295 ], [ -86.553845000001715, 33.018931000003072 ], [ -86.517344000002097, 33.020566000002773 ], [ -86.512106000002362, 33.085876000003253 ], [ -86.491029000001916, 33.102944000002957 ], [ -86.489434000002063, 33.106420000002856 ], [ -86.459926000001872, 33.125117000003236 ], [ -86.484285000002131, 33.161230000002952 ], [ -86.503127000002209, 33.179144000002871 ], [ -86.462020000001687, 33.200021000002707 ], [ -86.466485000001654, 33.224489000003203 ], [ -86.458026000001553, 33.241434000002926 ], [ -86.446998000001727, 33.24258600000308 ], [ -86.360915000002407, 33.292408000003043 ], [ -86.361003000001631, 33.307170000003303 ], [ -86.367509000001732, 33.335692000003164 ], [ -86.341512000002027, 33.355489000003118 ], [ -86.378665000001618, 33.390983000003203 ], [ -86.378224000001936, 33.500239000002516 ], [ -86.413226000002183, 33.502395000003233 ], [ -86.446891000002466, 33.502395000003084 ], [ -86.481747000002358, 33.502543000002547 ], [ -86.481549000002062, 33.546073000002821 ], [ -86.516783000002491, 33.546020000003132 ], [ -86.516778000002148, 33.547106000002572 ], [ -86.516733000001651, 33.548853000002865 ], [ -86.548485000001889, 33.561381000003017 ], [ -86.551992000001974, 33.561023000002479 ], [ -86.551917000002305, 33.566247000002619 ], [ -86.551411000001977, 33.614587000003134 ], [ -86.525124000002265, 33.64870800000282 ], [ -86.525373000001949, 33.694129000002917 ], [ -86.531113000001923, 33.721243000003234 ], [ -86.542758000002436, 33.765154000003214 ], [ -86.577799000001804, 33.765316000002748 ], [ -86.577528000002147, 33.801977000003262 ], [ -86.521771000001564, 33.801901000002978 ], [ -86.484599000002191, 33.81571300000283 ], [ -86.428362000002494, 33.822882000002942 ], [ -86.399571000002041, 33.84153000000282 ], [ -86.37721400000143, 33.861903000002528 ], [ -86.339338000001462, 33.894843000003121 ], [ -86.331816000002448, 33.92300800000271 ], [ -86.325622000001701, 33.940147000002632 ], [ -86.290011000002053, 33.983719000003333 ], [ -86.246658000002228, 33.971544000003242 ], [ -86.192386000001633, 33.984158000003319 ], [ -86.183634000001859, 33.972202000002973 ], [ -86.177676000001924, 33.96886500000295 ], [ -86.166162000001989, 33.94469700000311 ], [ -86.138499000002227, 33.89838600000256 ], [ -86.108729000002086, 33.902122000003011 ], [ -86.096668000001628, 33.861365000002706 ], [ -86.068120000002438, 33.865686000003372 ], [ -86.065272000001428, 33.842198000002497 ], [ -86.021271000002457, 33.851498000003339 ], [ -85.987542000002392, 33.879205000003068 ], [ -85.969170000002094, 33.914598000002464 ], [ -85.899568000001892, 33.906399000002637 ], [ -85.89956900000233, 33.922137000003111 ], [ -85.89966800000245, 33.942999000003255 ], [ -85.814674000001517, 33.94800100000262 ], [ -85.795039000002006, 33.944810000002846 ], [ -85.740968000001587, 33.935301000002596 ], [ -85.738975000001886, 33.968460000002523 ], [ -85.75133000000146, 34.01564000000279 ], [ -85.789466000002321, 34.086297000002595 ], [ -85.794876000002347, 34.128157000003199 ], [ -85.841365000001744, 34.110695000002664 ], [ -85.842162000002176, 34.152290000002786 ], [ -85.842878000001662, 34.173373000003338 ], [ -85.843617000002098, 34.200006000002524 ], [ -85.843801000002088, 34.244595000002469 ], [ -85.774165000001631, 34.259094000002854 ], [ -85.747851000002257, 34.281642000002854 ], [ -85.675283000001784, 34.343396000002592 ], [ -85.636645000002446, 34.36662200000292 ], [ -85.627512000001772, 34.395920000002555 ], [ -85.589437000001965, 34.424203000002521 ], [ -85.582341000002288, 34.459129000003244 ], [ -85.560386000001415, 34.489909000002598 ], [ -85.513612000001586, 34.523825000002567 ], [ -85.484369000002161, 34.39293800000295 ], [ -85.4817260000017, 34.38066100000318 ], [ -85.463260000001767, 34.2915500000028 ], [ -85.444671000001804, 34.199900000003048 ], [ -85.434375000002106, 34.148376000003204 ], [ -85.412420000001489, 34.031756000003405 ], [ -85.398837000002146, 33.964129000003304 ], [ -85.379509000001434, 33.866280000003151 ], [ -85.364593000002444, 33.788445000002582 ], [ -85.34405200000171, 33.682686000002739 ], [ -85.342726000001591, 33.675952000003342 ], [ -85.323753000001943, 33.580338000002861 ], [ -85.304439000001977, 33.482884000003082 ], [ -85.291527000002134, 33.416569000003385 ], [ -85.273453000001879, 33.322822000003363 ], [ -85.255659000001501, 33.229942000003057 ], [ -85.240449000001576, 33.15050000000253 ], [ -85.232378000002186, 33.108077000003128 ], [ -85.210733000002449, 33.000124000003169 ], [ -85.193301000001398, 32.912861000002799 ], [ -85.186989000001773, 32.881642000002593 ], [ -85.178422000002058, 32.854602000002679 ], [ -85.154855000001973, 32.8396890000027 ], [ -85.165635000001799, 32.808222000003063 ], [ -85.122326000001678, 32.774383000002764 ], [ -85.135038000002467, 32.746530000002693 ], [ -85.115237000001727, 32.68733400000275 ], [ -85.10543200000221, 32.644934000003325 ], [ -85.080288000001502, 32.603577000002822 ], [ -85.001020000002214, 32.510157000002984 ], [ -84.995310000001552, 32.477393000002998 ], [ -84.99803600000169, 32.463462000003375 ], [ -84.995245000001802, 32.453122000002857 ], [ -84.963222000002347, 32.423428000002765 ], [ -84.979431000001682, 32.412244000002836 ], [ -84.983866000001754, 32.36238600000317 ], [ -85.002791000001679, 32.322428000003015 ], [ -84.955537000001399, 32.306694000003347 ], [ -84.901191000001802, 32.258374000003016 ], [ -84.930727000002136, 32.218950000003282 ], [ -84.958173000001864, 32.217853000002634 ], [ -84.963728000001908, 32.19585200000315 ], [ -85.009224000002433, 32.181646000003241 ], [ -85.062060000001466, 32.132486000003368 ], [ -85.045063000001662, 32.088063000003132 ], [ -85.056029000001644, 32.063055000003075 ], [ -85.113202000002005, 32.068965000002549 ], [ -85.157913000002154, 32.062055000003021 ], [ -85.185067000002064, 32.061708000002717 ], [ -85.245495000001426, 32.119143000002659 ], [ -85.257747000001558, 32.148251000002745 ], [ -85.410241000002259, 32.146651000002798 ], [ -85.42744100000148, 32.146551000002525 ], [ -85.433543000002317, 32.23464800000324 ], [ -85.594832000002413, 32.23322300000271 ], [ -85.621293000002083, 32.233506000002976 ], [ -85.70930100000173, 32.233444000003274 ], [ -85.781104000001989, 32.233269000002942 ], [ -85.795324000001486, 32.232932000003146 ], [ -85.854967000001579, 32.231996000002944 ], [ -85.876061000001826, 32.246344000002615 ], [ -85.877868000001826, 32.291528000002785 ], [ -85.919293000002398, 32.274382000002817 ], [ -85.954133000002415, 32.301847000003015 ], [ -85.967796000001698, 32.33026100000275 ], [ -85.975748000001474, 32.333486000003013 ], [ -86.014579000002328, 32.384290000002522 ], [ -86.023012000002268, 32.419978000002956 ], [ -85.968088000002084, 32.451135000002765 ], [ -85.946831000002163, 32.443748000002955 ], [ -85.894420000002285, 32.447578000003176 ], [ -85.886148000002436, 32.493053000002618 ], [ -85.889456000002355, 32.49729400000259 ], [ -85.887642000002245, 32.557983000003361 ], [ -85.890066000001525, 32.578919000002678 ], [ -85.894559000001962, 32.603876000003048 ], [ -85.890283000001816, 32.633162000002585 ], [ -85.91171400000222, 32.677840000003087 ], [ -85.904224000001932, 32.703111000002892 ], [ -85.884585000001564, 32.7352220000028 ], [ -85.895368000001739, 32.754581000003164 ], [ -85.972159000001824, 32.754930000002815 ], [ -86.007187000002205, 32.754984000002629 ], [ -86.136260000001485, 32.754302000002816 ], [ -86.229360000002075, 32.753453000003141 ], [ -86.231580000002495, 32.753483000002959 ], [ -86.280875000002254, 32.75343400000326 ], [ -86.296069000001893, 32.753537000003178 ], [ -86.374974000001473, 32.75358000000319 ], [ -86.371151000001575, 32.750627000002545 ], [ -86.413335000002348, 32.750591000002586 ], [ -86.413116000002375, 32.707386000002877 ], [ -86.524693000001761, 32.707057000002948 ], [ -86.571932000001638, 32.78015200000263 ], [ -86.622433000001948, 32.793776000002538 ] ] ] } },
{ "type": "Feature", "properties": { "enacted_district": 4, "population": 715679.0, "voting_age_pop": 554465.0, "dem_votes": 59932.0, "rep_votes": 214691.0, "minority_pop": 97641.0, "dem_pct": 0.21823372397132296, "rep_pct": 0.78176627566454149 }, "geometry": { "type": "Polygon", "coordinates": [ [ [ -87.946519000002326, 33.524065000002409 ], [ -88.033150000002507, 33.527126000002596 ], [ -88.050575000002141, 33.527451000002991 ], [ -88.085736000001688, 33.529072000003268 ], [ -88.144726000001555, 33.530886000003193 ], [ -88.274619000002545, 33.534008000002807 ], [ -88.271368000001615, 33.560119000003112 ], [ -88.265985000001578, 33.602412000002708 ], [ -88.259886000002339, 33.652705000003152 ], [ -88.24780900000232, 33.751867000003216 ], [ -88.234889000001644, 33.851021000003193 ], [ -88.229092000001671, 33.891941000002809 ], [ -88.217218000002276, 33.981396000002974 ], [ -88.207229000002243, 34.058333000003124 ], [ -88.194547000002089, 34.157707000003093 ], [ -88.180937000001578, 34.263995000002595 ], [ -88.173632000002186, 34.321054000003123 ], [ -88.165732000001654, 34.382806000002788 ], [ -88.149284000002069, 34.515301000002836 ], [ -88.139988000002589, 34.58170300000257 ], [ -88.130200000001651, 34.648724000003057 ], [ -88.113649000002354, 34.765759000002873 ], [ -88.097888000002385, 34.892202000002463 ], [ -88.152413000002056, 34.919741000003157 ], [ -88.202959000001911, 35.008028000003115 ], [ -87.973664000001648, 35.00591900000309 ], [ -87.821136000001886, 35.005187000002387 ], [ -87.688710000001947, 35.003753000003094 ], [ -87.70185000000221, 34.965816000003237 ], [ -87.697853000002056, 34.916975000003035 ], [ -87.712432000001954, 34.898216000002897 ], [ -87.724281000002108, 34.840286000002507 ], [ -87.711238000002282, 34.832979000002616 ], [ -87.701800000001825, 34.83221400000253 ], [ -87.691713000001684, 34.839220000002932 ], [ -87.678397000001979, 34.837569000003271 ], [ -87.674531000002276, 34.840365000002961 ], [ -87.672477000002388, 34.840374000002519 ], [ -87.669378000002169, 34.829366000002956 ], [ -87.65611000000176, 34.829628000002458 ], [ -87.63922000000241, 34.82756900000237 ], [ -87.627762000002093, 34.830107000002748 ], [ -87.628728000002098, 34.836117000002609 ], [ -87.621359000002371, 34.844438000002384 ], [ -87.603696000002302, 34.844307000003276 ], [ -87.571864000002293, 34.860773000003086 ], [ -87.553626000002083, 34.826886000003206 ], [ -87.495307000001603, 34.819044000002883 ], [ -87.42651000000248, 34.80002200000316 ], [ -87.414982000001999, 34.800494000002892 ], [ -87.344224000002498, 34.796493000002968 ], [ -87.297905000002515, 34.750812000002668 ], [ -87.283392000002408, 34.751947000002552 ], [ -87.260676000002505, 34.758626000002991 ], [ -87.229721000002272, 34.764031000002774 ], [ -87.138858000001747, 34.724101000003024 ], [ -87.119458000002325, 34.697258000003139 ], [ -87.105073000002207, 34.686037000002798 ], [ -87.105521000002113, 34.634660000003308 ], [ -87.105760000002007, 34.60562300000278 ], [ -87.106213000001844, 34.574389000002483 ], [ -87.106603000002451, 34.528247000003127 ], [ -87.106994000001862, 34.499161000002943 ], [ -87.107713000001738, 34.474070000002449 ], [ -87.110156000001965, 34.377747000002962 ], [ -87.110029000001873, 34.36037000000308 ], [ -87.110111000001567, 34.313799000002611 ], [ -87.008596000001887, 34.311733000002896 ], [ -86.998132000002272, 34.311702000002938 ], [ -86.903542000002119, 34.309795000002715 ], [ -86.89937300000237, 34.309673000002789 ], [ -86.83865900000221, 34.308173000003272 ], [ -86.814585000002083, 34.30776100000287 ], [ -86.770531000002393, 34.307383000002467 ], [ -86.723382000002474, 34.306559000002643 ], [ -86.716959000001552, 34.30650700000313 ], [ -86.661293000001535, 34.30549800000302 ], [ -86.655155000001912, 34.305496000002748 ], [ -86.595436000001854, 34.30504200000248 ], [ -86.581936000001861, 34.304694000003224 ], [ -86.57853000000172, 34.387617000002976 ], [ -86.57365600000206, 34.418158000003167 ], [ -86.559573000001734, 34.501763000003187 ], [ -86.550166000002463, 34.545963000002928 ], [ -86.531749000001781, 34.501275000002636 ], [ -86.487213000001532, 34.480056000003202 ], [ -86.468831000001671, 34.475652000002782 ], [ -86.425482000002489, 34.479277000002639 ], [ -86.365490000001529, 34.515196000002661 ], [ -86.334960000002297, 34.509309000002503 ], [ -86.311702000002427, 34.542291000002862 ], [ -86.307275000002079, 34.582514000002931 ], [ -86.326853000002231, 34.599403000003278 ], [ -86.237028000001871, 34.600023000003084 ], [ -86.235077000001638, 34.600001000003161 ], [ -86.148681000001986, 34.58833900000279 ], [ -86.152224000001908, 34.548019000002839 ], [ -86.149806000001732, 34.533633000003114 ], [ -86.145602000001787, 34.520011000002775 ], [ -86.130316000001869, 34.529595000002821 ], [ -86.087581000001677, 34.48130500000272 ], [ -86.057712000001743, 34.47599400000334 ], [ -86.003840000002228, 34.480031000003258 ], [ -85.966156000002101, 34.498606000002972 ], [ -85.956935000002247, 34.507125000003221 ], [ -85.910665000002425, 34.543935000002776 ], [ -85.839153000002483, 34.589665000003038 ], [ -85.794918000001999, 34.618432000003267 ], [ -85.774175000002359, 34.638697000002594 ], [ -85.75681400000164, 34.660459000003172 ], [ -85.704718000002089, 34.728896000002777 ], [ -85.660198000001671, 34.75496300000254 ], [ -85.634316000002414, 34.798742000002832 ], [ -85.62706800000214, 34.831879000002615 ], [ -85.583145000001707, 34.860371000003276 ], [ -85.513612000001586, 34.523825000002567 ], [ -85.560386000001415, 34.489909000002598 ], [ -85.582341000002288, 34.459129000003244 ], [ -85.589437000001965, 34.424203000002521 ], [ -85.627512000001772, 34.395920000002555 ], [ -85.636645000002446, 34.36662200000292 ], [ -85.675283000001784, 34.343396000002592 ], [ -85.747851000002257, 34.281642000002854 ], [ -85.774165000001631, 34.259094000002854 ], [ -85.843801000002088, 34.244595000002469 ], [ -85.843617000002098, 34.200006000002524 ], [ -85.842878000001662, 34.173373000003338 ], [ -85.842162000002176, 34.152290000002786 ], [ -85.841365000001744, 34.110695000002664 ], [ -85.794876000002347, 34.128157000003199 ], [ -85.789466000002321, 34.086297000002595 ], [ -85.75133000000146, 34.01564000000279 ], [ -85.738975000001886, 33.968460000002523 ], [ -85.740968000001587, 33.935301000002596 ], [ -85.795039000002006, 33.944810000002846 ], [ -85.814674000001517, 33.94800100000262 ], [ -85.89966800000245, 33.942999000003255 ], [ -85.89956900000233, 33.922137000003111 ], [ -85.899568000001892, 33.906399000002637 ], [ -85.969170000002094, 33.914598000002464 ], [ -85.987542000002392, 33.879205000003068 ], [ -86.021271000002457, 33.851498000003339 ], [ -86.065272000001428, 33.842198000002497 ], [ -86.068120000002438, 33.865686000003372 ], [ -86.096668000001628, 33.861365000002706 ], [ -86.108729000002086, 33.902122000003011 ], [ -86.138499000002227, 33.89838600000256 ], [ -86.166162000001989, 33.94469700000311 ], [ -86.177676000001924, 33.96886500000295 ], [ -86.183634000001859, 33.972202000002973 ], [ -86.192386000001633, 33.984158000003319 ], [ -86.246658000002228, 33.971544000003242 ], [ -86.290011000002053, 33.983719000003333 ], [ -86.325622000001701, 33.940147000002632 ], [ -86.3494930000019, 33.957253000003071 ], [ -86.332395000002293, 34.013844000002663 ], [ -86.332355000002167, 34.037800000002697 ], [ -86.324594000002008, 34.067173000002953 ], [ -86.303516000001665, 34.099073000003294 ], [ -86.346408000002327, 34.141659000002591 ], [ -86.406599000002188, 34.202514000003241 ], [ -86.41694000000173, 34.214887000003216 ], [ -86.430690000001704, 34.231891000002619 ], [ -86.453020000002041, 34.259317000002923 ], [ -86.514881000001992, 34.254370000002673 ], [ -86.541854000001592, 34.217474000002618 ], [ -86.556970000002252, 34.178850000002782 ], [ -86.594729000002118, 34.135440000002845 ], [ -86.634143000001927, 34.116281000003035 ], [ -86.656820000001616, 34.09164600000279 ], [ -86.698398000002385, 34.085030000002554 ], [ -86.695983000001988, 34.061563000003311 ], [ -86.709388000002505, 34.046846000002887 ], [ -86.736688000002431, 34.012006000003019 ], [ -86.74918800000178, 33.99759600000268 ], [ -86.763999000001519, 33.974187000002964 ], [ -86.81626700000254, 33.955610000002892 ], [ -86.859682000002266, 33.935430000002512 ], [ -86.868171000001951, 33.932767000003118 ], [ -86.91446200000189, 33.915640000003052 ], [ -86.932324000001742, 33.8672920000025 ], [ -86.963358000002344, 33.858221000003233 ], [ -86.953664000001993, 33.815297000002644 ], [ -86.955770000002175, 33.800828000003023 ], [ -87.022168000001642, 33.772717000002622 ], [ -87.040638000002261, 33.728969000003325 ], [ -87.040051000002194, 33.696311000002652 ], [ -87.039818000001802, 33.687461000003218 ], [ -87.057757000002169, 33.656363000002486 ], [ -87.092641000001734, 33.654022000003152 ], [ -87.092733000001971, 33.627850000002788 ], [ -87.144473000001653, 33.628198000002541 ], [ -87.197556000001541, 33.591232000003046 ], [ -87.18651600000149, 33.556951000003259 ], [ -87.230183000002299, 33.538843000003098 ], [ -87.266923000001867, 33.512929000002764 ], [ -87.285024000002466, 33.485785000002451 ], [ -87.338327000001527, 33.474072000003055 ], [ -87.341698000002239, 33.470501000002812 ], [ -87.379672000002529, 33.434694000002828 ], [ -87.412550000002042, 33.375114000003123 ], [ -87.416521000002106, 33.332496000002649 ], [ -87.394824000001762, 33.30640400000248 ], [ -87.421294000002163, 33.269641000002935 ], [ -87.450853000001587, 33.253780000002436 ], [ -87.460915000002032, 33.253103000003136 ], [ -87.510948000001505, 33.235349000002472 ], [ -87.542159000001902, 33.26373200000274 ], [ -87.542284000002269, 33.26378200000309 ], [ -87.570197000002338, 33.289645000003006 ], [ -87.576596000001771, 33.239030000003034 ], [ -87.59292600000235, 33.23992500000243 ], [ -87.605869000002428, 33.258674000003168 ], [ -87.61331600000176, 33.269253000003211 ], [ -87.638575000002277, 33.234194000003285 ], [ -87.713069000002022, 33.265347000002834 ], [ -87.731969000001612, 33.269430000002934 ], [ -87.754467000001881, 33.273245000002483 ], [ -87.838021000001589, 33.284133000003308 ], [ -87.838264000002098, 33.36123800000307 ], [ -87.838605000001948, 33.431767000003184 ], [ -87.84068300000223, 33.524839000003226 ], [ -87.898612000002061, 33.524686000002781 ], [ -87.900786000001673, 33.524658000003214 ], [ -87.946519000002326, 33.524065000002409 ] ] ] } },
{ "type": "Feature", "properties": { "enacted_district": 5, "population": 719826.0, "voting_age_pop": 562855.0, "dem_votes": 104381.0, "rep_votes": 181906.0, "minority_pop": 163546.0, "dem_pct": 0.36460265385274127, "rep_pct": 0.63539734579795892 }, "geometry": { "type": "Polygon", "coordinates": [ [ [ -87.106994000001862, 34.499161000002943 ], [ -87.106603000002451, 34.528247000003127 ], [ -87.106213000001844, 34.574389000002483 ], [ -87.105760000002007, 34.60562300000278 ], [ -87.105521000002113, 34.634660000003308 ], [ -87.105073000002207, 34.686037000002798 ], [ -87.119458000002325, 34.697258000003139 ], [ -87.138858000001747, 34.724101000003024 ], [ -87.229721000002272, 34.764031000002774 ], [ -87.260676000002505, 34.758626000002991 ], [ -87.283392000002408, 34.751947000002552 ], [ -87.297905000002515, 34.750812000002668 ], [ -87.344224000002498, 34.796493000002968 ], [ -87.414982000001999, 34.800494000002892 ], [ -87.42651000000248, 34.80002200000316 ], [ -87.495307000001603, 34.819044000002883 ], [ -87.553626000002083, 34.826886000003206 ], [ -87.571864000002293, 34.860773000003086 ], [ -87.603696000002302, 34.844307000003276 ], [ -87.621359000002371, 34.844438000002384 ], [ -87.628728000002098, 34.836117000002609 ], [ -87.627762000002093, 34.830107000002748 ], [ -87.63922000000241, 34.82756900000237 ], [ -87.65611000000176, 34.829628000002458 ], [ -87.669378000002169, 34.829366000002956 ], [ -87.672477000002388, 34.840374000002519 ], [ -87.674531000002276, 34.840365000002961 ], [ -87.678397000001979, 34.837569000003271 ], [ -87.691713000001684, 34.839220000002932 ], [ -87.701800000001825, 34.83221400000253 ], [ -87.711238000002282, 34.832979000002616 ], [ -87.724281000002108, 34.840286000002507 ], [ -87.712432000001954, 34.898216000002897 ], [ -87.697853000002056, 34.916975000003035 ], [ -87.70185000000221, 34.965816000003237 ], [ -87.688710000001947, 35.003753000003094 ], [ -87.577478000002344, 35.003542000002511 ], [ -87.437074000002085, 35.002776000002683 ], [ -87.299222000001492, 35.000777000002522 ], [ -87.210759000002383, 34.99902400000316 ], [ -87.1226480000023, 34.997199000002581 ], [ -87.030095000002461, 34.995480000002715 ], [ -86.92740100000205, 34.993424000002733 ], [ -86.783628000001883, 34.991948000002537 ], [ -86.64139300000177, 34.9916870000025 ], [ -86.522460000001871, 34.990656000002922 ], [ -86.473299000002456, 34.990543000002432 ], [ -86.311274000001845, 34.991098000002587 ], [ -86.218907000001536, 34.990262000002993 ], [ -86.073010000001503, 34.989540000002933 ], [ -86.061620000001668, 34.989467000002712 ], [ -85.860921000001852, 34.988243000002456 ], [ -85.700824000002044, 34.98633300000283 ], [ -85.612697000001731, 34.984868000003125 ], [ -85.589103000001558, 34.891877000002673 ], [ -85.583145000001707, 34.860371000003276 ], [ -85.62706800000214, 34.831879000002615 ], [ -85.634316000002414, 34.798742000002832 ], [ -85.660198000001671, 34.75496300000254 ], [ -85.704718000002089, 34.728896000002777 ], [ -85.75681400000164, 34.660459000003172 ], [ -85.774175000002359, 34.638697000002594 ], [ -85.794918000001999, 34.618432000003267 ], [ -85.839153000002483, 34.589665000003038 ], [ -85.910665000002425, 34.543935000002776 ], [ -85.956935000002247, 34.507125000003221 ], [ -85.966156000002101, 34.498606000002972 ], [ -86.003840000002228, 34.480031000003258 ], [ -86.057712000001743, 34.47599400000334 ], [ -86.087581000001677, 34.48130500000272 ], [ -86.130316000001869, 34.529595000002821 ], [ -86.145602000001787, 34.520011000002775 ], [ -86.149806000001732, 34.533633000003114 ], [ -86.152224000001908, 34.548019000002839 ], [ -86.148681000001986, 34.58833900000279 ], [ -86.235077000001638, 34.600001000003161 ], [ -86.237028000001871, 34.600023000003084 ], [ -86.326853000002231, 34.599403000003278 ], [ -86.307275000002079, 34.582514000002931 ], [ -86.311702000002427, 34.542291000002862 ], [ -86.334960000002297, 34.509309000002503 ], [ -86.365490000001529, 34.515196000002661 ], [ -86.425482000002489, 34.479277000002639 ], [ -86.468831000001671, 34.475652000002782 ], [ -86.487213000001532, 34.480056000003202 ], [ -86.531749000001781, 34.501275000002636 ], [ -86.550166000002463, 34.545963000002928 ], [ -86.559573000001734, 34.501763000003187 ], [ -86.57365600000206, 34.418158000003167 ], [ -86.57853000000172, 34.387617000002976 ], [ -86.581936000001861, 34.304694000003224 ], [ -86.595436000001854, 34.30504200000248 ], [ -86.655155000001912, 34.305496000002748 ], [ -86.661293000001535, 34.30549800000302 ], [ -86.716959000001552, 34.30650700000313 ], [ -86.723382000002474, 34.306559000002643 ], [ -86.770531000002393, 34.307383000002467 ], [ -86.814585000002083, 34.30776100000287 ], [ -86.83865900000221, 34.308173000003272 ], [ -86.89937300000237, 34.309673000002789 ], [ -86.903542000002119, 34.309795000002715 ], [ -86.998132000002272, 34.311702000002938 ], [ -87.008596000001887, 34.311733000002896 ], [ -87.110111000001567, 34.313799000002611 ], [ -87.110029000001873, 34.36037000000308 ], [ -87.110156000001965, 34.377747000002962 ], [ -87.107713000001738, 34.474070000002449 ], [ -87.106994000001862, 34.499161000002943 ] ] ] } },
{ "type": "Feature", "properties": { "enacted_district": 6, "population": 719889.0, "voting_age_pop": 553908.0, "dem_votes": 105234.0, "rep_votes": 199510.0, "minority_pop": 160113.0, "dem_pct": 0.34531934989849861, "rep_pct": 0.65468064977335705 }, "geometry": { "type": "Polygon", "coordinates": [ [ [ -87.01766000000174, 32.663269000002856 ], [ -87.01776200000235, 32.729532000003019 ], [ -87.017763000002276, 32.741861000002551 ], [ -87.01915700000221, 32.837034000002788 ], [ -87.098183000002521, 32.836008000002792 ], [ -87.116315000002501, 32.835597000002885 ], [ -87.212528000002521, 32.835172000002572 ], [ -87.319184000001869, 32.831522000003162 ], [ -87.31947300000229, 32.875124000002593 ], [ -87.421200000001718, 32.874508000002521 ], [ -87.420798000001753, 32.926163000002582 ], [ -87.421936000001864, 33.003379000002909 ], [ -87.318539000001522, 33.006179000002476 ], [ -87.314773000002319, 33.058728000002489 ], [ -87.312265000002427, 33.086219000003325 ], [ -87.312110000002122, 33.088055000003131 ], [ -87.29942100000163, 33.110076000002671 ], [ -87.281945000001755, 33.133060000002928 ], [ -87.199317000002225, 33.130657000002898 ], [ -87.199069000002453, 33.181883000002813 ], [ -87.194897000001959, 33.199866000002764 ], [ -87.152071000002081, 33.232484000002522 ], [ -87.104101000001734, 33.221457000002957 ], [ -87.065738000002028, 33.246907000002686 ], [ -87.026846000002351, 33.246459000002574 ], [ -86.978360000002468, 33.256222000002474 ], [ -86.926167000001954, 33.278160000002963 ], [ -86.895591000002412, 33.316069000002862 ], [ -86.899832000001993, 33.341681000003192 ], [ -86.88478000000228, 33.354743000003204 ], [ -86.875759000001537, 33.353859000002799 ], [ -86.856921000002046, 33.382944000002702 ], [ -86.856924000002195, 33.383229000002757 ], [ -86.86531200000195, 33.411669000003265 ], [ -86.817711000001538, 33.446880000003141 ], [ -86.821036000001811, 33.427777000002912 ], [ -86.820477000001759, 33.428050000002827 ], [ -86.808018000001709, 33.440291000002617 ], [ -86.770191000001702, 33.466094000003189 ], [ -86.770162000001875, 33.471964000002878 ], [ -86.787238000001764, 33.474724000003157 ], [ -86.787078000001785, 33.481263000002699 ], [ -86.786879000001946, 33.484249000002706 ], [ -86.792641000001879, 33.487204000002812 ], [ -86.793157000001486, 33.488753000003157 ], [ -86.7867850000017, 33.491695000002458 ], [ -86.789249000002144, 33.50010000000281 ], [ -86.789727000001506, 33.505533000003304 ], [ -86.791524000001829, 33.509831000002684 ], [ -86.797088000002489, 33.507181000003222 ], [ -86.799292000001998, 33.515786000002585 ], [ -86.791266000002025, 33.525095000003319 ], [ -86.763633000002173, 33.526758000002914 ], [ -86.755737000002341, 33.533163000003114 ], [ -86.75299000000156, 33.53400400000281 ], [ -86.721172000002127, 33.530668000002677 ], [ -86.719824000001594, 33.538865000002502 ], [ -86.699759000001762, 33.554535000002701 ], [ -86.700310000002503, 33.555477000002746 ], [ -86.694388000002036, 33.565004000002631 ], [ -86.716481000001806, 33.57739200000308 ], [ -86.718615000001819, 33.577959000002522 ], [ -86.723489000002417, 33.59083700000258 ], [ -86.747838000002304, 33.588515000002978 ], [ -86.748418000001706, 33.577487000002563 ], [ -86.78821700000168, 33.574856000003038 ], [ -86.788478000002158, 33.574851000002603 ], [ -86.803335000002008, 33.57892800000333 ], [ -86.848319000001467, 33.587400000003015 ], [ -86.861147000002362, 33.630762000002818 ], [ -86.865305000001484, 33.630909000002752 ], [ -86.898918000001601, 33.607419000002523 ], [ -86.897151000001671, 33.593816000002882 ], [ -86.914555000002451, 33.577852000002771 ], [ -86.895839000002383, 33.548688000003267 ], [ -86.910592000001969, 33.536105000002692 ], [ -86.925778000001472, 33.548246000002486 ], [ -86.936282000002009, 33.548296000002487 ], [ -86.935088000002281, 33.527877000002825 ], [ -86.963216000001708, 33.536523000002845 ], [ -86.98546100000199, 33.538437000002709 ], [ -87.004060000001985, 33.526435000002728 ], [ -87.021993000001828, 33.550959000002919 ], [ -87.017067000001546, 33.567770000003236 ], [ -87.068508000002524, 33.568011000003075 ], [ -87.095527000001979, 33.584745000002904 ], [ -87.140905000001851, 33.582432000002818 ], [ -87.153921000002512, 33.550886000002485 ], [ -87.18651600000149, 33.556951000003259 ], [ -87.197556000001541, 33.591232000003046 ], [ -87.144473000001653, 33.628198000002541 ], [ -87.092733000001971, 33.627850000002788 ], [ -87.092641000001734, 33.654022000003152 ], [ -87.057757000002169, 33.656363000002486 ], [ -87.039818000001802, 33.687461000003218 ], [ -87.040051000002194, 33.696311000002652 ], [ -87.040638000002261, 33.728969000003325 ], [ -87.022168000001642, 33.772717000002622 ], [ -86.955770000002175, 33.800828000003023 ], [ -86.953664000001993, 33.815297000002644 ], [ -86.963358000002344, 33.858221000003233 ], [ -86.932324000001742, 33.8672920000025 ], [ -86.91446200000189, 33.915640000003052 ], [ -86.868171000001951, 33.932767000003118 ], [ -86.859682000002266, 33.935430000002512 ], [ -86.81626700000254, 33.955610000002892 ], [ -86.763999000001519, 33.974187000002964 ], [ -86.74918800000178, 33.99759600000268 ], [ -86.736688000002431, 34.012006000003019 ], [ -86.709388000002505, 34.046846000002887 ], [ -86.695983000001988, 34.061563000003311 ], [ -86.698398000002385, 34.085030000002554 ], [ -86.656820000001616, 34.09164600000279 ], [ -86.634143000001927, 34.116281000003035 ], [ -86.594729000002118, 34.135440000002845 ], [ -86.556970000002252, 34.178850000002782 ], [ -86.541854000001592, 34.217474000002618 ], [ -86.514881000001992, 34.254370000002673 ], [ -86.453020000002041, 34.259317000002923 ], [ -86.430690000001704, 34.231891000002619 ], [ -86.41694000000173, 34.214887000003216 ], [ -86.406599000002188, 34.202514000003241 ], [ -86.346408000002327, 34.141659000002591 ], [ -86.303516000001665, 34.099073000003294 ], [ -86.324594000002008, 34.067173000002953 ], [ -86.332355000002167, 34.037800000002697 ], [ -86.332395000002293, 34.013844000002663 ], [ -86.3494930000019, 33.957253000003071 ], [ -86.325622000001701, 33.940147000002632 ], [ -86.331816000002448, 33.92300800000271 ], [ -86.339338000001462, 33.894843000003121 ], [ -86.37721400000143, 33.861903000002528 ], [ -86.399571000002041, 33.84153000000282 ], [ -86.428362000002494, 33.822882000002942 ], [ -86.484599000002191, 33.81571300000283 ], [ -86.521771000001564, 33.801901000002978 ], [ -86.577528000002147, 33.801977000003262 ], [ -86.577799000001804, 33.765316000002748 ], [ -86.542758000002436, 33.765154000003214 ], [ -86.531113000001923, 33.721243000003234 ], [ -86.525373000001949, 33.694129000002917 ], [ -86.525124000002265, 33.64870800000282 ], [ -86.551411000001977, 33.614587000003134 ], [ -86.551917000002305, 33.566247000002619 ], [ -86.551992000001974, 33.561023000002479 ], [ -86.548485000001889, 33.561381000003017 ], [ -86.516733000001651, 33.548853000002865 ], [ -86.516778000002148, 33.547106000002572 ], [ -86.516783000002491, 33.546020000003132 ], [ -86.481549000002062, 33.546073000002821 ], [ -86.481747000002358, 33.502543000002547 ], [ -86.446891000002466, 33.502395000003084 ], [ -86.413226000002183, 33.502395000003233 ], [ -86.378224000001936, 33.500239000002516 ], [ -86.378665000001618, 33.390983000003203 ], [ -86.341512000002027, 33.355489000003118 ], [ -86.367509000001732, 33.335692000003164 ], [ -86.361003000001631, 33.307170000003303 ], [ -86.360915000002407, 33.292408000003043 ], [ -86.446998000001727, 33.24258600000308 ], [ -86.458026000001553, 33.241434000002926 ], [ -86.466485000001654, 33.224489000003203 ], [ -86.462020000001687, 33.200021000002707 ], [ -86.503127000002209, 33.179144000002871 ], [ -86.484285000002131, 33.161230000002952 ], [ -86.459926000001872, 33.125117000003236 ], [ -86.489434000002063, 33.106420000002856 ], [ -86.491029000001916, 33.102944000002957 ], [ -86.512106000002362, 33.085876000003253 ], [ -86.517344000002097, 33.020566000002773 ], [ -86.553845000001715, 33.018931000003072 ], [ -86.595920000002437, 33.004346000003295 ], [ -86.59050300000213, 32.968277000002601 ], [ -86.616584000002462, 32.928010000002836 ], [ -86.664901000001819, 32.942197000003326 ], [ -86.6409130000022, 32.912353000002661 ], [ -86.675563000001858, 32.890980000003154 ], [ -86.677381000001532, 32.889851000003162 ], [ -86.63292700000197, 32.840708000002792 ], [ -86.622433000001948, 32.793776000002538 ], [ -86.571932000001638, 32.78015200000263 ], [ -86.524693000001761, 32.707057000002948 ], [ -86.560171000002029, 32.706877000003196 ], [ -86.626190000001472, 32.706381000002693 ], [ -86.693530000002227, 32.70590500000251 ], [ -86.714219000001663, 32.705694000003128 ], [ -86.731640000002159, 32.661518000003056 ], [ -86.771532000002352, 32.660717000002819 ], [ -86.917595000001555, 32.664169000002772 ], [ -87.01766000000174, 32.663269000002856 ] ] ] } },
{ "type": "Feature", "properties": { "enacted_district": 7, "population": 714542.0, "voting_age_pop": 565616.0, "dem_votes": 195371.0, "rep_votes": 97745.0, "minority_pop": 347388.0, "dem_pct": 0.66653133890114102, "rep_pct": 0.33346866075769704 }, "geometry": { "type": "Polygon", "coordinates": [ [ [ -88.080207000002559, 31.677064000002787 ], [ -88.087274000002409, 31.688673000002719 ], [ -88.088288000002109, 31.699303000002715 ], [ -88.265335000002409, 31.69849100000264 ], [ -88.265615000002128, 31.698488000003231 ], [ -88.31302400000196, 31.698450000002406 ], [ -88.362174000001758, 31.69824000000327 ], [ -88.464430000002309, 31.697952000002893 ], [ -88.466597000001613, 31.750035000002573 ], [ -88.471214000001822, 31.851385000002619 ], [ -88.47309100000254, 31.889616000003159 ], [ -88.46888300000164, 31.93032400000277 ], [ -88.451568000002325, 32.067339000002718 ], [ -88.436972000002214, 32.183500000003285 ], [ -88.430984000002482, 32.230811000003108 ], [ -88.421453000002543, 32.308680000002482 ], [ -88.416603000002326, 32.350138000002836 ], [ -88.390769000002095, 32.560268000002765 ], [ -88.377187000002237, 32.676166000002922 ], [ -88.364293000001936, 32.784965000003119 ], [ -88.347454000002358, 32.932738000003219 ], [ -88.340432000002465, 32.99119900000327 ], [ -88.311584000002583, 33.229759000003149 ], [ -88.308227000002432, 33.257824000002849 ], [ -88.295836000002282, 33.359137000002512 ], [ -88.29106300000177, 33.39905300000261 ], [ -88.289705000001717, 33.410302000002616 ], [ -88.278765000002053, 33.500500000002653 ], [ -88.274619000002545, 33.534008000002807 ], [ -88.144726000001555, 33.530886000003193 ], [ -88.085736000001688, 33.529072000003268 ], [ -88.050575000002141, 33.527451000002991 ], [ -88.033150000002507, 33.527126000002596 ], [ -87.946519000002326, 33.524065000002409 ], [ -87.900786000001673, 33.524658000003214 ], [ -87.898612000002061, 33.524686000002781 ], [ -87.84068300000223, 33.524839000003226 ], [ -87.838605000001948, 33.431767000003184 ], [ -87.838264000002098, 33.36123800000307 ], [ -87.838021000001589, 33.284133000003308 ], [ -87.754467000001881, 33.273245000002483 ], [ -87.731969000001612, 33.269430000002934 ], [ -87.713069000002022, 33.265347000002834 ], [ -87.638575000002277, 33.234194000003285 ], [ -87.61331600000176, 33.269253000003211 ], [ -87.605869000002428, 33.258674000003168 ], [ -87.59292600000235, 33.23992500000243 ], [ -87.576596000001771, 33.239030000003034 ], [ -87.570197000002338, 33.289645000003006 ], [ -87.542284000002269, 33.26378200000309 ], [ -87.542159000001902, 33.26373200000274 ], [ -87.510948000001505, 33.235349000002472 ], [ -87.460915000002032, 33.253103000003136 ], [ -87.450853000001587, 33.253780000002436 ], [ -87.421294000002163, 33.269641000002935 ], [ -87.394824000001762, 33.30640400000248 ], [ -87.416521000002106, 33.332496000002649 ], [ -87.412550000002042, 33.375114000003123 ], [ -87.379672000002529, 33.434694000002828 ], [ -87.341698000002239, 33.470501000002812 ], [ -87.338327000001527, 33.474072000003055 ], [ -87.285024000002466, 33.485785000002451 ], [ -87.266923000001867, 33.512929000002764 ], [ -87.230183000002299, 33.538843000003098 ], [ -87.18651600000149, 33.556951000003259 ], [ -87.153921000002512, 33.550886000002485 ], [ -87.140905000001851, 33.582432000002818 ], [ -87.095527000001979, 33.584745000002904 ], [ -87.068508000002524, 33.568011000003075 ], [ -87.017067000001546, 33.567770000003236 ], [ -87.021993000001828, 33.550959000002919 ], [ -87.004060000001985, 33.526435000002728 ], [ -86.98546100000199, 33.538437000002709 ], [ -86.963216000001708, 33.536523000002845 ], [ -86.935088000002281, 33.527877000002825 ], [ -86.936282000002009, 33.548296000002487 ], [ -86.925778000001472, 33.548246000002486 ], [ -86.910592000001969, 33.536105000002692 ], [ -86.895839000002383, 33.548688000003267 ], [ -86.914555000002451, 33.577852000002771 ], [ -86.897151000001671, 33.593816000002882 ], [ -86.898918000001601, 33.607419000002523 ], [ -86.865305000001484, 33.630909000002752 ], [ -86.861147000002362, 33.630762000002818 ], [ -86.848319000001467, 33.587400000003015 ], [ -86.803335000002008, 33.57892800000333 ], [ -86.788478000002158, 33.574851000002603 ], [ -86.78821700000168, 33.574856000003038 ], [ -86.748418000001706, 33.577487000002563 ], [ -86.747838000002304, 33.588515000002978 ], [ -86.723489000002417, 33.59083700000258 ], [ -86.718615000001819, 33.577959000002522 ], [ -86.716481000001806, 33.57739200000308 ], [ -86.694388000002036, 33.565004000002631 ], [ -86.700310000002503, 33.555477000002746 ], [ -86.699759000001762, 33.554535000002701 ], [ -86.719824000001594, 33.538865000002502 ], [ -86.721172000002127, 33.530668000002677 ], [ -86.75299000000156, 33.53400400000281 ], [ -86.755737000002341, 33.533163000003114 ], [ -86.763633000002173, 33.526758000002914 ], [ -86.791266000002025, 33.525095000003319 ], [ -86.799292000001998, 33.515786000002585 ], [ -86.797088000002489, 33.507181000003222 ], [ -86.791524000001829, 33.509831000002684 ], [ -86.789727000001506, 33.505533000003304 ], [ -86.789249000002144, 33.50010000000281 ], [ -86.7867850000017, 33.491695000002458 ], [ -86.793157000001486, 33.488753000003157 ], [ -86.792641000001879, 33.487204000002812 ], [ -86.786879000001946, 33.484249000002706 ], [ -86.787078000001785, 33.481263000002699 ], [ -86.787238000001764, 33.474724000003157 ], [ -86.770162000001875, 33.471964000002878 ], [ -86.770191000001702, 33.466094000003189 ], [ -86.808018000001709, 33.440291000002617 ], [ -86.820477000001759, 33.428050000002827 ], [ -86.821036000001811, 33.427777000002912 ], [ -86.817711000001538, 33.446880000003141 ], [ -86.86531200000195, 33.411669000003265 ], [ -86.856924000002195, 33.383229000002757 ], [ -86.856921000002046, 33.382944000002702 ], [ -86.875759000001537, 33.353859000002799 ], [ -86.88478000000228, 33.354743000003204 ], [ -86.899832000001993, 33.341681000003192 ], [ -86.895591000002412, 33.316069000002862 ], [ -86.926167000001954, 33.278160000002963 ], [ -86.978360000002468, 33.256222000002474 ], [ -87.026846000002351, 33.246459000002574 ], [ -87.065738000002028, 33.246907000002686 ], [ -87.104101000001734, 33.221457000002957 ], [ -87.152071000002081, 33.232484000002522 ], [ -87.194897000001959, 33.199866000002764 ], [ -87.199069000002453, 33.181883000002813 ], [ -87.199317000002225, 33.130657000002898 ], [ -87.281945000001755, 33.133060000002928 ], [ -87.29942100000163, 33.110076000002671 ], [ -87.312110000002122, 33.088055000003131 ], [ -87.312265000002427, 33.086219000003325 ], [ -87.314773000002319, 33.058728000002489 ], [ -87.318539000001522, 33.006179000002476 ], [ -87.421936000001864, 33.003379000002909 ], [ -87.420798000001753, 32.926163000002582 ], [ -87.421200000001718, 32.874508000002521 ], [ -87.31947300000229, 32.875124000002593 ], [ -87.319184000001869, 32.831522000003162 ], [ -87.212528000002521, 32.835172000002572 ], [ -87.116315000002501, 32.835597000002885 ], [ -87.098183000002521, 32.836008000002792 ], [ -87.01915700000221, 32.837034000002788 ], [ -87.017763000002276, 32.741861000002551 ], [ -87.01776200000235, 32.729532000003019 ], [ -87.01766000000174, 32.663269000002856 ], [ -86.917595000001555, 32.664169000002772 ], [ -86.904776000002414, 32.58771500000298 ], [ -86.906742000002353, 32.536977000002572 ], [ -86.893808000001982, 32.514221000002543 ], [ -86.88196000000228, 32.494590000003051 ], [ -86.855291000002055, 32.438512000002731 ], [ -86.8437580000015, 32.400416000002743 ], [ -86.815399000002344, 32.370821000002636 ], [ -86.814912000001939, 32.340803000002936 ], [ -86.773163000001603, 32.340728000003054 ], [ -86.78135400000194, 32.392494000003147 ], [ -86.749981000001569, 32.389105000002793 ], [ -86.727181000001735, 32.404497000002827 ], [ -86.720954000002379, 32.404812000002757 ], [ -86.717897000002509, 32.402814000002543 ], [ -86.717812000002169, 32.396001000003096 ], [ -86.719967000002001, 32.391154000002921 ], [ -86.719028000002041, 32.372059000002999 ], [ -86.711337000001734, 32.360767000002909 ], [ -86.686199000001594, 32.353735000003162 ], [ -86.677215000001681, 32.356630000002966 ], [ -86.655597000002388, 32.37614700000303 ], [ -86.653419000002287, 32.397247000003027 ], [ -86.618000000002525, 32.405717000002817 ], [ -86.614841000002158, 32.374266000002635 ], [ -86.588261000001808, 32.367749000002554 ], [ -86.542537000002085, 32.363517000002965 ], [ -86.532531000002507, 32.33877500000299 ], [ -86.496774000002404, 32.344437000003225 ], [ -86.463564000002521, 32.377288000002615 ], [ -86.456273000002142, 32.405837000002471 ], [ -86.411172000002068, 32.409937000003218 ], [ -86.401775000002417, 32.411505000003089 ], [ -86.357692000002018, 32.430636000002501 ], [ -86.319617000002495, 32.392609000002608 ], [ -86.316106000002193, 32.395601000002586 ], [ -86.305092000001622, 32.379905000003035 ], [ -86.304740000001715, 32.371885000002663 ], [ -86.270967000002344, 32.372433000002623 ], [ -86.267215000001855, 32.372467000003063 ], [ -86.281497000002204, 32.357892000002536 ], [ -86.304309000001666, 32.359141000002566 ], [ -86.30670600000218, 32.351781000003015 ], [ -86.299732000002166, 32.351892000003033 ], [ -86.260833000002066, 32.337714000002741 ], [ -86.264928000002442, 32.327453000003118 ], [ -86.264809000001591, 32.327087000002834 ], [ -86.246367000002067, 32.327164000002618 ], [ -86.245423000001523, 32.327162000003213 ], [ -86.229056000002018, 32.315688000002929 ], [ -86.239063000001735, 32.3066910000028 ], [ -86.277565000002426, 32.285379000003303 ], [ -86.307114000002315, 32.285060000002694 ], [ -86.300769000001821, 32.219544000002685 ], [ -86.344608000001728, 32.240547000002756 ], [ -86.348914000002111, 32.210790000002767 ], [ -86.389812000001911, 32.227249000002743 ], [ -86.408313000002337, 32.209980000002751 ], [ -86.408052000002343, 32.194363000003307 ], [ -86.406276000002109, 32.050731000002976 ], [ -86.405005000002305, 31.963775000002972 ], [ -86.448198000001639, 31.964629000002709 ], [ -86.539190000001568, 31.963683000002838 ], [ -86.54074200000187, 31.963684000003095 ], [ -86.584958000001492, 31.963840000003099 ], [ -86.708274000001936, 31.962641000003213 ], [ -86.709086000001989, 31.962629000003211 ], [ -86.85117300000239, 31.962177000002601 ], [ -86.857583000002236, 31.96216700000328 ], [ -86.90893900000205, 31.96167300000301 ], [ -86.908597000001791, 31.921842000002837 ], [ -86.907731000001917, 31.883864000002564 ], [ -86.90735200000195, 31.865742000002935 ], [ -86.90689900000153, 31.83062800000317 ], [ -86.989497000001691, 31.829996000002801 ], [ -87.058038000002483, 31.829429000002719 ], [ -87.162832000002169, 31.828416000003333 ], [ -87.177543000001805, 31.828481000002551 ], [ -87.232732000001732, 31.831563000002877 ], [ -87.300706000001554, 31.831197000002511 ], [ -87.381245000002338, 31.830312000002657 ], [ -87.382340000001832, 31.830274000002863 ], [ -87.500930000002199, 31.829251000002976 ], [ -87.518363000002367, 31.814386000003282 ], [ -87.516253000002521, 31.707452000003016 ], [ -87.566841000001602, 31.697115000003127 ], [ -87.566421000001554, 31.659982000002643 ], [ -87.566402000002043, 31.65804400000286 ], [ -87.565413000001641, 31.553573000002551 ], [ -87.609240000002501, 31.524110000002949 ], [ -87.621428000001757, 31.514639000003019 ], [ -87.565708000002331, 31.481683000003041 ], [ -87.577002000002352, 31.432096000003344 ], [ -87.594827000002226, 31.41507600000315 ], [ -87.665572000001987, 31.423166000003175 ], [ -87.70604500000168, 31.400957000003121 ], [ -87.725837000002002, 31.373741000003129 ], [ -87.762796000002069, 31.364280000002925 ], [ -87.784796000002416, 31.324672000002607 ], [ -87.765152000001692, 31.297346000003103 ], [ -87.7855230000022, 31.275790000002761 ], [ -87.828313000002225, 31.275304000002521 ], [ -87.841158000001883, 31.242769000003051 ], [ -87.873887000001972, 31.20149600000309 ], [ -87.913637000001842, 31.187356000003071 ], [ -87.946588000002009, 31.192930000003063 ], [ -87.938092000002356, 31.220680000002968 ], [ -87.955848000001694, 31.284605000002458 ], [ -87.924525000001921, 31.312907000003339 ], [ -87.888857000002105, 31.364023000003137 ], [ -87.907342000002004, 31.406068000002815 ], [ -87.927818000001807, 31.407842000003164 ], [ -87.911139000002109, 31.424402000002747 ], [ -87.921979000001812, 31.436537000003209 ], [ -87.907399000001604, 31.494438000003303 ], [ -87.936534000002155, 31.521947000003017 ], [ -88.007847000001902, 31.549085000002929 ], [ -88.027693000002103, 31.584251000002517 ], [ -88.069482000001898, 31.592733000002919 ], [ -88.089388000002202, 31.658747000003224 ], [ -88.078863000002386, 31.662555000002605 ], [ -88.080207000002559, 31.677064000002787 ] ] ] } }
]
}
