{
"type": "FeatureCollection",
"name": "alaska_enacted_districts",
"crs": { "type": "name", "properties": { "name": "urn:ogc:def:crs:OGC:1.3:CRS84" } },
"features": [
{ "type": "Feature", "properties": { "enacted_district": 1, "population": 733391.0, "voting_age_pop": 554003.0, "dem_votes": 117330.0, "rep_votes": 162310.0, "minority_pop": 213423.0, "dem_pct": 0.41957516792319582, "rep_pct": 0.58042483171920156 }, "geometry": { "type": "Polygon", "coordinates": [ [ [ -164.929747999999393, 54.654929000000351 ], [ -158.893482000000489, 56.999840999999627 ], [ -158.069822000000414, 58.490316999999649 ], [ -161.640249, 58.502325999999783 ], [ -162.178329000000417, 59.814842000000375 ], [ -163.784372999999533, 59.740569000000157 ], [ -166.288613000000282, 61.580809000000336 ], [ -164.906736000000308, 63.044895 ], [ -161.314357999998947, 63.519228999999704 ], [ -162.313491, 64.542788999999516 ], [ -166.281388000000362, 64.544955999999857 ], [ -168.155129000000443, 65.728350999999691 ], [ -163.626214999999092, 66.624173999999698 ], [ -164.175429000000776, 67.547598999999593 ], [ -166.942040999999222, 68.302593999999601 ], [ -163.13356099999956, 69.838702 ], [ -156.58225200000129, 71.427671000000231 ], [ -151.314976999998891, 70.463426000000268 ], [ -148.003501999998718, 70.545579000000387 ], [ -141.002781999999229, 69.703648000000101 ], [ -141.001979999999207, 60.306368999999691 ], [ -137.607355999999243, 59.243803000000298 ], [ -134.959904999999623, 59.280925999999667 ], [ -132.123567999999437, 56.873647999999825 ], [ -130.103798000000722, 56.122798 ], [ -130.726595, 54.669923000000161 ], [ -133.648903000000388, 54.632045000000183 ], [ -133.798246, 55.633231 ], [ -135.864100000000747, 56.9967 ], [ -138.25250600000038, 58.989440000000243 ], [ -142.826045, 60.051102 ], [ -145.824322999999623, 60.315117 ], [ -147.956438999999193, 59.744131000000287 ], [ -153.021179999999447, 59.002452 ], [ -156.167195999999393, 57.345851999999837 ], [ -158.000000000000654, 55.639444000000417 ], [ -159.446868000000251, 55.63853100000027 ], [ -162.365035000000347, 54.507693 ], [ -164.929747999999393, 54.654929000000351 ] ] ] } }
]
}
