{
"type": "FeatureCollection",
"name": "arizona_optimized_districts_all",
"crs": { "type": "name", "properties": { "name": "urn:ogc:def:crs:OGC:1.3:CRS84" } },
"features": [
{ "type": "Feature", "properties": { "opt_all": 1, "population": 794843.0, "voting_age_pop": 639795.0, "dem_votes": 160818.0, "rep_votes": 199934.0, "minority_pop": 216186.0, "dem_pct": 0.44578547022725157, "rep_pct": 0.55421452949554972 }, "geometry": { "type": "Polygon", "coordinates": [ [ [ -111.960970000002405, 33.472747000001398 ], [ -111.960935000001996, 33.480021000002111 ], [ -111.949855000001619, 33.487436000001878 ], [ -111.943292000002302, 33.490748000001673 ], [ -111.943298000002017, 33.502034000001437 ], [ -111.940606000002475, 33.507895000001959 ], [ -111.943233000002365, 33.516568000001428 ], [ -111.995276000002235, 33.513555000001588 ], [ -112.012892000001884, 33.518530000001789 ], [ -112.012944000001767, 33.531865000002092 ], [ -111.99517900000258, 33.531838000001457 ], [ -111.995338000002562, 33.553715000001354 ], [ -111.986446000002275, 33.560948000001829 ], [ -111.995658000001882, 33.57549800000178 ], [ -111.995729000002484, 33.586362000001664 ], [ -112.009325000002264, 33.589787000001756 ], [ -112.009590000002163, 33.589785000001925 ], [ -112.021781000001894, 33.589608000001341 ], [ -112.030503000002, 33.589487000001981 ], [ -112.038408000002164, 33.589506000002103 ], [ -112.043571000002601, 33.598202000001756 ], [ -112.039315000002077, 33.604135000001698 ], [ -112.039395000002642, 33.620315000001618 ], [ -112.060603000002644, 33.614899000001643 ], [ -112.065455000002217, 33.625765000001813 ], [ -112.065512000002684, 33.640294000001383 ], [ -112.048169000002318, 33.640390000001801 ], [ -112.039467000002517, 33.632826000001423 ], [ -112.03078000000248, 33.631886000002062 ], [ -112.030849000002604, 33.640499000001917 ], [ -112.030857000001717, 33.655041000002001 ], [ -112.022184000002085, 33.655089000002029 ], [ -112.013620000002419, 33.655133000001719 ], [ -111.996269000001874, 33.65524300000159 ], [ -111.986077000001686, 33.655217000001841 ], [ -111.977414000002355, 33.655213000001723 ], [ -111.977389000002319, 33.656264000001961 ], [ -111.968725000002195, 33.69872900000189 ], [ -111.92558100000258, 33.698714000001949 ], [ -111.925806000001941, 33.726526000001925 ], [ -111.960735000002501, 33.74111500000199 ], [ -111.934683000001698, 33.741201000001567 ], [ -111.934512000002258, 33.777572000002039 ], [ -111.960816000002353, 33.799176000001907 ], [ -111.963657000002058, 33.799166000001918 ], [ -111.908334000002142, 33.857231000001939 ], [ -111.94313100000258, 33.900378000001396 ], [ -111.995696000002155, 33.900934000002067 ], [ -112.030780000002565, 33.901120000001924 ], [ -112.065088000001978, 33.971476000001424 ], [ -112.109983000001677, 33.974559000001811 ], [ -112.145870000002034, 33.914710000001435 ], [ -112.239204000002601, 33.899237000002131 ], [ -112.264507000002283, 33.899088000001349 ], [ -112.255707000002218, 33.905425000001557 ], [ -112.202856000001944, 33.970496000001511 ], [ -112.161128000001924, 34.017717000001916 ], [ -112.099546000002675, 34.0411100000019 ], [ -112.092205000001883, 34.238219000001749 ], [ -112.199436000002194, 34.23845000000177 ], [ -112.199460000002603, 34.342353000002056 ], [ -112.3778110000016, 34.346265000001537 ], [ -112.377726000002482, 34.37515300000134 ], [ -112.36115600000214, 34.47073500000203 ], [ -112.325236000002221, 34.47068600000167 ], [ -112.203339000002003, 34.470874000001686 ], [ -112.126643000001678, 34.456232000001471 ], [ -111.9853340000016, 34.456358000001998 ], [ -111.974302000001884, 34.645285000001415 ], [ -111.905560000002396, 34.598445000001512 ], [ -111.905612000001739, 34.554750000001647 ], [ -111.815597000002484, 34.496221000001398 ], [ -111.76685600000198, 34.496400000001593 ], [ -111.724994000002397, 34.612077000001534 ], [ -111.71480200000164, 34.672883000001505 ], [ -111.774904000001982, 34.732684000001569 ], [ -111.685569000002559, 34.803522000001813 ], [ -111.592947000002383, 34.802575000001291 ], [ -111.612987000002022, 34.864759000001797 ], [ -111.577429000001601, 34.907502000001969 ], [ -111.606252000001845, 34.967876000001283 ], [ -111.593121000001844, 35.079766000001797 ], [ -111.650804000001742, 35.122713000002143 ], [ -111.599713000002566, 35.122940000001911 ], [ -111.598129000002004, 35.150484000001448 ], [ -111.524580000002658, 35.173704000001734 ], [ -111.528011000002337, 35.215649000001534 ], [ -111.542779000002298, 35.240141000001479 ], [ -111.570699000001724, 35.239863000001769 ], [ -111.577800000001716, 35.239888000001635 ], [ -111.542953000001717, 35.277700000002021 ], [ -111.542198000002344, 35.284080000001879 ], [ -111.544933000001819, 35.329438000001737 ], [ -111.462546000001922, 35.304392000001499 ], [ -111.425495000001916, 35.328923000001595 ], [ -111.4110300000021, 35.408564000001313 ], [ -111.333328000001757, 35.431831000001466 ], [ -111.242827000002521, 35.436328000001609 ], [ -111.24361400000204, 35.156305000001531 ], [ -110.908022000002646, 35.156359000001444 ], [ -110.750692000002033, 35.170174000002064 ], [ -110.750692000002118, 35.383785000001467 ], [ -110.750691000002163, 35.387182000001538 ], [ -110.750693000001846, 35.639807000001454 ], [ -110.750695000001954, 35.646678000001927 ], [ -110.75069300000176, 35.653007000001956 ], [ -110.750695000002636, 35.977484000001411 ], [ -110.750698000002558, 36.165944000001517 ], [ -110.750698000002657, 36.508871000001832 ], [ -110.750693000002641, 36.738537000001934 ], [ -110.750690000002038, 37.003007000001467 ], [ -110.467308000002106, 36.997669000001707 ], [ -110.17576100000224, 36.9982510000019 ], [ -110.000688000001958, 36.998349000001738 ], [ -109.699231000001845, 36.998282000001772 ], [ -109.447073000002362, 36.999152000001359 ], [ -109.327545000002473, 36.999310000002005 ], [ -109.045172000002324, 36.998977000002192 ], [ -109.045376000001795, 36.780832000001965 ], [ -109.045661000002553, 36.473307000002052 ], [ -109.046108000001638, 36.141021000001487 ], [ -109.046130000001924, 35.860005000002147 ], [ -109.046291000002313, 35.718814000002048 ], [ -109.046482000001959, 35.546199000001593 ], [ -109.046833000002437, 35.423337000001489 ], [ -109.046001000002434, 35.166891000002018 ], [ -109.046006000002293, 34.904161000001594 ], [ -109.046305000002505, 34.477520000001888 ], [ -109.046521000002684, 34.387319000002314 ], [ -109.046783000002037, 34.166941000001906 ], [ -109.04688800000244, 34.096078000002244 ], [ -109.046836000002017, 34.045353000001953 ], [ -109.046898000001761, 33.916112000002293 ], [ -109.046717000002744, 33.777407000002079 ], [ -109.047549000002363, 33.107390000001487 ], [ -109.047620000002695, 32.816648000001543 ], [ -109.047918000002085, 32.426376000001724 ], [ -109.048685000002635, 32.072315000002142 ], [ -109.049954000002202, 31.5922960000023 ], [ -109.050033000002401, 31.33234800000206 ], [ -109.494488000002761, 31.333979000002241 ], [ -109.511591000002497, 31.333990000001787 ], [ -109.545689000002298, 31.334015000002363 ], [ -109.573005000002183, 31.334026000001764 ], [ -109.782879000002183, 31.334320000001465 ], [ -109.918400000002137, 31.334069000001691 ], [ -110.003087000002722, 31.334063000002157 ], [ -110.459751000002043, 31.332914000002191 ], [ -110.459920000001958, 31.428090000001639 ], [ -110.460788000001799, 31.555952000001927 ], [ -110.345886000002096, 31.435083000001647 ], [ -110.291377000002313, 31.487364000002273 ], [ -110.284210000002446, 31.496337000001603 ], [ -110.257388000002337, 31.496386000001689 ], [ -110.257374000002201, 31.510853000001543 ], [ -110.231807000002206, 31.511001000001691 ], [ -110.231966000001918, 31.496433000001613 ], [ -110.189679000002201, 31.583073000001484 ], [ -110.174595000002483, 31.62619700000187 ], [ -110.178642000002753, 31.642610000001856 ], [ -110.178035000002353, 31.701749000002163 ], [ -110.214788000001874, 31.774403000001495 ], [ -110.350290000002161, 31.781562000001564 ], [ -110.341343000001714, 31.901090000001684 ], [ -110.24694400000196, 31.949060000001708 ], [ -110.279501000002639, 31.978164000001616 ], [ -110.315742000002359, 32.046188000002154 ], [ -110.372343000002317, 32.078000000001502 ], [ -110.425952000002098, 32.053316000001864 ], [ -110.451537000001878, 32.07698900000203 ], [ -110.451002000002759, 32.427546000001982 ], [ -110.451522000002441, 32.513995000001742 ], [ -110.448586000002365, 32.643271000002166 ], [ -110.448616000001806, 32.702261000002032 ], [ -110.448533000002058, 32.771159000001845 ], [ -110.449387000002204, 32.988178000001803 ], [ -110.449389000002043, 32.990160000002042 ], [ -110.449162000002602, 33.161651000002244 ], [ -110.449021000002375, 33.194526000001531 ], [ -110.504733000002474, 33.186248000001811 ], [ -110.593837000001926, 33.133848000001414 ], [ -110.634412000002285, 33.142366000001779 ], [ -110.706223000001842, 33.083731000001364 ], [ -110.70639400000212, 33.169981000001776 ], [ -110.752774000002447, 33.170561000001491 ], [ -110.738083000002206, 33.251857000001692 ], [ -110.71757700000208, 33.367714000001747 ], [ -110.70811900000254, 33.421425000001562 ], [ -110.780869000001687, 33.400042000001783 ], [ -110.791437000001977, 33.401620000002175 ], [ -110.796845000002634, 33.413387000002068 ], [ -110.804925000002598, 33.423645000001663 ], [ -110.829900000002397, 33.42243500000145 ], [ -110.830202000002345, 33.415537000001486 ], [ -110.815295000001939, 33.412636000001775 ], [ -110.803456000002498, 33.416866000001512 ], [ -110.806396000002437, 33.401669000002123 ], [ -110.803675000002201, 33.396881000001798 ], [ -110.844021000001959, 33.37887700000168 ], [ -110.870451000002703, 33.378950000001822 ], [ -110.860053000002281, 33.403539000001409 ], [ -110.981246000001633, 33.35457700000179 ], [ -111.03997600000244, 33.466019000001474 ], [ -111.06089700000264, 33.465696000002048 ], [ -111.269748000002167, 33.465919000001591 ], [ -111.44216500000266, 33.46589800000158 ], [ -111.480124000002405, 33.465884000001822 ], [ -111.563553000002486, 33.465837000001727 ], [ -111.580634000001922, 33.465800000002133 ], [ -111.580636000001874, 33.443840000002211 ], [ -111.634221000001673, 33.451482000001675 ], [ -111.672495000002456, 33.451451000001697 ], [ -111.681541000002042, 33.466323000001893 ], [ -111.632581000002403, 33.494993000002175 ], [ -111.68390700000208, 33.49534800000206 ], [ -111.684130000001801, 33.504773000002139 ], [ -111.735213000002275, 33.485341000001355 ], [ -111.738045000002515, 33.484671000001633 ], [ -111.78729900000252, 33.480908000002017 ], [ -111.787284000002046, 33.466403000002089 ], [ -111.835399000001701, 33.458774000001789 ], [ -111.892043000002118, 33.436763000001463 ], [ -111.909647000002479, 33.436755000002115 ], [ -111.909279000001703, 33.451281000001799 ], [ -111.92646100000168, 33.451245000001457 ], [ -111.92634400000216, 33.458502000001623 ], [ -111.939407000002006, 33.458306000002146 ], [ -111.939109000001778, 33.465278000001881 ], [ -111.943544000001694, 33.472923000001309 ], [ -111.960970000002405, 33.472747000001398 ] ] ] } },
{ "type": "Feature", "properties": { "opt_all": 2, "population": 796486.0, "voting_age_pop": 644199.0, "dem_votes": 117502.0, "rep_votes": 181505.0, "minority_pop": 228113.0, "dem_pct": 0.39297407739853113, "rep_pct": 0.60702592226702856 }, "geometry": { "type": "Polygon", "coordinates": [ [ [ -114.795318000001757, 32.551287000001693 ], [ -114.809437000002447, 32.615986000001691 ], [ -114.746844000001715, 32.66902000000119 ], [ -114.702223000002405, 32.745410000001165 ], [ -114.665494000002525, 32.733997000001729 ], [ -114.650358000002583, 32.733018000001501 ], [ -114.640438000001822, 32.731854000001917 ], [ -114.615670000001927, 32.72845400000179 ], [ -114.526856000001516, 32.757094000001331 ], [ -114.5316690000016, 32.791185000001228 ], [ -114.46567800000156, 32.874075000002072 ], [ -114.462929000002418, 32.907944000001642 ], [ -114.516842000001859, 33.027886000001452 ], [ -114.670803000002124, 33.037983000001446 ], [ -114.707896000001838, 33.097431000001862 ], [ -114.679350000001875, 33.162433000001322 ], [ -114.67703200000156, 33.270169000001943 ], [ -114.731223000001521, 33.302433000001351 ], [ -114.700938000002083, 33.337014000001936 ], [ -114.720065000001881, 33.407891000001207 ], [ -114.62288900000236, 33.445524000002038 ], [ -114.589246000002234, 33.501813000001974 ], [ -114.524215000002343, 33.553068000001701 ], [ -114.524908000001616, 33.638849000001741 ], [ -114.496489000002001, 33.696901000001425 ], [ -114.529597000002497, 33.84806300000178 ], [ -114.534146000002167, 33.925187000001578 ], [ -114.438266000002159, 34.022609000001594 ], [ -114.434353000002034, 34.086499000001972 ], [ -114.2290230000024, 34.187427000001186 ], [ -114.164476000001514, 34.251667000001632 ], [ -114.138282000002363, 34.30323000000174 ], [ -114.339627000001997, 34.451435000001538 ], [ -114.380638000002193, 34.501004000001338 ], [ -114.382229000002241, 34.531828000001475 ], [ -114.435671000002074, 34.593841000001639 ], [ -114.442363000002203, 34.644153000001559 ], [ -114.487777000001998, 34.71721900000172 ], [ -114.574851000002084, 34.808121000001364 ], [ -114.636768000001524, 34.885705000001693 ], [ -114.617491000002204, 35.05170300000151 ], [ -114.642831000001806, 35.096503000001547 ], [ -114.578263000002181, 35.128810000001693 ], [ -114.569529000001566, 35.162317000001231 ], [ -114.595163000001705, 35.321883000001286 ], [ -114.627325000001676, 35.410193000001968 ], [ -114.663935000001956, 35.454077000001341 ], [ -114.653927000001602, 35.611739000001293 ], [ -114.689481000002417, 35.651370000001862 ], [ -114.70811200000216, 35.909933000001303 ], [ -114.740536000001981, 35.975545000001588 ], [ -114.723324000002194, 36.026588000001126 ], [ -114.754508000002119, 36.0861710000014 ], [ -114.627079000002283, 36.140761000001923 ], [ -114.50810400000222, 36.149713000001363 ], [ -114.50471500000144, 36.127188000001745 ], [ -114.370181000001878, 36.142624000001938 ], [ -114.243865000001477, 36.015266000001944 ], [ -114.163110000002504, 36.026618000001413 ], [ -114.145907000001841, 36.027229000001419 ], [ -114.066798000002279, 36.179087000001651 ], [ -114.043944000002156, 36.193350000001331 ], [ -114.04993500000144, 36.709521000001395 ], [ -114.05005200000204, 37.000191000001699 ], [ -113.121131000002478, 37.000062000001918 ], [ -112.829503000001921, 37.000516000001689 ], [ -112.538571000001724, 37.000758000001937 ], [ -112.033972000002123, 37.001098000001903 ], [ -111.411676000002402, 37.001501000001383 ], [ -110.750690000002038, 37.003007000001467 ], [ -110.750693000002641, 36.738537000001934 ], [ -110.750698000002657, 36.508871000001832 ], [ -110.750698000002558, 36.165944000001517 ], [ -110.750695000002636, 35.977484000001411 ], [ -110.75069300000176, 35.653007000001956 ], [ -110.750695000001954, 35.646678000001927 ], [ -110.750693000001846, 35.639807000001454 ], [ -110.750691000002163, 35.387182000001538 ], [ -110.750692000002118, 35.383785000001467 ], [ -110.750692000002033, 35.170174000002064 ], [ -110.908022000002646, 35.156359000001444 ], [ -111.24361400000204, 35.156305000001531 ], [ -111.242827000002521, 35.436328000001609 ], [ -111.333328000001757, 35.431831000001466 ], [ -111.4110300000021, 35.408564000001313 ], [ -111.425495000001916, 35.328923000001595 ], [ -111.462546000001922, 35.304392000001499 ], [ -111.544933000001819, 35.329438000001737 ], [ -111.542198000002344, 35.284080000001879 ], [ -111.542953000001717, 35.277700000002021 ], [ -111.577800000001716, 35.239888000001635 ], [ -111.570699000001724, 35.239863000001769 ], [ -111.542779000002298, 35.240141000001479 ], [ -111.528011000002337, 35.215649000001534 ], [ -111.524580000002658, 35.173704000001734 ], [ -111.598129000002004, 35.150484000001448 ], [ -111.599713000002566, 35.122940000001911 ], [ -111.650804000001742, 35.122713000002143 ], [ -111.593121000001844, 35.079766000001797 ], [ -111.606252000001845, 34.967876000001283 ], [ -111.577429000001601, 34.907502000001969 ], [ -111.612987000002022, 34.864759000001797 ], [ -111.592947000002383, 34.802575000001291 ], [ -111.685569000002559, 34.803522000001813 ], [ -111.774904000001982, 34.732684000001569 ], [ -111.71480200000164, 34.672883000001505 ], [ -111.724994000002397, 34.612077000001534 ], [ -111.76685600000198, 34.496400000001593 ], [ -111.815597000002484, 34.496221000001398 ], [ -111.905612000001739, 34.554750000001647 ], [ -111.905560000002396, 34.598445000001512 ], [ -111.974302000001884, 34.645285000001415 ], [ -111.9853340000016, 34.456358000001998 ], [ -112.126643000001678, 34.456232000001471 ], [ -112.203339000002003, 34.470874000001686 ], [ -112.325236000002221, 34.47068600000167 ], [ -112.36115600000214, 34.47073500000203 ], [ -112.377726000002482, 34.37515300000134 ], [ -112.3778110000016, 34.346265000001537 ], [ -112.199460000002603, 34.342353000002056 ], [ -112.199436000002194, 34.23845000000177 ], [ -112.092205000001883, 34.238219000001749 ], [ -112.099546000002675, 34.0411100000019 ], [ -112.161128000001924, 34.017717000001916 ], [ -112.202856000001944, 33.970496000001511 ], [ -112.255707000002218, 33.905425000001557 ], [ -112.264507000002283, 33.899088000001349 ], [ -112.341876000001875, 33.898958000001414 ], [ -112.42310300000166, 33.919456000002064 ], [ -112.501039000001967, 33.939233000001401 ], [ -112.685010000002038, 33.985192000001319 ], [ -112.824219000001605, 33.999919000001306 ], [ -113.037754000002593, 34.000036000001693 ], [ -113.333313000002434, 34.000039000001607 ], [ -113.335053000002375, 33.725221000001255 ], [ -113.335057000002124, 33.638626000001267 ], [ -113.335057000002365, 33.566543000001822 ], [ -113.335048000001677, 33.377469000001376 ], [ -113.333786000002306, 33.023476000001516 ], [ -113.333781000002077, 32.958267000001506 ], [ -113.333708000002403, 32.767180000001737 ], [ -113.333894000002417, 32.505188000001262 ], [ -113.333767000002354, 32.038927000001593 ], [ -113.836226000001886, 32.196076000001469 ], [ -114.563775000001598, 32.419141000002057 ], [ -114.760939000002367, 32.478693000001549 ], [ -114.782498000002022, 32.485133000001618 ], [ -114.795318000001757, 32.551287000001693 ] ] ] } },
{ "type": "Feature", "properties": { "opt_all": 3, "population": 794925.0, "voting_age_pop": 574505.0, "dem_votes": 129141.0, "rep_votes": 54135.0, "minority_pop": 407450.0, "dem_pct": 0.70462580986892676, "rep_pct": 0.29537418958544809 }, "geometry": { "type": "Polygon", "coordinates": [ [ [ -112.349185000002123, 33.261291000001805 ], [ -112.357817000002527, 33.420853000001799 ], [ -112.357922000002404, 33.424732000001697 ], [ -112.353961000002599, 33.435330000001557 ], [ -112.341047000001893, 33.457700000001971 ], [ -112.340943000002142, 33.471532000001531 ], [ -112.340938000001941, 33.478797000001251 ], [ -112.355337000002123, 33.478867000001877 ], [ -112.358005000001683, 33.485758000001937 ], [ -112.358008000002599, 33.486084000001654 ], [ -112.336288000002298, 33.49330200000157 ], [ -112.323988000001677, 33.503925000001587 ], [ -112.312825000001965, 33.493133000002025 ], [ -112.306752000002561, 33.514794000001451 ], [ -112.291722000002437, 33.522286000002076 ], [ -112.289788000001906, 33.522395000001517 ], [ -112.272481000001676, 33.508321000002077 ], [ -112.272481000001605, 33.508207000002159 ], [ -112.24636900000192, 33.508682000001407 ], [ -112.23770000000178, 33.508688000001662 ], [ -112.220463000002283, 33.508893000001464 ], [ -112.220104000001953, 33.508897000002136 ], [ -112.211329000001882, 33.50908400000214 ], [ -112.203164000001877, 33.509257000001909 ], [ -112.186359000001801, 33.509466000001588 ], [ -112.168757000002557, 33.509366000001926 ], [ -112.168638000002261, 33.523964000001705 ], [ -112.151630000001674, 33.523918000001494 ], [ -112.151573000001875, 33.538452000001413 ], [ -112.151674000002416, 33.553117000001826 ], [ -112.142914000001738, 33.553102000001999 ], [ -112.138852000001833, 33.553100000001983 ], [ -112.139047000001881, 33.547735000001929 ], [ -112.125618000001964, 33.538541000001835 ], [ -112.125569000002685, 33.52399500000152 ], [ -112.112371000001701, 33.524116000001804 ], [ -112.099703000002634, 33.524102000002017 ], [ -112.08241200000262, 33.523854000001933 ], [ -112.082454000002542, 33.516616000001278 ], [ -112.044218000002473, 33.516508000001693 ], [ -112.044030000002564, 33.516506000002089 ], [ -112.030207000002164, 33.509327000001441 ], [ -112.01289300000164, 33.518178000001335 ], [ -112.012892000001884, 33.518530000001789 ], [ -111.995276000002235, 33.513555000001588 ], [ -111.943233000002365, 33.516568000001428 ], [ -111.940606000002475, 33.507895000001959 ], [ -111.943298000002017, 33.502034000001437 ], [ -111.943292000002302, 33.490748000001673 ], [ -111.949855000001619, 33.487436000001878 ], [ -111.960935000001996, 33.480021000002111 ], [ -111.960970000002405, 33.472747000001398 ], [ -111.943544000001694, 33.472923000001309 ], [ -111.939109000001778, 33.465278000001881 ], [ -111.939407000002006, 33.458306000002146 ], [ -111.940155000002633, 33.450989000001549 ], [ -111.961012000001674, 33.448897000001921 ], [ -111.961305000001644, 33.437970000002096 ], [ -111.978480000002193, 33.434583000001595 ], [ -112.017812000001882, 33.418314000001594 ], [ -112.073790000001637, 33.445000000002025 ], [ -112.073291000001902, 33.419929000002043 ], [ -112.08220100000176, 33.418153000001418 ], [ -112.090933000002678, 33.418260000002064 ], [ -112.099515000001702, 33.410610000001576 ], [ -112.116486000002496, 33.410768000001312 ], [ -112.13389600000238, 33.410948000001753 ], [ -112.133697000001717, 33.406675000002146 ], [ -112.13359400000256, 33.392124000001857 ], [ -112.133762000001823, 33.377679000001358 ], [ -112.151040000001885, 33.377612000002117 ], [ -112.151934000002242, 33.362957000001558 ], [ -112.168274000002114, 33.377553000001818 ], [ -112.222898000001763, 33.377330000001521 ], [ -112.186354000001685, 33.341717000002049 ], [ -112.151753000001875, 33.308152000002174 ], [ -112.150635000001714, 33.2540580000014 ], [ -112.184655000002124, 33.263312000002038 ], [ -112.202087000002479, 33.24686100000153 ], [ -112.306155000002164, 33.261197000001978 ], [ -112.349185000002123, 33.261291000001805 ] ] ] } },
{ "type": "Feature", "properties": { "opt_all": 4, "population": 793030.0, "voting_age_pop": 620003.0, "dem_votes": 131822.0, "rep_votes": 133054.0, "minority_pop": 253968.0, "dem_pct": 0.49767438329721286, "rep_pct": 0.50232561632525197 }, "geometry": { "type": "Polygon", "coordinates": [ [ [ -111.945812000001922, 33.327146000001314 ], [ -111.97238900000184, 33.327085000001482 ], [ -111.972694000001923, 33.334365000001938 ], [ -111.973100000002304, 33.34906200000151 ], [ -111.97315500000208, 33.34906000000133 ], [ -111.970114000001686, 33.359844000002163 ], [ -111.956707000002439, 33.363683000001409 ], [ -111.963303000002298, 33.378094000001873 ], [ -111.967248000001661, 33.378187000002036 ], [ -111.968775000001756, 33.377211000002184 ], [ -111.978289000001794, 33.378186000001556 ], [ -111.995553000001806, 33.382935000002028 ], [ -112.014335000001878, 33.378000000001805 ], [ -112.030328000001717, 33.377751000001339 ], [ -112.038775000002303, 33.377727000002068 ], [ -112.047246000002644, 33.399638000002035 ], [ -112.047366000001674, 33.392764000001804 ], [ -112.047347000002418, 33.37774100000172 ], [ -112.064631000001896, 33.377747000002032 ], [ -112.065962000001917, 33.377744000001385 ], [ -112.090546000002078, 33.377691000001526 ], [ -112.090539000002394, 33.392245000001452 ], [ -112.090933000002678, 33.418260000002064 ], [ -112.08220100000176, 33.418153000001418 ], [ -112.073291000001902, 33.419929000002043 ], [ -112.073790000001637, 33.445000000002025 ], [ -112.017812000001882, 33.418314000001594 ], [ -111.978480000002193, 33.434583000001595 ], [ -111.961305000001644, 33.437970000002096 ], [ -111.961012000001674, 33.448897000001921 ], [ -111.940155000002633, 33.450989000001549 ], [ -111.939407000002006, 33.458306000002146 ], [ -111.92634400000216, 33.458502000001623 ], [ -111.92646100000168, 33.451245000001457 ], [ -111.909279000001703, 33.451281000001799 ], [ -111.909647000002479, 33.436755000002115 ], [ -111.892043000002118, 33.436763000001463 ], [ -111.835399000001701, 33.458774000001789 ], [ -111.787284000002046, 33.466403000002089 ], [ -111.78729900000252, 33.480908000002017 ], [ -111.738045000002515, 33.484671000001633 ], [ -111.735213000002275, 33.485341000001355 ], [ -111.684130000001801, 33.504773000002139 ], [ -111.68390700000208, 33.49534800000206 ], [ -111.632581000002403, 33.494993000002175 ], [ -111.681541000002042, 33.466323000001893 ], [ -111.672495000002456, 33.451451000001697 ], [ -111.634221000001673, 33.451482000001675 ], [ -111.580636000001874, 33.443840000002211 ], [ -111.580661000002607, 33.422331000001712 ], [ -111.580654000002482, 33.415056000001684 ], [ -111.5806540000018, 33.407809000001798 ], [ -111.580650000001782, 33.393343000001884 ], [ -111.583850000001959, 33.349764000001493 ], [ -111.583737000002245, 33.335322000001398 ], [ -111.583616000001896, 33.320871000001368 ], [ -111.58340000000176, 33.307182000001745 ], [ -111.583195000002135, 33.277383000002203 ], [ -111.634871000002221, 33.27775500000206 ], [ -111.669406000001857, 33.277896000002215 ], [ -111.686246000002683, 33.288326000001952 ], [ -111.686565000002076, 33.292628000001393 ], [ -111.688680000002321, 33.307150000001691 ], [ -111.68716200000182, 33.336084000001684 ], [ -111.68767100000224, 33.365018000001925 ], [ -111.68792200000162, 33.379385000001633 ], [ -111.697195000002324, 33.379351000002167 ], [ -111.705115000002195, 33.379320000001947 ], [ -111.719412000001725, 33.38462800000206 ], [ -111.739670000002405, 33.37921600000184 ], [ -111.75395600000256, 33.379159000002147 ], [ -111.771241000002433, 33.379064000001662 ], [ -111.782575000002154, 33.379035000001508 ], [ -111.7883540000024, 33.379012000002206 ], [ -111.807233000002242, 33.378929000001435 ], [ -111.807262000001884, 33.378929000001435 ], [ -111.82484800000222, 33.378853000001733 ], [ -111.841070000001665, 33.378791000001371 ], [ -111.841829000002505, 33.361313000001836 ], [ -111.856547000001683, 33.357022000002118 ], [ -111.859099000002075, 33.357050000002062 ], [ -111.876530000001921, 33.35686400000138 ], [ -111.893898000002523, 33.356751000001843 ], [ -111.893806000001717, 33.349357000001959 ], [ -111.893453000002438, 33.334907000002005 ], [ -111.89366400000236, 33.327573000001955 ], [ -111.911148000001873, 33.327355000001582 ], [ -111.928158000002639, 33.320128000001773 ], [ -111.945571000002261, 33.323568000001735 ], [ -111.945812000001922, 33.327146000001314 ] ] ] } },
{ "type": "Feature", "properties": { "opt_all": 5, "population": 795999.0, "voting_age_pop": 588817.0, "dem_votes": 151441.0, "rep_votes": 165127.0, "minority_pop": 232359.0, "dem_pct": 0.47838379100907741, "rep_pct": 0.52161620867503466 }, "geometry": { "type": "Polygon", "coordinates": [ [ [ -112.081946000002006, 33.204686000001551 ], [ -112.150635000001714, 33.2540580000014 ], [ -112.151753000001875, 33.308152000002174 ], [ -112.186354000001685, 33.341717000002049 ], [ -112.222898000001763, 33.377330000001521 ], [ -112.168274000002114, 33.377553000001818 ], [ -112.151934000002242, 33.362957000001558 ], [ -112.151040000001885, 33.377612000002117 ], [ -112.133762000001823, 33.377679000001358 ], [ -112.13359400000256, 33.392124000001857 ], [ -112.133697000001717, 33.406675000002146 ], [ -112.13389600000238, 33.410948000001753 ], [ -112.116486000002496, 33.410768000001312 ], [ -112.099515000001702, 33.410610000001576 ], [ -112.090933000002678, 33.418260000002064 ], [ -112.090539000002394, 33.392245000001452 ], [ -112.090546000002078, 33.377691000001526 ], [ -112.065962000001917, 33.377744000001385 ], [ -112.064631000001896, 33.377747000002032 ], [ -112.047347000002418, 33.37774100000172 ], [ -112.047366000001674, 33.392764000001804 ], [ -112.047246000002644, 33.399638000002035 ], [ -112.038775000002303, 33.377727000002068 ], [ -112.030328000001717, 33.377751000001339 ], [ -112.014335000001878, 33.378000000001805 ], [ -111.995553000001806, 33.382935000002028 ], [ -111.978289000001794, 33.378186000001556 ], [ -111.968775000001756, 33.377211000002184 ], [ -111.967248000001661, 33.378187000002036 ], [ -111.963303000002298, 33.378094000001873 ], [ -111.956707000002439, 33.363683000001409 ], [ -111.970114000001686, 33.359844000002163 ], [ -111.97315500000208, 33.34906000000133 ], [ -111.973100000002304, 33.34906200000151 ], [ -111.972694000001923, 33.334365000001938 ], [ -111.97238900000184, 33.327085000001482 ], [ -111.945812000001922, 33.327146000001314 ], [ -111.945571000002261, 33.323568000001735 ], [ -111.928158000002639, 33.320128000001773 ], [ -111.911148000001873, 33.327355000001582 ], [ -111.89366400000236, 33.327573000001955 ], [ -111.893453000002438, 33.334907000002005 ], [ -111.893806000001717, 33.349357000001959 ], [ -111.893898000002523, 33.356751000001843 ], [ -111.876530000001921, 33.35686400000138 ], [ -111.859099000002075, 33.357050000002062 ], [ -111.856547000001683, 33.357022000002118 ], [ -111.841829000002505, 33.361313000001836 ], [ -111.841070000001665, 33.378791000001371 ], [ -111.82484800000222, 33.378853000001733 ], [ -111.807262000001884, 33.378929000001435 ], [ -111.807233000002242, 33.378929000001435 ], [ -111.7883540000024, 33.379012000002206 ], [ -111.782575000002154, 33.379035000001508 ], [ -111.771241000002433, 33.379064000001662 ], [ -111.75395600000256, 33.379159000002147 ], [ -111.739670000002405, 33.37921600000184 ], [ -111.719412000001725, 33.38462800000206 ], [ -111.705115000002195, 33.379320000001947 ], [ -111.697195000002324, 33.379351000002167 ], [ -111.68792200000162, 33.379385000001633 ], [ -111.68767100000224, 33.365018000001925 ], [ -111.68716200000182, 33.336084000001684 ], [ -111.688680000002321, 33.307150000001691 ], [ -111.686565000002076, 33.292628000001393 ], [ -111.686246000002683, 33.288326000001952 ], [ -111.669406000001857, 33.277896000002215 ], [ -111.634871000002221, 33.27775500000206 ], [ -111.583195000002135, 33.277383000002203 ], [ -111.582918000002607, 33.248961000001692 ], [ -111.582736000002001, 33.219952000002031 ], [ -111.582728000002277, 33.218936000001356 ], [ -111.582726000002282, 33.218537000001398 ], [ -111.582631000002678, 33.205408000001668 ], [ -111.634445000002685, 33.205067000001954 ], [ -111.668981000002404, 33.204746000001471 ], [ -111.685911000002065, 33.204637000002194 ], [ -111.717026000002676, 33.204673000001762 ], [ -111.750797000001796, 33.204755000001349 ], [ -111.755426000001634, 33.204782000001636 ], [ -111.772587000001963, 33.204684000002082 ], [ -111.789206000001727, 33.204729000002189 ], [ -111.841074000001683, 33.203997000001394 ], [ -111.875734000002154, 33.203541000001984 ], [ -111.893085000002401, 33.204709000001479 ], [ -111.993573000001646, 33.204700000001679 ], [ -112.081946000002006, 33.204686000001551 ] ] ] } },
{ "type": "Feature", "properties": { "opt_all": 6, "population": 792737.0, "voting_age_pop": 620836.0, "dem_votes": 133388.0, "rep_votes": 161284.0, "minority_pop": 231354.0, "dem_pct": 0.45266601494113251, "rep_pct": 0.54733398471950712 }, "geometry": { "type": "Polygon", "coordinates": [ [ [ -112.60776000000196, 31.815757000002069 ], [ -113.155326000001963, 31.98250700000181 ], [ -113.333767000002354, 32.038927000001593 ], [ -113.333894000002417, 32.505188000001262 ], [ -112.93221700000214, 32.505323000001887 ], [ -112.725438000002086, 32.505370000001548 ], [ -112.574754000002315, 32.506056000001671 ], [ -112.208984000002516, 32.506723000001863 ], [ -112.20362400000208, 32.506721000001306 ], [ -112.203586000001678, 32.637807000001686 ], [ -112.203574000001638, 32.683593000001984 ], [ -112.203522000002479, 32.836221000001714 ], [ -112.203483000001967, 32.927943000001818 ], [ -112.203489000001696, 32.941732000002148 ], [ -112.202140000002075, 33.087023000001587 ], [ -112.202150000001637, 33.117743000002172 ], [ -112.202087000002479, 33.24686100000153 ], [ -112.184655000002124, 33.263312000002038 ], [ -112.150635000001714, 33.2540580000014 ], [ -112.081946000002006, 33.204686000001551 ], [ -111.993573000001646, 33.204700000001679 ], [ -111.893085000002401, 33.204709000001479 ], [ -111.875734000002154, 33.203541000001984 ], [ -111.841074000001683, 33.203997000001394 ], [ -111.789206000001727, 33.204729000002189 ], [ -111.772587000001963, 33.204684000002082 ], [ -111.755426000001634, 33.204782000001636 ], [ -111.750797000001796, 33.204755000001349 ], [ -111.717026000002676, 33.204673000001762 ], [ -111.685911000002065, 33.204637000002194 ], [ -111.668981000002404, 33.204746000001471 ], [ -111.634445000002685, 33.205067000001954 ], [ -111.582631000002678, 33.205408000001668 ], [ -111.582726000002282, 33.218537000001398 ], [ -111.582728000002277, 33.218936000001356 ], [ -111.582736000002001, 33.219952000002031 ], [ -111.582918000002607, 33.248961000001692 ], [ -111.583195000002135, 33.277383000002203 ], [ -111.58340000000176, 33.307182000001745 ], [ -111.583616000001896, 33.320871000001368 ], [ -111.583737000002245, 33.335322000001398 ], [ -111.583850000001959, 33.349764000001493 ], [ -111.580650000001782, 33.393343000001884 ], [ -111.5806540000018, 33.407809000001798 ], [ -111.580654000002482, 33.415056000001684 ], [ -111.580661000002607, 33.422331000001712 ], [ -111.580636000001874, 33.443840000002211 ], [ -111.580634000001922, 33.465800000002133 ], [ -111.563553000002486, 33.465837000001727 ], [ -111.480124000002405, 33.465884000001822 ], [ -111.44216500000266, 33.46589800000158 ], [ -111.269748000002167, 33.465919000001591 ], [ -111.06089700000264, 33.465696000002048 ], [ -111.03997600000244, 33.466019000001474 ], [ -110.981246000001633, 33.35457700000179 ], [ -110.860053000002281, 33.403539000001409 ], [ -110.870451000002703, 33.378950000001822 ], [ -110.844021000001959, 33.37887700000168 ], [ -110.803675000002201, 33.396881000001798 ], [ -110.806396000002437, 33.401669000002123 ], [ -110.803456000002498, 33.416866000001512 ], [ -110.815295000001939, 33.412636000001775 ], [ -110.830202000002345, 33.415537000001486 ], [ -110.829900000002397, 33.42243500000145 ], [ -110.804925000002598, 33.423645000001663 ], [ -110.796845000002634, 33.413387000002068 ], [ -110.791437000001977, 33.401620000002175 ], [ -110.780869000001687, 33.400042000001783 ], [ -110.70811900000254, 33.421425000001562 ], [ -110.71757700000208, 33.367714000001747 ], [ -110.738083000002206, 33.251857000001692 ], [ -110.752774000002447, 33.170561000001491 ], [ -110.70639400000212, 33.169981000001776 ], [ -110.706223000001842, 33.083731000001364 ], [ -110.634412000002285, 33.142366000001779 ], [ -110.593837000001926, 33.133848000001414 ], [ -110.504733000002474, 33.186248000001811 ], [ -110.449021000002375, 33.194526000001531 ], [ -110.449162000002602, 33.161651000002244 ], [ -110.449389000002043, 32.990160000002042 ], [ -110.449387000002204, 32.988178000001803 ], [ -110.448533000002058, 32.771159000001845 ], [ -110.448616000001806, 32.702261000002032 ], [ -110.448586000002365, 32.643271000002166 ], [ -110.652565000002326, 32.645021000002075 ], [ -110.652634000002337, 32.601542000001942 ], [ -110.705572000001723, 32.549141000002017 ], [ -110.688221000001661, 32.513796000002017 ], [ -110.785662000001736, 32.51383700000185 ], [ -110.858720000001838, 32.511223000001443 ], [ -110.893103000002355, 32.409842000002044 ], [ -110.931658000002002, 32.405592000002052 ], [ -110.961167000002646, 32.373573000001556 ], [ -110.961220000002641, 32.355202000001682 ], [ -110.942186000002565, 32.34954300000156 ], [ -110.947153000002643, 32.336014000001946 ], [ -110.960747000002542, 32.337246000002104 ], [ -110.9611420000019, 32.322878000001936 ], [ -110.961122000002476, 32.315607000001904 ], [ -110.961089000002517, 32.295357000001587 ], [ -110.961085000002399, 32.289020000001415 ], [ -110.965372000002603, 32.282937000002242 ], [ -110.98664900000216, 32.279260000001649 ], [ -111.011813000002235, 32.281701000002215 ], [ -111.017142000002195, 32.279797000001878 ], [ -111.029520000001995, 32.294221000002082 ], [ -111.045986000002642, 32.315315000001561 ], [ -111.053302000002475, 32.309395000002134 ], [ -111.062875000002194, 32.308733000001972 ], [ -111.062793000001676, 32.294217000001716 ], [ -111.033942000002696, 32.279737000001745 ], [ -111.045973000001794, 32.265314000001773 ], [ -111.062771000002684, 32.26344800000151 ], [ -111.062720000002102, 32.235607000002091 ], [ -111.079858000002105, 32.228082000001528 ], [ -111.132118000002606, 32.22082600000175 ], [ -111.102426000002083, 32.191661000002171 ], [ -111.079218000002058, 32.177466000001722 ], [ -111.062763000002562, 32.173785000001835 ], [ -111.062713000002475, 32.15530400000182 ], [ -111.062886000002536, 32.133487000001509 ], [ -111.063099000002126, 32.11906600000173 ], [ -111.063099000002083, 32.11886800000142 ], [ -111.063202000001738, 32.104422000001563 ], [ -111.019655000001919, 32.119206000001689 ], [ -111.020284000001922, 32.133823000002188 ], [ -111.020008000002605, 32.148361000001934 ], [ -111.013054000002455, 32.148409000001955 ], [ -111.011247000002399, 32.148410000001768 ], [ -111.003194000001699, 32.119571000001436 ], [ -110.991985000002273, 32.119329000001713 ], [ -110.977574000002065, 32.119442000001968 ], [ -110.968994000002155, 32.119495000001493 ], [ -110.960757000001706, 32.119515000001527 ], [ -110.960318000002161, 32.105187000002203 ], [ -110.926797000002367, 32.073027000002106 ], [ -110.886461000002342, 32.07573000000162 ], [ -110.857976000001898, 32.075671000001535 ], [ -110.858856000002504, 32.053049000001714 ], [ -110.858892000002157, 31.963065000002022 ], [ -110.944351000002158, 31.950310000001917 ], [ -110.926523000001765, 31.899187000001632 ], [ -110.957615000001894, 31.856905000002055 ], [ -110.99960500000256, 31.806317000001755 ], [ -111.010361000002476, 31.80504500000173 ], [ -111.013503000001961, 31.80437200000209 ], [ -111.039617000002082, 31.758176000002106 ], [ -111.058040000002634, 31.726230000001639 ], [ -111.158225000002446, 31.725903000001654 ], [ -111.164286000002079, 31.551165000001777 ], [ -111.163717000002663, 31.52172400000217 ], [ -111.287756000002659, 31.521099000001698 ], [ -111.366922000002475, 31.521361000002074 ], [ -111.366372000002499, 31.426061000001415 ], [ -111.623110000001759, 31.50785800000207 ], [ -112.417944000001796, 31.757188000001602 ], [ -112.60776000000196, 31.815757000002069 ] ] ] } },
{ "type": "Feature", "properties": { "opt_all": 7, "population": 795035.0, "voting_age_pop": 630801.0, "dem_votes": 179437.0, "rep_votes": 117553.0, "minority_pop": 311247.0, "dem_pct": 0.60418532590181984, "rep_pct": 0.39581467376146851 }, "geometry": { "type": "Polygon", "coordinates": [ [ [ -111.287756000002659, 31.521099000001698 ], [ -111.163717000002663, 31.52172400000217 ], [ -111.164286000002079, 31.551165000001777 ], [ -111.158225000002446, 31.725903000001654 ], [ -111.058040000002634, 31.726230000001639 ], [ -111.039617000002082, 31.758176000002106 ], [ -111.013503000001961, 31.80437200000209 ], [ -111.010361000002476, 31.80504500000173 ], [ -110.99960500000256, 31.806317000001755 ], [ -110.957615000001894, 31.856905000002055 ], [ -110.926523000001765, 31.899187000001632 ], [ -110.944351000002158, 31.950310000001917 ], [ -110.858892000002157, 31.963065000002022 ], [ -110.858856000002504, 32.053049000001714 ], [ -110.857976000001898, 32.075671000001535 ], [ -110.886461000002342, 32.07573000000162 ], [ -110.926797000002367, 32.073027000002106 ], [ -110.960318000002161, 32.105187000002203 ], [ -110.960757000001706, 32.119515000001527 ], [ -110.968994000002155, 32.119495000001493 ], [ -110.977574000002065, 32.119442000001968 ], [ -110.991985000002273, 32.119329000001713 ], [ -111.003194000001699, 32.119571000001436 ], [ -111.011247000002399, 32.148410000001768 ], [ -111.013054000002455, 32.148409000001955 ], [ -111.020008000002605, 32.148361000001934 ], [ -111.020284000001922, 32.133823000002188 ], [ -111.019655000001919, 32.119206000001689 ], [ -111.063202000001738, 32.104422000001563 ], [ -111.063099000002083, 32.11886800000142 ], [ -111.063099000002126, 32.11906600000173 ], [ -111.062886000002536, 32.133487000001509 ], [ -111.062713000002475, 32.15530400000182 ], [ -111.062763000002562, 32.173785000001835 ], [ -111.079218000002058, 32.177466000001722 ], [ -111.102426000002083, 32.191661000002171 ], [ -111.132118000002606, 32.22082600000175 ], [ -111.079858000002105, 32.228082000001528 ], [ -111.062720000002102, 32.235607000002091 ], [ -111.062771000002684, 32.26344800000151 ], [ -111.045973000001794, 32.265314000001773 ], [ -111.033942000002696, 32.279737000001745 ], [ -111.062793000001676, 32.294217000001716 ], [ -111.062875000002194, 32.308733000001972 ], [ -111.053302000002475, 32.309395000002134 ], [ -111.045986000002642, 32.315315000001561 ], [ -111.029520000001995, 32.294221000002082 ], [ -111.017142000002195, 32.279797000001878 ], [ -111.011813000002235, 32.281701000002215 ], [ -110.98664900000216, 32.279260000001649 ], [ -110.965372000002603, 32.282937000002242 ], [ -110.961085000002399, 32.289020000001415 ], [ -110.961089000002517, 32.295357000001587 ], [ -110.961122000002476, 32.315607000001904 ], [ -110.9611420000019, 32.322878000001936 ], [ -110.960747000002542, 32.337246000002104 ], [ -110.947153000002643, 32.336014000001946 ], [ -110.942186000002565, 32.34954300000156 ], [ -110.961220000002641, 32.355202000001682 ], [ -110.961167000002646, 32.373573000001556 ], [ -110.931658000002002, 32.405592000002052 ], [ -110.893103000002355, 32.409842000002044 ], [ -110.858720000001838, 32.511223000001443 ], [ -110.785662000001736, 32.51383700000185 ], [ -110.688221000001661, 32.513796000002017 ], [ -110.705572000001723, 32.549141000002017 ], [ -110.652634000002337, 32.601542000001942 ], [ -110.652565000002326, 32.645021000002075 ], [ -110.448586000002365, 32.643271000002166 ], [ -110.451522000002441, 32.513995000001742 ], [ -110.451002000002759, 32.427546000001982 ], [ -110.451537000001878, 32.07698900000203 ], [ -110.425952000002098, 32.053316000001864 ], [ -110.372343000002317, 32.078000000001502 ], [ -110.315742000002359, 32.046188000002154 ], [ -110.279501000002639, 31.978164000001616 ], [ -110.24694400000196, 31.949060000001708 ], [ -110.341343000001714, 31.901090000001684 ], [ -110.350290000002161, 31.781562000001564 ], [ -110.214788000001874, 31.774403000001495 ], [ -110.178035000002353, 31.701749000002163 ], [ -110.178642000002753, 31.642610000001856 ], [ -110.174595000002483, 31.62619700000187 ], [ -110.189679000002201, 31.583073000001484 ], [ -110.231966000001918, 31.496433000001613 ], [ -110.231807000002206, 31.511001000001691 ], [ -110.257374000002201, 31.510853000001543 ], [ -110.257388000002337, 31.496386000001689 ], [ -110.284210000002446, 31.496337000001603 ], [ -110.291377000002313, 31.487364000002273 ], [ -110.345886000002096, 31.435083000001647 ], [ -110.460788000001799, 31.555952000001927 ], [ -110.459920000001958, 31.428090000001639 ], [ -110.459751000002043, 31.332914000002191 ], [ -110.761001000002395, 31.333475000001439 ], [ -110.890652000002021, 31.333278000002032 ], [ -110.942891000001978, 31.332736000001759 ], [ -110.976827000001805, 31.332636000002292 ], [ -111.074980000002583, 31.332341000001495 ], [ -111.366372000002499, 31.426061000001415 ], [ -111.366922000002475, 31.521361000002074 ], [ -111.287756000002659, 31.521099000001698 ] ] ] } },
{ "type": "Feature", "properties": { "opt_all": 8, "population": 793893.0, "voting_age_pop": 608367.0, "dem_votes": 134568.0, "rep_votes": 143388.0, "minority_pop": 242991.0, "dem_pct": 0.48413417933624953, "rep_pct": 0.51586582030398132 }, "geometry": { "type": "Polygon", "coordinates": [ [ [ -112.211329000001882, 33.50908400000214 ], [ -112.220104000001953, 33.508897000002136 ], [ -112.220463000002283, 33.508893000001464 ], [ -112.23770000000178, 33.508688000001662 ], [ -112.24636900000192, 33.508682000001407 ], [ -112.272481000001605, 33.508207000002159 ], [ -112.272481000001676, 33.508321000002077 ], [ -112.289788000001906, 33.522395000001517 ], [ -112.291722000002437, 33.522286000002076 ], [ -112.274964000001802, 33.551206000001578 ], [ -112.272510000002114, 33.551361000001464 ], [ -112.255003000001921, 33.551747000001917 ], [ -112.246409000002515, 33.551935000001578 ], [ -112.211747000002447, 33.552581000001886 ], [ -112.211602000001761, 33.566855000002171 ], [ -112.203165000002485, 33.567154000001878 ], [ -112.202942000002039, 33.581695000002064 ], [ -112.202880000001656, 33.58897400000189 ], [ -112.202850000002442, 33.596213000001534 ], [ -112.202622000001639, 33.610607000001394 ], [ -112.202635000001976, 33.618359000001853 ], [ -112.215937000002583, 33.638048000001952 ], [ -112.233422000002236, 33.637996000002019 ], [ -112.236586000002163, 33.65272000000185 ], [ -112.230456000001723, 33.66703000000188 ], [ -112.220441000002324, 33.681707000001779 ], [ -112.220276000001803, 33.696294000001437 ], [ -112.202879000002483, 33.697724000002147 ], [ -112.203437000001699, 33.725037000001315 ], [ -112.203547000002217, 33.751338000001873 ], [ -112.217701000001639, 33.80490800000193 ], [ -112.134368000002127, 33.793973000002097 ], [ -112.138712000001846, 33.812746000002036 ], [ -112.082721000002167, 33.79901800000134 ], [ -112.048005000002647, 33.799043000001731 ], [ -112.021568000002176, 33.799128000001879 ], [ -112.030590000002476, 33.871651000001684 ], [ -112.030780000002565, 33.901120000001924 ], [ -111.995696000002155, 33.900934000002067 ], [ -111.94313100000258, 33.900378000001396 ], [ -111.908334000002142, 33.857231000001939 ], [ -111.963657000002058, 33.799166000001918 ], [ -111.960816000002353, 33.799176000001907 ], [ -111.934512000002258, 33.777572000002039 ], [ -111.934683000001698, 33.741201000001567 ], [ -111.960735000002501, 33.74111500000199 ], [ -111.925806000001941, 33.726526000001925 ], [ -111.92558100000258, 33.698714000001949 ], [ -111.968725000002195, 33.69872900000189 ], [ -111.977389000002319, 33.656264000001961 ], [ -111.977414000002355, 33.655213000001723 ], [ -111.986077000001686, 33.655217000001841 ], [ -111.996269000001874, 33.65524300000159 ], [ -112.013620000002419, 33.655133000001719 ], [ -112.022184000002085, 33.655089000002029 ], [ -112.030857000001717, 33.655041000002001 ], [ -112.030849000002604, 33.640499000001917 ], [ -112.03078000000248, 33.631886000002062 ], [ -112.039467000002517, 33.632826000001423 ], [ -112.048169000002318, 33.640390000001801 ], [ -112.065512000002684, 33.640294000001383 ], [ -112.065455000002217, 33.625765000001813 ], [ -112.060603000002644, 33.614899000001643 ], [ -112.039395000002642, 33.620315000001618 ], [ -112.039315000002077, 33.604135000001698 ], [ -112.043571000002601, 33.598202000001756 ], [ -112.038408000002164, 33.589506000002103 ], [ -112.030503000002, 33.589487000001981 ], [ -112.021781000001894, 33.589608000001341 ], [ -112.009590000002163, 33.589785000001925 ], [ -112.009325000002264, 33.589787000001756 ], [ -111.995729000002484, 33.586362000001664 ], [ -111.995658000001882, 33.57549800000178 ], [ -111.986446000002275, 33.560948000001829 ], [ -111.995338000002562, 33.553715000001354 ], [ -111.99517900000258, 33.531838000001457 ], [ -112.012944000001767, 33.531865000002092 ], [ -112.012892000001884, 33.518530000001789 ], [ -112.01289300000164, 33.518178000001335 ], [ -112.030207000002164, 33.509327000001441 ], [ -112.044030000002564, 33.516506000002089 ], [ -112.044218000002473, 33.516508000001693 ], [ -112.082454000002542, 33.516616000001278 ], [ -112.08241200000262, 33.523854000001933 ], [ -112.099703000002634, 33.524102000002017 ], [ -112.112371000001701, 33.524116000001804 ], [ -112.125569000002685, 33.52399500000152 ], [ -112.125618000001964, 33.538541000001835 ], [ -112.139047000001881, 33.547735000001929 ], [ -112.138852000001833, 33.553100000001983 ], [ -112.142914000001738, 33.553102000001999 ], [ -112.151674000002416, 33.553117000001826 ], [ -112.151573000001875, 33.538452000001413 ], [ -112.151630000001674, 33.523918000001494 ], [ -112.168638000002261, 33.523964000001705 ], [ -112.168757000002557, 33.509366000001926 ], [ -112.186359000001801, 33.509466000001588 ], [ -112.203164000001877, 33.509257000001909 ], [ -112.211329000001882, 33.50908400000214 ] ] ] } },
{ "type": "Feature", "properties": { "opt_all": 9, "population": 794554.0, "voting_age_pop": 614653.0, "dem_votes": 119806.0, "rep_votes": 185797.0, "minority_pop": 200214.0, "dem_pct": 0.39203149170916796, "rep_pct": 0.60796850796361013 }, "geometry": { "type": "Polygon", "coordinates": [ [ [ -112.93221700000214, 32.505323000001887 ], [ -113.333894000002417, 32.505188000001262 ], [ -113.333708000002403, 32.767180000001737 ], [ -113.333781000002077, 32.958267000001506 ], [ -113.333786000002306, 33.023476000001516 ], [ -113.335048000001677, 33.377469000001376 ], [ -113.335057000002365, 33.566543000001822 ], [ -113.335057000002124, 33.638626000001267 ], [ -113.335053000002375, 33.725221000001255 ], [ -113.333313000002434, 34.000039000001607 ], [ -113.037754000002593, 34.000036000001693 ], [ -112.824219000001605, 33.999919000001306 ], [ -112.685010000002038, 33.985192000001319 ], [ -112.501039000001967, 33.939233000001401 ], [ -112.42310300000166, 33.919456000002064 ], [ -112.341876000001875, 33.898958000001414 ], [ -112.264507000002283, 33.899088000001349 ], [ -112.239204000002601, 33.899237000002131 ], [ -112.145870000002034, 33.914710000001435 ], [ -112.109983000001677, 33.974559000001811 ], [ -112.065088000001978, 33.971476000001424 ], [ -112.030780000002565, 33.901120000001924 ], [ -112.030590000002476, 33.871651000001684 ], [ -112.021568000002176, 33.799128000001879 ], [ -112.048005000002647, 33.799043000001731 ], [ -112.082721000002167, 33.79901800000134 ], [ -112.138712000001846, 33.812746000002036 ], [ -112.134368000002127, 33.793973000002097 ], [ -112.217701000001639, 33.80490800000193 ], [ -112.203547000002217, 33.751338000001873 ], [ -112.203437000001699, 33.725037000001315 ], [ -112.202879000002483, 33.697724000002147 ], [ -112.220276000001803, 33.696294000001437 ], [ -112.220441000002324, 33.681707000001779 ], [ -112.230456000001723, 33.66703000000188 ], [ -112.236586000002163, 33.65272000000185 ], [ -112.233422000002236, 33.637996000002019 ], [ -112.215937000002583, 33.638048000001952 ], [ -112.202635000001976, 33.618359000001853 ], [ -112.202622000001639, 33.610607000001394 ], [ -112.202850000002442, 33.596213000001534 ], [ -112.202880000001656, 33.58897400000189 ], [ -112.202942000002039, 33.581695000002064 ], [ -112.203165000002485, 33.567154000001878 ], [ -112.211602000001761, 33.566855000002171 ], [ -112.211747000002447, 33.552581000001886 ], [ -112.246409000002515, 33.551935000001578 ], [ -112.255003000001921, 33.551747000001917 ], [ -112.272510000002114, 33.551361000001464 ], [ -112.274964000001802, 33.551206000001578 ], [ -112.291722000002437, 33.522286000002076 ], [ -112.306752000002561, 33.514794000001451 ], [ -112.312825000001965, 33.493133000002025 ], [ -112.323988000001677, 33.503925000001587 ], [ -112.336288000002298, 33.49330200000157 ], [ -112.358008000002599, 33.486084000001654 ], [ -112.358005000001683, 33.485758000001937 ], [ -112.355337000002123, 33.478867000001877 ], [ -112.340938000001941, 33.478797000001251 ], [ -112.340943000002142, 33.471532000001531 ], [ -112.341047000001893, 33.457700000001971 ], [ -112.353961000002599, 33.435330000001557 ], [ -112.357922000002404, 33.424732000001697 ], [ -112.357817000002527, 33.420853000001799 ], [ -112.349185000002123, 33.261291000001805 ], [ -112.306155000002164, 33.261197000001978 ], [ -112.202087000002479, 33.24686100000153 ], [ -112.202150000001637, 33.117743000002172 ], [ -112.202140000002075, 33.087023000001587 ], [ -112.203489000001696, 32.941732000002148 ], [ -112.203483000001967, 32.927943000001818 ], [ -112.203522000002479, 32.836221000001714 ], [ -112.203574000001638, 32.683593000001984 ], [ -112.203586000001678, 32.637807000001686 ], [ -112.20362400000208, 32.506721000001306 ], [ -112.208984000002516, 32.506723000001863 ], [ -112.574754000002315, 32.506056000001671 ], [ -112.725438000002086, 32.505370000001548 ], [ -112.93221700000214, 32.505323000001887 ] ] ] } }
]
}
