{
"type": "FeatureCollection",
"name": "arizona_enacted_districts",
"crs": { "type": "name", "properties": { "name": "urn:ogc:def:crs:OGC:1.3:CRS84" } },
"features": [
{ "type": "Feature", "properties": { "enacted_district": 1, "population": 784753.0, "voting_age_pop": 642288.0, "dem_votes": 173217.0, "rep_votes": 192842.0, "minority_pop": 170758.0, "dem_pct": 0.47319421173275505, "rep_pct": 0.52680578799406497 }, "geometry": { "type": "Polygon", "coordinates": [ [ [ -112.012909000002324, 33.473112000001386 ], [ -112.021554000002382, 33.480398000001436 ], [ -112.012910000002421, 33.480491000001699 ], [ -112.008583000001593, 33.495210000002167 ], [ -112.030200000002196, 33.498435000001962 ], [ -112.043581000001979, 33.498354000001683 ], [ -112.043534000002481, 33.501337000001442 ], [ -112.044277000001955, 33.509200000001663 ], [ -112.044030000002564, 33.516506000002089 ], [ -112.044218000002473, 33.516508000001693 ], [ -112.082454000002542, 33.516616000001278 ], [ -112.08241200000262, 33.523854000001933 ], [ -112.099703000002634, 33.524102000002017 ], [ -112.099575000002034, 33.538642000001822 ], [ -112.099675000002563, 33.553078000001307 ], [ -112.099657000002395, 33.560431000001543 ], [ -112.0996160000022, 33.56760900000188 ], [ -112.117192000001765, 33.567583000001591 ], [ -112.117112000002237, 33.571146000001548 ], [ -112.116834000002299, 33.581974000001665 ], [ -112.116716000002, 33.596422000001638 ], [ -112.099655000001675, 33.602308000001337 ], [ -112.099637000002062, 33.611092000002131 ], [ -112.099684000002355, 33.624182000001696 ], [ -112.0996890000023, 33.625609000001347 ], [ -112.09969100000238, 33.640134000001623 ], [ -112.09975300000238, 33.654733000001549 ], [ -112.099783000002503, 33.669542000002103 ], [ -112.099899000002438, 33.725638000002149 ], [ -112.066271000002359, 33.725861000001473 ], [ -112.065723000002237, 33.701641000001722 ], [ -112.031108000001893, 33.680759000001991 ], [ -112.025688000001878, 33.699368000001378 ], [ -112.008376000001761, 33.726493000001383 ], [ -111.995441000001762, 33.747686000001401 ], [ -111.995518000002377, 33.770046000001493 ], [ -111.995684000002584, 33.799091000001503 ], [ -112.021568000002176, 33.799128000001879 ], [ -112.030590000002476, 33.871651000001684 ], [ -112.030780000002565, 33.901120000001924 ], [ -111.995696000002155, 33.900934000002067 ], [ -111.996196000001845, 34.029866000001981 ], [ -111.86199700000256, 34.01510800000132 ], [ -111.711041000002439, 34.000048000001762 ], [ -111.49498800000184, 33.999950000001569 ], [ -111.440355000002143, 33.996416000001624 ], [ -111.449208000002656, 33.944126000001816 ], [ -111.449280000002474, 33.943749000001375 ], [ -111.372317000001857, 33.823924000001988 ], [ -111.386812000002323, 33.75004400000163 ], [ -111.336369000001767, 33.720355000001511 ], [ -111.296109000002204, 33.661929000001955 ], [ -111.286490000001635, 33.657375000001636 ], [ -111.209444000002406, 33.633499000001578 ], [ -111.153354000002039, 33.677606000001845 ], [ -111.058369000002401, 33.500051000001939 ], [ -111.03997600000244, 33.466019000001474 ], [ -111.06089700000264, 33.465696000002048 ], [ -111.269748000002167, 33.465919000001591 ], [ -111.44216500000266, 33.46589800000158 ], [ -111.480124000002405, 33.465884000001822 ], [ -111.563553000002486, 33.465837000001727 ], [ -111.580634000001922, 33.465800000002133 ], [ -111.632581000002403, 33.494993000002175 ], [ -111.68390700000208, 33.49534800000206 ], [ -111.684130000001801, 33.504773000002139 ], [ -111.735213000002275, 33.485341000001355 ], [ -111.738045000002515, 33.484671000001633 ], [ -111.78729900000252, 33.480908000002017 ], [ -111.787284000002046, 33.466403000002089 ], [ -111.835399000001701, 33.458774000001789 ], [ -111.892043000002118, 33.436763000001463 ], [ -111.909647000002479, 33.436755000002115 ], [ -111.909279000001703, 33.451281000001799 ], [ -111.92646100000168, 33.451245000001457 ], [ -111.92634400000216, 33.458502000001623 ], [ -111.939407000002006, 33.458306000002146 ], [ -111.940155000002633, 33.450989000001549 ], [ -111.961012000001674, 33.448897000001921 ], [ -111.969748000001715, 33.450961000001669 ], [ -111.978429000002095, 33.451115000001558 ], [ -111.978468000001754, 33.465666000001924 ], [ -111.982280000001978, 33.465640000001898 ], [ -111.995585000001924, 33.465657000002025 ], [ -112.012918000002102, 33.465732000002134 ], [ -112.012909000002324, 33.473112000001386 ] ] ] } },
{ "type": "Feature", "properties": { "enacted_district": 2, "population": 814640.0, "voting_age_pop": 643704.0, "dem_votes": 146227.0, "rep_votes": 176141.0, "minority_pop": 256121.0, "dem_pct": 0.45360271476895886, "rep_pct": 0.54639728492083661 }, "geometry": { "type": "Polygon", "coordinates": [ [ [ -112.203489000001696, 32.941732000002148 ], [ -112.202140000002075, 33.087023000001587 ], [ -112.202150000001637, 33.117743000002172 ], [ -112.202087000002479, 33.24686100000153 ], [ -112.306155000002164, 33.261197000001978 ], [ -112.288518000001844, 33.379291000001878 ], [ -112.237122000002486, 33.388404000001373 ], [ -112.222898000001763, 33.377330000001521 ], [ -112.186354000001685, 33.341717000002049 ], [ -112.151753000001875, 33.308152000002174 ], [ -112.14791400000216, 33.30464700000158 ], [ -112.083535000002641, 33.290546000001449 ], [ -112.03194900000166, 33.290663000001729 ], [ -112.008869000001724, 33.290694000001373 ], [ -111.972209000001925, 33.290756000001906 ], [ -111.945665000002123, 33.290871000001339 ], [ -111.928686000002301, 33.290919000001573 ], [ -111.911112000001793, 33.291038000001521 ], [ -111.893596000002418, 33.291148000001861 ], [ -111.893455000002035, 33.275920000001349 ], [ -111.893276000001862, 33.261387000001612 ], [ -111.892885000002636, 33.232386000001377 ], [ -111.893098000002354, 33.219248000001613 ], [ -111.893085000002401, 33.204709000001479 ], [ -111.875734000002154, 33.203541000001984 ], [ -111.841074000001683, 33.203997000001394 ], [ -111.789206000001727, 33.204729000002189 ], [ -111.772587000001963, 33.204684000002082 ], [ -111.755426000001634, 33.204782000001636 ], [ -111.750797000001796, 33.204755000001349 ], [ -111.717026000002676, 33.204673000001762 ], [ -111.685911000002065, 33.204637000002194 ], [ -111.686032000002157, 33.117659000002135 ], [ -111.594748000001744, 33.118192000001351 ], [ -111.577660000002567, 33.132601000001941 ], [ -111.543885000002206, 33.132822000001632 ], [ -111.550617000001907, 33.147070000001918 ], [ -111.524384000001817, 33.147259000001746 ], [ -111.518882000001696, 33.136735000001998 ], [ -111.536673000002679, 33.137136000002172 ], [ -111.537877000002638, 33.132585000001342 ], [ -111.505904000002019, 33.132821000002103 ], [ -111.514600000002247, 33.14726400000179 ], [ -111.492072000001755, 33.161982000001366 ], [ -111.527370000002037, 33.161893000001456 ], [ -111.528463000001878, 33.191099000001721 ], [ -111.528752000002143, 33.234362000001667 ], [ -111.511562000002556, 33.249111000001797 ], [ -111.518097000002058, 33.292692000001665 ], [ -111.459516000002139, 33.292737000001814 ], [ -111.459402000002157, 33.344632000002193 ], [ -111.4767950000018, 33.378995000001503 ], [ -111.459554000002086, 33.407701000002191 ], [ -111.494144000001981, 33.407871000001421 ], [ -111.541633000002022, 33.42234700000202 ], [ -111.480124000002405, 33.465884000001822 ], [ -111.44216500000266, 33.46589800000158 ], [ -111.269748000002167, 33.465919000001591 ], [ -111.06089700000264, 33.465696000002048 ], [ -111.03997600000244, 33.466019000001474 ], [ -111.058369000002401, 33.500051000001939 ], [ -111.153354000002039, 33.677606000001845 ], [ -111.209444000002406, 33.633499000001578 ], [ -111.286490000001635, 33.657375000001636 ], [ -111.296109000002204, 33.661929000001955 ], [ -111.336369000001767, 33.720355000001511 ], [ -111.386812000002323, 33.75004400000163 ], [ -111.372317000001857, 33.823924000001988 ], [ -111.449280000002474, 33.943749000001375 ], [ -111.449208000002656, 33.944126000001816 ], [ -111.440355000002143, 33.996416000001624 ], [ -111.49498800000184, 33.999950000001569 ], [ -111.711041000002439, 34.000048000001762 ], [ -111.86199700000256, 34.01510800000132 ], [ -111.996196000001845, 34.029866000001981 ], [ -112.099546000002675, 34.0411100000019 ], [ -112.161128000001924, 34.017717000001916 ], [ -112.202856000001944, 33.970496000001511 ], [ -112.255707000002218, 33.905425000001557 ], [ -112.264507000002283, 33.899088000001349 ], [ -112.341876000001875, 33.898958000001414 ], [ -112.42310300000166, 33.919456000002064 ], [ -112.501039000001967, 33.939233000001401 ], [ -112.685010000002038, 33.985192000001319 ], [ -112.824219000001605, 33.999919000001306 ], [ -113.037754000002593, 34.000036000001693 ], [ -113.333313000002434, 34.000039000001607 ], [ -113.333422000002074, 34.317913000002065 ], [ -113.333181000001645, 34.415844000001456 ], [ -113.33304500000196, 34.720939000001998 ], [ -113.332878000002481, 35.141646000001451 ], [ -113.332919000002477, 35.209024000001911 ], [ -113.334105000002481, 35.508416000001567 ], [ -113.354495000001634, 35.494383000001768 ], [ -113.618655000001525, 35.494506000001607 ], [ -113.849058000002486, 35.691384000001399 ], [ -113.937503000002323, 35.645966000001906 ], [ -113.986460000002339, 35.708601000001387 ], [ -114.042876000001584, 35.724746000001844 ], [ -113.967699000001602, 35.777741000001342 ], [ -113.904629000002515, 35.787127000001377 ], [ -113.903532000001647, 36.092838000001315 ], [ -113.869520000001557, 36.054688000001939 ], [ -113.808896000001937, 36.047375000001843 ], [ -113.779659000001644, 35.991189000001775 ], [ -113.714750000002525, 35.929671000001733 ], [ -113.628225000001834, 35.822417000001728 ], [ -113.605924000001906, 35.849457000002019 ], [ -113.511010000002358, 35.766265000001731 ], [ -113.3838560000017, 35.754552000001205 ], [ -113.334024000002202, 35.803031000001567 ], [ -113.310523000002036, 35.864350000001636 ], [ -113.334850000002433, 35.913859000001246 ], [ -113.317122000002442, 35.961385000001499 ], [ -113.354176000002099, 36.040368000002005 ], [ -113.313428000002105, 36.100001000001534 ], [ -113.22491900000216, 36.091144000001577 ], [ -113.196751000002436, 36.152949000001584 ], [ -113.077375000001837, 36.199635000001862 ], [ -113.006343000002275, 36.238754000001606 ], [ -112.902949000002295, 36.253761000001894 ], [ -112.681571000002378, 36.341662000001612 ], [ -112.629490000001923, 36.391611000001248 ], [ -112.656365000001742, 36.553915000001709 ], [ -112.620946000002206, 36.595942000001529 ], [ -112.638679000001559, 36.674478000001251 ], [ -112.612234000001763, 36.736854000001955 ], [ -112.600381000001761, 36.83192800000139 ], [ -112.827371000002245, 36.83198900000162 ], [ -112.829503000001921, 37.000516000001689 ], [ -112.538571000001724, 37.000758000001937 ], [ -112.033972000002123, 37.001098000001903 ], [ -111.411676000002402, 37.001501000001383 ], [ -110.750690000002038, 37.003007000001467 ], [ -110.467308000002106, 36.997669000001707 ], [ -110.17576100000224, 36.9982510000019 ], [ -110.000688000001958, 36.998349000001738 ], [ -109.699231000001845, 36.998282000001772 ], [ -109.447073000002362, 36.999152000001359 ], [ -109.327545000002473, 36.999310000002005 ], [ -109.045172000002324, 36.998977000002192 ], [ -109.045376000001795, 36.780832000001965 ], [ -109.045661000002553, 36.473307000002052 ], [ -109.046108000001638, 36.141021000001487 ], [ -109.046130000001924, 35.860005000002147 ], [ -109.046291000002313, 35.718814000002048 ], [ -109.046482000001959, 35.546199000001593 ], [ -109.046833000002437, 35.423337000001489 ], [ -109.046001000002434, 35.166891000002018 ], [ -109.046006000002293, 34.904161000001594 ], [ -109.046305000002505, 34.477520000001888 ], [ -109.046521000002684, 34.387319000002314 ], [ -109.046783000002037, 34.166941000001906 ], [ -109.04688800000244, 34.096078000002244 ], [ -109.046836000002017, 34.045353000001953 ], [ -109.046898000001761, 33.916112000002293 ], [ -109.046717000002744, 33.777407000002079 ], [ -109.184203000002043, 33.777533000001569 ], [ -109.348581000001914, 33.77812300000155 ], [ -109.368866000002257, 33.722397000001934 ], [ -109.441782000002561, 33.713052000002044 ], [ -109.495440000002304, 33.652697000002078 ], [ -109.495740000002044, 33.078409000002061 ], [ -109.560227000002158, 33.051702000002152 ], [ -109.593709000002434, 33.016458000001677 ], [ -109.664215000002685, 33.014513000002246 ], [ -109.760266000002716, 33.07124900000219 ], [ -109.768751000002055, 33.124713000001798 ], [ -109.817460000002001, 33.118771000001409 ], [ -109.849634000001743, 33.16190900000192 ], [ -109.909720000002082, 33.162661000001599 ], [ -109.957945000001885, 33.232160000001706 ], [ -110.042591000002261, 33.273947000001904 ], [ -110.056838000002443, 33.244380000001669 ], [ -110.054746000002595, 32.877955000001585 ], [ -110.092959000002637, 32.895566000002098 ], [ -110.136748000002001, 32.95837800000163 ], [ -110.230373000002601, 32.989524000001424 ], [ -110.371725000002158, 33.006579000002205 ], [ -110.449387000002204, 32.988178000001803 ], [ -110.448533000002058, 32.771159000001845 ], [ -110.755483000001675, 32.77141400000189 ], [ -110.945063000002605, 32.771648000002209 ], [ -111.259660000002199, 32.772225000001747 ], [ -111.259647000001721, 32.762591000002011 ], [ -111.361251000002284, 32.762946000001591 ], [ -111.361475000002542, 32.849699000001635 ], [ -111.456505000002522, 32.850622000001884 ], [ -111.567571000002559, 32.850336000001391 ], [ -111.567532000001876, 32.854628000001838 ], [ -111.636728000002321, 32.847535000001535 ], [ -111.687133000002603, 32.879635000001556 ], [ -111.687049000001863, 32.894224000001699 ], [ -111.728638000001922, 32.894146000001953 ], [ -111.739957000001695, 32.894139000001523 ], [ -111.757300000002203, 32.894139000001736 ], [ -111.791568000001845, 32.898461000001966 ], [ -111.929068000002417, 32.98377600000218 ], [ -111.929273000001842, 32.893886000002013 ], [ -111.877546000002084, 32.893984000001879 ], [ -111.877573000001803, 32.828214000001879 ], [ -111.980692000002676, 32.828833000002014 ], [ -111.99773700000226, 32.901161000001935 ], [ -112.032008000001994, 32.923040000001315 ], [ -112.203483000001967, 32.927943000001818 ], [ -112.203489000001696, 32.941732000002148 ] ] ] } },
{ "type": "Feature", "properties": { "enacted_district": 3, "population": 817560.0, "voting_age_pop": 584596.0, "dem_votes": 128837.0, "rep_votes": 43242.0, "minority_pop": 443997.0, "dem_pct": 0.74870844161768235, "rep_pct": 0.25129155780118922 }, "geometry": { "type": "Polygon", "coordinates": [ [ [ -112.288518000001844, 33.379291000001878 ], [ -112.289450000001864, 33.413580000002192 ], [ -112.289699000001846, 33.435448000001351 ], [ -112.238231000002244, 33.437151000002146 ], [ -112.221087000002086, 33.437239000001448 ], [ -112.238308000002021, 33.462473000001836 ], [ -112.238186000002486, 33.465330000001586 ], [ -112.246567000002003, 33.465189000001729 ], [ -112.272537000002103, 33.464733000001473 ], [ -112.272474000002276, 33.479279000001711 ], [ -112.272473000001895, 33.479320000001351 ], [ -112.272444000002636, 33.493799000002085 ], [ -112.290218000001715, 33.49365300000192 ], [ -112.310820000002082, 33.493116000002004 ], [ -112.312825000001965, 33.493133000002025 ], [ -112.306752000002561, 33.514794000001451 ], [ -112.291722000002437, 33.522286000002076 ], [ -112.289788000001906, 33.522395000001517 ], [ -112.272481000001676, 33.508321000002077 ], [ -112.272481000001605, 33.508207000002159 ], [ -112.24636900000192, 33.508682000001407 ], [ -112.23770000000178, 33.508688000001662 ], [ -112.220463000002283, 33.508893000001464 ], [ -112.220104000001953, 33.508897000002136 ], [ -112.211329000001882, 33.50908400000214 ], [ -112.203164000001877, 33.509257000001909 ], [ -112.203140000002278, 33.516592000001936 ], [ -112.203099000001743, 33.52383900000212 ], [ -112.203105000001713, 33.531067000001372 ], [ -112.203561000001699, 33.552770000001964 ], [ -112.202833000002101, 33.552782000001429 ], [ -112.177288000002179, 33.531284000001584 ], [ -112.168638000002261, 33.523964000001705 ], [ -112.168602000002181, 33.538448000001544 ], [ -112.151573000001875, 33.538452000001413 ], [ -112.151435000002238, 33.538452000001783 ], [ -112.134332000002644, 33.538513000001672 ], [ -112.134255000001943, 33.523966000001984 ], [ -112.125569000002685, 33.52399500000152 ], [ -112.125618000001964, 33.538541000001835 ], [ -112.116908000002198, 33.538569000001374 ], [ -112.112351000001993, 33.538615000001435 ], [ -112.112371000001701, 33.524116000001804 ], [ -112.099703000002634, 33.524102000002017 ], [ -112.08241200000262, 33.523854000001933 ], [ -112.082454000002542, 33.516616000001278 ], [ -112.044218000002473, 33.516508000001693 ], [ -112.044030000002564, 33.516506000002089 ], [ -112.044277000001955, 33.509200000001663 ], [ -112.043534000002481, 33.501337000001442 ], [ -112.043581000001979, 33.498354000001683 ], [ -112.030200000002196, 33.498435000001962 ], [ -112.008583000001593, 33.495210000002167 ], [ -112.012910000002421, 33.480491000001699 ], [ -112.021554000002382, 33.480398000001436 ], [ -112.012909000002324, 33.473112000001386 ], [ -112.012918000002102, 33.465732000002134 ], [ -111.995585000001924, 33.465657000002025 ], [ -111.982280000001978, 33.465640000001898 ], [ -111.978468000001754, 33.465666000001924 ], [ -111.978429000002095, 33.451115000001558 ], [ -111.969748000001715, 33.450961000001669 ], [ -111.961012000001674, 33.448897000001921 ], [ -111.961305000001644, 33.437970000002096 ], [ -111.978480000002193, 33.434583000001595 ], [ -111.978369000002644, 33.421899000001595 ], [ -111.978310000001684, 33.411025000002041 ], [ -111.978413000002234, 33.400048000001888 ], [ -111.978289000001794, 33.378186000001556 ], [ -111.968775000001756, 33.377211000002184 ], [ -111.967248000001661, 33.378187000002036 ], [ -111.963303000002298, 33.378094000001873 ], [ -111.956707000002439, 33.363683000001409 ], [ -111.970114000001686, 33.359844000002163 ], [ -111.969259000002083, 33.363900000002005 ], [ -111.979886000001954, 33.363572000001334 ], [ -111.988612000002234, 33.356613000001886 ], [ -111.997158000002401, 33.352429000001891 ], [ -111.997201000002605, 33.348763000001853 ], [ -111.997183000002622, 33.341491000002186 ], [ -112.014458000002179, 33.338521000002146 ], [ -112.018005000002034, 33.3342210000013 ], [ -112.0491340000018, 33.334178000002076 ], [ -112.049112000002566, 33.319610000002015 ], [ -112.083617000001638, 33.312569000001339 ], [ -112.083615000002126, 33.30840000000142 ], [ -112.087636000002504, 33.305128000001822 ], [ -112.100437000002685, 33.305066000001332 ], [ -112.14791400000216, 33.30464700000158 ], [ -112.151753000001875, 33.308152000002174 ], [ -112.186354000001685, 33.341717000002049 ], [ -112.222898000001763, 33.377330000001521 ], [ -112.237122000002486, 33.388404000001373 ], [ -112.288518000001844, 33.379291000001878 ] ] ] } },
{ "type": "Feature", "properties": { "enacted_district": 4, "population": 783490.0, "voting_age_pop": 619887.0, "dem_votes": 147503.0, "rep_votes": 134721.0, "minority_pop": 252281.0, "dem_pct": 0.52264513275885638, "rep_pct": 0.47735486688681511 }, "geometry": { "type": "Polygon", "coordinates": [ [ [ -111.972209000001925, 33.290756000001906 ], [ -112.008869000001724, 33.290694000001373 ], [ -112.03194900000166, 33.290663000001729 ], [ -112.083535000002641, 33.290546000001449 ], [ -112.14791400000216, 33.30464700000158 ], [ -112.100437000002685, 33.305066000001332 ], [ -112.087636000002504, 33.305128000001822 ], [ -112.083615000002126, 33.30840000000142 ], [ -112.083617000001638, 33.312569000001339 ], [ -112.049112000002566, 33.319610000002015 ], [ -112.0491340000018, 33.334178000002076 ], [ -112.018005000002034, 33.3342210000013 ], [ -112.014458000002179, 33.338521000002146 ], [ -111.997183000002622, 33.341491000002186 ], [ -111.997201000002605, 33.348763000001853 ], [ -111.997158000002401, 33.352429000001891 ], [ -111.988612000002234, 33.356613000001886 ], [ -111.979886000001954, 33.363572000001334 ], [ -111.969259000002083, 33.363900000002005 ], [ -111.970114000001686, 33.359844000002163 ], [ -111.956707000002439, 33.363683000001409 ], [ -111.963303000002298, 33.378094000001873 ], [ -111.967248000001661, 33.378187000002036 ], [ -111.968775000001756, 33.377211000002184 ], [ -111.978289000001794, 33.378186000001556 ], [ -111.978413000002234, 33.400048000001888 ], [ -111.978310000001684, 33.411025000002041 ], [ -111.978369000002644, 33.421899000001595 ], [ -111.978480000002193, 33.434583000001595 ], [ -111.961305000001644, 33.437970000002096 ], [ -111.961012000001674, 33.448897000001921 ], [ -111.940155000002633, 33.450989000001549 ], [ -111.939407000002006, 33.458306000002146 ], [ -111.92634400000216, 33.458502000001623 ], [ -111.92646100000168, 33.451245000001457 ], [ -111.909279000001703, 33.451281000001799 ], [ -111.909647000002479, 33.436755000002115 ], [ -111.892043000002118, 33.436763000001463 ], [ -111.835399000001701, 33.458774000001789 ], [ -111.787284000002046, 33.466403000002089 ], [ -111.78729900000252, 33.480908000002017 ], [ -111.738045000002515, 33.484671000001633 ], [ -111.735213000002275, 33.485341000001355 ], [ -111.684130000001801, 33.504773000002139 ], [ -111.68390700000208, 33.49534800000206 ], [ -111.683922000001687, 33.472967000001333 ], [ -111.683938000002598, 33.466323000001481 ], [ -111.681541000002042, 33.466323000001893 ], [ -111.672495000002456, 33.451451000001697 ], [ -111.684130000001886, 33.45166900000217 ], [ -111.684212000002461, 33.444629000001939 ], [ -111.6843200000026, 33.437157000002195 ], [ -111.650014000002315, 33.422400000001403 ], [ -111.632699000002034, 33.415394000002124 ], [ -111.632718000002527, 33.407851000001521 ], [ -111.632752000002554, 33.400579000001635 ], [ -111.650136000002206, 33.407854000002175 ], [ -111.660401000001642, 33.407899000002125 ], [ -111.667487000002126, 33.407887000001431 ], [ -111.667522000002521, 33.393395000001348 ], [ -111.684732000002114, 33.393980000001562 ], [ -111.68792200000162, 33.379385000001633 ], [ -111.697195000002324, 33.379351000002167 ], [ -111.705115000002195, 33.379320000001947 ], [ -111.719412000001725, 33.38462800000206 ], [ -111.739670000002405, 33.37921600000184 ], [ -111.75395600000256, 33.379159000002147 ], [ -111.771241000002433, 33.379064000001662 ], [ -111.782575000002154, 33.379035000001508 ], [ -111.7883540000024, 33.379012000002206 ], [ -111.807233000002242, 33.378929000001435 ], [ -111.807262000001884, 33.378929000001435 ], [ -111.82484800000222, 33.378853000001733 ], [ -111.841070000001665, 33.378791000001371 ], [ -111.841829000002505, 33.361313000001836 ], [ -111.833102000002356, 33.349753000001513 ], [ -111.83310000000246, 33.340867000002035 ], [ -111.824108000001985, 33.327959000002096 ], [ -111.824191000002358, 33.327959000001343 ], [ -111.824151000002075, 33.320709000001607 ], [ -111.824109000002636, 33.306193000001791 ], [ -111.824306000001926, 33.291674000001699 ], [ -111.841668000002258, 33.291586000001949 ], [ -111.858882000002325, 33.295159000001604 ], [ -111.858850000002633, 33.291525000001506 ], [ -111.876202000001783, 33.291359000002011 ], [ -111.893596000002418, 33.291148000001861 ], [ -111.911112000001793, 33.291038000001521 ], [ -111.928686000002301, 33.290919000001573 ], [ -111.945665000002123, 33.290871000001339 ], [ -111.972209000001925, 33.290756000001906 ] ] ] } },
{ "type": "Feature", "properties": { "enacted_district": 5, "population": 795784.0, "voting_age_pop": 585784.0, "dem_votes": 122318.0, "rep_votes": 184771.0, "minority_pop": 173147.0, "dem_pct": 0.39831449501665167, "rep_pct": 0.60168550465770976 }, "geometry": { "type": "Polygon", "coordinates": [ [ [ -111.893098000002354, 33.219248000001613 ], [ -111.892885000002636, 33.232386000001377 ], [ -111.893276000001862, 33.261387000001612 ], [ -111.893455000002035, 33.275920000001349 ], [ -111.893596000002418, 33.291148000001861 ], [ -111.876202000001783, 33.291359000002011 ], [ -111.858850000002633, 33.291525000001506 ], [ -111.858882000002325, 33.295159000001604 ], [ -111.841668000002258, 33.291586000001949 ], [ -111.824306000001926, 33.291674000001699 ], [ -111.824109000002636, 33.306193000001791 ], [ -111.824151000002075, 33.320709000001607 ], [ -111.824191000002358, 33.327959000001343 ], [ -111.824108000001985, 33.327959000002096 ], [ -111.83310000000246, 33.340867000002035 ], [ -111.833102000002356, 33.349753000001513 ], [ -111.841829000002505, 33.361313000001836 ], [ -111.841070000001665, 33.378791000001371 ], [ -111.82484800000222, 33.378853000001733 ], [ -111.807262000001884, 33.378929000001435 ], [ -111.807233000002242, 33.378929000001435 ], [ -111.7883540000024, 33.379012000002206 ], [ -111.782575000002154, 33.379035000001508 ], [ -111.771241000002433, 33.379064000001662 ], [ -111.75395600000256, 33.379159000002147 ], [ -111.739670000002405, 33.37921600000184 ], [ -111.719412000001725, 33.38462800000206 ], [ -111.705115000002195, 33.379320000001947 ], [ -111.697195000002324, 33.379351000002167 ], [ -111.68792200000162, 33.379385000001633 ], [ -111.684732000002114, 33.393980000001562 ], [ -111.667522000002521, 33.393395000001348 ], [ -111.667487000002126, 33.407887000001431 ], [ -111.660401000001642, 33.407899000002125 ], [ -111.650136000002206, 33.407854000002175 ], [ -111.632752000002554, 33.400579000001635 ], [ -111.632718000002527, 33.407851000001521 ], [ -111.632699000002034, 33.415394000002124 ], [ -111.650014000002315, 33.422400000001403 ], [ -111.6843200000026, 33.437157000002195 ], [ -111.684212000002461, 33.444629000001939 ], [ -111.684130000001886, 33.45166900000217 ], [ -111.672495000002456, 33.451451000001697 ], [ -111.681541000002042, 33.466323000001893 ], [ -111.683938000002598, 33.466323000001481 ], [ -111.683922000001687, 33.472967000001333 ], [ -111.68390700000208, 33.49534800000206 ], [ -111.632581000002403, 33.494993000002175 ], [ -111.580634000001922, 33.465800000002133 ], [ -111.563553000002486, 33.465837000001727 ], [ -111.480124000002405, 33.465884000001822 ], [ -111.541633000002022, 33.42234700000202 ], [ -111.494144000001981, 33.407871000001421 ], [ -111.459554000002086, 33.407701000002191 ], [ -111.4767950000018, 33.378995000001503 ], [ -111.459402000002157, 33.344632000002193 ], [ -111.459516000002139, 33.292737000001814 ], [ -111.518097000002058, 33.292692000001665 ], [ -111.511562000002556, 33.249111000001797 ], [ -111.528752000002143, 33.234362000001667 ], [ -111.528463000001878, 33.191099000001721 ], [ -111.527370000002037, 33.161893000001456 ], [ -111.492072000001755, 33.161982000001366 ], [ -111.514600000002247, 33.14726400000179 ], [ -111.505904000002019, 33.132821000002103 ], [ -111.537877000002638, 33.132585000001342 ], [ -111.536673000002679, 33.137136000002172 ], [ -111.518882000001696, 33.136735000001998 ], [ -111.524384000001817, 33.147259000001746 ], [ -111.550617000001907, 33.147070000001918 ], [ -111.543885000002206, 33.132822000001632 ], [ -111.577660000002567, 33.132601000001941 ], [ -111.594748000001744, 33.118192000001351 ], [ -111.686032000002157, 33.117659000002135 ], [ -111.685911000002065, 33.204637000002194 ], [ -111.717026000002676, 33.204673000001762 ], [ -111.750797000001796, 33.204755000001349 ], [ -111.755426000001634, 33.204782000001636 ], [ -111.772587000001963, 33.204684000002082 ], [ -111.789206000001727, 33.204729000002189 ], [ -111.841074000001683, 33.203997000001394 ], [ -111.875734000002154, 33.203541000001984 ], [ -111.893085000002401, 33.204709000001479 ], [ -111.893098000002354, 33.219248000001613 ] ] ] } },
{ "type": "Feature", "properties": { "enacted_district": 6, "population": 778797.0, "voting_age_pop": 628634.0, "dem_votes": 164639.0, "rep_votes": 180390.0, "minority_pop": 206297.0, "dem_pct": 0.4771743823049151, "rep_pct": 0.52282561740525413 }, "geometry": { "type": "MultiPolygon", "coordinates": [ [ [ [ -110.98547600000208, 31.899427000001751 ], [ -110.978235000002599, 31.899367000002012 ], [ -110.974313000002397, 31.898983000002175 ], [ -110.926523000001765, 31.899187000001632 ], [ -110.944351000002158, 31.950310000001917 ], [ -110.858892000002157, 31.963065000002022 ], [ -110.858856000002504, 32.053049000001714 ], [ -110.857976000001898, 32.075671000001535 ], [ -110.857952000002044, 32.114341000001424 ], [ -110.857954000002664, 32.141551000001584 ], [ -110.875016000001835, 32.141570000001508 ], [ -110.896452000002242, 32.163057000001615 ], [ -110.908945000002277, 32.187062000001667 ], [ -110.909282000001795, 32.195151000001751 ], [ -110.892350000002395, 32.199743000001909 ], [ -110.875099000002137, 32.198804000001886 ], [ -110.857928000002033, 32.1921340000019 ], [ -110.840941000002076, 32.191949000001706 ], [ -110.837114000001762, 32.191958000001712 ], [ -110.828963000002247, 32.191929000002077 ], [ -110.823859000002599, 32.191910000001968 ], [ -110.810276000002361, 32.191828000001756 ], [ -110.812719000001678, 32.195761000001667 ], [ -110.815325000002204, 32.206400000001956 ], [ -110.825425000002355, 32.206440000001713 ], [ -110.8294770000022, 32.220983000001667 ], [ -110.840982000002526, 32.221039000001468 ], [ -110.857924000001915, 32.221278000001462 ], [ -110.875165000002099, 32.221611000001516 ], [ -110.883696000002274, 32.221674000002245 ], [ -110.892320000001803, 32.221502000001571 ], [ -110.913899000002203, 32.221573000002024 ], [ -110.909584000002297, 32.228893000002181 ], [ -110.909680000002098, 32.236189000002184 ], [ -110.926814000002125, 32.236007000002161 ], [ -110.926866000001766, 32.250379000001381 ], [ -110.926820000001896, 32.257689000001484 ], [ -110.926801000002442, 32.272244000001933 ], [ -110.943786000001978, 32.264846000001995 ], [ -110.943788000002499, 32.27220900000151 ], [ -110.961023000002101, 32.272051000001753 ], [ -110.965372000002603, 32.282937000002242 ], [ -110.961085000002399, 32.289020000001415 ], [ -110.978157000002, 32.294186000001972 ], [ -110.995123000002536, 32.294283000001734 ], [ -111.027479000002515, 32.308876000002179 ], [ -111.020534000002314, 32.301492000002149 ], [ -111.029520000001995, 32.294221000002082 ], [ -111.045986000002642, 32.315315000001561 ], [ -111.053302000002475, 32.309395000002134 ], [ -111.062875000002194, 32.308733000001972 ], [ -111.082628000002117, 32.308736000001929 ], [ -111.120367000002162, 32.31550800000209 ], [ -111.121169000002439, 32.325593000001554 ], [ -111.148429000002238, 32.351947000001516 ], [ -111.140093000002366, 32.374605000001708 ], [ -111.169839000001716, 32.38089100000181 ], [ -111.233873000001878, 32.402492000001949 ], [ -111.303956000002657, 32.392023000001387 ], [ -111.30425700000184, 32.451133000001434 ], [ -111.351577000002607, 32.501390000001848 ], [ -111.465685000002367, 32.501342000001976 ], [ -111.46555800000192, 32.589194000002109 ], [ -111.620145000002083, 32.602500000002017 ], [ -111.620200000001759, 32.719489000001602 ], [ -111.568015000002518, 32.719580000001713 ], [ -111.567868000002122, 32.74555600000221 ], [ -111.678247000002287, 32.813463000001605 ], [ -111.685998000002556, 32.833284000001854 ], [ -111.689899000002484, 32.835781000001823 ], [ -111.740065000002204, 32.821202000001946 ], [ -111.740580000002595, 32.763052000002183 ], [ -111.774595000002478, 32.792659000001443 ], [ -111.87742700000166, 32.792392000001847 ], [ -111.877573000001803, 32.828214000001879 ], [ -111.877546000002084, 32.893984000001879 ], [ -111.929273000001842, 32.893886000002013 ], [ -111.929068000002417, 32.98377600000218 ], [ -111.791568000001845, 32.898461000001966 ], [ -111.757300000002203, 32.894139000001736 ], [ -111.739957000001695, 32.894139000001523 ], [ -111.728638000001922, 32.894146000001953 ], [ -111.687049000001863, 32.894224000001699 ], [ -111.687133000002603, 32.879635000001556 ], [ -111.636728000002321, 32.847535000001535 ], [ -111.567532000001876, 32.854628000001838 ], [ -111.567571000002559, 32.850336000001391 ], [ -111.456505000002522, 32.850622000001884 ], [ -111.361475000002542, 32.849699000001635 ], [ -111.361251000002284, 32.762946000001591 ], [ -111.259647000001721, 32.762591000002011 ], [ -111.259660000002199, 32.772225000001747 ], [ -110.945063000002605, 32.771648000002209 ], [ -110.755483000001675, 32.77141400000189 ], [ -110.448533000002058, 32.771159000001845 ], [ -110.449387000002204, 32.988178000001803 ], [ -110.371725000002158, 33.006579000002205 ], [ -110.230373000002601, 32.989524000001424 ], [ -110.136748000002001, 32.95837800000163 ], [ -110.092959000002637, 32.895566000002098 ], [ -110.054746000002595, 32.877955000001585 ], [ -110.056838000002443, 33.244380000001669 ], [ -110.042591000002261, 33.273947000001904 ], [ -109.957945000001885, 33.232160000001706 ], [ -109.909720000002082, 33.162661000001599 ], [ -109.849634000001743, 33.16190900000192 ], [ -109.817460000002001, 33.118771000001409 ], [ -109.768751000002055, 33.124713000001798 ], [ -109.760266000002716, 33.07124900000219 ], [ -109.664215000002685, 33.014513000002246 ], [ -109.593709000002434, 33.016458000001677 ], [ -109.560227000002158, 33.051702000002152 ], [ -109.495740000002044, 33.078409000002061 ], [ -109.495440000002304, 33.652697000002078 ], [ -109.441782000002561, 33.713052000002044 ], [ -109.368866000002257, 33.722397000001934 ], [ -109.348581000001914, 33.77812300000155 ], [ -109.184203000002043, 33.777533000001569 ], [ -109.046717000002744, 33.777407000002079 ], [ -109.047549000002363, 33.107390000001487 ], [ -109.047620000002695, 32.816648000001543 ], [ -109.047918000002085, 32.426376000001724 ], [ -109.048685000002635, 32.072315000002142 ], [ -109.049954000002202, 31.5922960000023 ], [ -109.050033000002401, 31.33234800000206 ], [ -109.494488000002761, 31.333979000002241 ], [ -109.511586000002154, 31.349738000002237 ], [ -109.553966000002475, 31.353534000001641 ], [ -109.54489600000268, 31.466083000001881 ], [ -109.631112000002446, 31.437332000002151 ], [ -109.817072000002298, 31.436466000001648 ], [ -109.822821000002378, 31.478840000002169 ], [ -109.825406000001834, 31.588773000001751 ], [ -109.85266000000216, 31.604044000001657 ], [ -109.851943000002393, 31.553227000002089 ], [ -110.053369000001922, 31.552519000001485 ], [ -110.053294000001756, 31.50643100000223 ], [ -110.106638000001922, 31.476978000001907 ], [ -110.099780000002482, 31.439290000002199 ], [ -110.122294000002398, 31.439415000002029 ], [ -110.122333000001944, 31.409092000002289 ], [ -110.23943500000216, 31.348812000001761 ], [ -110.31423100000184, 31.408294000001561 ], [ -110.345886000002096, 31.435083000001647 ], [ -110.460788000001799, 31.555952000001927 ], [ -110.45223300000184, 31.630121000002148 ], [ -110.452300000002353, 31.731219000002312 ], [ -110.585455000001716, 31.731338000001713 ], [ -110.759450000001962, 31.731636000001519 ], [ -110.807081000001816, 31.731676000001912 ], [ -110.837872000001994, 31.731698000002176 ], [ -111.058040000002634, 31.726230000001639 ], [ -111.039617000002082, 31.758176000002106 ], [ -111.013503000001961, 31.80437200000209 ], [ -111.010361000002476, 31.80504500000173 ], [ -110.998144000002299, 31.838396000001698 ], [ -111.028753000002197, 31.870171000001676 ], [ -111.029329000002065, 31.884722000001535 ], [ -111.011797000002744, 31.885008000001768 ], [ -110.994825000002322, 31.899729000001532 ], [ -110.98547600000208, 31.899427000001751 ] ] ], [ [ [ -111.67127700000232, 32.733835000001974 ], [ -111.740183000002403, 32.733784000001791 ], [ -111.740580000002595, 32.763052000002183 ], [ -111.671096000001981, 32.763008000001371 ], [ -111.654155000002561, 32.762981000001794 ], [ -111.654822000002596, 32.733939000001797 ], [ -111.67127700000232, 32.733835000001974 ] ] ] ] } },
{ "type": "Feature", "properties": { "enacted_district": 7, "population": 793281.0, "voting_age_pop": 604327.0, "dem_votes": 151689.0, "rep_votes": 78409.0, "minority_pop": 399073.0, "dem_pct": 0.65923649894426006, "rep_pct": 0.34076350062114252 }, "geometry": { "type": "Polygon", "coordinates": [ [ [ -113.333767000002354, 32.038927000001593 ], [ -113.836226000001886, 32.196076000001469 ], [ -114.563775000001598, 32.419141000002057 ], [ -114.760939000002367, 32.478693000001549 ], [ -114.782498000002022, 32.485133000001618 ], [ -114.795318000001757, 32.551287000001693 ], [ -114.809437000002447, 32.615986000001691 ], [ -114.746844000001715, 32.66902000000119 ], [ -114.702223000002405, 32.745410000001165 ], [ -114.665494000002525, 32.733997000001729 ], [ -114.650358000002583, 32.733018000001501 ], [ -114.640438000001822, 32.731854000001917 ], [ -114.615670000001927, 32.72845400000179 ], [ -114.615429000001839, 32.725312000001757 ], [ -114.598854000001694, 32.684078000001364 ], [ -114.5988460000016, 32.680056000001635 ], [ -114.607411000001918, 32.684025000001611 ], [ -114.616009000001966, 32.683981000001886 ], [ -114.624630000002085, 32.68390600000199 ], [ -114.633315000002284, 32.683951000001201 ], [ -114.638567000001842, 32.683982000001826 ], [ -114.640883000002404, 32.669468000001899 ], [ -114.667461000001893, 32.683799000001294 ], [ -114.66754100000216, 32.683794000001974 ], [ -114.680293000002123, 32.683805000001477 ], [ -114.684601000002402, 32.683791000001776 ], [ -114.684638000002394, 32.669275000001925 ], [ -114.684249000001955, 32.625554000001749 ], [ -114.649870000001954, 32.625735000001661 ], [ -114.632798000002381, 32.625823000001517 ], [ -114.632651000002483, 32.625826000001823 ], [ -114.631995000002519, 32.552798000001623 ], [ -114.562893000002404, 32.55297800000163 ], [ -114.554485000002202, 32.597043000001932 ], [ -114.542238000001873, 32.626382000001634 ], [ -114.524523000001921, 32.626469000001755 ], [ -114.512165000002256, 32.626534000001207 ], [ -114.443011000002159, 32.626762000001399 ], [ -114.409717000002246, 32.626863000002004 ], [ -114.358297000002565, 32.62692200000118 ], [ -114.357967000001963, 32.590799000001716 ], [ -113.964225000002315, 32.591592000001796 ], [ -113.946206000001695, 32.664617000001883 ], [ -113.747106000001807, 32.694294000001612 ], [ -113.727278000002201, 32.726703000001521 ], [ -113.616936000002184, 32.766958000001864 ], [ -113.333708000002403, 32.767180000001737 ], [ -113.333781000002077, 32.958267000001506 ], [ -113.333786000002306, 33.023476000001516 ], [ -113.192979000002595, 33.089720000001655 ], [ -113.142977000002475, 33.100924000001548 ], [ -112.937220000002, 33.286786000001889 ], [ -112.762436000001799, 33.357478000001578 ], [ -112.76384300000268, 33.377536000001726 ], [ -112.746478000002597, 33.377571000001822 ], [ -112.677159000002433, 33.32323900000187 ], [ -112.573316000001967, 33.35960500000207 ], [ -112.530281000001878, 33.359319000002131 ], [ -112.531907000001723, 33.348622000001704 ], [ -112.495708000001727, 33.261519000002082 ], [ -112.461218000002518, 33.246818000001774 ], [ -112.461204000001743, 33.188793000001816 ], [ -112.357943000002095, 33.188749000001593 ], [ -112.349185000002123, 33.261291000001805 ], [ -112.357817000002527, 33.420853000001799 ], [ -112.357922000002404, 33.424732000001697 ], [ -112.353961000002599, 33.435330000001557 ], [ -112.341047000001893, 33.457700000001971 ], [ -112.340943000002142, 33.471532000001531 ], [ -112.340938000001941, 33.478797000001251 ], [ -112.355337000002123, 33.478867000001877 ], [ -112.358005000001683, 33.485758000001937 ], [ -112.358008000002599, 33.486084000001654 ], [ -112.336288000002298, 33.49330200000157 ], [ -112.323988000001677, 33.503925000001587 ], [ -112.312825000001965, 33.493133000002025 ], [ -112.310820000002082, 33.493116000002004 ], [ -112.290218000001715, 33.49365300000192 ], [ -112.272444000002636, 33.493799000002085 ], [ -112.272473000001895, 33.479320000001351 ], [ -112.272474000002276, 33.479279000001711 ], [ -112.272537000002103, 33.464733000001473 ], [ -112.246567000002003, 33.465189000001729 ], [ -112.238186000002486, 33.465330000001586 ], [ -112.238308000002021, 33.462473000001836 ], [ -112.221087000002086, 33.437239000001448 ], [ -112.238231000002244, 33.437151000002146 ], [ -112.289699000001846, 33.435448000001351 ], [ -112.289450000001864, 33.413580000002192 ], [ -112.288518000001844, 33.379291000001878 ], [ -112.306155000002164, 33.261197000001978 ], [ -112.202087000002479, 33.24686100000153 ], [ -112.202150000001637, 33.117743000002172 ], [ -112.202140000002075, 33.087023000001587 ], [ -112.203489000001696, 32.941732000002148 ], [ -112.203483000001967, 32.927943000001818 ], [ -112.032008000001994, 32.923040000001315 ], [ -111.99773700000226, 32.901161000001935 ], [ -111.980692000002676, 32.828833000002014 ], [ -111.877573000001803, 32.828214000001879 ], [ -111.87742700000166, 32.792392000001847 ], [ -111.774595000002478, 32.792659000001443 ], [ -111.740580000002595, 32.763052000002183 ], [ -111.740065000002204, 32.821202000001946 ], [ -111.689899000002484, 32.835781000001823 ], [ -111.685998000002556, 32.833284000001854 ], [ -111.678247000002287, 32.813463000001605 ], [ -111.567868000002122, 32.74555600000221 ], [ -111.568015000002518, 32.719580000001713 ], [ -111.620200000001759, 32.719489000001602 ], [ -111.620145000002083, 32.602500000002017 ], [ -111.46555800000192, 32.589194000002109 ], [ -111.465685000002367, 32.501342000001976 ], [ -111.351577000002607, 32.501390000001848 ], [ -111.30425700000184, 32.451133000001434 ], [ -111.303956000002657, 32.392023000001387 ], [ -111.233873000001878, 32.402492000001949 ], [ -111.169839000001716, 32.38089100000181 ], [ -111.140093000002366, 32.374605000001708 ], [ -111.148429000002238, 32.351947000001516 ], [ -111.121169000002439, 32.325593000001554 ], [ -111.120367000002162, 32.31550800000209 ], [ -111.082628000002117, 32.308736000001929 ], [ -111.062875000002194, 32.308733000001972 ], [ -111.053302000002475, 32.309395000002134 ], [ -111.045986000002642, 32.315315000001561 ], [ -111.029520000001995, 32.294221000002082 ], [ -111.020534000002314, 32.301492000002149 ], [ -111.027479000002515, 32.308876000002179 ], [ -110.995123000002536, 32.294283000001734 ], [ -110.978157000002, 32.294186000001972 ], [ -110.961085000002399, 32.289020000001415 ], [ -110.965372000002603, 32.282937000002242 ], [ -110.961023000002101, 32.272051000001753 ], [ -110.943788000002499, 32.27220900000151 ], [ -110.943786000001978, 32.264846000001995 ], [ -110.926801000002442, 32.272244000001933 ], [ -110.926820000001896, 32.257689000001484 ], [ -110.926866000001766, 32.250379000001381 ], [ -110.926814000002125, 32.236007000002161 ], [ -110.909680000002098, 32.236189000002184 ], [ -110.909584000002297, 32.228893000002181 ], [ -110.913899000002203, 32.221573000002024 ], [ -110.892320000001803, 32.221502000001571 ], [ -110.883696000002274, 32.221674000002245 ], [ -110.875165000002099, 32.221611000001516 ], [ -110.857924000001915, 32.221278000001462 ], [ -110.840982000002526, 32.221039000001468 ], [ -110.8294770000022, 32.220983000001667 ], [ -110.825425000002355, 32.206440000001713 ], [ -110.815325000002204, 32.206400000001956 ], [ -110.812719000001678, 32.195761000001667 ], [ -110.810276000002361, 32.191828000001756 ], [ -110.823859000002599, 32.191910000001968 ], [ -110.828963000002247, 32.191929000002077 ], [ -110.837114000001762, 32.191958000001712 ], [ -110.840941000002076, 32.191949000001706 ], [ -110.857928000002033, 32.1921340000019 ], [ -110.875099000002137, 32.198804000001886 ], [ -110.892350000002395, 32.199743000001909 ], [ -110.909282000001795, 32.195151000001751 ], [ -110.908945000002277, 32.187062000001667 ], [ -110.896452000002242, 32.163057000001615 ], [ -110.875016000001835, 32.141570000001508 ], [ -110.857954000002664, 32.141551000001584 ], [ -110.857952000002044, 32.114341000001424 ], [ -110.857976000001898, 32.075671000001535 ], [ -110.858856000002504, 32.053049000001714 ], [ -110.858892000002157, 31.963065000002022 ], [ -110.944351000002158, 31.950310000001917 ], [ -110.926523000001765, 31.899187000001632 ], [ -110.974313000002397, 31.898983000002175 ], [ -110.978235000002599, 31.899367000002012 ], [ -110.98547600000208, 31.899427000001751 ], [ -110.994825000002322, 31.899729000001532 ], [ -111.011797000002744, 31.885008000001768 ], [ -111.029329000002065, 31.884722000001535 ], [ -111.028753000002197, 31.870171000001676 ], [ -110.998144000002299, 31.838396000001698 ], [ -111.010361000002476, 31.80504500000173 ], [ -111.013503000001961, 31.80437200000209 ], [ -111.039617000002082, 31.758176000002106 ], [ -111.058040000002634, 31.726230000001639 ], [ -110.837872000001994, 31.731698000002176 ], [ -110.807081000001816, 31.731676000001912 ], [ -110.759450000001962, 31.731636000001519 ], [ -110.585455000001716, 31.731338000001713 ], [ -110.452300000002353, 31.731219000002312 ], [ -110.45223300000184, 31.630121000002148 ], [ -110.460788000001799, 31.555952000001927 ], [ -110.345886000002096, 31.435083000001647 ], [ -110.31423100000184, 31.408294000001561 ], [ -110.23943500000216, 31.348812000001761 ], [ -110.122333000001944, 31.409092000002289 ], [ -110.122294000002398, 31.439415000002029 ], [ -110.099780000002482, 31.439290000002199 ], [ -110.106638000001922, 31.476978000001907 ], [ -110.053294000001756, 31.50643100000223 ], [ -110.053369000001922, 31.552519000001485 ], [ -109.851943000002393, 31.553227000002089 ], [ -109.85266000000216, 31.604044000001657 ], [ -109.825406000001834, 31.588773000001751 ], [ -109.822821000002378, 31.478840000002169 ], [ -109.817072000002298, 31.436466000001648 ], [ -109.631112000002446, 31.437332000002151 ], [ -109.54489600000268, 31.466083000001881 ], [ -109.553966000002475, 31.353534000001641 ], [ -109.511586000002154, 31.349738000002237 ], [ -109.494488000002761, 31.333979000002241 ], [ -109.511591000002497, 31.333990000001787 ], [ -109.545689000002298, 31.334015000002363 ], [ -109.573005000002183, 31.334026000001764 ], [ -109.782879000002183, 31.334320000001465 ], [ -109.918400000002137, 31.334069000001691 ], [ -110.003087000002722, 31.334063000002157 ], [ -110.459751000002043, 31.332914000002191 ], [ -110.761001000002395, 31.333475000001439 ], [ -110.890652000002021, 31.333278000002032 ], [ -110.942891000001978, 31.332736000001759 ], [ -110.976827000001805, 31.332636000002292 ], [ -111.074980000002583, 31.332341000001495 ], [ -111.366372000002499, 31.426061000001415 ], [ -111.623110000001759, 31.50785800000207 ], [ -112.417944000001796, 31.757188000001602 ], [ -112.60776000000196, 31.815757000002069 ], [ -113.155326000001963, 31.98250700000181 ], [ -113.333767000002354, 32.038927000001593 ] ], [ [ -111.740183000002403, 32.733784000001791 ], [ -111.67127700000232, 32.733835000001974 ], [ -111.654822000002596, 32.733939000001797 ], [ -111.654155000002561, 32.762981000001794 ], [ -111.671096000001981, 32.763008000001371 ], [ -111.740580000002595, 32.763052000002183 ], [ -111.740183000002403, 32.733784000001791 ] ] ] } },
{ "type": "Feature", "properties": { "enacted_district": 8, "population": 789363.0, "voting_age_pop": 625127.0, "dem_votes": 128349.0, "rep_votes": 184209.0, "minority_pop": 192452.0, "dem_pct": 0.41064058497602346, "rep_pct": 0.58935941470403586 }, "geometry": { "type": "Polygon", "coordinates": [ [ [ -112.307409000001996, 33.607560000001612 ], [ -112.303132000001725, 33.614500000002096 ], [ -112.30756100000248, 33.627123000001426 ], [ -112.307664000002276, 33.630683000001547 ], [ -112.311183000002544, 33.630716000001854 ], [ -112.317291000002058, 33.638711000001763 ], [ -112.339413000001983, 33.638725000001749 ], [ -112.342150000002064, 33.638724000002028 ], [ -112.349785000002584, 33.63872100000134 ], [ -112.359408000001963, 33.638721000001659 ], [ -112.376772000001964, 33.638712000001796 ], [ -112.394082000002641, 33.63879500000202 ], [ -112.409447000002515, 33.638884000001724 ], [ -112.418138000002287, 33.653106000001593 ], [ -112.426816000002106, 33.653280000001516 ], [ -112.43510200000172, 33.638878000002073 ], [ -112.43795400000252, 33.63890000000147 ], [ -112.460330000001761, 33.638445000001539 ], [ -112.450829000002216, 33.653286000001657 ], [ -112.409137000001877, 33.684930000001444 ], [ -112.370958000002616, 33.695690000002145 ], [ -112.342647000001776, 33.72069000000203 ], [ -112.360188000001784, 33.753148000001843 ], [ -112.446975000002439, 33.752973000001809 ], [ -112.447090000001836, 33.811057000001753 ], [ -112.42310300000166, 33.919456000002064 ], [ -112.341876000001875, 33.898958000001414 ], [ -112.264507000002283, 33.899088000001349 ], [ -112.255707000002218, 33.905425000001557 ], [ -112.202856000001944, 33.970496000001511 ], [ -112.161128000001924, 34.017717000001916 ], [ -112.099546000002675, 34.0411100000019 ], [ -111.996196000001845, 34.029866000001981 ], [ -111.995696000002155, 33.900934000002067 ], [ -112.030780000002565, 33.901120000001924 ], [ -112.030590000002476, 33.871651000001684 ], [ -112.021568000002176, 33.799128000001879 ], [ -111.995684000002584, 33.799091000001503 ], [ -111.995518000002377, 33.770046000001493 ], [ -111.995441000001762, 33.747686000001401 ], [ -112.008376000001761, 33.726493000001383 ], [ -112.025688000001878, 33.699368000001378 ], [ -112.031108000001893, 33.680759000001991 ], [ -112.065723000002237, 33.701641000001722 ], [ -112.066271000002359, 33.725861000001473 ], [ -112.099899000002438, 33.725638000002149 ], [ -112.099783000002503, 33.669542000002103 ], [ -112.09975300000238, 33.654733000001549 ], [ -112.09969100000238, 33.640134000001623 ], [ -112.0996890000023, 33.625609000001347 ], [ -112.099684000002355, 33.624182000001696 ], [ -112.099637000002062, 33.611092000002131 ], [ -112.099655000001675, 33.602308000001337 ], [ -112.116716000002, 33.596422000001638 ], [ -112.116834000002299, 33.581974000001665 ], [ -112.117112000002237, 33.571146000001548 ], [ -112.117192000001765, 33.567583000001591 ], [ -112.0996160000022, 33.56760900000188 ], [ -112.099657000002395, 33.560431000001543 ], [ -112.099675000002563, 33.553078000001307 ], [ -112.099575000002034, 33.538642000001822 ], [ -112.099703000002634, 33.524102000002017 ], [ -112.112371000001701, 33.524116000001804 ], [ -112.112351000001993, 33.538615000001435 ], [ -112.116908000002198, 33.538569000001374 ], [ -112.125618000001964, 33.538541000001835 ], [ -112.125569000002685, 33.52399500000152 ], [ -112.134255000001943, 33.523966000001984 ], [ -112.134332000002644, 33.538513000001672 ], [ -112.151435000002238, 33.538452000001783 ], [ -112.151573000001875, 33.538452000001413 ], [ -112.168602000002181, 33.538448000001544 ], [ -112.168638000002261, 33.523964000001705 ], [ -112.177288000002179, 33.531284000001584 ], [ -112.202833000002101, 33.552782000001429 ], [ -112.203561000001699, 33.552770000001964 ], [ -112.211569000001617, 33.552585000001727 ], [ -112.211747000002447, 33.552581000001886 ], [ -112.246409000002515, 33.551935000001578 ], [ -112.255003000001921, 33.551747000001917 ], [ -112.272510000002114, 33.551361000001464 ], [ -112.274964000001802, 33.551206000001578 ], [ -112.306762000002323, 33.550728000001676 ], [ -112.307179000002137, 33.565372000001275 ], [ -112.300217000001766, 33.565504000002164 ], [ -112.298692000002561, 33.580006000001291 ], [ -112.298746000001842, 33.588840000001447 ], [ -112.298732000001607, 33.594609000001576 ], [ -112.298693000002544, 33.605191000001383 ], [ -112.304667000002567, 33.606698000001728 ], [ -112.307409000001996, 33.607560000001612 ] ] ] } },
{ "type": "Feature", "properties": { "enacted_district": 9, "population": 793834.0, "voting_age_pop": 607629.0, "dem_votes": 95144.0, "rep_votes": 167052.0, "minority_pop": 229756.0, "dem_pct": 0.36287357535474468, "rep_pct": 0.63712642426386124 }, "geometry": { "type": "Polygon", "coordinates": [ [ [ -114.632798000002381, 32.625823000001517 ], [ -114.649870000001954, 32.625735000001661 ], [ -114.684249000001955, 32.625554000001749 ], [ -114.684638000002394, 32.669275000001925 ], [ -114.684601000002402, 32.683791000001776 ], [ -114.680293000002123, 32.683805000001477 ], [ -114.66754100000216, 32.683794000001974 ], [ -114.667461000001893, 32.683799000001294 ], [ -114.640883000002404, 32.669468000001899 ], [ -114.638567000001842, 32.683982000001826 ], [ -114.633315000002284, 32.683951000001201 ], [ -114.624630000002085, 32.68390600000199 ], [ -114.616009000001966, 32.683981000001886 ], [ -114.607411000001918, 32.684025000001611 ], [ -114.5988460000016, 32.680056000001635 ], [ -114.598854000001694, 32.684078000001364 ], [ -114.615429000001839, 32.725312000001757 ], [ -114.615670000001927, 32.72845400000179 ], [ -114.526856000001516, 32.757094000001331 ], [ -114.5316690000016, 32.791185000001228 ], [ -114.46567800000156, 32.874075000002072 ], [ -114.462929000002418, 32.907944000001642 ], [ -114.516842000001859, 33.027886000001452 ], [ -114.670803000002124, 33.037983000001446 ], [ -114.707896000001838, 33.097431000001862 ], [ -114.679350000001875, 33.162433000001322 ], [ -114.67703200000156, 33.270169000001943 ], [ -114.731223000001521, 33.302433000001351 ], [ -114.700938000002083, 33.337014000001936 ], [ -114.720065000001881, 33.407891000001207 ], [ -114.62288900000236, 33.445524000002038 ], [ -114.589246000002234, 33.501813000001974 ], [ -114.524215000002343, 33.553068000001701 ], [ -114.524908000001616, 33.638849000001741 ], [ -114.496489000002001, 33.696901000001425 ], [ -114.529597000002497, 33.84806300000178 ], [ -114.534146000002167, 33.925187000001578 ], [ -114.438266000002159, 34.022609000001594 ], [ -114.434353000002034, 34.086499000001972 ], [ -114.2290230000024, 34.187427000001186 ], [ -114.164476000001514, 34.251667000001632 ], [ -114.138282000002363, 34.30323000000174 ], [ -114.339627000001997, 34.451435000001538 ], [ -114.380638000002193, 34.501004000001338 ], [ -114.382229000002241, 34.531828000001475 ], [ -114.435671000002074, 34.593841000001639 ], [ -114.442363000002203, 34.644153000001559 ], [ -114.487777000001998, 34.71721900000172 ], [ -114.574851000002084, 34.808121000001364 ], [ -114.636768000001524, 34.885705000001693 ], [ -114.617491000002204, 35.05170300000151 ], [ -114.642831000001806, 35.096503000001547 ], [ -114.578263000002181, 35.128810000001693 ], [ -114.569529000001566, 35.162317000001231 ], [ -114.595163000001705, 35.321883000001286 ], [ -114.627325000001676, 35.410193000001968 ], [ -114.663935000001956, 35.454077000001341 ], [ -114.653927000001602, 35.611739000001293 ], [ -114.689481000002417, 35.651370000001862 ], [ -114.70811200000216, 35.909933000001303 ], [ -114.740536000001981, 35.975545000001588 ], [ -114.723324000002194, 36.026588000001126 ], [ -114.754508000002119, 36.0861710000014 ], [ -114.627079000002283, 36.140761000001923 ], [ -114.50810400000222, 36.149713000001363 ], [ -114.50471500000144, 36.127188000001745 ], [ -114.370181000001878, 36.142624000001938 ], [ -114.243865000001477, 36.015266000001944 ], [ -114.163110000002504, 36.026618000001413 ], [ -114.145907000001841, 36.027229000001419 ], [ -114.066798000002279, 36.179087000001651 ], [ -114.043944000002156, 36.193350000001331 ], [ -114.04993500000144, 36.709521000001395 ], [ -114.05005200000204, 37.000191000001699 ], [ -113.121131000002478, 37.000062000001918 ], [ -112.829503000001921, 37.000516000001689 ], [ -112.827371000002245, 36.83198900000162 ], [ -112.600381000001761, 36.83192800000139 ], [ -112.612234000001763, 36.736854000001955 ], [ -112.638679000001559, 36.674478000001251 ], [ -112.620946000002206, 36.595942000001529 ], [ -112.656365000001742, 36.553915000001709 ], [ -112.629490000001923, 36.391611000001248 ], [ -112.681571000002378, 36.341662000001612 ], [ -112.902949000002295, 36.253761000001894 ], [ -113.006343000002275, 36.238754000001606 ], [ -113.077375000001837, 36.199635000001862 ], [ -113.196751000002436, 36.152949000001584 ], [ -113.22491900000216, 36.091144000001577 ], [ -113.313428000002105, 36.100001000001534 ], [ -113.354176000002099, 36.040368000002005 ], [ -113.317122000002442, 35.961385000001499 ], [ -113.334850000002433, 35.913859000001246 ], [ -113.310523000002036, 35.864350000001636 ], [ -113.334024000002202, 35.803031000001567 ], [ -113.3838560000017, 35.754552000001205 ], [ -113.511010000002358, 35.766265000001731 ], [ -113.605924000001906, 35.849457000002019 ], [ -113.628225000001834, 35.822417000001728 ], [ -113.714750000002525, 35.929671000001733 ], [ -113.779659000001644, 35.991189000001775 ], [ -113.808896000001937, 36.047375000001843 ], [ -113.869520000001557, 36.054688000001939 ], [ -113.903532000001647, 36.092838000001315 ], [ -113.904629000002515, 35.787127000001377 ], [ -113.967699000001602, 35.777741000001342 ], [ -114.042876000001584, 35.724746000001844 ], [ -113.986460000002339, 35.708601000001387 ], [ -113.937503000002323, 35.645966000001906 ], [ -113.849058000002486, 35.691384000001399 ], [ -113.618655000001525, 35.494506000001607 ], [ -113.354495000001634, 35.494383000001768 ], [ -113.334105000002481, 35.508416000001567 ], [ -113.332919000002477, 35.209024000001911 ], [ -113.332878000002481, 35.141646000001451 ], [ -113.33304500000196, 34.720939000001998 ], [ -113.333181000001645, 34.415844000001456 ], [ -113.333422000002074, 34.317913000002065 ], [ -113.333313000002434, 34.000039000001607 ], [ -113.037754000002593, 34.000036000001693 ], [ -112.824219000001605, 33.999919000001306 ], [ -112.685010000002038, 33.985192000001319 ], [ -112.501039000001967, 33.939233000001401 ], [ -112.42310300000166, 33.919456000002064 ], [ -112.447090000001836, 33.811057000001753 ], [ -112.446975000002439, 33.752973000001809 ], [ -112.360188000001784, 33.753148000001843 ], [ -112.342647000001776, 33.72069000000203 ], [ -112.370958000002616, 33.695690000002145 ], [ -112.409137000001877, 33.684930000001444 ], [ -112.450829000002216, 33.653286000001657 ], [ -112.460330000001761, 33.638445000001539 ], [ -112.43795400000252, 33.63890000000147 ], [ -112.43510200000172, 33.638878000002073 ], [ -112.426816000002106, 33.653280000001516 ], [ -112.418138000002287, 33.653106000001593 ], [ -112.409447000002515, 33.638884000001724 ], [ -112.394082000002641, 33.63879500000202 ], [ -112.376772000001964, 33.638712000001796 ], [ -112.359408000001963, 33.638721000001659 ], [ -112.349785000002584, 33.63872100000134 ], [ -112.342150000002064, 33.638724000002028 ], [ -112.339413000001983, 33.638725000001749 ], [ -112.317291000002058, 33.638711000001763 ], [ -112.311183000002544, 33.630716000001854 ], [ -112.307664000002276, 33.630683000001547 ], [ -112.30756100000248, 33.627123000001426 ], [ -112.303132000001725, 33.614500000002096 ], [ -112.307409000001996, 33.607560000001612 ], [ -112.304667000002567, 33.606698000001728 ], [ -112.298693000002544, 33.605191000001383 ], [ -112.298732000001607, 33.594609000001576 ], [ -112.298746000001842, 33.588840000001447 ], [ -112.298692000002561, 33.580006000001291 ], [ -112.300217000001766, 33.565504000002164 ], [ -112.307179000002137, 33.565372000001275 ], [ -112.306762000002323, 33.550728000001676 ], [ -112.274964000001802, 33.551206000001578 ], [ -112.272510000002114, 33.551361000001464 ], [ -112.255003000001921, 33.551747000001917 ], [ -112.246409000002515, 33.551935000001578 ], [ -112.211747000002447, 33.552581000001886 ], [ -112.211569000001617, 33.552585000001727 ], [ -112.203561000001699, 33.552770000001964 ], [ -112.203105000001713, 33.531067000001372 ], [ -112.203099000001743, 33.52383900000212 ], [ -112.203140000002278, 33.516592000001936 ], [ -112.203164000001877, 33.509257000001909 ], [ -112.211329000001882, 33.50908400000214 ], [ -112.220104000001953, 33.508897000002136 ], [ -112.220463000002283, 33.508893000001464 ], [ -112.23770000000178, 33.508688000001662 ], [ -112.24636900000192, 33.508682000001407 ], [ -112.272481000001605, 33.508207000002159 ], [ -112.272481000001676, 33.508321000002077 ], [ -112.289788000001906, 33.522395000001517 ], [ -112.291722000002437, 33.522286000002076 ], [ -112.306752000002561, 33.514794000001451 ], [ -112.312825000001965, 33.493133000002025 ], [ -112.323988000001677, 33.503925000001587 ], [ -112.336288000002298, 33.49330200000157 ], [ -112.358008000002599, 33.486084000001654 ], [ -112.358005000001683, 33.485758000001937 ], [ -112.355337000002123, 33.478867000001877 ], [ -112.340938000001941, 33.478797000001251 ], [ -112.340943000002142, 33.471532000001531 ], [ -112.341047000001893, 33.457700000001971 ], [ -112.353961000002599, 33.435330000001557 ], [ -112.357922000002404, 33.424732000001697 ], [ -112.357817000002527, 33.420853000001799 ], [ -112.349185000002123, 33.261291000001805 ], [ -112.357943000002095, 33.188749000001593 ], [ -112.461204000001743, 33.188793000001816 ], [ -112.461218000002518, 33.246818000001774 ], [ -112.495708000001727, 33.261519000002082 ], [ -112.531907000001723, 33.348622000001704 ], [ -112.530281000001878, 33.359319000002131 ], [ -112.573316000001967, 33.35960500000207 ], [ -112.677159000002433, 33.32323900000187 ], [ -112.746478000002597, 33.377571000001822 ], [ -112.76384300000268, 33.377536000001726 ], [ -112.762436000001799, 33.357478000001578 ], [ -112.937220000002, 33.286786000001889 ], [ -113.142977000002475, 33.100924000001548 ], [ -113.192979000002595, 33.089720000001655 ], [ -113.333786000002306, 33.023476000001516 ], [ -113.333781000002077, 32.958267000001506 ], [ -113.333708000002403, 32.767180000001737 ], [ -113.616936000002184, 32.766958000001864 ], [ -113.727278000002201, 32.726703000001521 ], [ -113.747106000001807, 32.694294000001612 ], [ -113.946206000001695, 32.664617000001883 ], [ -113.964225000002315, 32.591592000001796 ], [ -114.357967000001963, 32.590799000001716 ], [ -114.358297000002565, 32.62692200000118 ], [ -114.409717000002246, 32.626863000002004 ], [ -114.443011000002159, 32.626762000001399 ], [ -114.512165000002256, 32.626534000001207 ], [ -114.524523000001921, 32.626469000001755 ], [ -114.542238000001873, 32.626382000001634 ], [ -114.554485000002202, 32.597043000001932 ], [ -114.562893000002404, 32.55297800000163 ], [ -114.631995000002519, 32.552798000001623 ], [ -114.632651000002483, 32.625826000001823 ], [ -114.632798000002381, 32.625823000001517 ] ] ] } }
]
}
