{
"type": "FeatureCollection",
"name": "arkansas_optimized_districts_all",
"crs": { "type": "name", "properties": { "name": "urn:ogc:def:crs:OGC:1.3:CRS84" } },
"features": [
{ "type": "Feature", "properties": { "opt_all": 1, "population": 756004.0, "voting_age_pop": 583887.0, "dem_votes": 67362.0, "rep_votes": 178437.0, "minority_pop": 118666.0, "dem_pct": 0.27405318968992826, "rep_pct": 0.72594680990323524 }, "geometry": { "type": "Polygon", "coordinates": [ [ [ -94.346374000002641, 34.946882000002525 ], [ -94.36066900000192, 34.960844000002496 ], [ -94.44753300000248, 34.934071000002596 ], [ -94.443244000002039, 35.06248900000265 ], [ -94.439804000001743, 35.163448000002241 ], [ -94.371905000002357, 35.14834000000279 ], [ -94.357209000002143, 35.148189000002496 ], [ -94.356683000001695, 35.162457000002789 ], [ -94.354874000002539, 35.224114000002707 ], [ -94.316859000001898, 35.231719000002599 ], [ -94.306252000002075, 35.222898000002566 ], [ -94.296221000002703, 35.21533100000272 ], [ -94.289430000002199, 35.203454000002125 ], [ -94.270607000002116, 35.204348000002916 ], [ -94.259803000001838, 35.202565000002231 ], [ -94.260118000002038, 35.212759000002208 ], [ -94.250881000002394, 35.21210100000296 ], [ -94.234689000002703, 35.215418000002913 ], [ -94.24155600000168, 35.189387000002355 ], [ -94.215866000002222, 35.202529000002563 ], [ -94.172949000002404, 35.208432000002588 ], [ -94.160238000002366, 35.180680000002276 ], [ -94.165264000002395, 35.179043000002586 ], [ -94.11853700000232, 35.181701000002789 ], [ -94.120322000001735, 35.143050000002724 ], [ -94.031236000002565, 35.140908000002966 ], [ -94.029775000001919, 35.182963000002232 ], [ -94.028946000001795, 35.211598000002482 ], [ -94.028872000001925, 35.21417600000246 ], [ -94.082220000002593, 35.214782000002131 ], [ -94.079830000001877, 35.286900000002788 ], [ -94.079698000002367, 35.290428000002848 ], [ -94.079493000002756, 35.295537000002263 ], [ -94.079301000002687, 35.301328000002755 ], [ -94.079575000001682, 35.321146000002621 ], [ -94.079282000002337, 35.334563000002881 ], [ -94.077929000002641, 35.379667000002591 ], [ -94.075167000001755, 35.42537100000218 ], [ -94.074897000002323, 35.434527000002888 ], [ -94.07443700000276, 35.444997000002751 ], [ -94.057574000002219, 35.452131000002474 ], [ -94.054102000002104, 35.477441000002962 ], [ -94.033325000002279, 35.501380000002243 ], [ -94.036796000001843, 35.52808400000216 ], [ -94.022878000002294, 35.574204000002808 ], [ -94.076064000002404, 35.575601000002571 ], [ -94.07463400000232, 35.633393000002606 ], [ -94.073958000002278, 35.662463000002575 ], [ -94.020355000001857, 35.661426000002109 ], [ -93.984235000001959, 35.660659000002951 ], [ -93.982845000002243, 35.704024000002754 ], [ -93.964235000002404, 35.732029000002349 ], [ -93.911668000002322, 35.730805000002363 ], [ -93.91083600000168, 35.759752000002955 ], [ -93.910585000002698, 35.774298000002339 ], [ -93.695856000001982, 35.768620000002549 ], [ -93.519185000001883, 35.763487000002492 ], [ -93.517057000002566, 35.823332000002928 ], [ -93.523646000001847, 35.881514000002291 ], [ -93.505421000002158, 35.895549000002859 ], [ -93.486232000002659, 35.953355000002794 ], [ -93.450788000002561, 35.967497000003029 ], [ -93.448674000002057, 36.025443000003015 ], [ -93.445740000001905, 36.080787000002466 ], [ -93.480274000002396, 36.081554000002868 ], [ -93.479521000002677, 36.125054000002429 ], [ -93.443458000002096, 36.124539000002741 ], [ -93.300820000002318, 36.121550000002962 ], [ -93.299666000002645, 36.194362000002208 ], [ -93.299171000002119, 36.232412000002562 ], [ -93.297550000001678, 36.296560000002422 ], [ -93.296234000002556, 36.360751000002736 ], [ -93.296237000001881, 36.379031000002541 ], [ -93.293174000002367, 36.498433000002407 ], [ -93.013745000002402, 36.498176000002523 ], [ -92.854008000002622, 36.497854000002249 ], [ -92.630626000002167, 36.498155000002491 ], [ -92.529129000001817, 36.498526000002911 ], [ -92.42049500000256, 36.497935000002443 ], [ -92.259457000002044, 36.498048000002285 ], [ -92.150285000001801, 36.498661000002429 ], [ -92.042835000002114, 36.498552000002697 ], [ -91.936406000002364, 36.498689000002813 ], [ -91.781660000002233, 36.499191000002483 ], [ -91.617693000001765, 36.499328000002798 ], [ -91.450019000001902, 36.497672000002325 ], [ -91.406872000001925, 36.497062000002906 ], [ -91.235647000002558, 36.497542000002589 ], [ -91.172386000002163, 36.497546000003048 ], [ -91.109232000001924, 36.497779000002296 ], [ -90.981255000001767, 36.498318000002691 ], [ -90.872570000002, 36.49829500000255 ], [ -90.784452000002162, 36.498583000002739 ], [ -90.584285000001756, 36.49857500000271 ], [ -90.439100000002085, 36.498311000002886 ], [ -90.31778200000204, 36.498104000003103 ], [ -90.24590600000208, 36.497809000002427 ], [ -90.152307000001741, 36.497982000002558 ], [ -90.159244000002062, 36.479711000002517 ], [ -90.134054000002436, 36.438699000002991 ], [ -90.135228000002115, 36.418383000002549 ], [ -90.078349000001566, 36.396876000003104 ], [ -90.063693000002075, 36.366874000002696 ], [ -90.082381000001675, 36.321979000002891 ], [ -90.06419300000168, 36.302502000002256 ], [ -90.083795000002084, 36.271938000002848 ], [ -90.117649000001876, 36.259296000002962 ], [ -90.142393000002073, 36.227327000002468 ], [ -90.19018600000264, 36.201384000002378 ], [ -90.21996500000256, 36.184727000002283 ], [ -90.235569000002201, 36.141707000002711 ], [ -90.299995000001914, 36.097913000002627 ], [ -90.34905500000248, 36.040079000002322 ], [ -90.377900000002313, 35.995745000002621 ], [ -90.374620000002096, 35.9957700000028 ], [ -90.289076000002154, 35.996409000002522 ], [ -90.119161000001597, 35.997893000002286 ], [ -89.945914000001892, 35.999345000002613 ], [ -89.822916000001527, 36.000262000002905 ], [ -89.73305600000252, 36.000809000002825 ], [ -89.714007000001899, 35.959813000003159 ], [ -89.650267000001904, 35.927663000002923 ], [ -89.645617000002289, 35.885833000003004 ], [ -89.676378000002586, 35.876698000003124 ], [ -89.716352000002615, 35.907059000003024 ], [ -89.765240000002606, 35.893106000002931 ], [ -89.767923000002483, 35.860017000002401 ], [ -89.694709000001609, 35.834769000002325 ], [ -89.694498000001701, 35.823786000003032 ], [ -89.728170000001839, 35.802697000002979 ], [ -89.781662000001873, 35.805228000002984 ], [ -89.798950000002463, 35.759356000002775 ], [ -89.924176000002504, 35.750507000002941 ], [ -89.931318000001937, 35.747309000002645 ], [ -89.93926200000169, 35.741322000002519 ], [ -89.958895000001988, 35.723530000002789 ], [ -89.955841000002479, 35.690399000002664 ], [ -89.934467000002499, 35.664943000002395 ], [ -89.85302000000253, 35.639984000002507 ], [ -89.890259000002388, 35.616416000002687 ], [ -89.947847000002199, 35.600218000002521 ], [ -89.942247000001913, 35.55714300000286 ], [ -89.910681000001702, 35.547451000002724 ], [ -89.926539000002649, 35.511607000002456 ], [ -89.959722000002103, 35.54266400000315 ], [ -90.000096000001534, 35.561009000002954 ], [ -90.039876000002621, 35.547418000002331 ], [ -90.045245000001827, 35.496648000002594 ], [ -90.007209000002618, 35.454247000002759 ], [ -90.00266800000162, 35.429985000002489 ], [ -90.069528000002649, 35.408132000002318 ], [ -90.067239000001805, 35.460945000002909 ], [ -90.09013700000186, 35.478500000002512 ], [ -90.119031000002096, 35.468039000003145 ], [ -90.140114000001887, 35.436771000002963 ], [ -90.168880000002403, 35.421878000002707 ], [ -90.176594000001714, 35.393227000002454 ], [ -90.114565000002443, 35.411259000002467 ], [ -90.078263000002622, 35.374930000002294 ], [ -90.100374000002404, 35.335000000002481 ], [ -90.109966000002046, 35.304988000003142 ], [ -90.162058000002204, 35.298255000002762 ], [ -90.158574000002019, 35.262582000002467 ], [ -90.094337000002554, 35.248790000002529 ], [ -90.076160000002062, 35.221477000002281 ], [ -90.105899000002438, 35.174921000003032 ], [ -90.068236000002656, 35.155670000002843 ], [ -90.089667000001597, 35.118053000002888 ], [ -90.140857000002484, 35.132904000002746 ], [ -90.167358000002153, 35.12358500000294 ], [ -90.172966000002603, 35.118105000002366 ], [ -90.181157000001562, 35.053943000002924 ], [ -90.206777000002447, 35.026013000002564 ], [ -90.2945120000023, 35.040412000002895 ], [ -90.310188000002313, 35.001041000002701 ], [ -90.295159000001959, 34.975634000002508 ], [ -90.243757000002674, 34.945270000002466 ], [ -90.257858000001804, 34.893385000002738 ], [ -90.317741000002243, 34.871058000003039 ], [ -90.362258000001802, 34.842765000003091 ], [ -90.4079460000019, 34.82655900000259 ], [ -90.449691000001636, 34.839920000002273 ], [ -90.429310000002275, 34.868752000002765 ], [ -90.444223000002566, 34.887628000003154 ], [ -90.480323000001704, 34.882356000003163 ], [ -90.483720000002521, 34.861018000002417 ], [ -90.455379000002395, 34.820785000002722 ], [ -90.476584000001921, 34.794004000002431 ], [ -90.448423000002421, 34.739117000003091 ], [ -90.474999000001816, 34.723888000003086 ], [ -90.524166000001841, 34.731388000002354 ], [ -90.492777000002022, 34.772499000002881 ], [ -90.521111000002378, 34.801944000003083 ], [ -90.547778000002381, 34.783333000002607 ], [ -90.539444000001794, 34.755277000002863 ], [ -90.571944000002304, 34.712777000002482 ], [ -90.533333000002443, 34.696388000002983 ], [ -90.474166000002384, 34.705277000003179 ], [ -90.468237000001594, 34.670806000002749 ], [ -90.517548000002293, 34.630759000002996 ], [ -90.587367000002359, 34.641374000002465 ], [ -90.658002000002597, 34.641723000003033 ], [ -90.666538000001822, 34.641801000002566 ], [ -90.750249000002441, 34.642317000002699 ], [ -90.768059000001799, 34.642579000002982 ], [ -90.820800000001839, 34.643000000002829 ], [ -90.927144000001604, 34.64384200000255 ], [ -90.980185000001924, 34.644591000002499 ], [ -91.052011000001841, 34.645717000002399 ], [ -91.052373000001921, 34.601512000002288 ], [ -91.053679000002404, 34.529914000002442 ], [ -91.054147000002601, 34.50388000000283 ], [ -91.05477400000224, 34.470880000002666 ], [ -91.000316000002684, 34.469386000002267 ], [ -91.001701000002285, 34.396628000002302 ], [ -91.002065000002361, 34.380897000002484 ], [ -91.002464000002647, 34.350642000003141 ], [ -91.056337000002046, 34.3366520000029 ], [ -91.107762000001927, 34.353404000002641 ], [ -91.10594600000168, 34.366026000003039 ], [ -91.130179000001903, 34.383325000002444 ], [ -91.153918000002022, 34.422013000003147 ], [ -91.215306000001874, 34.472844000002283 ], [ -91.255092000001767, 34.492956000002806 ], [ -91.264236000001745, 34.527762000002994 ], [ -91.290786000001873, 34.529547000002268 ], [ -91.291609000001941, 34.561762000002446 ], [ -91.377820000001606, 34.563480000002805 ], [ -91.376982000002101, 34.592868000002618 ], [ -91.447888000002393, 34.609135000002794 ], [ -91.446983000001921, 34.667531000003095 ], [ -91.374765000002526, 34.665964000002695 ], [ -91.373802000001646, 34.695125000002839 ], [ -91.373274000002581, 34.73759500000299 ], [ -91.373236000001995, 34.826199000002283 ], [ -91.360933000002262, 34.860666000002347 ], [ -91.368658000002327, 34.912665000002299 ], [ -91.294713000001877, 34.912460000002405 ], [ -91.293143000002516, 34.985107000002373 ], [ -91.238143000001955, 34.984880000002995 ], [ -91.208417000002484, 35.003318000002494 ], [ -91.202323000002025, 35.003266000002839 ], [ -91.149750000002683, 35.002469000002343 ], [ -91.04544500000226, 35.00104800000296 ], [ -91.044860000002274, 35.029218000003127 ], [ -91.043814000001802, 35.089326000002579 ], [ -91.042566000001713, 35.148188000002612 ], [ -91.041960000001922, 35.177930000002398 ], [ -91.040535000001597, 35.266125000002766 ], [ -91.039633000002283, 35.354255000002233 ], [ -91.175764000002118, 35.356929000002317 ], [ -91.18520700000164, 35.356934000002283 ], [ -91.251555000002597, 35.357561000002889 ], [ -91.253024000002199, 35.429870000002595 ], [ -91.253007000002256, 35.445779000002311 ], [ -91.350011000002524, 35.445045000002771 ], [ -91.351525000002582, 35.468478000002854 ], [ -91.397746000001717, 35.468447000002435 ], [ -91.396128000002605, 35.526509000003067 ], [ -91.475070000001807, 35.527203000002658 ], [ -91.475314000002555, 35.527211000003071 ], [ -91.529066000002402, 35.528706000002977 ], [ -91.582094000001717, 35.530332000002936 ], [ -91.64795600000248, 35.53229300000261 ], [ -91.690578000002319, 35.533130000002537 ], [ -91.711452000002197, 35.53335100000259 ], [ -91.793577000001719, 35.534078000002935 ], [ -91.794135000001816, 35.519909000002571 ], [ -91.796197000001698, 35.455578000002809 ], [ -91.850034000001685, 35.436483000002497 ], [ -91.851506000002203, 35.380463000002251 ], [ -91.852222000002513, 35.358384000002992 ], [ -91.903160000001805, 35.359019000002633 ], [ -91.938911000002278, 35.359534000002419 ], [ -92.009000000001961, 35.359731000002924 ], [ -92.111535000002277, 35.36263300000234 ], [ -92.18201800000196, 35.36262400000259 ], [ -92.227726000002235, 35.363103000003065 ], [ -92.230040000002717, 35.363143000002225 ], [ -92.232397000002678, 35.36318500000273 ], [ -92.252843000002201, 35.363650000002416 ], [ -92.251583000002086, 35.407018000002829 ], [ -92.250754000002416, 35.436296000003026 ], [ -92.248792000002041, 35.523590000002301 ], [ -92.244149000001798, 35.570010000002902 ], [ -92.244108000001958, 35.57165600000269 ], [ -92.243915000002005, 35.578772000002765 ], [ -92.243393000002158, 35.593353000002281 ], [ -92.24330400000224, 35.595902000002432 ], [ -92.243000000002297, 35.625021000002739 ], [ -92.242994000002398, 35.625368000003014 ], [ -92.242554000002542, 35.646600000002877 ], [ -92.24080000000238, 35.71212400000222 ], [ -92.334409000002537, 35.714073000002536 ], [ -92.354365000002005, 35.714601000003 ], [ -92.418409000002441, 35.716028000002332 ], [ -92.417056000002674, 35.774102000002728 ], [ -92.41684600000228, 35.788632000002451 ], [ -92.470401000002596, 35.789194000002858 ], [ -92.488883000002474, 35.78930000000291 ], [ -92.598238000002283, 35.790210000002432 ], [ -92.629837000001956, 35.790823000002227 ], [ -92.63114000000256, 35.718371000002243 ], [ -92.736777000002604, 35.721154000002542 ], [ -92.809745000001655, 35.722417000002579 ], [ -92.810797000002296, 35.679196000002335 ], [ -92.811749000002393, 35.651496000002886 ], [ -92.813462000001778, 35.54891700000227 ], [ -92.849277000002559, 35.549474000002164 ], [ -92.849795000001919, 35.513464000003019 ], [ -92.850951000002283, 35.462959000002847 ], [ -92.851189000002719, 35.445885000002534 ], [ -92.852351000001775, 35.376361000002191 ], [ -92.852972000001756, 35.347349000002502 ], [ -92.853534000001716, 35.311587000002845 ], [ -92.853968000002197, 35.274471000002379 ], [ -92.854195000002306, 35.260367000002347 ], [ -92.854480000002283, 35.237693000002949 ], [ -92.855096000002035, 35.173839000002907 ], [ -92.873306000002202, 35.173365000002853 ], [ -92.900911000002438, 35.169993000002499 ], [ -92.925834000002126, 35.175838000002486 ], [ -93.016547000001722, 35.164705000002527 ], [ -93.021841000002141, 35.162812000002297 ], [ -93.028014000002642, 35.129623000002773 ], [ -93.063898000002126, 35.117982000002335 ], [ -93.079897000002362, 35.150602000002401 ], [ -93.087963000002119, 35.184024000002793 ], [ -93.100107000001955, 35.176535000002296 ], [ -93.136021000001861, 35.188377000003001 ], [ -93.141006000002633, 35.211714000002523 ], [ -93.154002000002123, 35.233138000002612 ], [ -93.198259000002437, 35.271217000002601 ], [ -93.234627000001979, 35.273852000002442 ], [ -93.278215000001964, 35.312436000002165 ], [ -93.2799290000018, 35.212556000002181 ], [ -93.359698000002183, 35.21341500000252 ], [ -93.38575000000246, 35.21390300000288 ], [ -93.456220000001963, 35.21588200000258 ], [ -93.511321000002695, 35.159717000002772 ], [ -93.529736000002401, 35.145502000002416 ], [ -93.600339000002123, 35.147135000002464 ], [ -93.662882000002185, 35.148223000002368 ], [ -93.706843000002621, 35.134886000002275 ], [ -93.707032000002485, 35.124046000002629 ], [ -93.707604000002235, 35.101464000002849 ], [ -93.704414000002544, 35.046500000002958 ], [ -93.704962000002283, 35.019716000002916 ], [ -93.810787000002378, 35.020764000002607 ], [ -93.915815000002382, 35.023434000002268 ], [ -94.020708000002045, 35.025193000002353 ], [ -94.074449000002033, 35.026432000002288 ], [ -94.073530000002521, 35.054183000002311 ], [ -94.125056000001777, 35.055319000002335 ], [ -94.140463000001944, 35.099674000002942 ], [ -94.204340000002034, 35.079058000002526 ], [ -94.232418000002625, 35.070502000002207 ], [ -94.241237000001675, 35.067961000002768 ], [ -94.250683000001843, 35.065606000002795 ], [ -94.250751000002339, 35.065393000002416 ], [ -94.232698000002557, 35.057683000002235 ], [ -94.230144000002056, 34.985862000002811 ], [ -94.230524000002063, 34.968527000002929 ], [ -94.337056000002505, 34.948229000002868 ], [ -94.346374000002641, 34.946882000002525 ] ] ] } },
{ "type": "Feature", "properties": { "opt_all": 2, "population": 754104.0, "voting_age_pop": 579627.0, "dem_votes": 120617.0, "rep_votes": 149925.0, "minority_pop": 205279.0, "dem_pct": 0.44583465767021951, "rep_pct": 0.5541653419601521 }, "geometry": { "type": "Polygon", "coordinates": [ [ [ -92.819550000002195, 34.354575000002576 ], [ -92.827947000001913, 34.36902200000273 ], [ -92.849456000002164, 34.373216000002884 ], [ -92.863819000002422, 34.359471000002998 ], [ -92.896750000002285, 34.359302000002707 ], [ -92.895262000002518, 34.388877000003042 ], [ -92.948081000002077, 34.389255000002585 ], [ -92.947685000001783, 34.444850000002447 ], [ -92.939600000001803, 34.448879000003004 ], [ -92.930490000002621, 34.448670000003034 ], [ -92.926120000001703, 34.448590000003094 ], [ -92.91547200000268, 34.491686000002858 ], [ -92.879848000002198, 34.505559000002371 ], [ -92.793189000001718, 34.50357300000254 ], [ -92.791498000001937, 34.561985000002757 ], [ -92.80842300000208, 34.57716500000285 ], [ -92.808028000002423, 34.59040600000278 ], [ -92.876823000002275, 34.591172000002281 ], [ -92.875685000001965, 34.623167000002404 ], [ -92.875659000002514, 34.624082000003042 ], [ -92.875394000002316, 34.635196000002821 ], [ -92.924754000001798, 34.636073000002597 ], [ -92.949681000002158, 34.63645800000247 ], [ -92.953896000001805, 34.636421000002755 ], [ -92.958485000002099, 34.636729000002376 ], [ -92.979978000002305, 34.6372490000022 ], [ -92.979189000002165, 34.67415500000287 ], [ -92.969720000001956, 34.688801000002726 ], [ -92.969632000002704, 34.701275000002745 ], [ -92.969655000002277, 34.714178000003052 ], [ -92.969317000001965, 34.772263000002255 ], [ -93.075178000001657, 34.771892000002673 ], [ -93.074011000002557, 34.858199000002628 ], [ -92.96944200000236, 34.859062000002702 ], [ -92.829814000002287, 34.855347000002254 ], [ -92.783526000002126, 34.839822000002421 ], [ -92.739732000002235, 34.853599000002738 ], [ -92.755399000002242, 34.853745000003002 ], [ -92.753637000001959, 34.911367000002791 ], [ -92.684780000002277, 34.910255000002714 ], [ -92.649646000001837, 34.910173000003056 ], [ -92.648730000002359, 34.938613000002896 ], [ -92.586594000002563, 34.937572000002987 ], [ -92.544203000002383, 34.9528970000028 ], [ -92.476371000002203, 34.949175000002214 ], [ -92.451277000002079, 34.896606000002649 ], [ -92.46150900000228, 34.856751000002347 ], [ -92.436413000001679, 34.842962000002373 ], [ -92.449856000002299, 34.900824000002252 ], [ -92.413713000002474, 34.93141700000249 ], [ -92.35338200000254, 34.929850000002432 ], [ -92.353010000002058, 34.929832000003081 ], [ -92.262428000002544, 34.928110000002818 ], [ -92.229758000001723, 34.927514000003058 ], [ -92.229099000002165, 34.949424000002836 ], [ -92.227170000002076, 35.01459500000243 ], [ -92.121540000001858, 35.012204000002278 ], [ -92.119748000002446, 35.06656000000276 ], [ -92.117999000002243, 35.121232000002358 ], [ -92.116988000002138, 35.156544000002945 ], [ -92.115856000002381, 35.197127000003043 ], [ -92.115422000001999, 35.212515000002831 ], [ -92.113621000002439, 35.274934000003036 ], [ -92.111535000002277, 35.36263300000234 ], [ -92.009000000001961, 35.359731000002924 ], [ -91.938911000002278, 35.359534000002419 ], [ -91.903160000001805, 35.359019000002633 ], [ -91.852222000002513, 35.358384000002992 ], [ -91.851506000002203, 35.380463000002251 ], [ -91.850034000001685, 35.436483000002497 ], [ -91.796197000001698, 35.455578000002809 ], [ -91.794135000001816, 35.519909000002571 ], [ -91.793577000001719, 35.534078000002935 ], [ -91.711452000002197, 35.53335100000259 ], [ -91.690578000002319, 35.533130000002537 ], [ -91.64795600000248, 35.53229300000261 ], [ -91.582094000001717, 35.530332000002936 ], [ -91.529066000002402, 35.528706000002977 ], [ -91.475314000002555, 35.527211000003071 ], [ -91.475070000001807, 35.527203000002658 ], [ -91.396128000002605, 35.526509000003067 ], [ -91.397746000001717, 35.468447000002435 ], [ -91.351525000002582, 35.468478000002854 ], [ -91.350011000002524, 35.445045000002771 ], [ -91.253007000002256, 35.445779000002311 ], [ -91.253024000002199, 35.429870000002595 ], [ -91.251555000002597, 35.357561000002889 ], [ -91.18520700000164, 35.356934000002283 ], [ -91.175764000002118, 35.356929000002317 ], [ -91.039633000002283, 35.354255000002233 ], [ -91.040535000001597, 35.266125000002766 ], [ -91.041960000001922, 35.177930000002398 ], [ -91.042566000001713, 35.148188000002612 ], [ -91.043814000001802, 35.089326000002579 ], [ -91.044860000002274, 35.029218000003127 ], [ -91.04544500000226, 35.00104800000296 ], [ -91.149750000002683, 35.002469000002343 ], [ -91.202323000002025, 35.003266000002839 ], [ -91.208417000002484, 35.003318000002494 ], [ -91.238143000001955, 34.984880000002995 ], [ -91.293143000002516, 34.985107000002373 ], [ -91.294713000001877, 34.912460000002405 ], [ -91.368658000002327, 34.912665000002299 ], [ -91.360933000002262, 34.860666000002347 ], [ -91.373236000001995, 34.826199000002283 ], [ -91.373274000002581, 34.73759500000299 ], [ -91.373802000001646, 34.695125000002839 ], [ -91.374765000002526, 34.665964000002695 ], [ -91.446983000001921, 34.667531000003095 ], [ -91.447888000002393, 34.609135000002794 ], [ -91.376982000002101, 34.592868000002618 ], [ -91.377820000001606, 34.563480000002805 ], [ -91.291609000001941, 34.561762000002446 ], [ -91.290786000001873, 34.529547000002268 ], [ -91.264236000001745, 34.527762000002994 ], [ -91.255092000001767, 34.492956000002806 ], [ -91.215306000001874, 34.472844000002283 ], [ -91.153918000002022, 34.422013000003147 ], [ -91.130179000001903, 34.383325000002444 ], [ -91.10594600000168, 34.366026000003039 ], [ -91.107762000001927, 34.353404000002641 ], [ -91.056337000002046, 34.3366520000029 ], [ -91.002464000002647, 34.350642000003141 ], [ -91.002065000002361, 34.380897000002484 ], [ -91.001701000002285, 34.396628000002302 ], [ -91.000316000002684, 34.469386000002267 ], [ -91.05477400000224, 34.470880000002666 ], [ -91.054147000002601, 34.50388000000283 ], [ -91.053679000002404, 34.529914000002442 ], [ -91.052373000001921, 34.601512000002288 ], [ -91.052011000001841, 34.645717000002399 ], [ -90.980185000001924, 34.644591000002499 ], [ -90.927144000001604, 34.64384200000255 ], [ -90.820800000001839, 34.643000000002829 ], [ -90.768059000001799, 34.642579000002982 ], [ -90.750249000002441, 34.642317000002699 ], [ -90.666538000001822, 34.641801000002566 ], [ -90.658002000002597, 34.641723000003033 ], [ -90.587367000002359, 34.641374000002465 ], [ -90.573762000002219, 34.592133000002839 ], [ -90.540493000001604, 34.557871000002734 ], [ -90.59005300000176, 34.497231000002657 ], [ -90.591013000002164, 34.469747000002499 ], [ -90.580769000002235, 34.437699000002624 ], [ -90.586232000001701, 34.40917200000294 ], [ -90.652783000001719, 34.381682000002449 ], [ -90.666853000001765, 34.355773000002792 ], [ -90.657488000002473, 34.32223100000288 ], [ -90.69312900000196, 34.32257000000245 ], [ -90.680658000001714, 34.37068900000272 ], [ -90.73368500000214, 34.363999000002714 ], [ -90.769493000001759, 34.350448000003098 ], [ -90.743709000001743, 34.322459000003086 ], [ -90.735873000002599, 34.310687000002787 ], [ -90.738025000002494, 34.289279000002466 ], [ -90.760423000002035, 34.270733000002735 ], [ -90.81673600000228, 34.280649000002683 ], [ -90.834668000002679, 34.263219000003154 ], [ -90.847149000002602, 34.20613000000295 ], [ -90.881338000002245, 34.216377000002915 ], [ -90.906334000002403, 34.244382000002489 ], [ -90.934544000002361, 34.217854000003101 ], [ -90.886746000001878, 34.182501000003178 ], [ -90.8174880000022, 34.183198000002861 ], [ -90.807564000001705, 34.161821000002348 ], [ -90.836099000002633, 34.137876000002784 ], [ -90.868618000002513, 34.142516000002338 ], [ -90.909957000002279, 34.165511000002937 ], [ -90.958644000002636, 34.135484000002712 ], [ -90.955771000001718, 34.11871300000287 ], [ -90.921294000002575, 34.093514000002678 ], [ -90.871122000002046, 34.080249000002837 ], [ -90.893285000002422, 34.026584000002799 ], [ -90.988184000002136, 34.019211000002478 ], [ -90.962489000001682, 33.981302000003097 ], [ -90.999977000002559, 33.966386000002323 ], [ -91.018948000002524, 34.003225000002622 ], [ -91.090658000002236, 33.988730000003017 ], [ -91.079003000002487, 33.95424100000281 ], [ -91.018629000002562, 33.941908000003046 ], [ -91.010863000002047, 33.927310000002471 ], [ -91.072772000002274, 33.867294000003142 ], [ -91.049083000001914, 33.816026000003156 ], [ -91.000474000001958, 33.7994830000031 ], [ -91.027367000002059, 33.765114000003017 ], [ -91.053386000002661, 33.778283000003142 ], [ -91.108663000002323, 33.771668000002812 ], [ -91.135300000001834, 33.78200100000258 ], [ -91.148807000001895, 33.731360000003171 ], [ -91.125949000001754, 33.708948000002621 ], [ -91.068051000002001, 33.716198000002471 ], [ -91.033707000001741, 33.673844000003093 ], [ -91.079776000002283, 33.658036000002333 ], [ -91.128956000002319, 33.673631000002267 ], [ -91.160367000001926, 33.706602000002412 ], [ -91.223914000002623, 33.693739000002481 ], [ -91.211678000002664, 33.65679100000262 ], [ -91.177670000002081, 33.652050000002866 ], [ -91.139179000002315, 33.628472000002553 ], [ -91.132102000002234, 33.595908000002929 ], [ -91.17855500000212, 33.567305000002307 ], [ -91.234058000001994, 33.56141500000313 ], [ -91.245756000002558, 33.517190000002948 ], [ -91.280520000002682, 33.517941000002736 ], [ -91.324640000002162, 33.518679000003139 ], [ -91.366847000002423, 33.563666000002605 ], [ -91.453462000001636, 33.56367500000259 ], [ -91.453418000001918, 33.606633000002788 ], [ -91.452377000001704, 33.666201000003021 ], [ -91.452376000002204, 33.66628200000239 ], [ -91.45182200000184, 33.704241000002376 ], [ -91.451592000002165, 33.715779000002449 ], [ -91.451419000001977, 33.736823000003042 ], [ -91.451375000002159, 33.738050000002396 ], [ -91.450284000002554, 33.780543000002396 ], [ -91.55504000000164, 33.783099000002437 ], [ -91.557656000001714, 33.783322000002862 ], [ -91.556667000001681, 33.825742000003054 ], [ -91.553847000002463, 33.870926000002783 ], [ -91.5524420000026, 33.899506000002994 ], [ -91.550184000002517, 33.943482000003087 ], [ -91.54865600000204, 33.976815000002503 ], [ -91.509819000002537, 33.976260000002874 ], [ -91.500851000002442, 33.976120000002979 ], [ -91.465712000002142, 33.97575900000259 ], [ -91.465232000002317, 34.004734000002962 ], [ -91.421985000002394, 34.011715000002674 ], [ -91.438686000002036, 34.030976000002966 ], [ -91.445074000002165, 34.080577000002421 ], [ -91.439734000002119, 34.105626000002538 ], [ -91.44640900000212, 34.129486000002892 ], [ -91.49679000000188, 34.130623000003098 ], [ -91.514374000002476, 34.142293000002589 ], [ -91.530290000001884, 34.218157000002662 ], [ -91.547304000002683, 34.223019000002907 ], [ -91.599161000001644, 34.228788000002965 ], [ -91.711675000002444, 34.233864000002868 ], [ -91.709864000002, 34.307765000003108 ], [ -91.708238000002183, 34.365060000002565 ], [ -91.707232000002122, 34.394950000002765 ], [ -91.706905000001925, 34.413516000003035 ], [ -91.706753000002379, 34.420942000002668 ], [ -91.706754000001681, 34.422090000003031 ], [ -91.706509000001716, 34.431728000002892 ], [ -91.706498000001673, 34.434778000002503 ], [ -91.705250000001797, 34.482731000002531 ], [ -91.814133000002585, 34.484234000002495 ], [ -91.921889000002139, 34.488012000002563 ], [ -91.97480500000178, 34.488721000002329 ], [ -92.030254000002444, 34.489539000002445 ], [ -92.143734000001913, 34.491557000002757 ], [ -92.20804200000218, 34.492809000002268 ], [ -92.245841000002017, 34.493584000002855 ], [ -92.308754000002125, 34.494533000002598 ], [ -92.34622900000214, 34.494987000003007 ], [ -92.369078000001679, 34.495141000002519 ], [ -92.393907000002599, 34.495621000002338 ], [ -92.395085000001799, 34.495631000002355 ], [ -92.404680000001704, 34.451916000002733 ], [ -92.477413000002244, 34.453340000002697 ], [ -92.50633300000176, 34.453781000003097 ], [ -92.559124000001717, 34.454715000002466 ], [ -92.589469000002083, 34.455577000003068 ], [ -92.599648000001693, 34.441427000002328 ], [ -92.624618000002485, 34.413174000002677 ], [ -92.668654000002562, 34.41450400000231 ], [ -92.670338000001962, 34.356299000002345 ], [ -92.749221000001924, 34.357016000003014 ], [ -92.758579000002385, 34.362222000002269 ], [ -92.782157000002556, 34.360968000002444 ], [ -92.788748000001817, 34.353912000002332 ], [ -92.819550000002195, 34.354575000002576 ] ] ] } },
{ "type": "Feature", "properties": { "opt_all": 3, "population": 751713.0, "voting_age_pop": 565304.0, "dem_votes": 85251.0, "rep_votes": 151759.0, "minority_pop": 160666.0, "dem_pct": 0.35969368365904658, "rep_pct": 0.64030631591903031 }, "geometry": { "type": "Polygon", "coordinates": [ [ [ -94.43690600000204, 35.24303900000276 ], [ -94.43679100000216, 35.246720000002647 ], [ -94.435810000002718, 35.272792000002291 ], [ -94.435709000002106, 35.27523600000255 ], [ -94.435602000002163, 35.278764000002461 ], [ -94.435547000002359, 35.280316000002252 ], [ -94.435088000001798, 35.291931000002414 ], [ -94.434643000001799, 35.301984000002726 ], [ -94.433620000002378, 35.328485000002885 ], [ -94.431631000002184, 35.368385000002583 ], [ -94.431939000001719, 35.391766000002306 ], [ -94.431014000002364, 35.393167000002201 ], [ -94.448737000002637, 35.493461000002476 ], [ -94.449539000002119, 35.498038000002346 ], [ -94.456223000002154, 35.540238000002475 ], [ -94.474674000002096, 35.650703000002835 ], [ -94.493137000002093, 35.759247000002468 ], [ -94.507464000002074, 35.844515000002815 ], [ -94.522420000002555, 35.93164700000289 ], [ -94.535213000002116, 36.004801000002942 ], [ -94.552172000002003, 36.102128000002736 ], [ -94.563683000001703, 36.167391000002887 ], [ -94.566155000002695, 36.181431000002483 ], [ -94.571266000001842, 36.210974000002906 ], [ -94.573759000002283, 36.226019000002566 ], [ -94.584633000001858, 36.291173000002495 ], [ -94.593375000001984, 36.345614000002548 ], [ -94.617857000002758, 36.499532000002091 ], [ -94.523890000002339, 36.49928200000268 ], [ -94.38381300000276, 36.499449000002457 ], [ -94.329431000001861, 36.499453000002198 ], [ -94.294108000001842, 36.499307000002254 ], [ -94.276117000002458, 36.499267000002426 ], [ -94.269430000001677, 36.499182000002826 ], [ -94.181413000002095, 36.498815000002338 ], [ -94.11337300000244, 36.498670000002669 ], [ -94.073371000002737, 36.49867900000217 ], [ -93.967149000002564, 36.498843000002545 ], [ -93.866689000002154, 36.498735000002682 ], [ -93.754420000001673, 36.499035000002259 ], [ -93.679901000002275, 36.499125000002294 ], [ -93.583110000002435, 36.499168000002221 ], [ -93.492288000001835, 36.498941000002432 ], [ -93.385829000001877, 36.498543000002385 ], [ -93.293174000002367, 36.498433000002407 ], [ -93.296237000001881, 36.379031000002541 ], [ -93.296234000002556, 36.360751000002736 ], [ -93.297550000001678, 36.296560000002422 ], [ -93.299171000002119, 36.232412000002562 ], [ -93.299666000002645, 36.194362000002208 ], [ -93.300820000002318, 36.121550000002962 ], [ -93.443458000002096, 36.124539000002741 ], [ -93.479521000002677, 36.125054000002429 ], [ -93.480274000002396, 36.081554000002868 ], [ -93.445740000001905, 36.080787000002466 ], [ -93.448674000002057, 36.025443000003015 ], [ -93.450788000002561, 35.967497000003029 ], [ -93.486232000002659, 35.953355000002794 ], [ -93.505421000002158, 35.895549000002859 ], [ -93.523646000001847, 35.881514000002291 ], [ -93.517057000002566, 35.823332000002928 ], [ -93.519185000001883, 35.763487000002492 ], [ -93.695856000001982, 35.768620000002549 ], [ -93.910585000002698, 35.774298000002339 ], [ -93.91083600000168, 35.759752000002955 ], [ -93.911668000002322, 35.730805000002363 ], [ -93.964235000002404, 35.732029000002349 ], [ -93.982845000002243, 35.704024000002754 ], [ -93.984235000001959, 35.660659000002951 ], [ -94.020355000001857, 35.661426000002109 ], [ -94.073958000002278, 35.662463000002575 ], [ -94.07463400000232, 35.633393000002606 ], [ -94.076064000002404, 35.575601000002571 ], [ -94.022878000002294, 35.574204000002808 ], [ -94.036796000001843, 35.52808400000216 ], [ -94.033325000002279, 35.501380000002243 ], [ -94.054102000002104, 35.477441000002962 ], [ -94.057574000002219, 35.452131000002474 ], [ -94.07443700000276, 35.444997000002751 ], [ -94.074897000002323, 35.434527000002888 ], [ -94.075167000001755, 35.42537100000218 ], [ -94.077929000002641, 35.379667000002591 ], [ -94.079282000002337, 35.334563000002881 ], [ -94.079575000001682, 35.321146000002621 ], [ -94.079301000002687, 35.301328000002755 ], [ -94.079493000002756, 35.295537000002263 ], [ -94.079698000002367, 35.290428000002848 ], [ -94.079830000001877, 35.286900000002788 ], [ -94.082220000002593, 35.214782000002131 ], [ -94.028872000001925, 35.21417600000246 ], [ -94.028946000001795, 35.211598000002482 ], [ -94.029775000001919, 35.182963000002232 ], [ -94.031236000002565, 35.140908000002966 ], [ -94.120322000001735, 35.143050000002724 ], [ -94.11853700000232, 35.181701000002789 ], [ -94.165264000002395, 35.179043000002586 ], [ -94.160238000002366, 35.180680000002276 ], [ -94.172949000002404, 35.208432000002588 ], [ -94.215866000002222, 35.202529000002563 ], [ -94.24155600000168, 35.189387000002355 ], [ -94.234689000002703, 35.215418000002913 ], [ -94.250881000002394, 35.21210100000296 ], [ -94.260118000002038, 35.212759000002208 ], [ -94.259803000001838, 35.202565000002231 ], [ -94.270607000002116, 35.204348000002916 ], [ -94.289430000002199, 35.203454000002125 ], [ -94.296221000002703, 35.21533100000272 ], [ -94.306252000002075, 35.222898000002566 ], [ -94.316859000001898, 35.231719000002599 ], [ -94.354874000002539, 35.224114000002707 ], [ -94.356683000001695, 35.162457000002789 ], [ -94.357209000002143, 35.148189000002496 ], [ -94.371905000002357, 35.14834000000279 ], [ -94.439804000001743, 35.163448000002241 ], [ -94.437649000002139, 35.222847000002361 ], [ -94.437625000002242, 35.223330000002463 ], [ -94.43690600000204, 35.24303900000276 ] ] ] } },
{ "type": "Feature", "properties": { "opt_all": 4, "population": 749703.0, "voting_age_pop": 583455.0, "dem_votes": 87674.0, "rep_votes": 172876.0, "minority_pop": 173890.0, "dem_pct": 0.3364958739833061, "rep_pct": 0.66350412563289041 }, "geometry": { "type": "Polygon", "coordinates": [ [ [ -94.043034000002564, 33.419685000002971 ], [ -94.043109000002246, 33.437527000002277 ], [ -94.043099000002698, 33.445697000002376 ], [ -94.043113000001838, 33.470373000002262 ], [ -94.043107000002081, 33.49126100000268 ], [ -94.043313000001959, 33.551584000002393 ], [ -94.066181000001805, 33.568889000003011 ], [ -94.143374000002083, 33.56559300000221 ], [ -94.162356000002646, 33.588895000002552 ], [ -94.184411000002356, 33.594386000002835 ], [ -94.22375700000228, 33.553482000002845 ], [ -94.251499000002767, 33.564265000002145 ], [ -94.327580000002044, 33.551744000002607 ], [ -94.386786000002616, 33.54512300000215 ], [ -94.428034000002739, 33.590038000002259 ], [ -94.453483000001754, 33.591970000002917 ], [ -94.464425000002635, 33.637472000002816 ], [ -94.485905000001793, 33.637798000002839 ], [ -94.483450000002676, 33.726835000002275 ], [ -94.48279200000222, 33.751071000002142 ], [ -94.480699000001863, 33.823140000002915 ], [ -94.479761000002483, 33.856708000002264 ], [ -94.477397000002725, 33.940903000002308 ], [ -94.475096000001756, 34.02178500000241 ], [ -94.472631000002494, 34.102978000002366 ], [ -94.470331000001977, 34.190183000002385 ], [ -94.468179000001882, 34.272855000002679 ], [ -94.465420000002084, 34.359327000002708 ], [ -94.465031000001957, 34.375952000002208 ], [ -94.462802000002696, 34.447467000002618 ], [ -94.460350000002407, 34.534683000002197 ], [ -94.45784700000236, 34.621815000002698 ], [ -94.456013000001718, 34.67980600000277 ], [ -94.454436000002502, 34.728945000002682 ], [ -94.451094000002286, 34.83069600000286 ], [ -94.450355000002503, 34.852793000002471 ], [ -94.44753300000248, 34.934071000002596 ], [ -94.36066900000192, 34.960844000002496 ], [ -94.346374000002641, 34.946882000002525 ], [ -94.337056000002505, 34.948229000002868 ], [ -94.230524000002063, 34.968527000002929 ], [ -94.230144000002056, 34.985862000002811 ], [ -94.232698000002557, 35.057683000002235 ], [ -94.250751000002339, 35.065393000002416 ], [ -94.250683000001843, 35.065606000002795 ], [ -94.241237000001675, 35.067961000002768 ], [ -94.232418000002625, 35.070502000002207 ], [ -94.204340000002034, 35.079058000002526 ], [ -94.140463000001944, 35.099674000002942 ], [ -94.125056000001777, 35.055319000002335 ], [ -94.073530000002521, 35.054183000002311 ], [ -94.074449000002033, 35.026432000002288 ], [ -94.020708000002045, 35.025193000002353 ], [ -93.915815000002382, 35.023434000002268 ], [ -93.810787000002378, 35.020764000002607 ], [ -93.704962000002283, 35.019716000002916 ], [ -93.704414000002544, 35.046500000002958 ], [ -93.707604000002235, 35.101464000002849 ], [ -93.707032000002485, 35.124046000002629 ], [ -93.706843000002621, 35.134886000002275 ], [ -93.662882000002185, 35.148223000002368 ], [ -93.600339000002123, 35.147135000002464 ], [ -93.529736000002401, 35.145502000002416 ], [ -93.511321000002695, 35.159717000002772 ], [ -93.456220000001963, 35.21588200000258 ], [ -93.38575000000246, 35.21390300000288 ], [ -93.359698000002183, 35.21341500000252 ], [ -93.2799290000018, 35.212556000002181 ], [ -93.278215000001964, 35.312436000002165 ], [ -93.234627000001979, 35.273852000002442 ], [ -93.198259000002437, 35.271217000002601 ], [ -93.154002000002123, 35.233138000002612 ], [ -93.141006000002633, 35.211714000002523 ], [ -93.136021000001861, 35.188377000003001 ], [ -93.100107000001955, 35.176535000002296 ], [ -93.087963000002119, 35.184024000002793 ], [ -93.079897000002362, 35.150602000002401 ], [ -93.063898000002126, 35.117982000002335 ], [ -93.028014000002642, 35.129623000002773 ], [ -93.021841000002141, 35.162812000002297 ], [ -93.016547000001722, 35.164705000002527 ], [ -92.925834000002126, 35.175838000002486 ], [ -92.900911000002438, 35.169993000002499 ], [ -92.873306000002202, 35.173365000002853 ], [ -92.855096000002035, 35.173839000002907 ], [ -92.854480000002283, 35.237693000002949 ], [ -92.854195000002306, 35.260367000002347 ], [ -92.853968000002197, 35.274471000002379 ], [ -92.853534000001716, 35.311587000002845 ], [ -92.852972000001756, 35.347349000002502 ], [ -92.852351000001775, 35.376361000002191 ], [ -92.851189000002719, 35.445885000002534 ], [ -92.850951000002283, 35.462959000002847 ], [ -92.849795000001919, 35.513464000003019 ], [ -92.849277000002559, 35.549474000002164 ], [ -92.813462000001778, 35.54891700000227 ], [ -92.811749000002393, 35.651496000002886 ], [ -92.810797000002296, 35.679196000002335 ], [ -92.809745000001655, 35.722417000002579 ], [ -92.736777000002604, 35.721154000002542 ], [ -92.63114000000256, 35.718371000002243 ], [ -92.629837000001956, 35.790823000002227 ], [ -92.598238000002283, 35.790210000002432 ], [ -92.488883000002474, 35.78930000000291 ], [ -92.470401000002596, 35.789194000002858 ], [ -92.41684600000228, 35.788632000002451 ], [ -92.417056000002674, 35.774102000002728 ], [ -92.418409000002441, 35.716028000002332 ], [ -92.354365000002005, 35.714601000003 ], [ -92.334409000002537, 35.714073000002536 ], [ -92.24080000000238, 35.71212400000222 ], [ -92.242554000002542, 35.646600000002877 ], [ -92.242994000002398, 35.625368000003014 ], [ -92.243000000002297, 35.625021000002739 ], [ -92.24330400000224, 35.595902000002432 ], [ -92.243393000002158, 35.593353000002281 ], [ -92.243915000002005, 35.578772000002765 ], [ -92.244108000001958, 35.57165600000269 ], [ -92.244149000001798, 35.570010000002902 ], [ -92.248792000002041, 35.523590000002301 ], [ -92.250754000002416, 35.436296000003026 ], [ -92.251583000002086, 35.407018000002829 ], [ -92.252843000002201, 35.363650000002416 ], [ -92.232397000002678, 35.36318500000273 ], [ -92.230040000002717, 35.363143000002225 ], [ -92.227726000002235, 35.363103000003065 ], [ -92.18201800000196, 35.36262400000259 ], [ -92.111535000002277, 35.36263300000234 ], [ -92.113621000002439, 35.274934000003036 ], [ -92.115422000001999, 35.212515000002831 ], [ -92.115856000002381, 35.197127000003043 ], [ -92.116988000002138, 35.156544000002945 ], [ -92.117999000002243, 35.121232000002358 ], [ -92.119748000002446, 35.06656000000276 ], [ -92.121540000001858, 35.012204000002278 ], [ -92.227170000002076, 35.01459500000243 ], [ -92.229099000002165, 34.949424000002836 ], [ -92.229758000001723, 34.927514000003058 ], [ -92.262428000002544, 34.928110000002818 ], [ -92.353010000002058, 34.929832000003081 ], [ -92.35338200000254, 34.929850000002432 ], [ -92.413713000002474, 34.93141700000249 ], [ -92.449856000002299, 34.900824000002252 ], [ -92.436413000001679, 34.842962000002373 ], [ -92.46150900000228, 34.856751000002347 ], [ -92.451277000002079, 34.896606000002649 ], [ -92.476371000002203, 34.949175000002214 ], [ -92.544203000002383, 34.9528970000028 ], [ -92.586594000002563, 34.937572000002987 ], [ -92.648730000002359, 34.938613000002896 ], [ -92.649646000001837, 34.910173000003056 ], [ -92.684780000002277, 34.910255000002714 ], [ -92.753637000001959, 34.911367000002791 ], [ -92.755399000002242, 34.853745000003002 ], [ -92.739732000002235, 34.853599000002738 ], [ -92.783526000002126, 34.839822000002421 ], [ -92.829814000002287, 34.855347000002254 ], [ -92.96944200000236, 34.859062000002702 ], [ -93.074011000002557, 34.858199000002628 ], [ -93.075178000001657, 34.771892000002673 ], [ -92.969317000001965, 34.772263000002255 ], [ -92.969655000002277, 34.714178000003052 ], [ -92.969632000002704, 34.701275000002745 ], [ -92.969720000001956, 34.688801000002726 ], [ -92.979189000002165, 34.67415500000287 ], [ -92.979978000002305, 34.6372490000022 ], [ -92.958485000002099, 34.636729000002376 ], [ -92.953896000001805, 34.636421000002755 ], [ -92.949681000002158, 34.63645800000247 ], [ -92.924754000001798, 34.636073000002597 ], [ -92.875394000002316, 34.635196000002821 ], [ -92.875659000002514, 34.624082000003042 ], [ -92.875685000001965, 34.623167000002404 ], [ -92.876823000002275, 34.591172000002281 ], [ -92.808028000002423, 34.59040600000278 ], [ -92.80842300000208, 34.57716500000285 ], [ -92.791498000001937, 34.561985000002757 ], [ -92.793189000001718, 34.50357300000254 ], [ -92.879848000002198, 34.505559000002371 ], [ -92.91547200000268, 34.491686000002858 ], [ -92.926120000001703, 34.448590000003094 ], [ -92.930490000002621, 34.448670000003034 ], [ -92.939600000001803, 34.448879000003004 ], [ -92.947685000001783, 34.444850000002447 ], [ -92.948081000002077, 34.389255000002585 ], [ -92.895262000002518, 34.388877000003042 ], [ -92.896750000002285, 34.359302000002707 ], [ -92.863819000002422, 34.359471000002998 ], [ -92.849456000002164, 34.373216000002884 ], [ -92.827947000001913, 34.36902200000273 ], [ -92.819550000002195, 34.354575000002576 ], [ -92.788748000001817, 34.353912000002332 ], [ -92.782157000002556, 34.360968000002444 ], [ -92.758579000002385, 34.362222000002269 ], [ -92.749221000001924, 34.357016000003014 ], [ -92.670338000001962, 34.356299000002345 ], [ -92.668654000002562, 34.41450400000231 ], [ -92.624618000002485, 34.413174000002677 ], [ -92.599648000001693, 34.441427000002328 ], [ -92.589469000002083, 34.455577000003068 ], [ -92.559124000001717, 34.454715000002466 ], [ -92.50633300000176, 34.453781000003097 ], [ -92.477413000002244, 34.453340000002697 ], [ -92.404680000001704, 34.451916000002733 ], [ -92.395085000001799, 34.495631000002355 ], [ -92.393907000002599, 34.495621000002338 ], [ -92.369078000001679, 34.495141000002519 ], [ -92.34622900000214, 34.494987000003007 ], [ -92.308754000002125, 34.494533000002598 ], [ -92.245841000002017, 34.493584000002855 ], [ -92.20804200000218, 34.492809000002268 ], [ -92.143734000001913, 34.491557000002757 ], [ -92.030254000002444, 34.489539000002445 ], [ -91.97480500000178, 34.488721000002329 ], [ -91.921889000002139, 34.488012000002563 ], [ -91.814133000002585, 34.484234000002495 ], [ -91.705250000001797, 34.482731000002531 ], [ -91.706498000001673, 34.434778000002503 ], [ -91.706509000001716, 34.431728000002892 ], [ -91.706754000001681, 34.422090000003031 ], [ -91.706753000002379, 34.420942000002668 ], [ -91.706905000001925, 34.413516000003035 ], [ -91.707232000002122, 34.394950000002765 ], [ -91.708238000002183, 34.365060000002565 ], [ -91.709864000002, 34.307765000003108 ], [ -91.711675000002444, 34.233864000002868 ], [ -91.599161000001644, 34.228788000002965 ], [ -91.547304000002683, 34.223019000002907 ], [ -91.530290000001884, 34.218157000002662 ], [ -91.514374000002476, 34.142293000002589 ], [ -91.49679000000188, 34.130623000003098 ], [ -91.44640900000212, 34.129486000002892 ], [ -91.439734000002119, 34.105626000002538 ], [ -91.445074000002165, 34.080577000002421 ], [ -91.438686000002036, 34.030976000002966 ], [ -91.421985000002394, 34.011715000002674 ], [ -91.465232000002317, 34.004734000002962 ], [ -91.465712000002142, 33.97575900000259 ], [ -91.500851000002442, 33.976120000002979 ], [ -91.509819000002537, 33.976260000002874 ], [ -91.54865600000204, 33.976815000002503 ], [ -91.550184000002517, 33.943482000003087 ], [ -91.5524420000026, 33.899506000002994 ], [ -91.553847000002463, 33.870926000002783 ], [ -91.556667000001681, 33.825742000003054 ], [ -91.557656000001714, 33.783322000002862 ], [ -91.55504000000164, 33.783099000002437 ], [ -91.450284000002554, 33.780543000002396 ], [ -91.451375000002159, 33.738050000002396 ], [ -91.451419000001977, 33.736823000003042 ], [ -91.451592000002165, 33.715779000002449 ], [ -91.45182200000184, 33.704241000002376 ], [ -91.452376000002204, 33.66628200000239 ], [ -91.452377000001704, 33.666201000003021 ], [ -91.453418000001918, 33.606633000002788 ], [ -91.453462000001636, 33.56367500000259 ], [ -91.366847000002423, 33.563666000002605 ], [ -91.324640000002162, 33.518679000003139 ], [ -91.280520000002682, 33.517941000002736 ], [ -91.245756000002558, 33.517190000002948 ], [ -91.234058000001994, 33.56141500000313 ], [ -91.214020000001639, 33.524698000002466 ], [ -91.183420000002215, 33.505062000002333 ], [ -91.233504000002043, 33.443493000002334 ], [ -91.206470000002597, 33.433924000003131 ], [ -91.169915000001836, 33.451898000002956 ], [ -91.177527000002698, 33.482986000002427 ], [ -91.131338000002643, 33.480927000002865 ], [ -91.118775000002117, 33.446485000002809 ], [ -91.132746000001802, 33.429622000003128 ], [ -91.20647700000228, 33.400143000002998 ], [ -91.169702000002701, 33.380351000002747 ], [ -91.120367000002418, 33.388866000002579 ], [ -91.140462000002259, 33.351352000002997 ], [ -91.141640000002198, 33.300066000002431 ], [ -91.115306000001922, 33.255243000002814 ], [ -91.047314000001634, 33.281932000002392 ], [ -91.054130000002644, 33.245990000003005 ], [ -91.082592000002506, 33.221826000002935 ], [ -91.086017000002585, 33.136281000002825 ], [ -91.148490000002397, 33.130260000003105 ], [ -91.183698000002323, 33.141744000002987 ], [ -91.200805000001793, 33.107765000002978 ], [ -91.124595000002685, 33.064184000002477 ], [ -91.128133000002435, 33.034451000003067 ], [ -91.165892000002557, 33.004298000002549 ], [ -91.460375000001775, 33.006189000003097 ], [ -91.699115000001839, 33.007201000002546 ], [ -91.870686000002323, 33.007635000002423 ], [ -92.068930000001842, 33.007990000002728 ], [ -92.322944000002281, 33.010509000002301 ], [ -92.391884000002335, 33.011046000002892 ], [ -92.469978000002143, 33.012064000002567 ], [ -92.529780000002006, 33.012608000002771 ], [ -92.702839000002399, 33.014307000003114 ], [ -92.807189000002296, 33.015337000002276 ], [ -92.988775000002477, 33.017566000002617 ], [ -93.395930000001755, 33.018310000002252 ], [ -93.490558000002395, 33.01866900000303 ], [ -93.610862000002527, 33.019068000002953 ], [ -93.705037000002704, 33.019516000003065 ], [ -93.807236000002433, 33.019255000002751 ], [ -93.953222000002, 33.019568000002501 ], [ -94.043015000002555, 33.019262000002726 ], [ -94.042970000001816, 33.271241000002568 ], [ -94.043144000002513, 33.402139000002443 ], [ -94.043034000002564, 33.419685000002971 ] ] ] } }
]
}
