{
"type": "FeatureCollection",
"name": "colorado_optimized_districts_headcount",
"crs": { "type": "name", "properties": { "name": "urn:ogc:def:crs:OGC:1.3:CRS84" } },
"features": [
{ "type": "Feature", "properties": { "district_id": 0, "voting_age_pop": 485337, "lib_votes": 0, "grn_votes": 0, "con_votes": 0, "ref_votes": 0, "total_pop": 634178, "dem_votes_sum": 797701747134, "rep_votes_sum": 104530, "lib_votes_sum": 0, "grn_votes_sum": 0, "con_votes_sum": 0, "ref_votes_sum": 0, "minority_pop_sum": 301745, "dem_pct": 0.99999986896106641, "rep_pct": 1.3103893363410303e-07, "lib_pct": 0.0, "grn_pct": 0.0, "con_pct": 0.0, "ref_pct": 0.0, "minority_pct": 0.47580490020152072, "compactness": 0.1472226158541827 }, "geometry": { "type": "Polygon", "coordinates": [ [ [ -105.499691143494829, 39.823849425735908 ], [ -105.49528114579843, 39.853564429871767 ], [ -105.55579315968339, 39.853282425245766 ], [ -105.555165162681106, 39.881879429563007 ], [ -105.700783195918532, 39.878948418828344 ], [ -105.675085196573093, 39.93325942798058 ], [ -105.693704201706012, 39.94241142820286 ], [ -105.689828209571672, 40.015114438426174 ], [ -105.621203195620708, 40.030723445684579 ], [ -105.569485183358765, 40.027992448874393 ], [ -105.551322176691542, 40.009755447508887 ], [ -105.532842173175467, 40.01325744888878 ], [ -105.521395172802784, 40.032442452993074 ], [ -105.49921916591174, 40.018533452432507 ], [ -105.477329162341135, 40.027235455340161 ], [ -105.446226153402023, 40.019318456446705 ], [ -105.425215149678138, 40.024465458543879 ], [ -105.468877161102938, 40.03641645698643 ], [ -105.434325154576769, 40.047099460669187 ], [ -105.455654160075241, 40.054075459883698 ], [ -105.430659155128012, 40.058886462906479 ], [ -105.420293154103632, 40.074762464976942 ], [ -105.453147164490133, 40.093045465649631 ], [ -105.486584171716217, 40.091850462908447 ], [ -105.479813172890914, 40.116597466731605 ], [ -105.4412791649724, 40.124706470355697 ], [ -105.440329167132134, 40.142635473192016 ], [ -105.357041147965788, 40.142706478687245 ], [ -105.357047144829664, 40.121439476206362 ], [ -105.327848138735291, 40.12163947849659 ], [ -105.32038313449911, 40.106457476488423 ], [ -105.320597140781146, 40.159383483651546 ], [ -105.352258148850325, 40.16154548161542 ], [ -105.342851148265297, 40.177854484760203 ], [ -105.384600157273042, 40.165992479995033 ], [ -105.436553169754333, 40.176864478292316 ], [ -105.453021172241648, 40.162284475486835 ], [ -105.465818175803051, 40.165757474245787 ], [ -105.446102172053912, 40.172639477365124 ], [ -105.446330173563567, 40.187237478936659 ], [ -105.465589178981816, 40.191008478434881 ], [ -105.464995179735027, 40.201966479880234 ], [ -105.446356175544324, 40.201321481029943 ], [ -105.446448178615427, 40.229057485015872 ], [ -105.415470171862992, 40.228834486763887 ], [ -105.406237171503577, 40.247175490344809 ], [ -105.338358156691598, 40.252867495760817 ], [ -105.322860150611604, 40.237401494680412 ], [ -105.288559144006172, 40.248029498512835 ], [ -105.285643141671315, 40.230541495658272 ], [ -105.20858412055027, 40.206943498664764 ], [ -105.231711120666759, 40.163221490195006 ], [ -105.225871115550305, 40.127338485682017 ], [ -105.244766115755823, 40.092586479596058 ], [ -105.131469089097507, 40.087365486991075 ], [ -105.135963081122725, 40.014671477038505 ], [ -105.074498067007312, 40.014873480735638 ], [ -105.071766063233014, 39.988691477708251 ], [ -105.052784058219686, 39.986404478456443 ], [ -105.052807057370032, 39.977680477835676 ], [ -105.066899060497917, 39.971630475820476 ], [ -105.088705063247559, 39.958036472375348 ], [ -105.072012059331868, 39.957676473061937 ], [ -105.08257606261003, 39.959283472919132 ], [ -105.057719058054857, 39.974675477000893 ], [ -105.052900054858597, 39.9576994745428 ], [ -105.034308051103167, 39.957726476172525 ], [ -105.062427055869662, 39.943232472032896 ], [ -105.043774046434379, 39.903145468148509 ], [ -105.027531044019014, 39.914262470854766 ], [ -104.989880035516464, 39.914070472654402 ], [ -104.988117039789643, 39.957577478755312 ], [ -104.922074024759041, 39.957447483579962 ], [ -104.926461021485096, 39.920707478227271 ], [ -104.961129029367569, 39.921176475956493 ], [ -104.958919023542833, 39.877792470411642 ], [ -104.931364017157662, 39.877914471647678 ], [ -104.937640016877637, 39.856386468306724 ], [ -104.922100012297236, 39.854825469113102 ], [ -104.942604014703065, 39.831003464809363 ], [ -104.925809010578604, 39.830890466126917 ], [ -104.931543009896501, 39.813095462817856 ], [ -104.958202016060625, 39.812461461348605 ], [ -104.968632015888431, 39.791116457192629 ], [ -104.940486010381235, 39.794607459610326 ], [ -104.940640007150336, 39.766913455661452 ], [ -104.963463010434225, 39.754471452372286 ], [ -104.965965012146569, 39.761998453222041 ], [ -104.988965017148189, 39.755769451316723 ], [ -104.977842016947321, 39.779509454784368 ], [ -105.021349028703426, 39.793990454326227 ], [ -105.064551038709936, 39.791086451049786 ], [ -105.101529045424101, 39.773396445970519 ], [ -105.143384055383819, 39.773502442616056 ], [ -105.138011055978978, 39.793590445832386 ], [ -105.174658065403108, 39.800033444560881 ], [ -105.190485067847121, 39.792632441995394 ], [ -105.247329081504333, 39.797839438824688 ], [ -105.240427077313683, 39.774726436832218 ], [ -105.275419084849418, 39.767178433350786 ], [ -105.290544090563301, 39.781829433685942 ], [ -105.346469104106802, 39.789073431262331 ], [ -105.383810111371631, 39.778876427400675 ], [ -105.397961114954654, 39.784397427285555 ], [ -105.398003119903322, 39.825963432485729 ], [ -105.499691143494829, 39.823849425735908 ] ] ] } },
{ "type": "Feature", "properties": { "district_id": 1, "voting_age_pop": 481744, "lib_votes": 0, "grn_votes": 0, "con_votes": 0, "ref_votes": 0, "total_pop": 629099, "dem_votes_sum": 630106020503, "rep_votes_sum": 69954, "lib_votes_sum": 0, "grn_votes_sum": 0, "con_votes_sum": 0, "ref_votes_sum": 0, "minority_pop_sum": 485866, "dem_pct": 0.9999998889806001, "rep_pct": 1.1101939984307108e-07, "lib_pct": 0.0, "grn_pct": 0.0, "con_pct": 0.0, "ref_pct": 0.0, "minority_pct": 0.7723204137981462, "compactness": 0.2816333027125939 }, "geometry": { "type": "Polygon", "coordinates": [ [ [ -104.964337000076654, 39.65538743865222 ], [ -104.987649004708857, 39.653175437276595 ], [ -104.987577007851499, 39.678524440679169 ], [ -105.001795011226719, 39.678531439137309 ], [ -105.000196015406274, 39.718407445486839 ], [ -104.978760010518499, 39.720872446750334 ], [ -104.998577017501958, 39.740199448136437 ], [ -104.978187013084764, 39.747506450262968 ], [ -104.984138015984669, 39.759507451875734 ], [ -104.963463010434225, 39.754471452372286 ], [ -104.940640007150336, 39.766913455661452 ], [ -104.940486010381235, 39.794607459610326 ], [ -104.968632015888431, 39.791116457192629 ], [ -104.958202016060625, 39.812461461348605 ], [ -104.931543009896501, 39.813095462817856 ], [ -104.925809010578604, 39.830890466126917 ], [ -104.942604014703065, 39.831003464809363 ], [ -104.903070011043525, 39.881084474522055 ], [ -104.912654015019513, 39.89264347522095 ], [ -104.901960014343999, 39.911261478263341 ], [ -104.846688001584198, 39.914472483087188 ], [ -104.846617000193575, 39.899784480896663 ], [ -104.867352005260017, 39.899743479378195 ], [ -104.878749005723307, 39.885243477004288 ], [ -104.847843998723917, 39.885204479115309 ], [ -104.831227996481729, 39.899714482310273 ], [ -104.809239991822793, 39.900018483488353 ], [ -104.809059992611367, 39.909004484556476 ], [ -104.771219984052365, 39.914377488360493 ], [ -104.770921986308593, 39.92890948965838 ], [ -104.678152964532089, 39.928652496714683 ], [ -104.678454969195897, 39.97236150216316 ], [ -104.640698960258106, 39.972093504945889 ], [ -104.631219961271682, 40.000538509201292 ], [ -104.207960861670188, 40.000838538549999 ], [ -104.206813854807933, 39.942144530632412 ], [ -104.187974850355332, 39.942368531483943 ], [ -104.188405840581609, 39.855306519749682 ], [ -104.225907849442805, 39.855086516923251 ], [ -104.226194847601334, 39.840585515233542 ], [ -104.357734878654611, 39.839896505917068 ], [ -104.35869386746495, 39.738203490969269 ], [ -104.452233889062754, 39.738162485445301 ], [ -104.454086878010187, 39.636441470929114 ], [ -104.60378491353633, 39.638234461035545 ], [ -104.603387918803264, 39.688458467575835 ], [ -104.622112923645915, 39.691022467098023 ], [ -104.622067925602209, 39.710794469760344 ], [ -104.641026930281441, 39.71144746810419 ], [ -104.641174930812809, 39.711155468077287 ], [ -104.640977925712804, 39.667393461918707 ], [ -104.69754293853731, 39.667328458683151 ], [ -104.697435940646528, 39.682084460453922 ], [ -104.753655953654913, 39.682003456496318 ], [ -104.753735955412012, 39.696501458907633 ], [ -104.771082959043767, 39.696568457233099 ], [ -104.762986955368063, 39.682033456352315 ], [ -104.780172958706999, 39.673964453371731 ], [ -104.791003962514992, 39.682105454186342 ], [ -104.809932965787553, 39.674815452047319 ], [ -104.865951980174898, 39.682026449045907 ], [ -104.866343977891404, 39.660315445716307 ], [ -104.847128972730417, 39.656786446560801 ], [ -104.876233977609388, 39.644307442933858 ], [ -104.880149980239622, 39.653063443884569 ], [ -104.888245979791876, 39.639227441865856 ], [ -104.910325985076696, 39.638694439997366 ], [ -104.925671991844126, 39.667492442715108 ], [ -104.934464992755679, 39.658364440784389 ], [ -104.959388999661002, 39.667600440925213 ], [ -104.964337000076654, 39.65538743865222 ] ] ] } },
{ "type": "Feature", "properties": { "district_id": 2, "voting_age_pop": 458904, "lib_votes": 0, "grn_votes": 0, "con_votes": 0, "ref_votes": 0, "total_pop": 618751, "dem_votes_sum": 605590388454, "rep_votes_sum": 157759, "lib_votes_sum": 0, "grn_votes_sum": 0, "con_votes_sum": 0, "ref_votes_sum": 0, "minority_pop_sum": 250304, "dem_pct": 0.99999973949560317, "rep_pct": 2.6050439688421515e-07, "lib_pct": 0.0, "grn_pct": 0.0, "con_pct": 0.0, "ref_pct": 0.0, "minority_pct": 0.40453106338413997, "compactness": 0.21193752207744398 }, "geometry": { "type": "Polygon", "coordinates": [ [ [ -105.073363931400763, 38.804545310906363 ], [ -105.081444931158828, 38.781564307622865 ], [ -105.099388934948905, 38.777077305735688 ], [ -105.098553930450038, 38.743514300962268 ], [ -105.147020942718484, 38.75112029890542 ], [ -105.228957952272538, 38.666664281763161 ], [ -105.219446948335914, 38.647659279185461 ], [ -105.240371953145555, 38.647601277840735 ], [ -105.23780195796725, 38.696907285319767 ], [ -105.3291439788904, 38.697211279039387 ], [ -105.329198006908513, 38.960248316318193 ], [ -105.305001999996591, 38.94562331590258 ], [ -105.257531989180706, 38.948252319234228 ], [ -105.250552989529325, 38.965273322823954 ], [ -105.232418985858814, 38.969003323888828 ], [ -105.234659989747257, 39.000813328376346 ], [ -105.194205983472145, 39.024127334791146 ], [ -105.167488980374102, 39.060648341472216 ], [ -105.199575989489077, 39.073253341449821 ], [ -105.216932995424159, 39.09060234240679 ], [ -105.211949995224273, 39.095349343781592 ], [ -105.212050994862693, 39.09858234403459 ], [ -105.213988995781349, 39.099788343933277 ], [ -105.25558200318109, 39.081153338936666 ], [ -105.257290009396371, 39.129558344842302 ], [ -105.32923002596651, 39.129695340097904 ], [ -105.282275023182336, 39.200974353280145 ], [ -105.259899018718016, 39.21061335636881 ], [ -105.25348202080059, 39.243320361523388 ], [ -105.217429014597926, 39.260401366222958 ], [ -105.166584013872566, 39.361760384283748 ], [ -105.170973020085057, 39.407831389926805 ], [ -105.122558011297613, 39.434650397141226 ], [ -105.096576002976519, 39.408564395560759 ], [ -105.090109002211634, 39.420098397108951 ], [ -105.0729959986718, 39.420112398007994 ], [ -105.063383993343081, 39.391439395266843 ], [ -105.031300984919525, 39.383940395887315 ], [ -105.046604985847424, 39.36229939208404 ], [ -105.062602991439817, 39.37637839293722 ], [ -105.062941989233778, 39.360838390857992 ], [ -105.085810993817972, 39.348865387686907 ], [ -105.092026987993705, 39.285442378172803 ], [ -105.066904982998537, 39.294634381457684 ], [ -105.053774982872625, 39.323265386489638 ], [ -105.05238298141056, 39.30795538436967 ], [ -105.025051974205667, 39.304082385112615 ], [ -105.025184972720311, 39.283715382793758 ], [ -104.997913967481011, 39.296879386491085 ], [ -104.988688962877589, 39.274944383310753 ], [ -104.956047955198585, 39.272180385338771 ], [ -104.944996947723951, 39.233158380590972 ], [ -104.884301933781998, 39.229152383684664 ], [ -104.884996935893184, 39.249831386903836 ], [ -104.878545933859897, 39.243316386342961 ], [ -104.878432931372245, 39.219244383515552 ], [ -104.856720924034263, 39.201270381808442 ], [ -104.850334919311479, 39.175511378697045 ], [ -104.863931917684752, 39.129797371199395 ], [ -104.923678932214187, 39.129828367779112 ], [ -104.922171928991276, 39.105763364461019 ], [ -104.886024919856908, 39.103537366405014 ], [ -104.896425918806798, 39.068821360636122 ], [ -104.879338914590647, 39.068118361620407 ], [ -104.86498791379168, 39.090564365745756 ], [ -104.85153790725748, 39.056626361561804 ], [ -104.833652902992952, 39.056549362776373 ], [ -104.841363905606158, 39.06903736436859 ], [ -104.817370901643073, 39.078262367299551 ], [ -104.845466907937379, 39.078456365426469 ], [ -104.833561907223398, 39.092940368011902 ], [ -104.753142888593672, 39.099820374112781 ], [ -104.695229874652611, 39.092974376911975 ], [ -104.700343872138831, 39.056826371779408 ], [ -104.607386849884705, 39.05701937782748 ], [ -104.644575859304496, 39.064023376519465 ], [ -104.644181867036721, 39.129534386144151 ], [ -104.551774845031559, 39.129433392062168 ], [ -104.5480898347992, 39.042553379842289 ], [ -104.404847800966635, 39.041047388816494 ], [ -104.404761798979266, 39.026197387156564 ], [ -104.293725773264555, 39.026745393689758 ], [ -104.194125757416714, 39.099347411467271 ], [ -104.144375745726876, 39.100185414819812 ], [ -104.145920733862866, 38.984406397164555 ], [ -104.053269712084784, 38.98439140339913 ], [ -104.053930663671821, 38.522399335920269 ], [ -104.630691798427549, 38.519923298757099 ], [ -104.667931814780687, 38.588624306183355 ], [ -104.685838826209377, 38.66451531648007 ], [ -104.717593836237242, 38.686773317049607 ], [ -104.733575844427321, 38.724712321871898 ], [ -104.77345785412659, 38.728163319747118 ], [ -104.822402864008666, 38.715766315066233 ], [ -104.843663869915659, 38.723065314086178 ], [ -104.835513868762717, 38.737834317028174 ], [ -104.915265887919418, 38.73955031208633 ], [ -104.937684891770246, 38.730227309234664 ], [ -104.939003899727737, 38.796890319003111 ], [ -105.073363931400763, 38.804545310906363 ] ] ] } },
{ "type": "Feature", "properties": { "district_id": 3, "voting_age_pop": 479859, "lib_votes": 0, "grn_votes": 0, "con_votes": 0, "ref_votes": 0, "total_pop": 633261, "dem_votes_sum": 1123133947381, "rep_votes_sum": 162983, "lib_votes_sum": 0, "grn_votes_sum": 0, "con_votes_sum": 0, "ref_votes_sum": 0, "minority_pop_sum": 356707, "dem_pct": 0.99999985488553988, "rep_pct": 1.4511446005960797e-07, "lib_pct": 0.0, "grn_pct": 0.0, "con_pct": 0.0, "ref_pct": 0.0, "minority_pct": 0.56328591212785883, "compactness": 0.29406997678343821 }, "geometry": { "type": "Polygon", "coordinates": [ [ [ -102.042098038474379, 36.993022223483351 ], [ -106.869830156174984, 36.992502938010659 ], [ -106.877242158604645, 37.000105938531718 ], [ -107.107767209507216, 37.000043924295191 ], [ -107.105918210469639, 37.012701926286219 ], [ -107.129347217224804, 37.02560192713262 ], [ -107.146526220676904, 37.022917925131544 ], [ -107.150307222397203, 37.033329926301604 ], [ -107.167771225014533, 37.024879924657299 ], [ -107.196664233441169, 37.040979924801022 ], [ -107.193210236343063, 37.080407930437943 ], [ -107.161521233353994, 37.121727938092938 ], [ -107.1604512353194, 37.14340994197115 ], [ -107.21249825378581, 37.216987949144276 ], [ -107.175183247037495, 37.236460953798556 ], [ -107.130275237541952, 37.238953956785181 ], [ -107.104602234567665, 37.261834961885718 ], [ -107.105009237347303, 37.290737966041057 ], [ -107.14238124518792, 37.292278963957344 ], [ -107.143583249549266, 37.328452968944077 ], [ -107.157159251837456, 37.319754966853857 ], [ -107.166585255160825, 37.338485969357265 ], [ -107.213964264724083, 37.324615964243478 ], [ -107.23308027506404, 37.385040971111032 ], [ -107.217876274866171, 37.422987978174184 ], [ -107.128690254891978, 37.422947983699899 ], [ -107.123878279071036, 37.675035019066179 ], [ -107.145148284444417, 37.675503017783008 ], [ -107.138201309378928, 37.938854055144049 ], [ -107.067790295566212, 37.961305063012567 ], [ -107.042647289333075, 37.948689062935216 ], [ -107.008983281428229, 37.946528064962074 ], [ -107.000612280317213, 37.956047066033236 ], [ -107.000611327755223, 38.411900129533805 ], [ -107.05679934417752, 38.446858131178409 ], [ -107.067427349436542, 38.474157134089687 ], [ -107.05880934925834, 38.489760136884925 ], [ -107.035625344241254, 38.489725138592924 ], [ -107.019048343333409, 38.516132143406892 ], [ -106.922422324079164, 38.544416153088861 ], [ -106.905067319920178, 38.541204154056821 ], [ -106.906294316915165, 38.51119914930306 ], [ -106.882013311371196, 38.502358150267895 ], [ -106.880182306366748, 38.466714145687973 ], [ -106.846245295080351, 38.425262141664803 ], [ -106.246950159482964, 38.422774180841913 ], [ -106.2453731609735, 38.439177183348157 ], [ -106.274129167881952, 38.446892182205559 ], [ -106.311471182127164, 38.494876186059123 ], [ -106.344240189953382, 38.504596185654989 ], [ -106.35540919715487, 38.542562190064324 ], [ -106.344629196788418, 38.568570194974242 ], [ -106.364208206085166, 38.614506199646279 ], [ -106.385935212403112, 38.626725200426201 ], [ -106.166730163355936, 38.626680214557261 ], [ -106.166852166802002, 38.664927220101575 ], [ -106.02265213475259, 38.66534022889865 ], [ -106.022764137632961, 38.694190233266049 ], [ -105.715406067884217, 38.694665253830401 ], [ -105.775434076976254, 38.658769244231344 ], [ -105.777558074512825, 38.623306239566446 ], [ -105.753045068164838, 38.624505240871784 ], [ -105.728176061175105, 38.60564723983169 ], [ -105.687178051753904, 38.607654242713579 ], [ -105.622930041314021, 38.652096253999744 ], [ -105.581600028756242, 38.617146251598136 ], [ -105.553850021931638, 38.612426252707969 ], [ -105.547797018833862, 38.599528250927321 ], [ -105.564650021905621, 38.59045824846131 ], [ -105.542980015167984, 38.575316248214705 ], [ -105.546450014618884, 38.563126246186997 ], [ -105.52937001084608, 38.562996246679084 ], [ -105.52355001047934, 38.575906248890632 ], [ -105.482100995797921, 38.521747244627761 ], [ -105.429388983034286, 38.515058247089542 ], [ -105.41713097773021, 38.49614324525318 ], [ -105.384596969977764, 38.487238245517453 ], [ -105.359469964933211, 38.498166249031286 ], [ -105.28785994818584, 38.495606253045899 ], [ -105.259819939826173, 38.475916252337605 ], [ -105.245780933635672, 38.446581248820692 ], [ -105.254878938336049, 38.475676252345956 ], [ -105.243241937887007, 38.494642255398773 ], [ -105.256556940618054, 38.493453254396783 ], [ -105.262019944754982, 38.519856258627065 ], [ -105.230571942689977, 38.565721267101253 ], [ -105.212379945958432, 38.635306278386956 ], [ -105.228957952272538, 38.666664281763161 ], [ -105.147020942718484, 38.75112029890542 ], [ -105.098741931049645, 38.743329300486117 ], [ -105.099388934948905, 38.777077305735688 ], [ -105.081444931158828, 38.781564307622865 ], [ -105.072466931246495, 38.805013311029974 ], [ -104.939003899727737, 38.796890319003111 ], [ -104.937684891770246, 38.730227309234664 ], [ -104.915265887919418, 38.73955031208633 ], [ -104.835513868762717, 38.737834317028174 ], [ -104.843663869915659, 38.723065314086178 ], [ -104.822402864008666, 38.715766315066233 ], [ -104.77345785412659, 38.728163319747118 ], [ -104.733575844427321, 38.724712321871898 ], [ -104.717593836237242, 38.686773317049607 ], [ -104.685838826209377, 38.66451531648007 ], [ -104.667931814780687, 38.588624306183355 ], [ -104.630691798427549, 38.519923298757099 ], [ -104.053930663671821, 38.522399335920269 ], [ -104.053269712084784, 38.98439140339913 ], [ -104.145920733862866, 38.984406397164555 ], [ -104.144375745726876, 39.100185414819812 ], [ -104.194125757416714, 39.099347411467271 ], [ -104.293725773264555, 39.026745393689758 ], [ -104.404761798979266, 39.026197387156564 ], [ -104.404847800966635, 39.041047388816494 ], [ -104.5480898347992, 39.042553379842289 ], [ -104.551774845031559, 39.129433392062168 ], [ -104.66290587062467, 39.129533384862341 ], [ -104.662900883999541, 39.245828400856439 ], [ -104.533676852996479, 39.241513409469995 ], [ -104.473560850803366, 39.346657428052083 ], [ -104.589490879291318, 39.361484422710589 ], [ -104.589059883907439, 39.404886428505868 ], [ -104.570362879761362, 39.404905429733773 ], [ -104.570348886479223, 39.463085438295998 ], [ -104.662315907950784, 39.463522431666249 ], [ -104.662136909393837, 39.478268433891962 ], [ -104.633999903745362, 39.485103437180612 ], [ -104.633949902430956, 39.477977435811027 ], [ -104.589032891619809, 39.477377438945972 ], [ -104.58766990127377, 39.565624451621694 ], [ -104.398716856617526, 39.563956463600782 ], [ -104.396945869456957, 39.680324480288007 ], [ -104.37806286565656, 39.680304481535529 ], [ -104.377238871778744, 39.73812748979762 ], [ -104.35869386746495, 39.738203490969269 ], [ -104.357734878654611, 39.839896505917068 ], [ -104.226194847601334, 39.840585515233542 ], [ -104.225907849442805, 39.855086516923251 ], [ -104.188405840581609, 39.855306519749682 ], [ -104.187974850355332, 39.942368531483943 ], [ -104.206813854807933, 39.942144530632412 ], [ -104.207960861670188, 40.000838538549999 ], [ -104.414639910534234, 40.000748524761676 ], [ -104.414308923950074, 40.116689541180307 ], [ -104.376224915064597, 40.116557543088945 ], [ -104.377121921566129, 40.170417550388827 ], [ -104.353030915665528, 40.171209552709279 ], [ -104.326346915923011, 40.229490562250959 ], [ -104.300282912838071, 40.251922567415882 ], [ -104.291541915480053, 40.293584574128751 ], [ -104.414770948289743, 40.325160570114015 ], [ -104.414477945797287, 40.304875567164657 ], [ -104.452356955053887, 40.30479656448091 ], [ -104.452277956706325, 40.319296566073923 ], [ -104.50833097022975, 40.319653562506467 ], [ -104.508452966159922, 40.290698558710496 ], [ -104.527080970732769, 40.290664556744645 ], [ -104.527592969349641, 40.276016555472211 ], [ -104.602365987146982, 40.276004549728889 ], [ -104.602747978301835, 40.203435539484531 ], [ -104.659301991606569, 40.203678536017122 ], [ -104.659220989735374, 40.18911953350726 ], [ -104.696737999281808, 40.189258531043997 ], [ -104.696524017373164, 40.342287552199217 ], [ -104.715504021082495, 40.341588550920648 ], [ -104.710600022129711, 40.356031553797621 ], [ -104.734735026522799, 40.348363550879192 ], [ -104.735109023303053, 40.319234546235108 ], [ -104.754170028135093, 40.31912354516875 ], [ -104.761361032169404, 40.340790547684755 ], [ -104.811188041379978, 40.319714541549374 ], [ -104.803510045027281, 40.363247548322846 ], [ -104.813019048629769, 40.377713549452906 ], [ -104.869990062340634, 40.377923545288361 ], [ -104.870023063805803, 40.392411547195451 ], [ -104.878999065282315, 40.385130545250163 ], [ -104.907400072219957, 40.392387544367004 ], [ -104.907217074460078, 40.4068085467852 ], [ -104.964193087527562, 40.407378543073172 ], [ -104.963398090999618, 40.436068546297868 ], [ -104.982517094904111, 40.435921545350418 ], [ -104.982232098663388, 40.464804549367159 ], [ -104.991810101023134, 40.464729548821808 ], [ -104.991822105976695, 40.508580554428804 ], [ -104.967401100121322, 40.501952555363026 ], [ -104.963086097065769, 40.486997553752026 ], [ -104.958252098655606, 40.508616556660783 ], [ -104.94417509545417, 40.508232557878195 ], [ -104.943411114522888, 40.667815579723531 ], [ -105.001135128047281, 40.667934575736318 ], [ -105.000878130000444, 40.685682578232765 ], [ -104.99523412964534, 40.696606580257857 ], [ -104.943553117424102, 40.696515583317094 ], [ -104.943381154932439, 40.998219624752579 ], [ -102.051726458486485, 41.002365828830271 ], [ -102.042098038474379, 36.993022223483351 ] ] ] } },
{ "type": "Feature", "properties": { "district_id": 4, "voting_age_pop": 486519, "lib_votes": 0, "grn_votes": 0, "con_votes": 0, "ref_votes": 0, "total_pop": 632958, "dem_votes_sum": 577542597425, "rep_votes_sum": 131019, "lib_votes_sum": 0, "grn_votes_sum": 0, "con_votes_sum": 0, "ref_votes_sum": 0, "minority_pop_sum": 326612, "dem_pct": 0.99999977314405752, "rep_pct": 2.2685594250833674e-07, "lib_pct": 0.0, "grn_pct": 0.0, "con_pct": 0.0, "ref_pct": 0.0, "minority_pct": 0.51600896110010464, "compactness": 0.13627775211636728 }, "geometry": { "type": "Polygon", "coordinates": [ [ [ -105.185237033920203, 39.506215402653211 ], [ -105.21086203837389, 39.493031399037733 ], [ -105.226734043413742, 39.498065398786892 ], [ -105.250217050500652, 39.519365400365245 ], [ -105.242799051645022, 39.539777403427792 ], [ -105.264858057532365, 39.545533402874241 ], [ -105.312179066920535, 39.535455398462702 ], [ -105.318060078252742, 39.618868409870672 ], [ -105.353320083379714, 39.599626404181699 ], [ -105.373785089987379, 39.612910404788693 ], [ -105.344333084745216, 39.628594409186917 ], [ -105.325051080063403, 39.624632409803972 ], [ -105.333290084247409, 39.640834411313733 ], [ -105.312325078998654, 39.637704412757877 ], [ -105.307523079424215, 39.653059414649832 ], [ -105.39825809980303, 39.649955408781807 ], [ -105.39936210481487, 39.686753413727978 ], [ -105.436611113618, 39.688006410681346 ], [ -105.444951113616995, 39.673849408208426 ], [ -105.477268122047292, 39.681096407549141 ], [ -105.47879512318184, 39.693400409073575 ], [ -105.436489114467321, 39.69767241261107 ], [ -105.439376115763253, 39.702845413362191 ], [ -105.466351122508826, 39.705560411188706 ], [ -105.483654127004655, 39.715681411384885 ], [ -105.465567123298726, 39.715601412520826 ], [ -105.461012124506013, 39.739733416554586 ], [ -105.448244121944114, 39.740904417633089 ], [ -105.545086147960077, 39.773641415208573 ], [ -105.545990150029937, 39.786989417392192 ], [ -105.578060159116006, 39.805568417459341 ], [ -105.57455215978851, 39.817456419864286 ], [ -105.474058135361787, 39.80793142509436 ], [ -105.44724412426477, 39.76524142101146 ], [ -105.397959111539862, 39.747741421651433 ], [ -105.397961114954654, 39.784397427285555 ], [ -105.290544090563301, 39.781829433685942 ], [ -105.275419084849418, 39.767178433350786 ], [ -105.240427077313683, 39.774726436832218 ], [ -105.242367080909219, 39.798307439227784 ], [ -105.138011055978978, 39.793590445832386 ], [ -105.143384055383819, 39.773502442616056 ], [ -105.101529045424101, 39.773396445970519 ], [ -105.064551038709936, 39.791086451049786 ], [ -105.024661029333856, 39.794072454295481 ], [ -104.977842016947321, 39.779509454784368 ], [ -104.994808019049827, 39.763492452010631 ], [ -104.978187013084764, 39.747506450262968 ], [ -104.998577017501958, 39.740199448136437 ], [ -104.979135010521119, 39.71832344663261 ], [ -105.000196015406274, 39.718407445486839 ], [ -104.993561010818269, 39.693541442403387 ], [ -105.001795011226719, 39.678531439137309 ], [ -105.025048017396799, 39.68227643811079 ], [ -105.025324012151998, 39.642296432434009 ], [ -105.045710015997244, 39.631593429712005 ], [ -105.02267501003756, 39.627794430920218 ], [ -105.035658011600759, 39.616987428386551 ], [ -105.020838008890763, 39.623019430511164 ], [ -105.011493006336323, 39.613264429587851 ], [ -105.025047005823509, 39.580694424008698 ], [ -104.988494996221704, 39.573479425499649 ], [ -104.978455995862134, 39.589226428807798 ], [ -104.960578988138408, 39.563237425783782 ], [ -104.941876983520586, 39.56091842680042 ], [ -104.942056982627307, 39.550786425774916 ], [ -104.969419990008305, 39.55878542520194 ], [ -104.987453992337294, 39.544226421445309 ], [ -104.987496990664653, 39.527648419043388 ], [ -104.961083982768827, 39.515344419169416 ], [ -104.994970990706932, 39.510552416460563 ], [ -104.99906699295326, 39.521776417346331 ], [ -105.027694999813463, 39.52368041624996 ], [ -104.971817977498588, 39.442702408312634 ], [ -104.939046968546705, 39.434301409526526 ], [ -104.939713968574495, 39.431530409010108 ], [ -105.008988985277824, 39.434531404673493 ], [ -105.012421984234265, 39.417749402494245 ], [ -105.05437199076168, 39.388001395125144 ], [ -105.0729959986718, 39.420112398007994 ], [ -105.090109002211634, 39.420098397108951 ], [ -105.096112003045306, 39.408477395165015 ], [ -105.118467009626812, 39.426421396294451 ], [ -105.134183017728063, 39.467096400686863 ], [ -105.1876860322472, 39.481674399590354 ], [ -105.185237033920203, 39.506215402653211 ] ] ] } },
{ "type": "Feature", "properties": { "district_id": 5, "voting_age_pop": 476101, "lib_votes": 0, "grn_votes": 0, "con_votes": 0, "ref_votes": 0, "total_pop": 612929, "dem_votes_sum": 805110584451, "rep_votes_sum": 154218, "lib_votes_sum": 0, "grn_votes_sum": 0, "con_votes_sum": 0, "ref_votes_sum": 0, "minority_pop_sum": 178703, "dem_pct": 0.99999980845119485, "rep_pct": 1.9154880514319243e-07, "lib_pct": 0.0, "grn_pct": 0.0, "con_pct": 0.0, "ref_pct": 0.0, "minority_pct": 0.29155579194327563, "compactness": 0.32967643474940533 }, "geometry": { "type": "Polygon", "coordinates": [ [ [ -109.04518263031396, 36.998982805058489 ], [ -109.042582747129956, 38.157021960703368 ], [ -109.060214763978237, 38.278243975546395 ], [ -109.050037086666052, 41.000697322004953 ], [ -105.497589285157517, 40.997607584329529 ], [ -105.500051265542723, 40.842125563644117 ], [ -105.4807522614135, 40.842235564724206 ], [ -105.4762012522216, 40.779534556516417 ], [ -105.495037257414353, 40.77975555549326 ], [ -105.49403724637834, 40.694524543737685 ], [ -105.514929251454745, 40.694137542331461 ], [ -105.516923241006467, 40.610988531302404 ], [ -105.631050267409478, 40.608946523149449 ], [ -105.632003258218631, 40.533117512598203 ], [ -105.607403253426625, 40.536401515145791 ], [ -105.567467240856075, 40.508041513955568 ], [ -105.51127622942839, 40.523874519971095 ], [ -105.484765222105921, 40.517463521221025 ], [ -105.460053213172927, 40.492555519408569 ], [ -105.515277226630744, 40.492078515016146 ], [ -105.512026218611325, 40.437461508200357 ], [ -105.420948198041202, 40.436948514295679 ], [ -105.422736192869294, 40.393054508416327 ], [ -105.404010188354746, 40.393411510060631 ], [ -105.403335185062488, 40.364497505605769 ], [ -105.326537167075756, 40.363704511206471 ], [ -105.319579160655053, 40.322141505809782 ], [ -105.267095148215773, 40.32228450981254 ], [ -105.266646146310705, 40.30742250773708 ], [ -105.243257140267531, 40.304979508799455 ], [ -105.24300813869533, 40.290566507689782 ], [ -105.228956135395094, 40.287001507463216 ], [ -105.224250130969267, 40.261455504355425 ], [ -105.338208157087564, 40.261691496502067 ], [ -105.338602155641567, 40.247268494886569 ], [ -105.406237171503577, 40.247175490344809 ], [ -105.415470171862992, 40.228834486763887 ], [ -105.446448178615427, 40.229057485015872 ], [ -105.446356175544324, 40.201321481029943 ], [ -105.464995179735027, 40.201966479880234 ], [ -105.465589178981816, 40.191008478434881 ], [ -105.446330173563567, 40.187237478936659 ], [ -105.446102172053912, 40.172639477365124 ], [ -105.465818175803051, 40.165757474245787 ], [ -105.453021172241648, 40.162284475486835 ], [ -105.436553169754333, 40.176864478292316 ], [ -105.384600157273042, 40.165992479995033 ], [ -105.342851148265297, 40.177854484760203 ], [ -105.352258148850325, 40.16154548161542 ], [ -105.320597140781146, 40.159383483651546 ], [ -105.32038313449911, 40.106457476488423 ], [ -105.327848138735291, 40.12163947849659 ], [ -105.357047144829664, 40.121439476206362 ], [ -105.357041147965788, 40.142706478687245 ], [ -105.440329167132134, 40.142635473192016 ], [ -105.4412791649724, 40.124706470355697 ], [ -105.479813172890914, 40.116597466731605 ], [ -105.486584171716217, 40.091850462908447 ], [ -105.453147164490133, 40.093045465649631 ], [ -105.420293154103632, 40.074762464976942 ], [ -105.430659155128012, 40.058886462906479 ], [ -105.455654160075241, 40.054075459883698 ], [ -105.434325154576769, 40.047099460669187 ], [ -105.468877161102938, 40.03641645698643 ], [ -105.448620156461701, 40.034829457836722 ], [ -105.425215149678138, 40.024465458543879 ], [ -105.477329162341135, 40.027235455340161 ], [ -105.49921916591174, 40.018533452432507 ], [ -105.521395172802784, 40.032442452993074 ], [ -105.532842173175467, 40.01325744888878 ], [ -105.551322176691542, 40.009755447508887 ], [ -105.569485183358765, 40.027992448874393 ], [ -105.621203195620708, 40.030723445684579 ], [ -105.689275209202819, 40.015789438208138 ], [ -105.693704201706012, 39.94241142820286 ], [ -105.675085196573093, 39.93325942798058 ], [ -105.700783195918532, 39.878948418828344 ], [ -105.555165162681106, 39.881879429563007 ], [ -105.55579315968339, 39.853282425245766 ], [ -105.49528114579843, 39.853564429871767 ], [ -105.499691143494829, 39.823849425735908 ], [ -105.398003119903322, 39.825963432485729 ], [ -105.397959111539862, 39.747741421651433 ], [ -105.44724412426477, 39.76524142101146 ], [ -105.474058135361787, 39.80793142509436 ], [ -105.508150144543364, 39.817887423687921 ], [ -105.579726160728242, 39.812839418199829 ], [ -105.545990150029937, 39.786989417392192 ], [ -105.545086147960077, 39.773641415208573 ], [ -105.448244121944114, 39.740904417633089 ], [ -105.461012124506013, 39.739733416554586 ], [ -105.465567123298726, 39.715601412520826 ], [ -105.483654127004655, 39.715681411384885 ], [ -105.436489114467321, 39.69767241261107 ], [ -105.47879512318184, 39.693400409073575 ], [ -105.477268122047292, 39.681096407549141 ], [ -105.444951113616995, 39.673849408208426 ], [ -105.436611113618, 39.688006410681346 ], [ -105.39936210481487, 39.686753413727978 ], [ -105.39825809980303, 39.649955408781807 ], [ -105.307523079424215, 39.653059414649832 ], [ -105.312325078998654, 39.637704412757877 ], [ -105.333290084247409, 39.640834411313733 ], [ -105.325051080063403, 39.624632409803972 ], [ -105.344333084745216, 39.628594409186917 ], [ -105.373785089987379, 39.612910404788693 ], [ -105.353320083379714, 39.599626404181699 ], [ -105.318060078252742, 39.618868409870672 ], [ -105.309765066337079, 39.533525398388143 ], [ -105.275121059371202, 39.546614402716912 ], [ -105.242799051645022, 39.539777403427792 ], [ -105.250217050500652, 39.519365400365245 ], [ -105.226734043413742, 39.498065398786892 ], [ -105.197730036281911, 39.496551400864661 ], [ -105.188495035076471, 39.509265403216276 ], [ -105.1876860322472, 39.481674399590354 ], [ -105.134322017883164, 39.467168401309891 ], [ -105.124194014757506, 39.454991399918868 ], [ -105.123608012240652, 39.434135396631362 ], [ -105.170973020085057, 39.407831389926805 ], [ -105.166584013872566, 39.361760384283748 ], [ -105.217429014597926, 39.260401366222958 ], [ -105.25348202080059, 39.243320361523388 ], [ -105.259899018718016, 39.21061335636881 ], [ -105.282275023182336, 39.200974353280145 ], [ -105.32923002596651, 39.129695340097904 ], [ -105.257290009396371, 39.129558344842302 ], [ -105.25558200318109, 39.081153338936666 ], [ -105.213988995781349, 39.099788343933277 ], [ -105.199575989489077, 39.073253341449821 ], [ -105.167534980781852, 39.061331341586261 ], [ -105.194205983472145, 39.024127334791146 ], [ -105.234659989747257, 39.000813328376346 ], [ -105.232418985858814, 38.969003323888828 ], [ -105.250552989529325, 38.965273322823954 ], [ -105.257531989180706, 38.948252319234228 ], [ -105.305001999996591, 38.94562331590258 ], [ -105.329198006908513, 38.960248316318193 ], [ -105.3291439788904, 38.697211279039387 ], [ -105.23780195796725, 38.696907285319767 ], [ -105.240371953145555, 38.647601277840735 ], [ -105.212179945916773, 38.637526278570547 ], [ -105.230571942689977, 38.565721267101253 ], [ -105.262019944754982, 38.519856258627065 ], [ -105.256556940618054, 38.493453254396783 ], [ -105.243241937887007, 38.494642255398773 ], [ -105.254878938336049, 38.475676252345956 ], [ -105.245780933635672, 38.446581248820692 ], [ -105.259819939826173, 38.475916252337605 ], [ -105.28785994818584, 38.495606253045899 ], [ -105.359469964933211, 38.498166249031286 ], [ -105.384596969977764, 38.487238245517453 ], [ -105.41713097773021, 38.49614324525318 ], [ -105.429388983034286, 38.515058247089542 ], [ -105.482100995797921, 38.521747244627761 ], [ -105.52355001047934, 38.575906248890632 ], [ -105.52937001084608, 38.562996246679084 ], [ -105.546450014618884, 38.563126246186997 ], [ -105.542980015167984, 38.575316248214705 ], [ -105.564650021905621, 38.59045824846131 ], [ -105.547797018833862, 38.599528250927321 ], [ -105.553850021931638, 38.612426252707969 ], [ -105.581600028756242, 38.617146251598136 ], [ -105.622930041314021, 38.652096253999744 ], [ -105.687178051753904, 38.607654242713579 ], [ -105.728176061175105, 38.60564723983169 ], [ -105.753045068164838, 38.624505240871784 ], [ -105.777558074512825, 38.623306239566446 ], [ -105.775434076976254, 38.658769244231344 ], [ -105.715406067884217, 38.694665253830401 ], [ -106.022764137632961, 38.694190233266049 ], [ -106.02265213475259, 38.66534022889865 ], [ -106.166852166802002, 38.664927220101575 ], [ -106.166730163355936, 38.626680214557261 ], [ -106.385935212403112, 38.626725200426201 ], [ -106.364208206085166, 38.614506199646279 ], [ -106.344629196788418, 38.568570194974242 ], [ -106.35540919715487, 38.542562190064324 ], [ -106.344240189953382, 38.504596185654989 ], [ -106.311471182127164, 38.494876186059123 ], [ -106.274129167881952, 38.446892182205559 ], [ -106.2453731609735, 38.439177183348157 ], [ -106.246950159482964, 38.422774180841913 ], [ -106.846245295080351, 38.425262141664803 ], [ -106.880182306366748, 38.466714145687973 ], [ -106.882013311371196, 38.502358150267895 ], [ -106.906294316915165, 38.51119914930306 ], [ -106.905067319920178, 38.541204154056821 ], [ -106.922422324079164, 38.544416153088861 ], [ -107.019048343333409, 38.516132143406892 ], [ -107.035625344241254, 38.489725138592924 ], [ -107.05880934925834, 38.489760136884925 ], [ -107.067427349436542, 38.474157134089687 ], [ -107.05679934417752, 38.446858131178409 ], [ -107.000611327755223, 38.411900129533805 ], [ -107.000612280317213, 37.956047066033236 ], [ -107.008983281428229, 37.946528064962074 ], [ -107.042647289333075, 37.948689062935216 ], [ -107.067790295566212, 37.961305063012567 ], [ -107.138201309378928, 37.938854055144049 ], [ -107.145148284444417, 37.675503017783008 ], [ -107.123878279071036, 37.675035019066179 ], [ -107.128690254891978, 37.422947983699899 ], [ -107.217876274866171, 37.422987978174184 ], [ -107.23308027506404, 37.385040971111032 ], [ -107.21359626472622, 37.324275963827603 ], [ -107.166492255347066, 37.338474968854186 ], [ -107.157159251837456, 37.319754966853857 ], [ -107.142720249009329, 37.327205968871858 ], [ -107.14238124518792, 37.292278963957344 ], [ -107.105009237347303, 37.290737966041057 ], [ -107.104602234567665, 37.261834961885718 ], [ -107.123560237023327, 37.24272295797585 ], [ -107.175183247037495, 37.236460953798556 ], [ -107.213585253470725, 37.213675948757874 ], [ -107.1604512353194, 37.14340994197115 ], [ -107.161521233353994, 37.121727938092938 ], [ -107.193210236343063, 37.080407930437943 ], [ -107.196664233441169, 37.040979924801022 ], [ -107.167771225014533, 37.024879924657299 ], [ -107.150307222397203, 37.033329926301604 ], [ -107.146526220676904, 37.022917925131544 ], [ -107.129347217224804, 37.02560192713262 ], [ -107.105918210469639, 37.012701926286219 ], [ -107.107767209507216, 37.000043924295191 ], [ -109.04518263031396, 36.998982805058489 ] ] ] } },
{ "type": "Feature", "properties": { "district_id": 6, "voting_age_pop": 468100, "lib_votes": 0, "grn_votes": 0, "con_votes": 0, "ref_votes": 0, "total_pop": 644205, "dem_votes_sum": 900997320689, "rep_votes_sum": 188317, "lib_votes_sum": 0, "grn_votes_sum": 0, "con_votes_sum": 0, "ref_votes_sum": 0, "minority_pop_sum": 213392, "dem_pct": 0.99999979099054315, "rep_pct": 2.0900945687159047e-07, "lib_pct": 0.0, "grn_pct": 0.0, "con_pct": 0.0, "ref_pct": 0.0, "minority_pct": 0.33124859322731121, "compactness": 0.13314774246833061 }, "geometry": { "type": "Polygon", "coordinates": [ [ [ -104.884592935972748, 39.249090386828598 ], [ -104.884301933781998, 39.229152383684664 ], [ -104.944996947723951, 39.233158380590972 ], [ -104.956047955198585, 39.272180385338771 ], [ -104.988688962877589, 39.274944383310753 ], [ -104.997913967481011, 39.296879386491085 ], [ -105.025184972720311, 39.283715382793758 ], [ -105.025051974205667, 39.304082385112615 ], [ -105.05238298141056, 39.30795538436967 ], [ -105.053774982872625, 39.323265386489638 ], [ -105.066904982998537, 39.294634381457684 ], [ -105.094250989130998, 39.290713379023011 ], [ -105.085810993817972, 39.348865387686907 ], [ -105.062941989233778, 39.360838390857992 ], [ -105.062602991439817, 39.37637839293722 ], [ -105.045767985761984, 39.362629392116148 ], [ -105.03117398433821, 39.383122395830036 ], [ -105.048034989877053, 39.392852396006262 ], [ -105.012421984234265, 39.417749402494245 ], [ -105.009641985799291, 39.4339404042721 ], [ -104.938371968628829, 39.433324409345857 ], [ -104.971817977498588, 39.442702408312634 ], [ -105.027694999813463, 39.52368041624996 ], [ -104.99906699295326, 39.521776417346331 ], [ -104.994970990706932, 39.510552416460563 ], [ -104.961083982768827, 39.515344419169416 ], [ -104.987496990664653, 39.527648419043388 ], [ -104.987453992337294, 39.544226421445309 ], [ -104.969419990008305, 39.55878542520194 ], [ -104.952882985281235, 39.550882424987762 ], [ -104.941915983208091, 39.558067426224397 ], [ -104.960578988138408, 39.563237425783782 ], [ -104.978455995862134, 39.589226428807798 ], [ -104.988494996221704, 39.573479425499649 ], [ -105.025047005823509, 39.580694424008698 ], [ -105.011493006336323, 39.613264429587851 ], [ -105.020838008890763, 39.623019430511164 ], [ -105.035658011600759, 39.616987428386551 ], [ -105.02267501003756, 39.627794430920218 ], [ -105.045710015997244, 39.631593429712005 ], [ -105.025324012151998, 39.642296432434009 ], [ -105.025048017396799, 39.68227643811079 ], [ -104.987577007851499, 39.678524440679169 ], [ -104.987649004708857, 39.653175437276595 ], [ -104.965486000025763, 39.653228438534377 ], [ -104.959388999661002, 39.667600440925213 ], [ -104.934464992755679, 39.658364440784389 ], [ -104.925671991844126, 39.667492442715108 ], [ -104.910325985076696, 39.638694439997366 ], [ -104.894746981528186, 39.63832644111821 ], [ -104.880149980239622, 39.653063443884569 ], [ -104.876233977609388, 39.644307442933858 ], [ -104.847128972730417, 39.656786446560801 ], [ -104.866343977891404, 39.660315445716307 ], [ -104.865951980174898, 39.682026449045907 ], [ -104.809932965787553, 39.674815452047319 ], [ -104.791003962514992, 39.682105454186342 ], [ -104.780172958706999, 39.673964453371731 ], [ -104.762986955368063, 39.682033456352315 ], [ -104.771082959043767, 39.696568457233099 ], [ -104.753735955412012, 39.696501458907633 ], [ -104.753655953654913, 39.682003456496318 ], [ -104.697435940646528, 39.682084460453922 ], [ -104.69754293853731, 39.667328458683151 ], [ -104.640977925712804, 39.667393461918707 ], [ -104.641174930812809, 39.711155468077287 ], [ -104.622067925602209, 39.710794469760344 ], [ -104.622112923645915, 39.691022467098023 ], [ -104.603387918803264, 39.688458467575835 ], [ -104.60378491353633, 39.638234461035545 ], [ -104.454086878010187, 39.636441470929114 ], [ -104.452233889062754, 39.738162485445301 ], [ -104.377238871778744, 39.73812748979762 ], [ -104.37806286565656, 39.680304481535529 ], [ -104.396945869456957, 39.680324480288007 ], [ -104.398716856617526, 39.563956463600782 ], [ -104.58766990127377, 39.565624451621694 ], [ -104.589032891619809, 39.477377438945972 ], [ -104.633949902430956, 39.477977435811027 ], [ -104.633999903745362, 39.485103437180612 ], [ -104.662136909393837, 39.478268433891962 ], [ -104.662315907950784, 39.463522431666249 ], [ -104.570348886479223, 39.463085438295998 ], [ -104.570362879761362, 39.404905429733773 ], [ -104.589059883907439, 39.404886428505868 ], [ -104.589490879291318, 39.361484422710589 ], [ -104.473560850803366, 39.346657428052083 ], [ -104.533676852996479, 39.241513409469995 ], [ -104.662900883999541, 39.245828400856439 ], [ -104.66290587062467, 39.129533384862341 ], [ -104.644181867036721, 39.129534386144151 ], [ -104.644575859304496, 39.064023376519465 ], [ -104.607386849884705, 39.05701937782748 ], [ -104.700343872138831, 39.056826371779408 ], [ -104.695229874652611, 39.092974376911975 ], [ -104.753142888593672, 39.099820374112781 ], [ -104.833561907223398, 39.092940368011902 ], [ -104.845466907937379, 39.078456365426469 ], [ -104.817370901643073, 39.078262367299551 ], [ -104.841363905606158, 39.06903736436859 ], [ -104.833652902992952, 39.056549362776373 ], [ -104.85153790725748, 39.056626361561804 ], [ -104.86498791379168, 39.090564365745756 ], [ -104.879338914590647, 39.068118361620407 ], [ -104.896425918806798, 39.068821360636122 ], [ -104.886024919856908, 39.103537366405014 ], [ -104.922171928991276, 39.105763364461019 ], [ -104.923678932214187, 39.129828367779112 ], [ -104.863931917684752, 39.129797371199395 ], [ -104.850246919845148, 39.176568379033426 ], [ -104.884592935972748, 39.249090386828598 ] ] ] } },
{ "type": "Feature", "properties": { "district_id": 7, "voting_age_pop": 465476, "lib_votes": 0, "grn_votes": 0, "con_votes": 0, "ref_votes": 0, "total_pop": 622223, "dem_votes_sum": 921070282404, "rep_votes_sum": 155977, "lib_votes_sum": 0, "grn_votes_sum": 0, "con_votes_sum": 0, "ref_votes_sum": 0, "minority_pop_sum": 218773, "dem_pct": 0.99999983065681675, "rep_pct": 1.6934318321426819e-07, "lib_pct": 0.0, "grn_pct": 0.0, "con_pct": 0.0, "ref_pct": 0.0, "minority_pct": 0.35159902478693328, "compactness": 0.19185038720636535 }, "geometry": { "type": "Polygon", "coordinates": [ [ [ -105.18518310183866, 40.094362484038911 ], [ -105.233484112042149, 40.087281480524823 ], [ -105.246116116936733, 40.098228480554624 ], [ -105.225871115550305, 40.127338485682017 ], [ -105.231711120666759, 40.163221490195006 ], [ -105.20858412055027, 40.206943498664764 ], [ -105.285643141671315, 40.230541495658272 ], [ -105.288240144500065, 40.247949498432256 ], [ -105.323157150889926, 40.237425493971003 ], [ -105.338358156691598, 40.252867495760817 ], [ -105.338208157087564, 40.261691496502067 ], [ -105.224250130969267, 40.261455504355425 ], [ -105.243257140267531, 40.304979508799455 ], [ -105.266646146310705, 40.30742250773708 ], [ -105.267095148215773, 40.32228450981254 ], [ -105.319579160655053, 40.322141505809782 ], [ -105.326537167075756, 40.363704511206471 ], [ -105.403335185062488, 40.364497505605769 ], [ -105.404010188354746, 40.393411510060631 ], [ -105.422736192869294, 40.393054508416327 ], [ -105.420948198041202, 40.436948514295679 ], [ -105.512026218611325, 40.437461508200357 ], [ -105.515277226630744, 40.492078515016146 ], [ -105.460053213172927, 40.492555519408569 ], [ -105.484765222105921, 40.517463521221025 ], [ -105.51127622942839, 40.523874519971095 ], [ -105.567467240856075, 40.508041513955568 ], [ -105.607403253426625, 40.536401515145791 ], [ -105.632003258218631, 40.533117512598203 ], [ -105.631050267409478, 40.608946523149449 ], [ -105.516923241006467, 40.610988531302404 ], [ -105.514929251454745, 40.694137542331461 ], [ -105.49403724637834, 40.694524543737685 ], [ -105.495037257414353, 40.77975555549326 ], [ -105.4762012522216, 40.779534556516417 ], [ -105.4807522614135, 40.842235564724206 ], [ -105.500051265542723, 40.842125563644117 ], [ -105.497589285157517, 40.997607584329529 ], [ -104.943381154932439, 40.998219624752579 ], [ -104.943553117424102, 40.696515583317094 ], [ -104.99523412964534, 40.696606580257857 ], [ -105.001135128047281, 40.667934575736318 ], [ -104.943411114522888, 40.667815579723531 ], [ -104.94417509545417, 40.508232557878195 ], [ -104.958252098655606, 40.508616556660783 ], [ -104.963086097065769, 40.486997553752026 ], [ -104.967401100121322, 40.501952555363026 ], [ -104.991822105976695, 40.508580554428804 ], [ -104.991810101023134, 40.464729548821808 ], [ -104.982232098663388, 40.464804549367159 ], [ -104.982517094904111, 40.435921545350418 ], [ -104.963398090999618, 40.436068546297868 ], [ -104.964193087527562, 40.407378543073172 ], [ -104.907217074460078, 40.4068085467852 ], [ -104.907400072219957, 40.392387544367004 ], [ -104.878999065282315, 40.385130545250163 ], [ -104.870023063805803, 40.392411547195451 ], [ -104.869990062340634, 40.377923545288361 ], [ -104.813019048629769, 40.377713549452906 ], [ -104.803510045027281, 40.363247548322846 ], [ -104.811188041379978, 40.319714541549374 ], [ -104.761361032169404, 40.340790547684755 ], [ -104.754170028135093, 40.31912354516875 ], [ -104.735109023303053, 40.319234546235108 ], [ -104.734735026522799, 40.348363550879192 ], [ -104.710600022129711, 40.356031553797621 ], [ -104.715504021082495, 40.341588550920648 ], [ -104.696524017373164, 40.342287552199217 ], [ -104.696737999281808, 40.189258531043997 ], [ -104.659220989735374, 40.18911953350726 ], [ -104.659301991606569, 40.203678536017122 ], [ -104.602747978301835, 40.203435539484531 ], [ -104.602365987146982, 40.276004549728889 ], [ -104.527592969349641, 40.276016555472211 ], [ -104.527080970732769, 40.290664556744645 ], [ -104.508452966159922, 40.290698558710496 ], [ -104.50833097022975, 40.319653562506467 ], [ -104.452277956706325, 40.319296566073923 ], [ -104.452356955053887, 40.30479656448091 ], [ -104.414477945797287, 40.304875567164657 ], [ -104.414770948289743, 40.325160570114015 ], [ -104.291541915480053, 40.293584574128751 ], [ -104.300282912838071, 40.251922567415882 ], [ -104.326346915923011, 40.229490562250959 ], [ -104.353030915665528, 40.171209552709279 ], [ -104.377121921566129, 40.170417550388827 ], [ -104.376224915064597, 40.116557543088945 ], [ -104.414308923950074, 40.116689541180307 ], [ -104.414639910534234, 40.000748524761676 ], [ -104.631219961271682, 40.000538509201292 ], [ -104.640698960258106, 39.972093504945889 ], [ -104.678454969195897, 39.97236150216316 ], [ -104.678152964532089, 39.928652496714683 ], [ -104.770921986308593, 39.92890948965838 ], [ -104.771219984052365, 39.914377488360493 ], [ -104.809059992611367, 39.909004484556476 ], [ -104.809239991822793, 39.900018483488353 ], [ -104.831227996481729, 39.899714482310273 ], [ -104.847843998723917, 39.885204479115309 ], [ -104.878749005723307, 39.885243477004288 ], [ -104.867352005260017, 39.899743479378195 ], [ -104.846617000193575, 39.899784480896663 ], [ -104.846688001584198, 39.914472483087188 ], [ -104.893016012943193, 39.914341479247049 ], [ -104.924994013495677, 39.856253469315732 ], [ -104.937640016877637, 39.856386468306724 ], [ -104.931364017157662, 39.877914471647678 ], [ -104.958919023542833, 39.877792470411642 ], [ -104.961129029367569, 39.921176475956493 ], [ -104.926461021485096, 39.920707478227271 ], [ -104.922074024759041, 39.957447483579962 ], [ -104.988117039789643, 39.957577478755312 ], [ -104.989880035516464, 39.914070472654402 ], [ -105.027531044019014, 39.914262470854766 ], [ -105.043774046434379, 39.903145468148509 ], [ -105.062427055869662, 39.943232472032896 ], [ -105.034308051103167, 39.957726476172525 ], [ -105.052900054858597, 39.9576994745428 ], [ -105.057719058054857, 39.974675477000893 ], [ -105.08257606261003, 39.959283472919132 ], [ -105.072012059331868, 39.957676473061937 ], [ -105.088705063247559, 39.958036472375348 ], [ -105.052784058219686, 39.986404478456443 ], [ -105.071766063233014, 39.988691477708251 ], [ -105.074498067007312, 40.014873480735638 ], [ -105.135963081122725, 40.014671477038505 ], [ -105.131469089097507, 40.087365486991075 ], [ -105.185780101655993, 40.086942483444432 ], [ -105.18518310183866, 40.094362484038911 ] ] ] } }
]
}
