{
"type": "FeatureCollection",
"name": "colorado_optimized_districts_race",
"crs": { "type": "name", "properties": { "name": "urn:ogc:def:crs:OGC:1.3:CRS84" } },
"features": [
{ "type": "Feature", "properties": { "district_id": 0, "voting_age_pop": 473135, "lib_votes": 0, "grn_votes": 0, "con_votes": 0, "ref_votes": 0, "total_pop": 631408, "dem_votes_sum": 724177914095, "rep_votes_sum": 177810, "lib_votes_sum": 0, "grn_votes_sum": 0, "con_votes_sum": 0, "ref_votes_sum": 0, "minority_pop_sum": 187985, "dem_pct": 0.99999975446647449, "rep_pct": 2.4553352550649333e-07, "lib_pct": 0.0, "grn_pct": 0.0, "con_pct": 0.0, "ref_pct": 0.0, "minority_pct": 0.29772350049413376, "compactness": 0.15815764624852877 }, "geometry": { "type": "Polygon", "coordinates": [ [ [ -105.290691055404039, 39.47634239151467 ], [ -105.328671065412323, 39.490884390686674 ], [ -105.328908066783029, 39.501333392847158 ], [ -105.398351078551613, 39.464179382816042 ], [ -105.39888509512096, 39.606416402180763 ], [ -105.344333084745216, 39.628594409186917 ], [ -105.32514607996454, 39.624586409468478 ], [ -105.333290084247409, 39.640834411313733 ], [ -105.307973078489681, 39.643357413725035 ], [ -105.316106082738159, 39.663744416359187 ], [ -105.355100091289486, 39.663255413564052 ], [ -105.364338095544682, 39.676228414035307 ], [ -105.338714091800355, 39.702776419752247 ], [ -105.311168087173797, 39.714178422916554 ], [ -105.218745063454548, 39.696229427291286 ], [ -105.208957061206092, 39.695710427335371 ], [ -105.203464060789088, 39.700617428949286 ], [ -105.238903070409791, 39.710952427925754 ], [ -105.22083706788699, 39.728568431881911 ], [ -105.240500075576122, 39.753641433733527 ], [ -105.240453078596076, 39.783216437420108 ], [ -105.223459071754206, 39.761278435605583 ], [ -105.174681062823666, 39.776158441018062 ], [ -105.184053062132548, 39.754494437478094 ], [ -105.142375052307813, 39.754538440563103 ], [ -105.147914051842776, 39.739027437697885 ], [ -105.132898048489693, 39.740141438988971 ], [ -105.134277047798491, 39.725709436852178 ], [ -105.10979004148993, 39.725380438593511 ], [ -105.109732039858713, 39.711027436609669 ], [ -105.081502032433903, 39.70016243690096 ], [ -105.081480031092539, 39.689460435614258 ], [ -105.068120028747472, 39.696725437116029 ], [ -105.038286020307652, 39.682219437271996 ], [ -105.008700013327584, 39.682273439083652 ], [ -105.010675011557765, 39.660513436087399 ], [ -104.987582006850388, 39.667688438584392 ], [ -104.978006996405256, 39.595143429136634 ], [ -104.941412987215458, 39.59295543113064 ], [ -104.950657991317655, 39.609665433611482 ], [ -104.922859985348254, 39.609588435529091 ], [ -104.913266985590582, 39.638697439936834 ], [ -104.911172169606772, 39.627483861163491 ], [ -104.847644968672171, 39.624192442541784 ], [ -104.847991966996403, 39.602343439121142 ], [ -104.893378977788132, 39.609288437137479 ], [ -104.90418997902762, 39.595040434762865 ], [ -104.896491972487809, 39.550882428794829 ], [ -104.871923965640846, 39.547312429895541 ], [ -104.872377961553781, 39.507759424133269 ], [ -104.849163955808152, 39.507736425531597 ], [ -104.849374955282528, 39.49603642391542 ], [ -104.812270945663059, 39.492395426165757 ], [ -104.811729946972719, 39.503135427466525 ], [ -104.801580305471845, 39.493006143082262 ], [ -104.774779937471578, 39.493081428941416 ], [ -104.774799935871414, 39.478532426851565 ], [ -104.764797935270835, 39.493094429314233 ], [ -104.737888928049813, 39.491481431154291 ], [ -104.692577082247084, 39.465269522139366 ], [ -104.681335909775129, 39.445576428544406 ], [ -104.740000921776456, 39.428450422028035 ], [ -104.681635906561283, 39.412968423849222 ], [ -104.678617901208412, 39.369116417267108 ], [ -104.752829920480863, 39.391118415617733 ], [ -104.770377928892088, 39.431310420086362 ], [ -104.798352935448335, 39.427511417850972 ], [ -104.817101938165791, 39.409325414442321 ], [ -104.810626933127125, 39.377788410287266 ], [ -104.837030939046571, 39.376115408475499 ], [ -104.837110938073437, 39.366354406621014 ], [ -104.860738944755056, 39.380209407405417 ], [ -104.891484942330393, 39.297021392969206 ], [ -104.923656950840027, 39.300462391710852 ], [ -104.923640955398923, 39.348316398332493 ], [ -104.946838961207661, 39.347597396797184 ], [ -104.955797966181052, 39.370374399367698 ], [ -105.003319976797215, 39.367840395882453 ], [ -105.043091982241833, 39.33832938883009 ], [ -105.066904982998537, 39.294634381457684 ], [ -105.094827988870989, 39.290508378495126 ], [ -105.112902991090579, 39.265783373945709 ], [ -105.129223998437624, 39.298725377665477 ], [ -105.154114003123127, 39.294565375130858 ], [ -105.198542015223907, 39.309443374166463 ], [ -105.166584013872566, 39.361760384283748 ], [ -105.170666020267305, 39.408025389927758 ], [ -105.204628030014874, 39.428795390585265 ], [ -105.262105044934785, 39.440711388399805 ], [ -105.290691055404039, 39.47634239151467 ] ] ] } },
{ "type": "Feature", "properties": { "district_id": 1, "voting_age_pop": 477315, "lib_votes": 0, "grn_votes": 0, "con_votes": 0, "ref_votes": 0, "total_pop": 633463, "dem_votes_sum": 775957608406, "rep_votes_sum": 115686, "lib_votes_sum": 0, "grn_votes_sum": 0, "con_votes_sum": 0, "ref_votes_sum": 0, "minority_pop_sum": 360186, "dem_pct": 0.99999985091198085, "rep_pct": 1.4908801911260298e-07, "lib_pct": 0.0, "grn_pct": 0.0, "con_pct": 0.0, "ref_pct": 0.0, "minority_pct": 0.56859832381686071, "compactness": 0.18208728926506601 }, "geometry": { "type": "Polygon", "coordinates": [ [ [ -104.941412987215458, 39.59295543113064 ], [ -104.978006996405256, 39.595143429136634 ], [ -104.988062000429281, 39.613190431350134 ], [ -104.987577007851499, 39.678524440679169 ], [ -104.973441004678818, 39.678518441362179 ], [ -104.97343400564209, 39.689829442945097 ], [ -104.959457002063672, 39.684733442903045 ], [ -104.959319005487416, 39.715662447205069 ], [ -104.946193001885547, 39.711499447994058 ], [ -104.940603003777454, 39.736689451609841 ], [ -104.865868985714613, 39.732863455991613 ], [ -104.861275986674229, 39.754754459833215 ], [ -104.838900982255097, 39.756663461523559 ], [ -104.815432972877403, 39.725622459034803 ], [ -104.757461959608392, 39.725244462574999 ], [ -104.722933947793905, 39.696550460564339 ], [ -104.698054942207435, 39.696614462512741 ], [ -104.697379945688027, 39.72556246697286 ], [ -104.716034949687526, 39.725563465753325 ], [ -104.715954951252399, 39.740277467374035 ], [ -104.659962938020726, 39.740483471710256 ], [ -104.65913294661857, 39.814039481893126 ], [ -104.655520946543504, 39.822476482988954 ], [ -104.619947938094199, 39.822427485842425 ], [ -104.619850943984289, 39.873773492960595 ], [ -104.605800941182991, 39.873833493996422 ], [ -104.600440942056778, 39.899021497515008 ], [ -104.583459938282331, 39.898932499054339 ], [ -104.583399939859092, 39.913348500375349 ], [ -104.489321917514701, 39.912380506988761 ], [ -104.489648923272966, 39.95569151293946 ], [ -104.414346905234069, 39.955644518608004 ], [ -104.415331882410811, 39.758086490445997 ], [ -104.382883872623907, 39.738109489482689 ], [ -104.452233889062754, 39.738162485445301 ], [ -104.454086878010187, 39.636441470929114 ], [ -104.660061926536855, 39.638424457031071 ], [ -104.659346921766002, 39.594938451073631 ], [ -104.714446934839174, 39.601183448443606 ], [ -104.723820935018949, 39.577896444437201 ], [ -104.718118931997793, 39.565990442682647 ], [ -104.679315923156281, 39.565997445620219 ], [ -104.679565921688081, 39.553855443337845 ], [ -104.707929928416632, 39.551098441603699 ], [ -104.709425927086258, 39.538442439743804 ], [ -104.763527939299308, 39.53266443503361 ], [ -104.713431923311347, 39.493025433170281 ], [ -104.722908924684504, 39.485808431450295 ], [ -104.764797935270835, 39.493094429314233 ], [ -104.765474933534307, 39.478448427189562 ], [ -104.774779937471578, 39.493081428941416 ], [ -104.801580305471845, 39.493006143082262 ], [ -104.811729946972719, 39.503135427466525 ], [ -104.812270945663059, 39.492395426165757 ], [ -104.849374955282528, 39.49603642391542 ], [ -104.849163955808152, 39.507736425531597 ], [ -104.872377961553781, 39.507759424133269 ], [ -104.871923965640846, 39.547312429895541 ], [ -104.896491972487809, 39.550882428794829 ], [ -104.90418997902762, 39.595040434762865 ], [ -104.893378977788132, 39.609288437137479 ], [ -104.847991966996403, 39.602343439121142 ], [ -104.847644968672171, 39.624192442541784 ], [ -104.911172169606772, 39.627483861163491 ], [ -104.913266985590582, 39.638697439936834 ], [ -104.922859985348254, 39.609588435529091 ], [ -104.950657991317655, 39.609665433611482 ], [ -104.941412987215458, 39.59295543113064 ] ] ] } },
{ "type": "Feature", "properties": { "district_id": 2, "voting_age_pop": 469163, "lib_votes": 0, "grn_votes": 0, "con_votes": 0, "ref_votes": 0, "total_pop": 615271, "dem_votes_sum": 532312492561, "rep_votes_sum": 64796, "lib_votes_sum": 0, "grn_votes_sum": 0, "con_votes_sum": 0, "ref_votes_sum": 0, "minority_pop_sum": 511301, "dem_pct": 0.99999987827452297, "rep_pct": 1.2172547708008326e-07, "lib_pct": 0.0, "grn_pct": 0.0, "con_pct": 0.0, "ref_pct": 0.0, "minority_pct": 0.83101755161546698, "compactness": 0.14565635282810546 }, "geometry": { "type": "Polygon", "coordinates": [ [ [ -105.081480031092539, 39.689460435614258 ], [ -105.109732039858713, 39.711027436609669 ], [ -105.10979004148993, 39.725380438593511 ], [ -105.136527047929178, 39.727190436852709 ], [ -105.142375052307813, 39.754538440563103 ], [ -105.184053062132548, 39.754494437478094 ], [ -105.174681062823666, 39.776158441018062 ], [ -105.223631072537714, 39.761333435439795 ], [ -105.27350209219675, 39.837104442837266 ], [ -105.269113092436598, 39.848444445146001 ], [ -105.232373084819912, 39.855954447895535 ], [ -105.221650078084025, 39.818057444043596 ], [ -105.183856068885689, 39.814409446074862 ], [ -105.187033067253338, 39.794530442787327 ], [ -105.072075039553539, 39.784628449501334 ], [ -105.042000034672213, 39.804532453993815 ], [ -105.044120037290341, 39.817456456286813 ], [ -105.081555047134913, 39.830449454855263 ], [ -105.079394047838534, 39.839447456609214 ], [ -105.024791034787228, 39.836010459655014 ], [ -105.034705033863432, 39.812844455846701 ], [ -105.00616702803616, 39.815070458237919 ], [ -104.988604020652929, 39.791092455617843 ], [ -104.984147025850319, 39.841779463078765 ], [ -104.977942022643376, 39.827896461672331 ], [ -104.948663015484271, 39.82790346399856 ], [ -104.91220401229765, 39.870557472610827 ], [ -104.846650996615935, 39.87070247661007 ], [ -104.831227996481729, 39.899714482310273 ], [ -104.705577966852402, 39.898496490328867 ], [ -104.680270963013328, 39.914253494245564 ], [ -104.680222961705198, 39.906605493025559 ], [ -104.600444942293294, 39.899465497367657 ], [ -104.605800941182991, 39.873833493996422 ], [ -104.619850943984289, 39.873773492960595 ], [ -104.619947938094199, 39.822427485842425 ], [ -104.655520946543504, 39.822476482988954 ], [ -104.65913294661857, 39.814039481893126 ], [ -104.659962938020726, 39.740483471710256 ], [ -104.715954951252399, 39.740277467374035 ], [ -104.716034949687526, 39.725563465753325 ], [ -104.697379945688027, 39.72556246697286 ], [ -104.698054942207435, 39.696614462512741 ], [ -104.722933947793905, 39.696550460564339 ], [ -104.757461959608392, 39.725244462574999 ], [ -104.815432972877403, 39.725622459034803 ], [ -104.826531978491118, 39.751038461185296 ], [ -104.842294983087299, 39.756712460861074 ], [ -104.861275986674229, 39.754754459833215 ], [ -104.865868985714613, 39.732863455991613 ], [ -104.940603003777454, 39.736689451609841 ], [ -104.946193001885547, 39.711499447994058 ], [ -104.959319005487416, 39.715662447205069 ], [ -104.959457002063672, 39.684733442903045 ], [ -104.97343400564209, 39.689829442945097 ], [ -104.973441004678818, 39.678518441362179 ], [ -105.004892009719413, 39.660461436772891 ], [ -105.008700013327584, 39.682273439083652 ], [ -105.038286020307652, 39.682219437271996 ], [ -105.068120028747472, 39.696725437116029 ], [ -105.081480031092539, 39.689460435614258 ] ] ] } },
{ "type": "Feature", "properties": { "district_id": 3, "voting_age_pop": 470665, "lib_votes": 0, "grn_votes": 0, "con_votes": 0, "ref_votes": 0, "total_pop": 644973, "dem_votes_sum": 803158883978, "rep_votes_sum": 137520, "lib_votes_sum": 0, "grn_votes_sum": 0, "con_votes_sum": 0, "ref_votes_sum": 0, "minority_pop_sum": 331017, "dem_pct": 0.99999982877612492, "rep_pct": 1.7122387512189881e-07, "lib_pct": 0.0, "grn_pct": 0.0, "con_pct": 0.0, "ref_pct": 0.0, "minority_pct": 0.51322613504751358, "compactness": 0.14611579540334638 }, "geometry": { "type": "Polygon", "coordinates": [ [ [ -105.109563048880759, 39.787479447507557 ], [ -105.193174069448304, 39.802002443534647 ], [ -105.165166066364847, 39.82542044853934 ], [ -105.165700075778886, 39.91052146008883 ], [ -105.147152071758342, 39.913855461790249 ], [ -105.159930074941855, 39.913894460916083 ], [ -105.147366073526769, 39.928861464276089 ], [ -105.159814076753904, 39.929328463435418 ], [ -105.159787078209206, 39.944872465639619 ], [ -105.165807079149687, 39.935557464250991 ], [ -105.176019082246654, 39.944465464581384 ], [ -105.192978085325038, 39.939944462944027 ], [ -105.177997085172478, 39.962338466450618 ], [ -105.16070307959194, 39.955149466978845 ], [ -105.142201076374988, 39.962524469428971 ], [ -105.128034072199611, 39.950770468135694 ], [ -105.137614071210123, 39.928937464865548 ], [ -105.071907056961692, 39.932725470128211 ], [ -105.072012059331868, 39.957676473061937 ], [ -105.088241063313788, 39.957934472186118 ], [ -105.088109063703399, 39.959759472970852 ], [ -105.079901062095942, 39.961524473335487 ], [ -105.068075060064444, 39.970938475208328 ], [ -105.052807057370032, 39.977680477835676 ], [ -105.03535905400247, 39.981362479371874 ], [ -105.037077056716385, 40.000473481868724 ], [ -105.055652060562068, 40.000256480442715 ], [ -105.055382064031988, 40.029315484547936 ], [ -105.121201080619912, 40.039490481177687 ], [ -105.102695078151029, 40.054836484491204 ], [ -105.102523087479639, 40.133166495815857 ], [ -105.121486091904217, 40.137898494831227 ], [ -105.102379087698779, 40.138239495742944 ], [ -105.102548090933226, 40.160237498762591 ], [ -105.109025091596763, 40.159712498311336 ], [ -105.11192109227656, 40.155936497928536 ], [ -105.116992093055131, 40.152285496880815 ], [ -105.118608093313853, 40.152312497118011 ], [ -105.116528095700033, 40.174009499859629 ], [ -105.112064096466682, 40.188564502481611 ], [ -105.09308109167344, 40.18858650392135 ], [ -105.09301509303954, 40.20317350591877 ], [ -104.885914044984716, 40.203970520315458 ], [ -104.885768040214913, 40.159911514023548 ], [ -104.904504044392084, 40.160103512611848 ], [ -104.904660042725581, 40.145644511121873 ], [ -104.829822024650483, 40.145066515651735 ], [ -104.835911027120858, 40.152173516600577 ], [ -104.697343993499274, 40.145935525440358 ], [ -104.696737999281808, 40.189258531043997 ], [ -104.659220989735374, 40.18911953350726 ], [ -104.659301991606569, 40.203678536017122 ], [ -104.602747978301835, 40.203435539484531 ], [ -104.602639966815474, 40.102164525463579 ], [ -104.565547959081115, 40.110652529421472 ], [ -104.565475957464969, 40.102290528455633 ], [ -104.584216961878838, 40.102333527355142 ], [ -104.58521295877874, 40.073197523202658 ], [ -104.527379945580847, 40.073292527077342 ], [ -104.520152947552091, 40.10930153211104 ], [ -104.414106921901251, 40.102290538869184 ], [ -104.414639910534234, 40.000748524761676 ], [ -104.207960861670188, 40.000838538549999 ], [ -104.206813854807933, 39.942144530632412 ], [ -104.187974850355332, 39.942368531483943 ], [ -104.188405840581609, 39.855306519749682 ], [ -104.225907849442805, 39.855086516923251 ], [ -104.226194847601334, 39.840585515233542 ], [ -104.357734878654611, 39.839896505917068 ], [ -104.35869386746495, 39.738203490969269 ], [ -104.382883872623907, 39.738109489482689 ], [ -104.415331882410811, 39.758086490445997 ], [ -104.414346905234069, 39.955644518608004 ], [ -104.489648923272966, 39.95569151293946 ], [ -104.489321917514701, 39.912380506988761 ], [ -104.583399939859092, 39.913348500375349 ], [ -104.583459938282331, 39.898932499054339 ], [ -104.680222961705198, 39.906605493025559 ], [ -104.680270963013328, 39.914253494245564 ], [ -104.705577966852402, 39.898496490328867 ], [ -104.831227996481729, 39.899714482310273 ], [ -104.846650996615935, 39.87070247661007 ], [ -104.91220401229765, 39.870557472610827 ], [ -104.948663015484271, 39.82790346399856 ], [ -104.977942022643376, 39.827896461672331 ], [ -104.984147025850319, 39.841779463078765 ], [ -104.988604020652929, 39.791092455617843 ], [ -105.00616702803616, 39.815070458237919 ], [ -105.034705033863432, 39.812844455846701 ], [ -105.024791034787228, 39.836010459655014 ], [ -105.053250041732923, 39.844058458538633 ], [ -105.081732048093997, 39.837817455698769 ], [ -105.044120037290341, 39.817456456286813 ], [ -105.053256035912369, 39.791069451934938 ], [ -105.109563048880759, 39.787479447507557 ] ], [ [ -105.08257606261003, 39.959283472919132 ], [ -105.052899054827748, 39.957832474399318 ], [ -105.057719058054857, 39.974675477000893 ], [ -105.08257606261003, 39.959283472919132 ] ] ] } },
{ "type": "Feature", "properties": { "district_id": 4, "voting_age_pop": 489576, "lib_votes": 0, "grn_votes": 0, "con_votes": 0, "ref_votes": 0, "total_pop": 633389, "dem_votes_sum": 857369943420, "rep_votes_sum": 159036, "lib_votes_sum": 0, "grn_votes_sum": 0, "con_votes_sum": 0, "ref_votes_sum": 0, "minority_pop_sum": 222775, "dem_pct": 0.99999981450717779, "rep_pct": 1.8549282222978108e-07, "lib_pct": 0.0, "grn_pct": 0.0, "con_pct": 0.0, "ref_pct": 0.0, "minority_pct": 0.35171908574351624, "compactness": 0.35566419817038619 }, "geometry": { "type": "Polygon", "coordinates": [ [ [ -109.04518263031396, 36.998982805058489 ], [ -109.042582747129956, 38.157021960703368 ], [ -109.060214763978237, 38.278243975546395 ], [ -109.050037086666052, 41.000697322004953 ], [ -106.857783598748185, 41.002669485206198 ], [ -106.85074659569635, 40.990253484427349 ], [ -106.873230598537248, 40.973038480781668 ], [ -106.852359587474552, 40.925189475616904 ], [ -106.825040582276685, 40.932125479115122 ], [ -106.809761574247261, 40.899759475464769 ], [ -106.769014566059738, 40.904144479787362 ], [ -106.740863557356917, 40.889806479795851 ], [ -106.739351555023802, 40.870849477384759 ], [ -106.691679545905288, 40.888198482780311 ], [ -106.667844537897139, 40.862295481838338 ], [ -106.567339517917873, 40.890382492151318 ], [ -106.548508512903311, 40.882020492633025 ], [ -106.53965050475972, 40.83523648720368 ], [ -106.518500497441153, 40.81216648575483 ], [ -106.516840497977341, 40.820286487273172 ], [ -106.403182474748746, 40.843218498457105 ], [ -106.363482461212087, 40.806043496252499 ], [ -106.37633146064465, 40.779055491886211 ], [ -106.359170457532841, 40.785426493688881 ], [ -106.322743447343484, 40.770026494600693 ], [ -106.287668442874491, 40.802581501731872 ], [ -106.282120432694029, 40.727846492091743 ], [ -106.244106419841088, 40.696722490767471 ], [ -106.271927427392967, 40.708980489979737 ], [ -106.293997431258433, 40.694341486767314 ], [ -106.296010421817599, 40.620346476599494 ], [ -106.178390394487863, 40.612406483882381 ], [ -106.140690381214498, 40.576326481718148 ], [ -106.061350361559633, 40.56761648658324 ], [ -106.041702355564709, 40.552031485770705 ], [ -106.035137348978935, 40.515395481712844 ], [ -106.006970339967069, 40.489915479827012 ], [ -106.008934336597605, 40.460800475845566 ], [ -105.918751310922275, 40.423364477587945 ], [ -105.913610307436997, 40.401623475193986 ], [ -105.946617313500099, 40.385053470026023 ], [ -105.941841306558587, 40.34354846544533 ], [ -105.853597283722294, 40.322473468249498 ], [ -105.860464282898945, 40.301592465197174 ], [ -105.848568277416533, 40.278833462945904 ], [ -105.870397279990911, 40.255841458328888 ], [ -105.848330274080197, 40.253055459635192 ], [ -105.855150271205275, 40.210606453709694 ], [ -105.823583260438525, 40.186545451966147 ], [ -105.747374242873335, 40.18532845768803 ], [ -105.741520240186958, 40.17548945629742 ], [ -105.727392237858652, 40.179180458027723 ], [ -105.69933022933796, 40.161717458110999 ], [ -105.675759224874568, 40.167454459803679 ], [ -105.635666212267907, 40.146012460151759 ], [ -105.632630204203352, 40.081453451188466 ], [ -105.651071205398523, 40.058451447228919 ], [ -105.638807200363146, 40.038793445389501 ], [ -105.651920201649716, 40.020911442085705 ], [ -105.683062207945667, 40.014148439184368 ], [ -105.754690230046762, 40.062012440125052 ], [ -105.755496229378309, 40.052275439383308 ], [ -105.777645234101328, 40.050934436968802 ], [ -105.806565238361344, 40.030953432614702 ], [ -105.828120238821683, 39.99053542513284 ], [ -105.917482261382474, 40.005419421118653 ], [ -105.927087261076196, 39.987745417798315 ], [ -105.988804272386545, 39.965685411236272 ], [ -105.974554265928745, 39.936349407997035 ], [ -106.008030272022467, 39.926109404202393 ], [ -106.016839272467976, 39.907287400902632 ], [ -106.097405289374905, 39.899873394135938 ], [ -106.078137279150056, 39.850381388913846 ], [ -106.10564228260894, 39.823061383381379 ], [ -106.08372127554685, 39.805970383132042 ], [ -106.060056262500382, 39.73633037441698 ], [ -106.106294273010576, 39.73590737144324 ], [ -106.127437275648731, 39.723443368174173 ], [ -106.134372279363348, 39.737073369472014 ], [ -106.159300285477983, 39.738733368082713 ], [ -106.2383922986958, 39.699669357208386 ], [ -106.254104299664945, 39.679607353638787 ], [ -106.238755296187449, 39.680280355248598 ], [ -106.239873295198521, 39.666963352584062 ], [ -106.217175288682583, 39.654598353324111 ], [ -106.183850280950352, 39.652159355229763 ], [ -106.172422274573378, 39.619452351436117 ], [ -106.103133261085844, 39.639627358529445 ], [ -106.106853260041262, 39.625087356669411 ], [ -106.092189255813878, 39.616968356278079 ], [ -106.07384725114224, 39.616997357980452 ], [ -106.073912252113246, 39.622712358803383 ], [ -106.071869252281772, 39.626368358967653 ], [ -106.073393251321448, 39.613824356944939 ], [ -106.090287252869516, 39.599263354105929 ], [ -106.081599249494133, 39.583228352296906 ], [ -106.091789250975623, 39.579601351116153 ], [ -106.081095248890222, 39.577737351971159 ], [ -106.060089246192845, 39.597199356043411 ], [ -106.057441243858534, 39.580414354202787 ], [ -106.085362248037612, 39.563327349787436 ], [ -106.084075244859477, 39.538054346470425 ], [ -106.121265251455029, 39.52127934146376 ], [ -106.10292123871686, 39.44326733178103 ], [ -106.137959241470554, 39.399626323576399 ], [ -106.135539238567134, 39.379552320671792 ], [ -106.191422250919672, 39.379702317512084 ], [ -106.178994246601121, 39.360795315307037 ], [ -106.220892254370639, 39.349593311449162 ], [ -106.222338251343544, 39.318626306277082 ], [ -106.300145263629986, 39.272383295338471 ], [ -106.295660260366006, 39.252213292629939 ], [ -106.353591273647766, 39.248766288451975 ], [ -106.379088280854816, 39.266012288488689 ], [ -106.436767295065039, 39.270885285128344 ], [ -106.469279299955744, 39.247718279796253 ], [ -106.454462298357839, 39.26963028433606 ], [ -106.483148304112902, 39.26340028112174 ], [ -106.489113304578012, 39.24854327883606 ], [ -106.82200237773057, 39.232572254060202 ], [ -106.849325380413148, 39.201300248354343 ], [ -106.823545372137559, 39.178750246763535 ], [ -106.804681359137817, 39.10288723764635 ], [ -106.76927834814353, 39.078796236457947 ], [ -106.763537344967745, 39.056875233800469 ], [ -106.747193339344975, 39.040026232621031 ], [ -106.6949793289496, 39.055673238590295 ], [ -106.684461326005973, 39.045141237807385 ], [ -106.655502318543839, 39.04442623996389 ], [ -106.648402315312424, 39.022158237524167 ], [ -106.612749304165575, 38.99570323579681 ], [ -106.577171295235871, 38.990450238039223 ], [ -106.554221291124918, 38.998717240638221 ], [ -106.528399283227188, 38.980733239737681 ], [ -106.526693280524796, 38.955417236235441 ], [ -106.465042261362186, 38.910360233769666 ], [ -106.421171252838391, 38.928099239704281 ], [ -106.40213424736065, 38.910623238444224 ], [ -106.380846243650495, 38.925691241636827 ], [ -106.37345023966445, 38.906614239289333 ], [ -106.326109229835524, 38.911010243430852 ], [ -106.321323226367937, 38.892605241410038 ], [ -106.349313228836465, 38.854893234511785 ], [ -106.365054232339929, 38.852991232723845 ], [ -106.383642233607432, 38.824711227446848 ], [ -106.416192240984913, 38.824098225707615 ], [ -106.416675230461166, 38.727820212393922 ], [ -106.425285230970388, 38.710313208745305 ], [ -106.452136235666586, 38.698783206058287 ], [ -106.429555225545343, 38.651241200179044 ], [ -106.37990921230066, 38.638489201771264 ], [ -106.385935212403112, 38.626725200426201 ], [ -106.166730163355936, 38.626680214557261 ], [ -106.166852166802002, 38.664927220101575 ], [ -106.02265213475259, 38.66534022889865 ], [ -106.022764137632961, 38.694190233266049 ], [ -105.261340963387909, 38.696587283372843 ], [ -105.244554961218356, 38.710497286697013 ], [ -105.262422965725349, 38.720630286614664 ], [ -105.254388969096183, 38.769401293968194 ], [ -105.187229956891883, 38.79835530311027 ], [ -105.153515949202955, 38.797460305283266 ], [ -105.144104948996045, 38.81231730786736 ], [ -105.160687952438238, 38.81420730697517 ], [ -105.167258956375392, 38.837254309646532 ], [ -105.117769944933855, 38.834659312458975 ], [ -105.068041936598092, 38.863824320337891 ], [ -105.075797930419171, 38.791661309210582 ], [ -105.099388934948905, 38.777077305735688 ], [ -105.098553930450038, 38.743514300962268 ], [ -105.147020942718484, 38.75112029890542 ], [ -105.229334952557949, 38.665720281238521 ], [ -105.219446948335914, 38.647659279185461 ], [ -104.94243588494507, 38.649888297741093 ], [ -104.941942875961885, 38.567797285556367 ], [ -104.966509877510433, 38.530386279162236 ], [ -104.956889872419922, 38.496816274583232 ], [ -105.000777878676374, 38.463797266870557 ], [ -104.996049870452978, 38.390126256812692 ], [ -105.015983874130541, 38.388319255582431 ], [ -104.970456862575404, 38.37423325618775 ], [ -104.940755851898743, 38.337306252253221 ], [ -104.940375843273813, 38.258281241501869 ], [ -104.975526851805853, 38.25812923853173 ], [ -104.991638848795318, 38.190440227726 ], [ -104.956422839165967, 38.182840229110624 ], [ -104.92578882783323, 38.139554225092411 ], [ -104.921688824253877, 38.106761220070531 ], [ -104.937096823352093, 38.070636214356441 ], [ -104.920127820569192, 38.074204215908978 ], [ -104.883307809502597, 38.049262214604987 ], [ -104.926465818863207, 38.042699210450891 ], [ -104.968512824943687, 38.005819202306455 ], [ -105.049987841597925, 37.985707194884576 ], [ -105.049926834451412, 37.915485183880364 ], [ -105.013772823026528, 37.883495182016979 ], [ -105.01412580761928, 37.72574615881684 ], [ -104.931402785701906, 37.704514161049673 ], [ -104.880072775897915, 37.717001165439335 ], [ -104.814896753193096, 37.639352158276566 ], [ -104.781641745522805, 37.641759160161506 ], [ -104.754768738358877, 37.631874160454856 ], [ -104.754385736716344, 37.621791158952433 ], [ -104.775173742002977, 37.617814157147535 ], [ -104.825483748812786, 37.570114147031838 ], [ -104.831906747315685, 37.545261143484943 ], [ -104.909087756830218, 37.452886124350236 ], [ -104.925762755377164, 37.39705411509204 ], [ -104.995514769134957, 37.375557108268637 ], [ -105.023615773772718, 37.35684210318405 ], [ -105.024674772714789, 37.340327100799293 ], [ -105.094257786316874, 37.3147090930999 ], [ -105.098563786072319, 37.303614091257181 ], [ -105.154185797992824, 37.293135086022396 ], [ -105.155051769680156, 36.995268041654683 ], [ -109.04518263031396, 36.998982805058489 ] ] ] } },
{ "type": "Feature", "properties": { "district_id": 5, "voting_age_pop": 466264, "lib_votes": 0, "grn_votes": 0, "con_votes": 0, "ref_votes": 0, "total_pop": 613578, "dem_votes_sum": 972609889932, "rep_votes_sum": 168893, "lib_votes_sum": 0, "grn_votes_sum": 0, "con_votes_sum": 0, "ref_votes_sum": 0, "minority_pop_sum": 219108, "dem_pct": 0.99999982635075746, "rep_pct": 1.7364924253820473e-07, "lib_pct": 0.0, "grn_pct": 0.0, "con_pct": 0.0, "ref_pct": 0.0, "minority_pct": 0.35709885295757021, "compactness": 0.23742947012326929 }, "geometry": { "type": "Polygon", "coordinates": [ [ [ -105.09308109167344, 40.18858650392135 ], [ -105.154836105034562, 40.182330498948517 ], [ -105.156581106918068, 40.191156499657609 ], [ -105.138822102336974, 40.192322500865714 ], [ -105.149980106382841, 40.20330750185223 ], [ -105.178031113279673, 40.203329500014902 ], [ -105.159070115488149, 40.261225509066506 ], [ -105.392698169411148, 40.257875492455582 ], [ -105.395622181055501, 40.349870505026701 ], [ -105.404010188354746, 40.393411510060631 ], [ -105.422736192869294, 40.393054508416327 ], [ -105.420948198041202, 40.436948514295679 ], [ -105.512026218611325, 40.437461508200357 ], [ -105.515277226630744, 40.492078515016146 ], [ -105.460053213172927, 40.492555519408569 ], [ -105.484765222105921, 40.517463521221025 ], [ -105.51127622942839, 40.523874519971095 ], [ -105.567467240856075, 40.508041513955568 ], [ -105.617282255764877, 40.539932514973067 ], [ -105.659549264444792, 40.528173510408322 ], [ -105.684284272350638, 40.550702510984152 ], [ -105.735382283949065, 40.547417507399174 ], [ -105.754516287377072, 40.538173504786499 ], [ -105.748068284416007, 40.523511503430107 ], [ -105.771544287078115, 40.50237549820006 ], [ -105.790441291474309, 40.502639497373373 ], [ -105.822473295299829, 40.476835491482205 ], [ -105.854936304511043, 40.486258490604641 ], [ -105.891764311348538, 40.476667486874206 ], [ -105.910853306332328, 40.400519474692629 ], [ -105.922163312285306, 40.428401478277067 ], [ -105.9676413238424, 40.437206475771461 ], [ -106.008934336597605, 40.460800475845566 ], [ -106.007013340172051, 40.4900034802966 ], [ -106.035137348978935, 40.515395481712844 ], [ -106.040141354961918, 40.550377485830204 ], [ -106.061350361559633, 40.56761648658324 ], [ -106.125270377109331, 40.569606482304458 ], [ -106.178600394333913, 40.612456484381049 ], [ -106.296010421817599, 40.620346476599494 ], [ -106.293997431258433, 40.694341486767314 ], [ -106.271927427392967, 40.708980489979737 ], [ -106.244106419841088, 40.696722490767471 ], [ -106.282120432694029, 40.727846492091743 ], [ -106.287668442874491, 40.802581501731872 ], [ -106.322743447343484, 40.770026494600693 ], [ -106.359170457532841, 40.785426493688881 ], [ -106.37633146064465, 40.779055491886211 ], [ -106.363482461212087, 40.806043496252499 ], [ -106.403182474748746, 40.843218498457105 ], [ -106.516840497977341, 40.820286487273172 ], [ -106.518500497441153, 40.81216648575483 ], [ -106.53965050475972, 40.83523648720368 ], [ -106.548508512903311, 40.882020492633025 ], [ -106.567339517917873, 40.890382492151318 ], [ -106.667844537897139, 40.862295481838338 ], [ -106.691679545905288, 40.888198482780311 ], [ -106.739351555023802, 40.870849477384759 ], [ -106.740863557356917, 40.889806479795851 ], [ -106.769014566059738, 40.904144479787362 ], [ -106.809761574247261, 40.899759475464769 ], [ -106.825040582276685, 40.932125479115122 ], [ -106.829375582518992, 40.924265477742935 ], [ -106.852359587474552, 40.925189475616904 ], [ -106.872678597391328, 40.967218479679921 ], [ -106.870594598837002, 40.981229482045308 ], [ -106.850545595426482, 40.990657484238966 ], [ -106.861464599017495, 40.999974485313132 ], [ -102.051726458486485, 41.002365828830271 ], [ -102.042098038474379, 36.993022223483351 ], [ -103.086111288337875, 37.000194164051479 ], [ -103.075947345452605, 37.643426264598475 ], [ -102.874813297846288, 37.643891276614553 ], [ -102.87490530038481, 37.673053281425517 ], [ -102.893077304552705, 37.67298828002383 ], [ -102.898313307599764, 37.687241281777631 ], [ -102.948316319617689, 37.687814279200531 ], [ -102.948492325150823, 37.745063287621043 ], [ -102.966430329336546, 37.745794287085424 ], [ -102.978396339618442, 37.826958298713073 ], [ -103.012088348281665, 37.827436296302722 ], [ -103.016001350937998, 37.848559299420351 ], [ -103.05079635982203, 37.852743298436671 ], [ -103.050206375749127, 38.020238323786629 ], [ -103.035915376722556, 38.063180331162414 ], [ -103.092058391731257, 38.08069733058089 ], [ -103.121548397328525, 38.064507326143996 ], [ -103.180158410550376, 38.062628321939542 ], [ -103.173863411312709, 38.083697325851766 ], [ -103.130877399695763, 38.071737326431297 ], [ -103.123489400727493, 38.098618331317496 ], [ -103.089953392208272, 38.090087331683222 ], [ -103.080641391979611, 38.114835336028484 ], [ -103.055833384041833, 38.095229335164959 ], [ -103.04461338370642, 38.112930338241952 ], [ -103.032700379045465, 38.093304335657173 ], [ -103.02564642910832, 38.615000415127987 ], [ -103.172952464530553, 38.612456405046977 ], [ -103.17234547225857, 38.690064417171669 ], [ -103.219173482860839, 38.682403413206202 ], [ -103.250084491573233, 38.694932412623707 ], [ -103.278129500575318, 38.716545414295716 ], [ -103.286035504394235, 38.740385416850614 ], [ -103.331672518321213, 38.768286418713608 ], [ -103.349942526226712, 38.803707422174547 ], [ -103.377064531145507, 38.791014418681037 ], [ -103.415452542657775, 38.809835419100523 ], [ -103.4636605538455, 38.807114416039809 ], [ -103.478046559893585, 38.834939419049775 ], [ -103.469855566041318, 38.912144430866284 ], [ -103.479285571424839, 38.937222433900494 ], [ -103.423198557999626, 38.936705436975579 ], [ -103.423517568301293, 39.038725452284751 ], [ -103.350696551603207, 39.037414456595108 ], [ -103.34940655255383, 39.050516459362441 ], [ -103.443231582916368, 39.124186463769334 ], [ -103.584207624950338, 39.203405466324078 ], [ -103.584023631258219, 39.265783475065838 ], [ -103.714944663037869, 39.268915466583088 ], [ -103.714364694883017, 39.566337509731476 ], [ -104.285053830485609, 39.564724471672875 ], [ -104.283834849328201, 39.738751496193501 ], [ -104.35869386746495, 39.738203490969269 ], [ -104.357734878654611, 39.839896505917068 ], [ -104.226194847601334, 39.840585515233542 ], [ -104.225907849442805, 39.855086516923251 ], [ -104.188405840581609, 39.855306519749682 ], [ -104.187974850355332, 39.942368531483943 ], [ -104.206813854807933, 39.942144530632412 ], [ -104.207960861670188, 40.000838538549999 ], [ -104.414639910534234, 40.000748524761676 ], [ -104.414106921901251, 40.102290538869184 ], [ -104.520152947552091, 40.10930153211104 ], [ -104.527379945580847, 40.073292527077342 ], [ -104.58521295877874, 40.073197523202658 ], [ -104.584216961878838, 40.102333527355142 ], [ -104.565475957464969, 40.102290528455633 ], [ -104.565547959081115, 40.110652529421472 ], [ -104.602639966815474, 40.102164525463579 ], [ -104.602747978301835, 40.203435539484531 ], [ -104.659301991606569, 40.203678536017122 ], [ -104.659220989735374, 40.18911953350726 ], [ -104.696737999281808, 40.189258531043997 ], [ -104.697343993499274, 40.145935525440358 ], [ -104.832511026078379, 40.152720516955675 ], [ -104.829822024650483, 40.145066515651735 ], [ -104.904660042725581, 40.145644511121873 ], [ -104.904504044392084, 40.160103512611848 ], [ -104.885768040214913, 40.159911514023548 ], [ -104.885914044984716, 40.203970520315458 ], [ -105.09301509303954, 40.20317350591877 ], [ -105.09308109167344, 40.18858650392135 ] ] ] } },
{ "type": "Feature", "properties": { "district_id": 6, "voting_age_pop": 469925, "lib_votes": 0, "grn_votes": 0, "con_votes": 0, "ref_votes": 0, "total_pop": 636735, "dem_votes_sum": 813896302213, "rep_votes_sum": 144324, "lib_votes_sum": 0, "grn_votes_sum": 0, "con_votes_sum": 0, "ref_votes_sum": 0, "minority_pop_sum": 353834, "dem_pct": 0.99999982267523024, "rep_pct": 1.7732476977148099e-07, "lib_pct": 0.0, "grn_pct": 0.0, "con_pct": 0.0, "ref_pct": 0.0, "minority_pct": 0.55570056616959962, "compactness": 0.26373665879434632 }, "geometry": { "type": "Polygon", "coordinates": [ [ [ -105.155051769680156, 36.995268041654683 ], [ -105.154185797992824, 37.293135086022396 ], [ -105.098563786072319, 37.303614091257181 ], [ -105.094257786316874, 37.3147090930999 ], [ -105.024674772714789, 37.340327100799293 ], [ -105.023615773772718, 37.35684210318405 ], [ -104.995514769134957, 37.375557108268637 ], [ -104.925762755377164, 37.39705411509204 ], [ -104.909231756284512, 37.452626124903396 ], [ -104.874808753251784, 37.504903134449933 ], [ -104.831906747315685, 37.545261143484943 ], [ -104.825483748812786, 37.570114147031838 ], [ -104.775173742002977, 37.617814157147535 ], [ -104.757300737257353, 37.616019157939363 ], [ -104.754521738497033, 37.630788160589894 ], [ -104.814896753193096, 37.639352158276566 ], [ -104.883717776796445, 37.718432165765606 ], [ -104.931402785701906, 37.704514161049673 ], [ -105.01412580761928, 37.72574615881684 ], [ -105.013772823026528, 37.883495182016979 ], [ -105.049926834451412, 37.915485183880364 ], [ -105.049987841597925, 37.985707194884576 ], [ -104.968512824943687, 38.005819202306455 ], [ -104.926465818863207, 38.042699210450891 ], [ -104.883307809502597, 38.049262214604987 ], [ -104.920127820569192, 38.074204215908978 ], [ -104.937096823352093, 38.070636214356441 ], [ -104.921688824253877, 38.106761220070531 ], [ -104.92578882783323, 38.139554225092411 ], [ -104.956422839165967, 38.182840229110624 ], [ -104.991638848795318, 38.190440227726 ], [ -104.975526851805853, 38.25812923853173 ], [ -104.940375843273813, 38.258281241501869 ], [ -104.940755851898743, 38.337306252253221 ], [ -104.970456862575404, 38.37423325618775 ], [ -105.015983874130541, 38.388319255582431 ], [ -104.996049870452978, 38.390126256812692 ], [ -105.000777878676374, 38.463797266870557 ], [ -104.956889872419922, 38.496816274583232 ], [ -104.966509877510433, 38.530386279162236 ], [ -104.941942875961885, 38.567797285556367 ], [ -104.94243588494507, 38.649888297741093 ], [ -105.219446948335914, 38.647659279185461 ], [ -105.229278952682023, 38.665923281639337 ], [ -105.147020942718484, 38.75112029890542 ], [ -105.098473930353634, 38.743646300778245 ], [ -105.099388934948905, 38.777077305735688 ], [ -105.075797930419171, 38.791661309210582 ], [ -105.066709936628044, 38.869514321030067 ], [ -105.028912927674142, 38.868913323584543 ], [ -105.025638943387875, 39.020760344860165 ], [ -105.012307941168785, 39.025373346884777 ], [ -105.024569940542861, 38.995253341356772 ], [ -104.999054930728875, 38.96214433854437 ], [ -104.985240929194717, 38.972227340919325 ], [ -104.935683917490138, 38.971839344216917 ], [ -104.935362910453875, 38.911008335307976 ], [ -104.88685289966142, 38.911139338251594 ], [ -104.886912894725313, 38.864293332303319 ], [ -104.939040907203463, 38.867698329022353 ], [ -104.942245904279588, 38.838904325151553 ], [ -104.914562897852335, 38.834878325984043 ], [ -104.916470897061131, 38.824677324322792 ], [ -104.88716189030805, 38.824339325888623 ], [ -104.859118885530364, 38.840490330201661 ], [ -104.84061788053009, 38.831320329898965 ], [ -104.84983088391661, 38.847856331604767 ], [ -104.823365876511247, 38.836685331888496 ], [ -104.775838866491469, 38.847086336786987 ], [ -104.794217871498191, 38.850261335870016 ], [ -104.78306187019912, 38.862876338290242 ], [ -104.795467874911949, 38.878676339915749 ], [ -104.775352873605925, 38.914015346390556 ], [ -104.752727868023541, 38.904041346040927 ], [ -104.746517868203284, 38.922870349604551 ], [ -104.72610386385702, 38.924895351084373 ], [ -104.719468864945171, 38.951357355233448 ], [ -104.663944852244583, 38.954923359251495 ], [ -104.663321858401432, 39.013038367630564 ], [ -104.625953849580682, 39.013396370455602 ], [ -104.589772844009005, 39.042467376724808 ], [ -104.571352840119502, 39.042474378258063 ], [ -104.561004842754258, 39.086087385529275 ], [ -104.548076839001325, 39.07869038504802 ], [ -104.5480898347992, 39.042553379842289 ], [ -104.404847800966635, 39.041047388816494 ], [ -104.404636802623941, 39.055379390814508 ], [ -104.423137806743895, 39.055936390186879 ], [ -104.422878811109541, 39.099248396377654 ], [ -104.40882280800345, 39.099020396646544 ], [ -104.418003811563636, 39.113830398551798 ], [ -104.38542280418342, 39.113624400157114 ], [ -104.385300805596032, 39.129052402483723 ], [ -104.236407770648654, 39.128650412554641 ], [ -104.236085773385852, 39.150573415880089 ], [ -104.254573778517539, 39.157585415278767 ], [ -104.235981773834496, 39.157700416424554 ], [ -104.235679776575225, 39.179353419846862 ], [ -104.253979781117764, 39.186627419684172 ], [ -104.249546782247748, 39.200943422117888 ], [ -104.264545786148659, 39.211662422352376 ], [ -104.252234784355721, 39.215863424143251 ], [ -104.253536790867059, 39.274655432249894 ], [ -104.422792837331627, 39.334772429338472 ], [ -104.482288851170338, 39.335061426163449 ], [ -104.533676852996479, 39.241513409469995 ], [ -104.662900883999541, 39.245828400856439 ], [ -104.663207896651002, 39.362060417459958 ], [ -104.67871990051124, 39.368856417823963 ], [ -104.681635906561283, 39.412968423849222 ], [ -104.740000921776456, 39.428450422028035 ], [ -104.681335909775129, 39.445576428544406 ], [ -104.681243180684078, 39.453886377672042 ], [ -104.72667392591714, 39.488467430986269 ], [ -104.713420922936095, 39.49422843305954 ], [ -104.726526927721551, 39.509217433937444 ], [ -104.755824935859366, 39.517997433402726 ], [ -104.763563939099285, 39.532041434991946 ], [ -104.709425927086258, 39.538442439743804 ], [ -104.707929928416632, 39.551098441603699 ], [ -104.679565921688081, 39.553855443337845 ], [ -104.679315923156281, 39.565997445620219 ], [ -104.718118931997793, 39.565990442682647 ], [ -104.723820935018949, 39.577896444437201 ], [ -104.714446934839174, 39.601183448443606 ], [ -104.659346921766002, 39.594938451073631 ], [ -104.660061926536855, 39.638424457031071 ], [ -104.454086878010187, 39.636441470929114 ], [ -104.452233889062754, 39.738162485445301 ], [ -104.283834849328201, 39.738751496193501 ], [ -104.285053830485609, 39.564724471672875 ], [ -103.714364694883017, 39.566337509731476 ], [ -103.714944663037869, 39.268915466583088 ], [ -103.584023631258219, 39.265783475065838 ], [ -103.584207624950338, 39.203405466324078 ], [ -103.443231582916368, 39.124186463769334 ], [ -103.34940655255383, 39.050516459362441 ], [ -103.350696551603207, 39.037414456595108 ], [ -103.423517568301293, 39.038725452284751 ], [ -103.423198557999626, 38.936705436975579 ], [ -103.479285571424839, 38.937222433900494 ], [ -103.469855566041318, 38.912144430866284 ], [ -103.478046559893585, 38.834939419049775 ], [ -103.4636605538455, 38.807114416039809 ], [ -103.415452542657775, 38.809835419100523 ], [ -103.377064531145507, 38.791014418681037 ], [ -103.349942526226712, 38.803707422174547 ], [ -103.331672518321213, 38.768286418713608 ], [ -103.286035504394235, 38.740385416850614 ], [ -103.278129500575318, 38.716545414295716 ], [ -103.250084491573233, 38.694932412623707 ], [ -103.219173482860839, 38.682403413206202 ], [ -103.200637478828526, 38.690429415177135 ], [ -103.17234547225857, 38.690064417171669 ], [ -103.172952464530553, 38.612456405046977 ], [ -103.02564642910832, 38.615000415127987 ], [ -103.032700379045465, 38.093304335657173 ], [ -103.04461338370642, 38.112930338241952 ], [ -103.055833384041833, 38.095229335164959 ], [ -103.080641391979611, 38.114835336028484 ], [ -103.089953392208272, 38.090087331683222 ], [ -103.123489400727493, 38.098618331317496 ], [ -103.130877399695763, 38.071737326431297 ], [ -103.173863411312709, 38.083697325851766 ], [ -103.180158410550376, 38.062628321939542 ], [ -103.121548397328525, 38.064507326143996 ], [ -103.092058391731257, 38.08069733058089 ], [ -103.035915376722556, 38.063180331162414 ], [ -103.050206375749127, 38.020238323786629 ], [ -103.05079635982203, 37.852743298436671 ], [ -103.016001350937998, 37.848559299420351 ], [ -103.012088348281665, 37.827436296302722 ], [ -102.978396339618442, 37.826958298713073 ], [ -102.966430329336546, 37.745794287085424 ], [ -102.948492325150823, 37.745063287621043 ], [ -102.948316319617689, 37.687814279200531 ], [ -102.898313307599764, 37.687241281777631 ], [ -102.893077304552705, 37.67298828002383 ], [ -102.87490530038481, 37.673053281425517 ], [ -102.874813297846288, 37.643891276614553 ], [ -103.075947345452605, 37.643426264598475 ], [ -103.086111288337875, 37.000194164051479 ], [ -105.155051769680156, 36.995268041654683 ] ] ] } },
{ "type": "Feature", "properties": { "district_id": 7, "voting_age_pop": 485997, "lib_votes": 0, "grn_votes": 0, "con_votes": 0, "ref_votes": 0, "total_pop": 618787, "dem_votes_sum": 881769853836, "rep_votes_sum": 156692, "lib_votes_sum": 0, "grn_votes_sum": 0, "con_votes_sum": 0, "ref_votes_sum": 0, "minority_pop_sum": 145896, "dem_pct": 0.99999982229833384, "rep_pct": 1.7770166611379029e-07, "lib_pct": 0.0, "grn_pct": 0.0, "con_pct": 0.0, "ref_pct": 0.0, "minority_pct": 0.2357774161383481, "compactness": 0.12437312571121485 }, "geometry": { "type": "MultiPolygon", "coordinates": [ [ [ [ -106.451748235484914, 38.697039205456441 ], [ -106.425285230970388, 38.710313208745305 ], [ -106.416675230461166, 38.727820212393922 ], [ -106.416192240984913, 38.824098225707615 ], [ -106.383642233607432, 38.824711227446848 ], [ -106.365054232339929, 38.852991232723845 ], [ -106.349313228836465, 38.854893234511785 ], [ -106.321323226367937, 38.892605241410038 ], [ -106.326109229835524, 38.911010243430852 ], [ -106.37345023966445, 38.906614239289333 ], [ -106.380846243650495, 38.925691241636827 ], [ -106.40213424736065, 38.910623238444224 ], [ -106.421171252838391, 38.928099239704281 ], [ -106.465042261362186, 38.910360233769666 ], [ -106.526693280524796, 38.955417236235441 ], [ -106.528399283227188, 38.980733239737681 ], [ -106.554221291124918, 38.998717240638221 ], [ -106.577171295235871, 38.990450238039223 ], [ -106.612749304165575, 38.99570323579681 ], [ -106.648402315312424, 39.022158237524167 ], [ -106.655502318543839, 39.04442623996389 ], [ -106.684461326005973, 39.045141237807385 ], [ -106.6949793289496, 39.055673238590295 ], [ -106.747193339344975, 39.040026232621031 ], [ -106.76927834814353, 39.078796236457947 ], [ -106.804681359137817, 39.10288723764635 ], [ -106.823545372137559, 39.178750246763535 ], [ -106.848849380233617, 39.203921248201915 ], [ -106.82200237773057, 39.232572254060202 ], [ -106.489113304578012, 39.24854327883606 ], [ -106.483148304112902, 39.26340028112174 ], [ -106.454462298357839, 39.26963028433606 ], [ -106.469279299955744, 39.247718279796253 ], [ -106.436767295065039, 39.270885285128344 ], [ -106.307076262760418, 39.247334291021225 ], [ -106.290514260607623, 39.263796294523644 ], [ -106.300145263629986, 39.272383295338471 ], [ -106.284840260567165, 39.274525296523585 ], [ -106.274172260462663, 39.295430300080561 ], [ -106.226523252241236, 39.313365305475713 ], [ -106.220892254370639, 39.349593311449162 ], [ -106.178994246601121, 39.360795315307037 ], [ -106.191422250919672, 39.379702317512084 ], [ -106.135539238567134, 39.379552320671792 ], [ -106.137959241470554, 39.399626323576399 ], [ -106.10292123871686, 39.44326733178103 ], [ -106.121265251455029, 39.52127934146376 ], [ -106.084075244859477, 39.538054346470425 ], [ -106.085362248037612, 39.563327349787436 ], [ -106.058246243141113, 39.578208353739157 ], [ -106.057151245410168, 39.593518355963646 ], [ -106.090287250444362, 39.578110351505501 ], [ -106.091784251654033, 39.579695350967562 ], [ -106.082000249144301, 39.582810352721154 ], [ -106.081303249489579, 39.58517735252989 ], [ -106.090287252869516, 39.599263354105929 ], [ -106.073393251321448, 39.613824356944939 ], [ -106.07119925175968, 39.625945359234301 ], [ -106.092189255813878, 39.616968356278079 ], [ -106.106853260041262, 39.625087356669411 ], [ -106.103133261085844, 39.639627358529445 ], [ -106.172422274573378, 39.619452351436117 ], [ -106.183850280950352, 39.652159355229763 ], [ -106.234850293872498, 39.662036352580067 ], [ -106.238755296187449, 39.680280355248598 ], [ -106.253796300512391, 39.685934354909477 ], [ -106.159300285477983, 39.738733368082713 ], [ -106.134372279363348, 39.737073369472014 ], [ -106.127437275648731, 39.723443368174173 ], [ -106.106294273010576, 39.73590737144324 ], [ -106.060056262500382, 39.73633037441698 ], [ -106.08372127554685, 39.805970383132042 ], [ -106.10564228260894, 39.823061383381379 ], [ -106.078137279150056, 39.850381388913846 ], [ -106.097405289374905, 39.899873394135938 ], [ -106.016839272467976, 39.907287400902632 ], [ -106.008030272022467, 39.926109404202393 ], [ -105.974554265928745, 39.936349407997035 ], [ -105.988804272386545, 39.965685411236272 ], [ -105.927087261076196, 39.987745417798315 ], [ -105.917482261382474, 40.005419421118653 ], [ -105.828120238821683, 39.99053542513284 ], [ -105.806565238361344, 40.030953432614702 ], [ -105.777645234101328, 40.050934436968802 ], [ -105.755496229378309, 40.052275439383308 ], [ -105.754690230046762, 40.062012440125052 ], [ -105.683062207945667, 40.014148439184368 ], [ -105.651920201649716, 40.020911442085705 ], [ -105.637423200831563, 40.045237445854795 ], [ -105.651071205398523, 40.058451447228919 ], [ -105.632630204203352, 40.081453451188466 ], [ -105.635666212267907, 40.146012460151759 ], [ -105.675759224874568, 40.167454459803679 ], [ -105.69933022933796, 40.161717458110999 ], [ -105.727392237858652, 40.179180458027723 ], [ -105.741520240186958, 40.17548945629742 ], [ -105.747374242873335, 40.18532845768803 ], [ -105.823583260438525, 40.186545451966147 ], [ -105.849348268822254, 40.205722453062563 ], [ -105.860907273453918, 40.216762453834555 ], [ -105.848330274080197, 40.253055459635192 ], [ -105.870397279990911, 40.255841458328888 ], [ -105.848568277416533, 40.278833462945904 ], [ -105.860464282898945, 40.301592465197174 ], [ -105.853597283722294, 40.322473468249498 ], [ -105.941841306558587, 40.34354846544533 ], [ -105.946617313500099, 40.385053470026023 ], [ -105.903330304841077, 40.400757475442163 ], [ -105.891764311348538, 40.476667486874206 ], [ -105.854936304511043, 40.486258490604641 ], [ -105.822473295299829, 40.476835491482205 ], [ -105.790441291474309, 40.502639497373373 ], [ -105.771544287078115, 40.50237549820006 ], [ -105.748068284416007, 40.523511503430107 ], [ -105.754516287377072, 40.538173504786499 ], [ -105.735382283949065, 40.547417507399174 ], [ -105.684284272350638, 40.550702510984152 ], [ -105.659549264444792, 40.528173510408322 ], [ -105.617282255764877, 40.539932514973067 ], [ -105.567467240856075, 40.508041513955568 ], [ -105.51127622942839, 40.523874519971095 ], [ -105.484931222611593, 40.517517521008799 ], [ -105.460053213172927, 40.492555519408569 ], [ -105.515277226630744, 40.492078515016146 ], [ -105.512026218611325, 40.437461508200357 ], [ -105.420948198041202, 40.436948514295679 ], [ -105.422736192869294, 40.393054508416327 ], [ -105.404010188354746, 40.393411510060631 ], [ -105.395622181055501, 40.349870505026701 ], [ -105.392698169411148, 40.257875492455582 ], [ -105.159070115488149, 40.261225509066506 ], [ -105.178031113279673, 40.203329500014902 ], [ -105.149980106382841, 40.20330750185223 ], [ -105.138822102336974, 40.192322500865714 ], [ -105.156581106918068, 40.191156499657609 ], [ -105.154836105034562, 40.182330498948517 ], [ -105.112064096466682, 40.188564502481611 ], [ -105.118608093313853, 40.152312497118011 ], [ -105.102548090933226, 40.160237498762591 ], [ -105.102379087698779, 40.138239495742944 ], [ -105.121486091904217, 40.137898494831227 ], [ -105.102523087479639, 40.133166495815857 ], [ -105.102695078151029, 40.054836484491204 ], [ -105.121201080619912, 40.039490481177687 ], [ -105.055382064031988, 40.029315484547936 ], [ -105.055652060562068, 40.000256480442715 ], [ -105.037077056716385, 40.000473481868724 ], [ -105.03535905400247, 39.981362479371874 ], [ -105.052807057370032, 39.977680477835676 ], [ -105.068075060064444, 39.970938475208328 ], [ -105.079901062095942, 39.961524473335487 ], [ -105.088109063703399, 39.959759472970852 ], [ -105.088241063313788, 39.957934472186118 ], [ -105.072012059331868, 39.957676473061937 ], [ -105.071907056961692, 39.932725470128211 ], [ -105.109246065755897, 39.936141468179045 ], [ -105.109424064673902, 39.925481466134045 ], [ -105.137614071210123, 39.928937464865548 ], [ -105.128034072199611, 39.950770468135694 ], [ -105.142201076374988, 39.962524469428971 ], [ -105.16070307959194, 39.955149466978845 ], [ -105.177997085172478, 39.962338466450618 ], [ -105.192978085325038, 39.939944462944027 ], [ -105.176019082246654, 39.944465464581384 ], [ -105.165807079149687, 39.935557464250991 ], [ -105.160460078856019, 39.945143465537384 ], [ -105.159814076753904, 39.929328463435418 ], [ -105.147366073526769, 39.928861464276089 ], [ -105.160294075243414, 39.918356462228381 ], [ -105.147152071758342, 39.913855461790249 ], [ -105.165700075778886, 39.91052146008883 ], [ -105.174563066939257, 39.812558446531661 ], [ -105.221650078084025, 39.818057444043596 ], [ -105.232373084819912, 39.855954447895535 ], [ -105.269113092436598, 39.848444445146001 ], [ -105.236308073401929, 39.742837432518087 ], [ -105.221953069657445, 39.739979432606752 ], [ -105.238903070409791, 39.710952427925754 ], [ -105.202372060686784, 39.701904429197583 ], [ -105.218745063454548, 39.696229427291286 ], [ -105.3117220876685, 39.714173423546761 ], [ -105.340690092387263, 39.701352419402468 ], [ -105.339514090724421, 39.691585418282948 ], [ -105.361051095891, 39.690233416329839 ], [ -105.355100091289486, 39.663255413564052 ], [ -105.322325084468474, 39.667091416063464 ], [ -105.307892078356687, 39.643566413505113 ], [ -105.333290084247409, 39.640834411313733 ], [ -105.32514607996454, 39.624586409468478 ], [ -105.344333084745216, 39.628594409186917 ], [ -105.39888509512096, 39.606416402180763 ], [ -105.398351078551613, 39.464179382816042 ], [ -105.380447074701351, 39.467359384527114 ], [ -105.359581072216244, 39.487827388387956 ], [ -105.349220070731974, 39.490251389694329 ], [ -105.331104067761274, 39.500668392516154 ], [ -105.325263066046276, 39.501544392961137 ], [ -105.326984065350928, 39.489859391054047 ], [ -105.284946054597157, 39.477725392021483 ], [ -105.262105044934785, 39.440711388399805 ], [ -105.204628030014874, 39.428795390585265 ], [ -105.17079702005671, 39.408143389981127 ], [ -105.166584013872566, 39.361760384283748 ], [ -105.198542015223907, 39.309443374166463 ], [ -105.154114003123127, 39.294565375130858 ], [ -105.129223998437624, 39.298725377665477 ], [ -105.112902991090579, 39.265783373945709 ], [ -105.094827988870989, 39.290508378495126 ], [ -105.066904982998537, 39.294634381457684 ], [ -105.043091982241833, 39.33832938883009 ], [ -105.003319976797215, 39.367840395882453 ], [ -104.955797966181052, 39.370374399367698 ], [ -104.946838961207661, 39.347597396797184 ], [ -104.923640955398923, 39.348316398332493 ], [ -104.923656950840027, 39.300462391710852 ], [ -104.891484942330393, 39.297021392969206 ], [ -104.860738944755056, 39.380209407405417 ], [ -104.837110938073437, 39.366354406621014 ], [ -104.837030939046571, 39.376115408475499 ], [ -104.811248933136028, 39.37741340998658 ], [ -104.812407937662528, 39.420281416123451 ], [ -104.774928930281874, 39.431294419940599 ], [ -104.752829920480863, 39.391118415617733 ], [ -104.663207896651002, 39.362060417459958 ], [ -104.662900883999541, 39.245828400856439 ], [ -104.533676852996479, 39.241513409469995 ], [ -104.482288851170338, 39.335061426163449 ], [ -104.422792837331627, 39.334772429338472 ], [ -104.253536790867059, 39.274655432249894 ], [ -104.252234784355721, 39.215863424143251 ], [ -104.264545786148659, 39.211662422352376 ], [ -104.249546782247748, 39.200943422117888 ], [ -104.253979781117764, 39.186627419684172 ], [ -104.235679776575225, 39.179353419846862 ], [ -104.235981773834496, 39.157700416424554 ], [ -104.254573778517539, 39.157585415278767 ], [ -104.236085773385852, 39.150573415880089 ], [ -104.236407770648654, 39.128650412554641 ], [ -104.385300805596032, 39.129052402483723 ], [ -104.38542280418342, 39.113624400157114 ], [ -104.418003811563636, 39.113830398551798 ], [ -104.40882280800345, 39.099020396646544 ], [ -104.422878811109541, 39.099248396377654 ], [ -104.423137806743895, 39.055936390186879 ], [ -104.404636802623941, 39.055379390814508 ], [ -104.404847800966635, 39.041047388816494 ], [ -104.5480898347992, 39.042553379842289 ], [ -104.548076839001325, 39.07869038504802 ], [ -104.561004842754258, 39.086087385529275 ], [ -104.571352840119502, 39.042474378258063 ], [ -104.589772844009005, 39.042467376724808 ], [ -104.625953849580682, 39.013396370455602 ], [ -104.663321858401432, 39.013038367630564 ], [ -104.663944852244583, 38.954923359251495 ], [ -104.719468864945171, 38.951357355233448 ], [ -104.72610386385702, 38.924895351084373 ], [ -104.746517868203284, 38.922870349604551 ], [ -104.752727868023541, 38.904041346040927 ], [ -104.775352873605925, 38.914015346390556 ], [ -104.795467874911949, 38.878676339915749 ], [ -104.78306187019912, 38.862876338290242 ], [ -104.794217871498191, 38.850261335870016 ], [ -104.775838866491469, 38.847086336786987 ], [ -104.823365876511247, 38.836685331888496 ], [ -104.84983088391661, 38.847856331604767 ], [ -104.84061788053009, 38.831320329898965 ], [ -104.859118885530364, 38.840490330201661 ], [ -104.88716189030805, 38.824339325888623 ], [ -104.916470897061131, 38.824677324322792 ], [ -104.914562897852335, 38.834878325984043 ], [ -104.942245904279588, 38.838904325151553 ], [ -104.939040907203463, 38.867698329022353 ], [ -104.886912894725313, 38.864293332303319 ], [ -104.88685289966142, 38.911139338251594 ], [ -104.935362910453875, 38.911008335307976 ], [ -104.935683917490138, 38.971839344216917 ], [ -104.985240929194717, 38.972227340919325 ], [ -104.999054930728875, 38.96214433854437 ], [ -105.024569940542861, 38.995253341356772 ], [ -105.014873939229147, 39.005472343455736 ], [ -105.012307941168785, 39.025373346884777 ], [ -105.025638943387875, 39.020760344860165 ], [ -105.028912927674142, 38.868913323584543 ], [ -105.066709936628044, 38.869514321030067 ], [ -105.117769944933855, 38.834659312458975 ], [ -105.16941395719121, 38.835991309537924 ], [ -105.144972947962259, 38.80489530622765 ], [ -105.254388969096183, 38.769401293968194 ], [ -105.262422965725349, 38.720630286614664 ], [ -105.244554961218356, 38.710497286697013 ], [ -105.261340963387909, 38.696587283372843 ], [ -106.022764137632961, 38.694190233266049 ], [ -106.02265213475259, 38.66534022889865 ], [ -106.166852166802002, 38.664927220101575 ], [ -106.166730163355936, 38.626680214557261 ], [ -106.315619196526669, 38.623978203897096 ], [ -106.385935212403112, 38.626725200426201 ], [ -106.37990921230066, 38.638489201771264 ], [ -106.429555225545343, 38.651241200179044 ], [ -106.451748235484914, 38.697039205456441 ] ] ], [ [ [ -105.08257606261003, 39.959283472919132 ], [ -105.057719058054857, 39.974675477000893 ], [ -105.052899054827748, 39.957832474399318 ], [ -105.08257606261003, 39.959283472919132 ] ] ] ] } }
]
}
