{
"type": "FeatureCollection",
"name": "colorado_enacted_districts",
"crs": { "type": "name", "properties": { "name": "urn:ogc:def:crs:OGC:1.3:CRS84" } },
"features": [
{ "type": "Feature", "properties": { "enacted_district": 1.0, "population": 720658.0, "voting_age_pop": 585470.0, "dem_votes": 258780.0, "rep_votes": 68623.0, "minority_pop": 241324.0, "dem_pct": 0.79040204250101498, "rep_pct": 0.20959795719355107 }, "geometry": { "type": "Polygon", "coordinates": [ [ [ -105.091401000001994, 39.614332000001824 ], [ -105.097028000001799, 39.617984000002309 ], [ -105.093172000002241, 39.618324000001678 ], [ -105.074796000001697, 39.618511000001774 ], [ -105.080587000002083, 39.630386000001906 ], [ -105.094461000002553, 39.624195000001798 ], [ -105.102693000001807, 39.62422400000176 ], [ -105.109875000001864, 39.635072000001927 ], [ -105.100542000002122, 39.635088000001588 ], [ -105.098526000001954, 39.635087000001946 ], [ -105.087380000002113, 39.638692000001868 ], [ -105.073271000002762, 39.638740000001938 ], [ -105.072049000001755, 39.645815000002223 ], [ -105.072045000002319, 39.64598400000218 ], [ -105.057150000001926, 39.652946000001847 ], [ -105.071972000002475, 39.659951000002323 ], [ -105.081453000001886, 39.662056000002323 ], [ -105.081451000002446, 39.667743000002126 ], [ -105.081348000002421, 39.670133000002309 ], [ -105.072201000001741, 39.669374000002165 ], [ -105.07150900000174, 39.667764000001981 ], [ -105.06011000000224, 39.667780000002217 ], [ -105.053256000002477, 39.667785000001473 ], [ -105.053234000001964, 39.674299000001731 ], [ -105.062621000002181, 39.675874000002295 ], [ -105.057797000001756, 39.682272000001845 ], [ -105.053221000002125, 39.682291000002166 ], [ -105.053266000001784, 39.68955900000163 ], [ -105.053218000002417, 39.694988000002297 ], [ -105.053225000002442, 39.696769000002334 ], [ -105.053247000002557, 39.703985000002213 ], [ -105.053252000002601, 39.707716000002101 ], [ -105.053250000002478, 39.711343000001882 ], [ -105.05327800000228, 39.718427000001711 ], [ -105.053259000001759, 39.724083000001883 ], [ -105.053253000002442, 39.72580000000233 ], [ -105.053252000002161, 39.726184000002227 ], [ -105.053228000001937, 39.734922000002221 ], [ -105.053206000001722, 39.740306000001638 ], [ -105.053210000002224, 39.743273000001786 ], [ -105.053212000002219, 39.743980000001891 ], [ -105.053237000001999, 39.755694000002109 ], [ -105.053239000002094, 39.758472000001973 ], [ -105.053241000002714, 39.763903000002252 ], [ -105.053240000002006, 39.76933300000163 ], [ -105.053245000002505, 39.776583000001771 ], [ -105.053184000002119, 39.783687000001486 ], [ -105.064992000002647, 39.78835900000152 ], [ -105.053246000002204, 39.791063000002183 ], [ -105.040419000002103, 39.791119000001615 ], [ -105.025149000001875, 39.794003000002235 ], [ -105.01583200000222, 39.791072000001634 ], [ -104.997790000002624, 39.791026000002319 ], [ -104.996737000002355, 39.791019000002137 ], [ -104.988848000001681, 39.791036000001469 ], [ -104.9675230000026, 39.79326900000197 ], [ -104.968861000002661, 39.791041000001641 ], [ -104.956327000002645, 39.793957000001811 ], [ -104.939882000001646, 39.790994000001895 ], [ -104.931646000001962, 39.791047000001669 ], [ -104.922274000002474, 39.783776000001495 ], [ -104.912887000002726, 39.783818000002043 ], [ -104.903439000002436, 39.783888000002257 ], [ -104.903485000001922, 39.787288000002221 ], [ -104.90356100000264, 39.798391000002134 ], [ -104.866041000001999, 39.798386000001649 ], [ -104.847181000002038, 39.798236000001666 ], [ -104.835390000001681, 39.798105000001726 ], [ -104.820038000002555, 39.798260000002003 ], [ -104.809690000002362, 39.798317000001674 ], [ -104.795503000002256, 39.798270000001878 ], [ -104.790895000001598, 39.798251000001869 ], [ -104.790859000001916, 39.841802000002119 ], [ -104.74700100000166, 39.845299000001766 ], [ -104.729806000002597, 39.896127000001535 ], [ -104.640361000002457, 39.906711000002318 ], [ -104.599581000002559, 39.899038000001809 ], [ -104.619152000001762, 39.873220000001986 ], [ -104.619799000002359, 39.822417000002289 ], [ -104.659171000002758, 39.813025000001886 ], [ -104.762462000002557, 39.823443000001525 ], [ -104.762606000002236, 39.798433000001694 ], [ -104.753328000002142, 39.798460000001889 ], [ -104.7344030000027, 39.796801000001842 ], [ -104.734523000002625, 39.78258700000201 ], [ -104.734581000001796, 39.774838000001672 ], [ -104.734601000001817, 39.769181000001844 ], [ -104.749326000001673, 39.769281000001506 ], [ -104.75344200000194, 39.769302000001709 ], [ -104.764554000002121, 39.771271000001512 ], [ -104.772166000001761, 39.771500000001659 ], [ -104.772168000001713, 39.774667000001486 ], [ -104.772157000001926, 39.776409000001685 ], [ -104.809884000001816, 39.772823000001615 ], [ -104.824030000002097, 39.772798000001977 ], [ -104.828185000002676, 39.772784000002147 ], [ -104.828163000002434, 39.772374000002067 ], [ -104.828183000002724, 39.77027700000172 ], [ -104.856399000002739, 39.767810000002122 ], [ -104.846916000001656, 39.755241000002286 ], [ -104.854040000001845, 39.754710000001566 ], [ -104.861266000002757, 39.754748000002131 ], [ -104.870571000001618, 39.754751000002081 ], [ -104.879901000002647, 39.754652000002302 ], [ -104.880138000002006, 39.747428000002031 ], [ -104.884664000002161, 39.747467000002217 ], [ -104.884646000001993, 39.740156000002294 ], [ -104.884708000002107, 39.732846000002006 ], [ -104.88258000000198, 39.725661000001921 ], [ -104.881934000002076, 39.724960000002326 ], [ -104.875330000002776, 39.725576000002086 ], [ -104.870596000001896, 39.718176000001876 ], [ -104.870625000001979, 39.710174000001537 ], [ -104.865971000002233, 39.71105300000179 ], [ -104.865967000002598, 39.703807000001646 ], [ -104.865964000002421, 39.69927900000198 ], [ -104.865962000001844, 39.696559000001912 ], [ -104.875318000001641, 39.698438000002163 ], [ -104.877720000001617, 39.696508000001984 ], [ -104.882313000002156, 39.696573000002083 ], [ -104.891783000001894, 39.696581000002233 ], [ -104.891715000002193, 39.696590000001862 ], [ -104.903544000001844, 39.698535000002167 ], [ -104.903510000002143, 39.69258100000193 ], [ -104.903512000002564, 39.689354000002197 ], [ -104.894090000002521, 39.69271300000149 ], [ -104.894061000002196, 39.686428000002003 ], [ -104.903538000001959, 39.687376000002203 ], [ -104.903431000002115, 39.685456000002318 ], [ -104.903443000002525, 39.684857000001827 ], [ -104.905191000001835, 39.683862000002186 ], [ -104.906253000001641, 39.67844200000151 ], [ -104.903579000001685, 39.67667500000173 ], [ -104.903522000002738, 39.671225000001705 ], [ -104.90350900000162, 39.667624000001759 ], [ -104.894329000002159, 39.667588000001722 ], [ -104.89402400000256, 39.667589000002209 ], [ -104.892237000001856, 39.666048000002263 ], [ -104.885050000002124, 39.667493000001535 ], [ -104.875312000001998, 39.672062000002079 ], [ -104.875291000002207, 39.674766000002066 ], [ -104.870882000001799, 39.674764000001865 ], [ -104.866051000002116, 39.670847000002169 ], [ -104.866334000002155, 39.66030900000225 ], [ -104.848587000002354, 39.659203000001597 ], [ -104.847296000002643, 39.657102000001707 ], [ -104.877000000002326, 39.653050000001485 ], [ -104.88014000000264, 39.653057000002335 ], [ -104.880313000001721, 39.645902000001506 ], [ -104.880313000002317, 39.643949000001783 ], [ -104.885120000001905, 39.638948000002237 ], [ -104.885231000001994, 39.631345000001993 ], [ -104.885280000002425, 39.627128000001562 ], [ -104.885264000001726, 39.62416200000176 ], [ -104.889883000001873, 39.624121000001502 ], [ -104.901864000002277, 39.62409400000162 ], [ -104.913407000002181, 39.62408300000159 ], [ -104.913227000002195, 39.638669000001819 ], [ -104.922460000002602, 39.645849000001995 ], [ -104.931873000001616, 39.645826000001499 ], [ -104.931703000002599, 39.653044000001977 ], [ -104.940683000002238, 39.653013000001771 ], [ -104.954983000002045, 39.652987000001659 ], [ -104.953541000001778, 39.655957000001635 ], [ -104.959490000002234, 39.656759000001628 ], [ -104.959443000002722, 39.661526000002198 ], [ -104.96761900000196, 39.660409000001621 ], [ -104.968805000002405, 39.665839000002315 ], [ -104.973489000002161, 39.665866000001678 ], [ -104.973486000002694, 39.667684000001749 ], [ -104.982835000001884, 39.667696000002039 ], [ -104.987572000001805, 39.667682000001506 ], [ -104.996198000002479, 39.6676910000022 ], [ -105.008664000002099, 39.67862700000191 ], [ -105.015699000002286, 39.671795000001566 ], [ -105.015800000002343, 39.660508000001784 ], [ -105.025269000001998, 39.656817000001801 ], [ -105.03307600000258, 39.656954000001981 ], [ -105.033562000002235, 39.653286000002254 ], [ -105.034603000001638, 39.649589000001711 ], [ -105.029979000002385, 39.642245000001786 ], [ -105.034707000002015, 39.638593000002153 ], [ -105.034739000002673, 39.635023000002285 ], [ -105.034756000002474, 39.63317700000205 ], [ -105.025422000002379, 39.628558000001632 ], [ -105.034822000002563, 39.62780900000223 ], [ -105.044161000001722, 39.628039000002211 ], [ -105.045711000002015, 39.631466000001986 ], [ -105.053410000002046, 39.631504000001677 ], [ -105.053342000001606, 39.638770000002289 ], [ -105.059138000002235, 39.638243000001552 ], [ -105.053457000002723, 39.629526000001697 ], [ -105.053440000001956, 39.627901000001934 ], [ -105.053483000002714, 39.624253000001474 ], [ -105.053516000002361, 39.620864000002271 ], [ -105.058232000001979, 39.614409000001942 ], [ -105.091401000001994, 39.614332000001824 ] ], [ [ -104.908203000002686, 39.679883000001475 ], [ -104.90820500000234, 39.682070000002163 ], [ -104.911032000001924, 39.682073000001957 ], [ -104.911040000002203, 39.679887000001798 ], [ -104.908203000002686, 39.679883000001475 ] ] ] } },
{ "type": "Feature", "properties": { "enacted_district": 2.0, "population": 719050.0, "voting_age_pop": 582932.0, "dem_votes": 257034.0, "rep_votes": 121811.0, "minority_pop": 124542.0, "dem_pct": 0.67846744692988759, "rep_pct": 0.32153255280615223 }, "geometry": { "type": "MultiPolygon", "coordinates": [ [ [ [ -106.283212000002706, 39.350469000001802 ], [ -106.426487000001799, 39.36187100000167 ], [ -106.452794000001802, 39.361849000001406 ], [ -106.509214000002316, 39.362298000001907 ], [ -106.684049000001593, 39.362426000001655 ], [ -106.657861000002157, 39.419524000002049 ], [ -106.685361000002104, 39.441442000002176 ], [ -106.77446700000236, 39.41747100000223 ], [ -106.843187000002544, 39.421786000002157 ], [ -106.912703000002523, 39.455900000001563 ], [ -106.955100000002105, 39.482387000002099 ], [ -106.964029000001645, 39.529887000002169 ], [ -106.938136000001862, 39.595184000002092 ], [ -106.949080000002041, 39.638191000001939 ], [ -106.975640000001761, 39.65229200000217 ], [ -107.076880000002717, 39.644503000001812 ], [ -107.107070000002324, 39.624636000001381 ], [ -107.113865000002562, 39.624463000001711 ], [ -107.113867000001846, 39.624566000001849 ], [ -107.113548000002353, 39.866761000001752 ], [ -107.113672000001642, 39.919112000001384 ], [ -107.033968000001877, 39.918913000001709 ], [ -107.037363000002344, 40.091538000001563 ], [ -107.038227000002138, 40.175747000001621 ], [ -107.037928000001983, 40.225372000001869 ], [ -107.119907000001817, 40.225159000001561 ], [ -107.439386000001605, 40.223379000001849 ], [ -107.442594000002487, 40.334755000001792 ], [ -107.429345000002641, 40.440771000001803 ], [ -107.428752000002163, 40.526810000001575 ], [ -107.428758000002318, 40.527907000001846 ], [ -107.371328000001796, 40.542399000001581 ], [ -107.371487000001807, 40.600302000001491 ], [ -107.314153000002335, 40.600281000002099 ], [ -107.316356000001576, 40.862799000002106 ], [ -107.31779400000238, 41.002920000001637 ], [ -106.857773000001686, 41.002663000002087 ], [ -106.439563000002366, 41.001978000001586 ], [ -106.190554000002621, 40.997578000001717 ], [ -105.726441000001799, 40.996836000001792 ], [ -105.497579000001593, 40.997601000002184 ], [ -105.172911000001847, 40.998334000001613 ], [ -104.943371000001719, 40.998213000002131 ], [ -104.943369000002633, 40.740221000001945 ], [ -105.003720000002033, 40.74053800000226 ], [ -105.057176000002698, 40.740494000002123 ], [ -105.05725000000254, 40.697002000001966 ], [ -105.067979000002239, 40.682802000001594 ], [ -105.069951000002604, 40.666761000002118 ], [ -105.071528000002118, 40.632341000002171 ], [ -105.0571550000016, 40.635822000001667 ], [ -105.029363000002718, 40.624727000001549 ], [ -104.995531000001961, 40.6100390000015 ], [ -104.995529000001838, 40.595588000002266 ], [ -105.001403000002441, 40.588489000001971 ], [ -104.997725000001793, 40.581191000001958 ], [ -104.992628000002398, 40.581184000001777 ], [ -104.991644000002381, 40.581172000001629 ], [ -104.944112000002676, 40.580938000002057 ], [ -104.944107000002006, 40.566325000001967 ], [ -104.944165000002542, 40.508226000002281 ], [ -104.944088000001898, 40.493822000002126 ], [ -104.944096000001693, 40.479300000001992 ], [ -104.955127000001596, 40.479314000002134 ], [ -104.963393000001673, 40.479442000001711 ], [ -104.973882000002234, 40.479349000002131 ], [ -104.99202300000232, 40.479407000001913 ], [ -105.020168000002514, 40.480243000001451 ], [ -105.039388000001736, 40.480200000002228 ], [ -105.042109000001602, 40.480175000002284 ], [ -105.038708000002515, 40.436855000002339 ], [ -105.045663000002619, 40.440575000001843 ], [ -105.053117000001961, 40.450737000001517 ], [ -105.058348000002184, 40.450983000001735 ], [ -105.07750900000228, 40.458430000001925 ], [ -105.077415000002034, 40.48017100000164 ], [ -105.082301000002474, 40.480125000001529 ], [ -105.096346000002143, 40.487228000001679 ], [ -105.115652000002001, 40.480031000001709 ], [ -105.115542000002719, 40.451007000002079 ], [ -105.115657000001704, 40.443840000001479 ], [ -105.140861000002602, 40.421567000001694 ], [ -105.134312000002566, 40.407326000001795 ], [ -105.139425000001765, 40.40734900000168 ], [ -105.15241500000208, 40.408060000001704 ], [ -105.156518000001938, 40.39296200000225 ], [ -105.140724000002521, 40.392901000001729 ], [ -105.134745000002241, 40.392784000002237 ], [ -105.121363000001679, 40.37838200000219 ], [ -105.134971000002537, 40.37118300000148 ], [ -105.097261000002433, 40.363751000002139 ], [ -105.097342000002115, 40.349480000001961 ], [ -105.150403000002285, 40.33454700000145 ], [ -105.150318000001718, 40.319568000001688 ], [ -105.102057000002077, 40.319572000001557 ], [ -105.102768000001873, 40.305148000002283 ], [ -105.102708000002536, 40.298037000001827 ], [ -105.131155000002394, 40.261283000001491 ], [ -105.055089000002624, 40.261793000001504 ], [ -105.055100000002341, 40.256120000001843 ], [ -105.055076000002643, 40.232779000001933 ], [ -105.055184000002086, 40.203680000001853 ], [ -105.05521500000188, 40.187682000001843 ], [ -105.055202000001984, 40.182224000001469 ], [ -105.055276000002578, 40.170972000001555 ], [ -105.055332000002394, 40.160192000001778 ], [ -105.055375000001703, 40.14492900000193 ], [ -105.055393000001999, 40.138263000001757 ], [ -105.055436000002686, 40.109241000001944 ], [ -105.055409000001717, 40.096617000001721 ], [ -104.980632000002061, 40.087634000001927 ], [ -104.980636000001837, 40.087267000002321 ], [ -104.980817000002475, 40.058413000001735 ], [ -104.978526000002375, 40.043888000002227 ], [ -105.007995000002722, 40.00758100000153 ], [ -105.007906000001995, 40.00048300000168 ], [ -105.017772000002196, 40.000475000002211 ], [ -105.037067000001599, 40.000467000001805 ], [ -105.05282300000232, 40.000260000001852 ], [ -105.052774000002316, 39.986540000002215 ], [ -105.05279700000186, 39.977674000001848 ], [ -105.088695000002247, 39.958030000001457 ], [ -105.072002000001959, 39.957670000001613 ], [ -105.071920000001839, 39.950585000001944 ], [ -105.076636000002239, 39.943432000001643 ], [ -105.090853000001843, 39.936051000001854 ], [ -105.112202000002725, 39.928622000002107 ], [ -105.109406000001925, 39.926114000001867 ], [ -105.1139400000026, 39.928989000001977 ], [ -105.10952800000274, 39.956457000001606 ], [ -105.128029000002201, 39.950535000001757 ], [ -105.137579000002447, 39.939688000002022 ], [ -105.137585000002673, 39.93611200000182 ], [ -105.137604000001957, 39.928931000001761 ], [ -105.147041000002119, 39.928938000002184 ], [ -105.147143000001918, 39.913889000001497 ], [ -105.159796000001634, 39.914054000001649 ], [ -105.166150000001679, 39.914047000002142 ], [ -105.314702000002356, 39.913883000001825 ], [ -105.342281000001961, 39.913737000001845 ], [ -105.296856000001725, 39.866567000002142 ], [ -105.272077000002596, 39.841150000001669 ], [ -105.246142000002436, 39.797952000001885 ], [ -105.240443000002486, 39.783210000002235 ], [ -105.24041700000268, 39.774720000002034 ], [ -105.325140000002719, 39.785725000002095 ], [ -105.397951000002521, 39.784391000002238 ], [ -105.397949000002527, 39.747735000002137 ], [ -105.397949000002086, 39.746040000001777 ], [ -105.398349000002682, 39.717147000002299 ], [ -105.398549000002561, 39.686294000002206 ], [ -105.398248000002624, 39.649949000001925 ], [ -105.398251000001764, 39.636727000001905 ], [ -105.398875000002462, 39.606410000001667 ], [ -105.399050000002376, 39.582788000001692 ], [ -105.398949000002446, 39.566056000001794 ], [ -105.444922000002236, 39.565988000002136 ], [ -105.623875000002286, 39.567036000002012 ], [ -105.642798000002244, 39.566584000002123 ], [ -105.653343000001598, 39.566398000001904 ], [ -105.771720000002276, 39.56488900000214 ], [ -105.829662000001633, 39.564865000001888 ], [ -105.8616620000018, 39.528605000002003 ], [ -105.868049000002074, 39.519862000001453 ], [ -105.856392000002515, 39.505130000002126 ], [ -105.905959000001701, 39.459657000001627 ], [ -105.938781000001597, 39.458423000001503 ], [ -105.968633000001844, 39.410693000002233 ], [ -106.021133000002223, 39.362377000002162 ], [ -106.029651000002517, 39.359860000002257 ], [ -106.06261600000262, 39.361820000002155 ], [ -106.135529000001725, 39.379546000001504 ], [ -106.19141200000216, 39.379696000001722 ], [ -106.206732000001935, 39.379636000002293 ], [ -106.283212000002706, 39.350469000001802 ] ], [ [ -105.099960000002284, 39.958979000001904 ], [ -105.107374000001698, 39.957915000002203 ], [ -105.091025000002077, 39.957785000001941 ], [ -105.099960000002284, 39.958979000001904 ] ] ], [ [ [ -104.979911000002275, 40.033053000001587 ], [ -104.973050000002104, 40.033037000001507 ], [ -104.973074000001816, 40.029512000002221 ], [ -104.979917000002501, 40.02948600000223 ], [ -104.979911000002275, 40.033053000001587 ] ] ] ] } },
{ "type": "Feature", "properties": { "enacted_district": 3.0, "population": 721807.0, "voting_age_pop": 568642.0, "dem_votes": 153615.0, "rep_votes": 185601.0, "minority_pop": 169658.0, "dem_pct": 0.45285304925096309, "rep_pct": 0.54714695045423944 }, "geometry": { "type": "Polygon", "coordinates": [ [ [ -109.045776000001595, 37.326860000001545 ], [ -109.043366000002436, 37.484818000001681 ], [ -109.042028000001565, 37.754454000001409 ], [ -109.041992000002622, 37.881083000001865 ], [ -109.042586000002316, 38.102735000001559 ], [ -109.042583000002082, 38.153028000001456 ], [ -109.06018700000196, 38.275528000002083 ], [ -109.060119000001819, 38.499989000001733 ], [ -109.057279000002524, 38.799544000001859 ], [ -109.052013000002319, 39.066060000001805 ], [ -109.051478000001765, 39.116505000001673 ], [ -109.050765000002102, 39.3666770000018 ], [ -109.051227000002044, 39.660466000001669 ], [ -109.050972000001863, 40.02636400000128 ], [ -109.050949000001765, 40.222647000001288 ], [ -109.049716000001766, 40.540399000001337 ], [ -109.050026000001864, 41.00069100000168 ], [ -108.526029000001941, 40.999592000001805 ], [ -107.922984000002003, 41.002012000001841 ], [ -107.31779400000238, 41.002920000001637 ], [ -107.316356000001576, 40.862799000002106 ], [ -107.314153000002335, 40.600281000002099 ], [ -107.371487000001807, 40.600302000001491 ], [ -107.371328000001796, 40.542399000001581 ], [ -107.428758000002318, 40.527907000001846 ], [ -107.428752000002163, 40.526810000001575 ], [ -107.429345000002641, 40.440771000001803 ], [ -107.442594000002487, 40.334755000001792 ], [ -107.439386000001605, 40.223379000001849 ], [ -107.119907000001817, 40.225159000001561 ], [ -107.037928000001983, 40.225372000001869 ], [ -107.038227000002138, 40.175747000001621 ], [ -107.037363000002344, 40.091538000001563 ], [ -107.033968000001877, 39.918913000001709 ], [ -107.113672000001642, 39.919112000001384 ], [ -107.113548000002353, 39.866761000001752 ], [ -107.113867000001846, 39.624566000001849 ], [ -107.113865000002562, 39.624463000001711 ], [ -107.107070000002324, 39.624636000001381 ], [ -107.076880000002717, 39.644503000001812 ], [ -106.975640000001761, 39.65229200000217 ], [ -106.949080000002041, 39.638191000001939 ], [ -106.938136000001862, 39.595184000002092 ], [ -106.964029000001645, 39.529887000002169 ], [ -106.955100000002105, 39.482387000002099 ], [ -106.912703000002523, 39.455900000001563 ], [ -106.843187000002544, 39.421786000002157 ], [ -106.77446700000236, 39.41747100000223 ], [ -106.685361000002104, 39.441442000002176 ], [ -106.657861000002157, 39.419524000002049 ], [ -106.684049000001593, 39.362426000001655 ], [ -106.509214000002316, 39.362298000001907 ], [ -106.452794000001802, 39.361849000001406 ], [ -106.426487000001799, 39.36187100000167 ], [ -106.426947000002357, 39.32335500000169 ], [ -106.502690000001834, 39.298067000001865 ], [ -106.483138000002498, 39.263394000001632 ], [ -106.489103000001634, 39.248537000002038 ], [ -106.506726000001819, 39.178815000001492 ], [ -106.562631000001716, 39.15194700000221 ], [ -106.558171000002247, 39.120223000002063 ], [ -106.586338000002399, 39.087743000002241 ], [ -106.577966000002419, 39.057908000001838 ], [ -106.599214000002036, 38.997994000001412 ], [ -106.560427000002065, 38.99823200000143 ], [ -106.528511000002524, 38.959883000001881 ], [ -106.465032000002154, 38.91035400000176 ], [ -106.419354000001874, 38.927677000001921 ], [ -106.376982000001803, 38.922674000001606 ], [ -106.327505000002105, 38.882297000002161 ], [ -106.370204000001721, 38.838719000001866 ], [ -106.409307000002059, 38.827888000001813 ], [ -106.417431000002622, 38.725675000001864 ], [ -106.451867000002153, 38.698343000002211 ], [ -106.430159000002121, 38.653468000001965 ], [ -106.385925000002558, 38.626719000002254 ], [ -106.344619000001899, 38.568564000002212 ], [ -106.348108000001901, 38.512499000001853 ], [ -106.246940000001644, 38.422768000001696 ], [ -106.076535000002281, 38.423652000001589 ], [ -106.033554000001885, 38.45447900000179 ], [ -106.010751000002443, 38.446566000001795 ], [ -105.894365000001741, 38.346618000001726 ], [ -105.8668170000022, 38.305700000002062 ], [ -105.796897000001962, 38.265047000002255 ], [ -105.789761000001704, 38.244360000002068 ], [ -105.716053000002645, 38.185273000001665 ], [ -105.686838000002723, 38.166845000002233 ], [ -105.653649000002062, 38.090880000001903 ], [ -105.627206000002317, 38.067310000002266 ], [ -105.590430000001916, 37.988586000002051 ], [ -105.560311000002358, 37.951886000002155 ], [ -105.533315000002503, 37.95518200000231 ], [ -105.47320400000244, 37.895970000001739 ], [ -105.413635000001861, 37.890527000002265 ], [ -105.317081000002176, 37.938949000002083 ], [ -105.273818000001754, 37.907677000001947 ], [ -105.238560000001954, 37.962840000002188 ], [ -105.168652000002595, 38.018946000002344 ], [ -105.108507000001765, 37.943399000001769 ], [ -105.066056000001694, 37.944209000001678 ], [ -105.049917000001983, 37.91547900000208 ], [ -105.050119000002596, 37.983436000002378 ], [ -105.049998000001835, 37.985205000002026 ], [ -105.049978000002554, 37.985701000001619 ], [ -105.049215000002036, 38.257973000001712 ], [ -104.975517000002384, 38.258123000002243 ], [ -104.940366000002598, 38.258275000001802 ], [ -104.940746000002264, 38.337300000002195 ], [ -104.940889000001647, 38.372026000001746 ], [ -104.941533000001925, 38.519569000002079 ], [ -104.644691000002098, 38.519842000001681 ], [ -104.630682000002594, 38.519917000001584 ], [ -104.567087000002203, 38.520001000001734 ], [ -104.275471000002497, 38.521133000001633 ], [ -104.053921000002404, 38.522393000001713 ], [ -104.054878000002319, 38.276323000002108 ], [ -104.058242000002636, 38.146492000002347 ], [ -104.022594000002101, 38.140914000001658 ], [ -103.943984000002104, 38.126572000001602 ], [ -103.893915000002337, 38.125006000001655 ], [ -103.803033000002699, 38.112533000001712 ], [ -103.801442000001884, 38.112525000001803 ], [ -103.747640000001638, 38.113077000002477 ], [ -103.619172000001683, 38.113355000001754 ], [ -103.619283000002483, 38.171455000002211 ], [ -103.509364000002165, 38.172514000001705 ], [ -103.501764000002481, 38.265016000002241 ], [ -103.399938000001967, 38.265435000001837 ], [ -103.398672000001795, 38.084658000002243 ], [ -103.398628000002063, 38.040840000001943 ], [ -103.403592000002647, 37.79239700000246 ], [ -103.404339000002494, 37.643576000002177 ], [ -103.075938000002239, 37.643420000001903 ], [ -103.074663000002758, 37.381754000002097 ], [ -103.082537000002304, 37.381613000002361 ], [ -103.086643000002383, 37.180689000001848 ], [ -103.086102000002199, 37.000188000001778 ], [ -103.20050000000208, 36.999825000002012 ], [ -103.79664200000272, 36.997431000001932 ], [ -104.215634000002765, 36.994754000002011 ], [ -104.366370000002306, 36.993464000001886 ], [ -104.433987000001878, 36.993738000001763 ], [ -104.480578000002041, 36.99386100000212 ], [ -104.840358000002738, 36.993363000001935 ], [ -105.155042000002155, 36.995262000001738 ], [ -105.471599000002513, 36.99543000000206 ], [ -105.718463000002416, 36.995841000001839 ], [ -105.997195000002606, 36.995298000001718 ], [ -106.220411000002315, 36.994348000001892 ], [ -106.476090000002245, 36.993548000001681 ], [ -106.869820000002278, 36.992497000002174 ], [ -106.923311000002585, 37.000109000001629 ], [ -107.107757000002479, 37.000038000002121 ], [ -107.481737000002042, 37.000127000001513 ], [ -107.766850000001966, 37.000061000001907 ], [ -107.893919000002398, 36.999696000001421 ], [ -108.186675000002538, 36.999736000001427 ], [ -108.379303000002594, 36.999608000001459 ], [ -109.045172000002623, 36.998977000001815 ], [ -109.045498000001999, 37.239902000001408 ], [ -109.045776000001595, 37.326860000001545 ] ] ] } },
{ "type": "Feature", "properties": { "enacted_district": 4.0, "population": 718854.0, "voting_age_pop": 541475.0, "dem_votes": 134241.0, "rep_votes": 224172.0, "minority_pop": 116230.0, "dem_pct": 0.37454277596668012, "rep_pct": 0.62545722375431212 }, "geometry": { "type": "MultiPolygon", "coordinates": [ [ [ [ -105.198268000002358, 39.309222000002194 ], [ -105.166435000001755, 39.362958000002273 ], [ -105.170656000002523, 39.408019000002014 ], [ -105.123522000002382, 39.434561000001572 ], [ -105.133132000002703, 39.466312000001871 ], [ -105.09333000000268, 39.488054000001576 ], [ -105.086751000002479, 39.493423000001833 ], [ -105.073045000002395, 39.545265000001848 ], [ -105.053060000002176, 39.563109000001958 ], [ -105.048740000002084, 39.566088000002161 ], [ -105.032320000002642, 39.566184000002274 ], [ -105.001280000002723, 39.566150000002104 ], [ -104.98852900000206, 39.566124000002354 ], [ -104.973255000002723, 39.566069000001832 ], [ -104.969867000002125, 39.566073000001751 ], [ -104.960469000001837, 39.566129000002014 ], [ -104.953404000002081, 39.566091000001883 ], [ -104.933212000001717, 39.566042000001538 ], [ -104.923018000002699, 39.566050000002072 ], [ -104.922963000002767, 39.566053000001901 ], [ -104.913831000002645, 39.56602900000216 ], [ -104.904415000001862, 39.565982000002272 ], [ -104.897067000001755, 39.56597100000176 ], [ -104.888861000002564, 39.565991000002342 ], [ -104.885710000002561, 39.565979000002024 ], [ -104.872366000002543, 39.565997000002056 ], [ -104.860665000002442, 39.566050000001951 ], [ -104.815686000001776, 39.565988000002328 ], [ -104.801095000001794, 39.565885000001948 ], [ -104.800939000002558, 39.565887000001545 ], [ -104.785308000001919, 39.566088000002239 ], [ -104.784965000002558, 39.566088000001898 ], [ -104.774445000001805, 39.566088000001471 ], [ -104.755827000002384, 39.544131000001663 ], [ -104.70802200000206, 39.550958000001735 ], [ -104.707231000001926, 39.550950000002317 ], [ -104.679311000002286, 39.565900000001648 ], [ -104.660626000001841, 39.565909000001817 ], [ -104.642125000002039, 39.565890000002028 ], [ -104.660667000001695, 39.580250000001634 ], [ -104.659519000002504, 39.594933000002072 ], [ -104.660260000002182, 39.638417000001724 ], [ -104.613231000002443, 39.63828800000158 ], [ -104.603775000002756, 39.638228000002307 ], [ -104.60339600000178, 39.688997000002054 ], [ -104.622058000002326, 39.710788000002026 ], [ -104.616197000002003, 39.740004000002095 ], [ -104.613603000002001, 39.739982000001639 ], [ -104.612384000001967, 39.75393500000159 ], [ -104.596520000002499, 39.753532000001563 ], [ -104.602222000002058, 39.739878000002271 ], [ -104.507422000001782, 39.73825100000186 ], [ -104.489020000001844, 39.757154000001712 ], [ -104.489312000001874, 39.912374000001662 ], [ -104.583390000002566, 39.913342000001727 ], [ -104.599581000002559, 39.899038000001809 ], [ -104.640361000002457, 39.906711000002318 ], [ -104.678143000002393, 39.928646000001933 ], [ -104.678445000002483, 39.972355000001855 ], [ -104.640689000002638, 39.972087000001594 ], [ -104.631210000002525, 40.000532000002259 ], [ -104.572253000001936, 40.000593000001878 ], [ -104.593610000002542, 40.058627000001792 ], [ -104.659603000002633, 40.058766000001633 ], [ -104.678397000002363, 40.116752000001746 ], [ -104.602824000002286, 40.120093000001503 ], [ -104.602738000001807, 40.203429000001499 ], [ -104.60235600000216, 40.275998000001834 ], [ -104.527583000002565, 40.276010000001968 ], [ -104.508321000002042, 40.319647000001723 ], [ -104.388751000001704, 40.312946000002142 ], [ -104.291532000002107, 40.293578000002192 ], [ -104.150120000002644, 40.284611000001519 ], [ -104.150143000001904, 40.29050300000231 ], [ -104.147312000002003, 40.481277000001874 ], [ -104.355933000002764, 40.479531000001771 ], [ -104.413485000002566, 40.479320000002069 ], [ -104.414136000001662, 40.522945000001506 ], [ -104.45187300000174, 40.494934000002083 ], [ -104.507839000001837, 40.478868000002279 ], [ -104.601865000002064, 40.478705000001654 ], [ -104.601424000002041, 40.536643000002229 ], [ -104.696670000001873, 40.538752000002184 ], [ -104.696915000002519, 40.49541100000198 ], [ -104.734988000002659, 40.495566000002214 ], [ -104.773363000002604, 40.48116900000209 ], [ -104.792442000002396, 40.480905000002132 ], [ -104.811456000002735, 40.480601000001883 ], [ -104.830930000002482, 40.462086000001612 ], [ -104.841924000002038, 40.457931000001871 ], [ -104.832679000002003, 40.437885000002197 ], [ -104.850892000001963, 40.440122000001914 ], [ -104.907296000002063, 40.406803000002292 ], [ -104.944568000002079, 40.406964000001445 ], [ -104.964183000001981, 40.407372000001871 ], [ -104.993462000001756, 40.392570000001527 ], [ -104.993861000002553, 40.388563000002101 ], [ -105.00124700000184, 40.378127000001548 ], [ -104.990800000001883, 40.37211000000233 ], [ -104.9834600000016, 40.349184000002275 ], [ -105.002429000002763, 40.349217000001545 ], [ -105.040417000002677, 40.34925700000192 ], [ -105.056720000002485, 40.349281000001881 ], [ -105.097342000002115, 40.349480000001961 ], [ -105.097261000002433, 40.363751000002139 ], [ -105.134971000002537, 40.37118300000148 ], [ -105.121363000001679, 40.37838200000219 ], [ -105.134745000002241, 40.392784000002237 ], [ -105.140724000002521, 40.392901000001729 ], [ -105.156518000001938, 40.39296200000225 ], [ -105.15241500000208, 40.408060000001704 ], [ -105.139425000001765, 40.40734900000168 ], [ -105.134312000002566, 40.407326000001795 ], [ -105.140861000002602, 40.421567000001694 ], [ -105.115657000001704, 40.443840000001479 ], [ -105.115542000002719, 40.451007000002079 ], [ -105.115652000002001, 40.480031000001709 ], [ -105.096346000002143, 40.487228000001679 ], [ -105.082301000002474, 40.480125000001529 ], [ -105.077415000002034, 40.48017100000164 ], [ -105.07750900000228, 40.458430000001925 ], [ -105.058348000002184, 40.450983000001735 ], [ -105.053117000001961, 40.450737000001517 ], [ -105.045663000002619, 40.440575000001843 ], [ -105.038708000002515, 40.436855000002339 ], [ -105.042109000001602, 40.480175000002284 ], [ -105.039388000001736, 40.480200000002228 ], [ -105.020168000002514, 40.480243000001451 ], [ -104.99202300000232, 40.479407000001913 ], [ -104.973882000002234, 40.479349000002131 ], [ -104.963393000001673, 40.479442000001711 ], [ -104.955127000001596, 40.479314000002134 ], [ -104.944096000001693, 40.479300000001992 ], [ -104.944088000001898, 40.493822000002126 ], [ -104.944165000002542, 40.508226000002281 ], [ -104.944107000002006, 40.566325000001967 ], [ -104.944112000002676, 40.580938000002057 ], [ -104.991644000002381, 40.581172000001629 ], [ -104.992628000002398, 40.581184000001777 ], [ -104.997725000001793, 40.581191000001958 ], [ -105.001403000002441, 40.588489000001971 ], [ -104.995529000001838, 40.595588000002266 ], [ -104.995531000001961, 40.6100390000015 ], [ -105.029363000002718, 40.624727000001549 ], [ -105.0571550000016, 40.635822000001667 ], [ -105.071528000002118, 40.632341000002171 ], [ -105.069951000002604, 40.666761000002118 ], [ -105.067979000002239, 40.682802000001594 ], [ -105.05725000000254, 40.697002000001966 ], [ -105.057176000002698, 40.740494000002123 ], [ -105.003720000002033, 40.74053800000226 ], [ -104.943369000002633, 40.740221000001945 ], [ -104.943371000001719, 40.998213000002131 ], [ -104.467672000002381, 41.001473000002285 ], [ -103.878255000001616, 41.001717000002301 ], [ -103.573774000001919, 41.001716000002226 ], [ -102.904875000002718, 41.002208000002149 ], [ -102.653463000001906, 41.002332000002113 ], [ -102.459650000002725, 41.002384000001548 ], [ -102.380219000001901, 41.002439000001594 ], [ -102.277863000001645, 41.002273000001885 ], [ -102.268012000002201, 41.002377000002006 ], [ -102.051717000002085, 41.002359000001583 ], [ -102.051416000001794, 40.749586000001976 ], [ -102.051537000001815, 40.581915000002461 ], [ -102.05146500000194, 40.440008000002322 ], [ -102.051639000002496, 40.264869000002456 ], [ -102.051515000002297, 39.920217000002509 ], [ -102.05148800000218, 39.859483000002207 ], [ -102.049806000002235, 39.574058000002225 ], [ -102.048530000002202, 39.302916000001638 ], [ -102.046571000002601, 39.047038000002431 ], [ -102.045082000002523, 38.615172000002104 ], [ -102.044475000002421, 38.268749000001705 ], [ -102.044624000002756, 38.04804800000224 ], [ -102.041585000002314, 37.644282000002242 ], [ -102.041683000002521, 37.578556000001939 ], [ -102.041930000001983, 37.149175000001989 ], [ -102.042089000002164, 36.99301600000193 ], [ -102.325155000002354, 36.994348000001992 ], [ -102.698142000001837, 36.995149000001859 ], [ -102.841921000002159, 36.99960000000182 ], [ -103.086102000002199, 37.000188000001778 ], [ -103.086643000002383, 37.180689000001848 ], [ -103.082537000002304, 37.381613000002361 ], [ -103.074663000002758, 37.381754000002097 ], [ -103.075938000002239, 37.643420000001903 ], [ -103.404339000002494, 37.643576000002177 ], [ -103.403592000002647, 37.79239700000246 ], [ -103.398628000002063, 38.040840000001943 ], [ -103.398672000001795, 38.084658000002243 ], [ -103.399938000001967, 38.265435000001837 ], [ -103.501764000002481, 38.265016000002241 ], [ -103.509364000002165, 38.172514000001705 ], [ -103.619283000002483, 38.171455000002211 ], [ -103.619172000001683, 38.113355000001754 ], [ -103.747640000001638, 38.113077000002477 ], [ -103.801442000001884, 38.112525000001803 ], [ -103.803033000002699, 38.112533000001712 ], [ -103.893915000002337, 38.125006000001655 ], [ -103.943984000002104, 38.126572000001602 ], [ -104.022594000002101, 38.140914000001658 ], [ -104.058242000002636, 38.146492000002347 ], [ -104.054878000002319, 38.276323000002108 ], [ -104.053921000002404, 38.522393000001713 ], [ -104.275471000002497, 38.521133000001633 ], [ -104.275061000002438, 38.694618000001974 ], [ -104.293436000002359, 38.70827900000176 ], [ -104.273779000002762, 38.712898000001928 ], [ -104.27678100000206, 38.78143900000218 ], [ -104.31374300000256, 38.781304000001697 ], [ -104.313754000002206, 38.838926000002083 ], [ -104.277716000002243, 38.853240000002288 ], [ -104.277649000002256, 38.882310000001752 ], [ -104.314448000002443, 38.911206000002402 ], [ -104.331392000002353, 38.939902000001624 ], [ -104.386536000002238, 38.939445000001882 ], [ -104.386332000002554, 38.997218000001993 ], [ -104.404752000001878, 39.026191000002029 ], [ -104.404838000002741, 39.041041000002252 ], [ -104.539069000002243, 39.042582000001794 ], [ -104.552191000001883, 39.089609000002191 ], [ -104.551765000002575, 39.129427000002181 ], [ -104.644172000001817, 39.129528000001855 ], [ -104.662896000002561, 39.129527000002071 ], [ -104.692497000002234, 39.129536000001885 ], [ -104.802935000001966, 39.129692000001555 ], [ -104.830585000001633, 39.129764000001686 ], [ -104.857788000002515, 39.129854000002268 ], [ -104.863922000001821, 39.129791000002328 ], [ -104.895977000001864, 39.129858000001512 ], [ -104.923787000002619, 39.129822000001859 ], [ -105.029549000001637, 39.129831000001779 ], [ -105.033573000002093, 39.129710000002341 ], [ -105.257280000001956, 39.129552000001468 ], [ -105.329445000002679, 39.129487000001518 ], [ -105.28737700000184, 39.179442000002069 ], [ -105.263511000001984, 39.22926100000182 ], [ -105.233938000002695, 39.246868000001882 ], [ -105.198268000002358, 39.309222000002194 ] ] ], [ [ [ -104.73870400000196, 39.619047000001757 ], [ -104.738231000001619, 39.623976000001981 ], [ -104.751290000001845, 39.623986000002134 ], [ -104.753997000002556, 39.624002000002363 ], [ -104.753880000002482, 39.631233000001934 ], [ -104.758671000002437, 39.63840300000156 ], [ -104.754189000002199, 39.638565000001542 ], [ -104.754278000002557, 39.648713000002267 ], [ -104.754243000001793, 39.653040000002228 ], [ -104.750287000002501, 39.653058000002211 ], [ -104.743748000001673, 39.653040000002015 ], [ -104.734896000001996, 39.652975000001959 ], [ -104.735061000002275, 39.638550000002027 ], [ -104.735058000002198, 39.638359000001621 ], [ -104.71886800000172, 39.638387000001849 ], [ -104.719556000002385, 39.652997000001847 ], [ -104.723169000001675, 39.667527000001847 ], [ -104.697530000002359, 39.667542000001831 ], [ -104.669992000002296, 39.667417000001997 ], [ -104.676472000002661, 39.65287600000233 ], [ -104.679025000001687, 39.63833100000155 ], [ -104.686466000001687, 39.638337000001904 ], [ -104.697757000001658, 39.62648800000148 ], [ -104.716467000002154, 39.628300000002341 ], [ -104.716613000002184, 39.616668000001603 ], [ -104.716744000002421, 39.613984000001878 ], [ -104.716747000002485, 39.613678000001869 ], [ -104.716750000001838, 39.602226000002403 ], [ -104.722793000001801, 39.601131000001935 ], [ -104.728729000002673, 39.605152000001809 ], [ -104.729612000002263, 39.605611000001751 ], [ -104.744725000002674, 39.611488000001664 ], [ -104.744187000002441, 39.61460100000162 ], [ -104.74039700000192, 39.616863000002134 ], [ -104.73870400000196, 39.619047000001757 ] ] ] ] } },
{ "type": "Feature", "properties": { "enacted_district": 5.0, "population": 722130.0, "voting_age_pop": 552307.0, "dem_votes": 120870.0, "rep_votes": 176022.0, "minority_pop": 170625.0, "dem_pct": 0.4071177396470374, "rep_pct": 0.59288226001613975 }, "geometry": { "type": "Polygon", "coordinates": [ [ [ -104.939215000002079, 38.736993000001576 ], [ -104.93986900000256, 38.796543000002131 ], [ -105.072457000002487, 38.805007000002036 ], [ -105.067559000001722, 38.862670000002325 ], [ -105.028632000002247, 38.868763000001593 ], [ -105.027056000002318, 38.954881000001521 ], [ -105.028809000002283, 39.007002000002338 ], [ -105.027514000002355, 39.019571000002365 ], [ -105.033573000002093, 39.129710000002341 ], [ -105.029549000001637, 39.129831000001779 ], [ -104.923787000002619, 39.129822000001859 ], [ -104.895977000001864, 39.129858000001512 ], [ -104.863922000001821, 39.129791000002328 ], [ -104.857788000002515, 39.129854000002268 ], [ -104.830585000001633, 39.129764000001686 ], [ -104.802935000001966, 39.129692000001555 ], [ -104.692497000002234, 39.129536000001885 ], [ -104.662896000002561, 39.129527000002071 ], [ -104.644172000001817, 39.129528000001855 ], [ -104.551765000002575, 39.129427000002181 ], [ -104.552191000001883, 39.089609000002191 ], [ -104.539069000002243, 39.042582000001794 ], [ -104.404838000002741, 39.041041000002252 ], [ -104.404752000001878, 39.026191000002029 ], [ -104.386332000002554, 38.997218000001993 ], [ -104.386536000002238, 38.939445000001882 ], [ -104.331392000002353, 38.939902000001624 ], [ -104.314448000002443, 38.911206000002402 ], [ -104.277649000002256, 38.882310000001752 ], [ -104.277716000002243, 38.853240000002288 ], [ -104.313754000002206, 38.838926000002083 ], [ -104.31374300000256, 38.781304000001697 ], [ -104.27678100000206, 38.78143900000218 ], [ -104.273779000002762, 38.712898000001928 ], [ -104.293436000002359, 38.70827900000176 ], [ -104.275061000002438, 38.694618000001974 ], [ -104.275471000002497, 38.521133000001633 ], [ -104.567087000002203, 38.520001000001734 ], [ -104.630682000002594, 38.519917000001584 ], [ -104.644691000002098, 38.519842000001681 ], [ -104.941533000001925, 38.519569000002079 ], [ -104.941933000001924, 38.567791000001677 ], [ -104.942425000002274, 38.650159000001899 ], [ -104.939215000002079, 38.736993000001576 ] ] ] } },
{ "type": "Feature", "properties": { "enacted_district": 6.0, "population": 725532.0, "voting_age_pop": 556552.0, "dem_votes": 187444.0, "rep_votes": 133365.0, "minority_pop": 223855.0, "dem_pct": 0.58428535340832544, "rep_pct": 0.41571464627996263 }, "geometry": { "type": "MultiPolygon", "coordinates": [ [ [ [ -105.053060000002176, 39.563109000001958 ], [ -105.073045000002395, 39.545265000001848 ], [ -105.088696000001761, 39.546333000002306 ], [ -105.124098000002675, 39.552658000002211 ], [ -105.145973000002499, 39.577416000001584 ], [ -105.156317000002204, 39.600319000002173 ], [ -105.125295000002424, 39.592186000002066 ], [ -105.128816000002473, 39.598263000001971 ], [ -105.11017200000218, 39.593044000001711 ], [ -105.11015300000166, 39.597660000002172 ], [ -105.110132000002594, 39.598738000002037 ], [ -105.110066000002277, 39.600221000001696 ], [ -105.109975000002606, 39.609734000001502 ], [ -105.091426000002642, 39.609694000002023 ], [ -105.072532000001985, 39.609779000002021 ], [ -105.053625000001915, 39.609665000001868 ], [ -105.053655000001839, 39.615549000002133 ], [ -105.053516000002361, 39.620864000002271 ], [ -105.053483000002714, 39.624253000001474 ], [ -105.053440000001956, 39.627901000001934 ], [ -105.053457000002723, 39.629526000001697 ], [ -105.059138000002235, 39.638243000001552 ], [ -105.053342000001606, 39.638770000002289 ], [ -105.053410000002046, 39.631504000001677 ], [ -105.045711000002015, 39.631466000001986 ], [ -105.044161000001722, 39.628039000002211 ], [ -105.034822000002563, 39.62780900000223 ], [ -105.025422000002379, 39.628558000001632 ], [ -105.034756000002474, 39.63317700000205 ], [ -105.034739000002673, 39.635023000002285 ], [ -105.034707000002015, 39.638593000002153 ], [ -105.029979000002385, 39.642245000001786 ], [ -105.034603000001638, 39.649589000001711 ], [ -105.033562000002235, 39.653286000002254 ], [ -105.03307600000258, 39.656954000001981 ], [ -105.025269000001998, 39.656817000001801 ], [ -105.015800000002343, 39.660508000001784 ], [ -105.015699000002286, 39.671795000001566 ], [ -105.008664000002099, 39.67862700000191 ], [ -104.996198000002479, 39.6676910000022 ], [ -104.987572000001805, 39.667682000001506 ], [ -104.982835000001884, 39.667696000002039 ], [ -104.973486000002694, 39.667684000001749 ], [ -104.973489000002161, 39.665866000001678 ], [ -104.968805000002405, 39.665839000002315 ], [ -104.96761900000196, 39.660409000001621 ], [ -104.959443000002722, 39.661526000002198 ], [ -104.959490000002234, 39.656759000001628 ], [ -104.953541000001778, 39.655957000001635 ], [ -104.954983000002045, 39.652987000001659 ], [ -104.940683000002238, 39.653013000001771 ], [ -104.931703000002599, 39.653044000001977 ], [ -104.931873000001616, 39.645826000001499 ], [ -104.922460000002602, 39.645849000001995 ], [ -104.913227000002195, 39.638669000001819 ], [ -104.913407000002181, 39.62408300000159 ], [ -104.901864000002277, 39.62409400000162 ], [ -104.889883000001873, 39.624121000001502 ], [ -104.885264000001726, 39.62416200000176 ], [ -104.885280000002425, 39.627128000001562 ], [ -104.885231000001994, 39.631345000001993 ], [ -104.885120000001905, 39.638948000002237 ], [ -104.880313000002317, 39.643949000001783 ], [ -104.880313000001721, 39.645902000001506 ], [ -104.88014000000264, 39.653057000002335 ], [ -104.877000000002326, 39.653050000001485 ], [ -104.847296000002643, 39.657102000001707 ], [ -104.848587000002354, 39.659203000001597 ], [ -104.866334000002155, 39.66030900000225 ], [ -104.866051000002116, 39.670847000002169 ], [ -104.870882000001799, 39.674764000001865 ], [ -104.875291000002207, 39.674766000002066 ], [ -104.875312000001998, 39.672062000002079 ], [ -104.885050000002124, 39.667493000001535 ], [ -104.892237000001856, 39.666048000002263 ], [ -104.89402400000256, 39.667589000002209 ], [ -104.894329000002159, 39.667588000001722 ], [ -104.90350900000162, 39.667624000001759 ], [ -104.903522000002738, 39.671225000001705 ], [ -104.903579000001685, 39.67667500000173 ], [ -104.906253000001641, 39.67844200000151 ], [ -104.905191000001835, 39.683862000002186 ], [ -104.903443000002525, 39.684857000001827 ], [ -104.903431000002115, 39.685456000002318 ], [ -104.903538000001959, 39.687376000002203 ], [ -104.894061000002196, 39.686428000002003 ], [ -104.894090000002521, 39.69271300000149 ], [ -104.903512000002564, 39.689354000002197 ], [ -104.903510000002143, 39.69258100000193 ], [ -104.903544000001844, 39.698535000002167 ], [ -104.891715000002193, 39.696590000001862 ], [ -104.891783000001894, 39.696581000002233 ], [ -104.882313000002156, 39.696573000002083 ], [ -104.877720000001617, 39.696508000001984 ], [ -104.875318000001641, 39.698438000002163 ], [ -104.865962000001844, 39.696559000001912 ], [ -104.865964000002421, 39.69927900000198 ], [ -104.865967000002598, 39.703807000001646 ], [ -104.865971000002233, 39.71105300000179 ], [ -104.870625000001979, 39.710174000001537 ], [ -104.870596000001896, 39.718176000001876 ], [ -104.875330000002776, 39.725576000002086 ], [ -104.881934000002076, 39.724960000002326 ], [ -104.88258000000198, 39.725661000001921 ], [ -104.884708000002107, 39.732846000002006 ], [ -104.884646000001993, 39.740156000002294 ], [ -104.884664000002161, 39.747467000002217 ], [ -104.880138000002006, 39.747428000002031 ], [ -104.879901000002647, 39.754652000002302 ], [ -104.870571000001618, 39.754751000002081 ], [ -104.861266000002757, 39.754748000002131 ], [ -104.854040000001845, 39.754710000001566 ], [ -104.846916000001656, 39.755241000002286 ], [ -104.856399000002739, 39.767810000002122 ], [ -104.828183000002724, 39.77027700000172 ], [ -104.828163000002434, 39.772374000002067 ], [ -104.828185000002676, 39.772784000002147 ], [ -104.824030000002097, 39.772798000001977 ], [ -104.809884000001816, 39.772823000001615 ], [ -104.772157000001926, 39.776409000001685 ], [ -104.772168000001713, 39.774667000001486 ], [ -104.772166000001761, 39.771500000001659 ], [ -104.764554000002121, 39.771271000001512 ], [ -104.75344200000194, 39.769302000001709 ], [ -104.749326000001673, 39.769281000001506 ], [ -104.734601000001817, 39.769181000001844 ], [ -104.734581000001796, 39.774838000001672 ], [ -104.734523000002625, 39.78258700000201 ], [ -104.7344030000027, 39.796801000001842 ], [ -104.753328000002142, 39.798460000001889 ], [ -104.762606000002236, 39.798433000001694 ], [ -104.762462000002557, 39.823443000001525 ], [ -104.659171000002758, 39.813025000001886 ], [ -104.619799000002359, 39.822417000002289 ], [ -104.619152000001762, 39.873220000001986 ], [ -104.599581000002559, 39.899038000001809 ], [ -104.583390000002566, 39.913342000001727 ], [ -104.489312000001874, 39.912374000001662 ], [ -104.489020000001844, 39.757154000001712 ], [ -104.507422000001782, 39.73825100000186 ], [ -104.602222000002058, 39.739878000002271 ], [ -104.596520000002499, 39.753532000001563 ], [ -104.612384000001967, 39.75393500000159 ], [ -104.613603000002001, 39.739982000001639 ], [ -104.616197000002003, 39.740004000002095 ], [ -104.622058000002326, 39.710788000002026 ], [ -104.60339600000178, 39.688997000002054 ], [ -104.603775000002756, 39.638228000002307 ], [ -104.613231000002443, 39.63828800000158 ], [ -104.660260000002182, 39.638417000001724 ], [ -104.659519000002504, 39.594933000002072 ], [ -104.660667000001695, 39.580250000001634 ], [ -104.642125000002039, 39.565890000002028 ], [ -104.660626000001841, 39.565909000001817 ], [ -104.679311000002286, 39.565900000001648 ], [ -104.707231000001926, 39.550950000002317 ], [ -104.70802200000206, 39.550958000001735 ], [ -104.755827000002384, 39.544131000001663 ], [ -104.774445000001805, 39.566088000001471 ], [ -104.784965000002558, 39.566088000001898 ], [ -104.785308000001919, 39.566088000002239 ], [ -104.800939000002558, 39.565887000001545 ], [ -104.801095000001794, 39.565885000001948 ], [ -104.815686000001776, 39.565988000002328 ], [ -104.860665000002442, 39.566050000001951 ], [ -104.872366000002543, 39.565997000002056 ], [ -104.885710000002561, 39.565979000002024 ], [ -104.888861000002564, 39.565991000002342 ], [ -104.897067000001755, 39.56597100000176 ], [ -104.904415000001862, 39.565982000002272 ], [ -104.913831000002645, 39.56602900000216 ], [ -104.922963000002767, 39.566053000001901 ], [ -104.923018000002699, 39.566050000002072 ], [ -104.933212000001717, 39.566042000001538 ], [ -104.953404000002081, 39.566091000001883 ], [ -104.960469000001837, 39.566129000002014 ], [ -104.969867000002125, 39.566073000001751 ], [ -104.973255000002723, 39.566069000001832 ], [ -104.98852900000206, 39.566124000002354 ], [ -105.001280000002723, 39.566150000002104 ], [ -105.032320000002642, 39.566184000002274 ], [ -105.048740000002084, 39.566088000002161 ], [ -105.053060000002176, 39.563109000001958 ] ], [ [ -104.74039700000192, 39.616863000002134 ], [ -104.744187000002441, 39.61460100000162 ], [ -104.744725000002674, 39.611488000001664 ], [ -104.729612000002263, 39.605611000001751 ], [ -104.728729000002673, 39.605152000001809 ], [ -104.722793000001801, 39.601131000001935 ], [ -104.716750000001838, 39.602226000002403 ], [ -104.716747000002485, 39.613678000001869 ], [ -104.716744000002421, 39.613984000001878 ], [ -104.716613000002184, 39.616668000001603 ], [ -104.716467000002154, 39.628300000002341 ], [ -104.697757000001658, 39.62648800000148 ], [ -104.686466000001687, 39.638337000001904 ], [ -104.679025000001687, 39.63833100000155 ], [ -104.676472000002661, 39.65287600000233 ], [ -104.669992000002296, 39.667417000001997 ], [ -104.697530000002359, 39.667542000001831 ], [ -104.723169000001675, 39.667527000001847 ], [ -104.719556000002385, 39.652997000001847 ], [ -104.71886800000172, 39.638387000001849 ], [ -104.735058000002198, 39.638359000001621 ], [ -104.735061000002275, 39.638550000002027 ], [ -104.734896000001996, 39.652975000001959 ], [ -104.743748000001673, 39.653040000002015 ], [ -104.750287000002501, 39.653058000002211 ], [ -104.754243000001793, 39.653040000002228 ], [ -104.754278000002557, 39.648713000002267 ], [ -104.754189000002199, 39.638565000001542 ], [ -104.758671000002437, 39.63840300000156 ], [ -104.753880000002482, 39.631233000001934 ], [ -104.753997000002556, 39.624002000002363 ], [ -104.751290000001845, 39.623986000002134 ], [ -104.738231000001619, 39.623976000001981 ], [ -104.73870400000196, 39.619047000001757 ], [ -104.74039700000192, 39.616863000002134 ] ] ], [ [ [ -104.911032000001924, 39.682073000001957 ], [ -104.90820500000234, 39.682070000002163 ], [ -104.908203000002686, 39.679883000001475 ], [ -104.911040000002203, 39.679887000001798 ], [ -104.911032000001924, 39.682073000001957 ] ] ] ] } },
{ "type": "Feature", "properties": { "enacted_district": 7.0, "population": 720371.0, "voting_age_pop": 583230.0, "dem_votes": 206135.0, "rep_votes": 174757.0, "minority_pop": 131849.0, "dem_pct": 0.54119015349726685, "rep_pct": 0.4588098462401915 }, "geometry": { "type": "MultiPolygon", "coordinates": [ [ [ [ -105.108507000001765, 37.943399000001769 ], [ -105.168652000002595, 38.018946000002344 ], [ -105.238560000001954, 37.962840000002188 ], [ -105.273818000001754, 37.907677000001947 ], [ -105.317081000002176, 37.938949000002083 ], [ -105.413635000001861, 37.890527000002265 ], [ -105.47320400000244, 37.895970000001739 ], [ -105.533315000002503, 37.95518200000231 ], [ -105.560311000002358, 37.951886000002155 ], [ -105.590430000001916, 37.988586000002051 ], [ -105.627206000002317, 38.067310000002266 ], [ -105.653649000002062, 38.090880000001903 ], [ -105.686838000002723, 38.166845000002233 ], [ -105.716053000002645, 38.185273000001665 ], [ -105.789761000001704, 38.244360000002068 ], [ -105.796897000001962, 38.265047000002255 ], [ -105.8668170000022, 38.305700000002062 ], [ -105.894365000001741, 38.346618000001726 ], [ -106.010751000002443, 38.446566000001795 ], [ -106.033554000001885, 38.45447900000179 ], [ -106.076535000002281, 38.423652000001589 ], [ -106.246940000001644, 38.422768000001696 ], [ -106.348108000001901, 38.512499000001853 ], [ -106.344619000001899, 38.568564000002212 ], [ -106.385925000002558, 38.626719000002254 ], [ -106.430159000002121, 38.653468000001965 ], [ -106.451867000002153, 38.698343000002211 ], [ -106.417431000002622, 38.725675000001864 ], [ -106.409307000002059, 38.827888000001813 ], [ -106.370204000001721, 38.838719000001866 ], [ -106.327505000002105, 38.882297000002161 ], [ -106.376982000001803, 38.922674000001606 ], [ -106.419354000001874, 38.927677000001921 ], [ -106.465032000002154, 38.91035400000176 ], [ -106.528511000002524, 38.959883000001881 ], [ -106.560427000002065, 38.99823200000143 ], [ -106.599214000002036, 38.997994000001412 ], [ -106.577966000002419, 39.057908000001838 ], [ -106.586338000002399, 39.087743000002241 ], [ -106.558171000002247, 39.120223000002063 ], [ -106.562631000001716, 39.15194700000221 ], [ -106.506726000001819, 39.178815000001492 ], [ -106.489103000001634, 39.248537000002038 ], [ -106.483138000002498, 39.263394000001632 ], [ -106.502690000001834, 39.298067000001865 ], [ -106.426947000002357, 39.32335500000169 ], [ -106.426487000001799, 39.36187100000167 ], [ -106.283212000002706, 39.350469000001802 ], [ -106.206732000001935, 39.379636000002293 ], [ -106.19141200000216, 39.379696000001722 ], [ -106.135529000001725, 39.379546000001504 ], [ -106.06261600000262, 39.361820000002155 ], [ -106.029651000002517, 39.359860000002257 ], [ -106.021133000002223, 39.362377000002162 ], [ -105.968633000001844, 39.410693000002233 ], [ -105.938781000001597, 39.458423000001503 ], [ -105.905959000001701, 39.459657000001627 ], [ -105.856392000002515, 39.505130000002126 ], [ -105.868049000002074, 39.519862000001453 ], [ -105.8616620000018, 39.528605000002003 ], [ -105.829662000001633, 39.564865000001888 ], [ -105.771720000002276, 39.56488900000214 ], [ -105.653343000001598, 39.566398000001904 ], [ -105.642798000002244, 39.566584000002123 ], [ -105.623875000002286, 39.567036000002012 ], [ -105.444922000002236, 39.565988000002136 ], [ -105.398949000002446, 39.566056000001794 ], [ -105.399050000002376, 39.582788000001692 ], [ -105.398875000002462, 39.606410000001667 ], [ -105.398251000001764, 39.636727000001905 ], [ -105.398248000002624, 39.649949000001925 ], [ -105.398549000002561, 39.686294000002206 ], [ -105.398349000002682, 39.717147000002299 ], [ -105.397949000002086, 39.746040000001777 ], [ -105.397949000002527, 39.747735000002137 ], [ -105.397951000002521, 39.784391000002238 ], [ -105.325140000002719, 39.785725000002095 ], [ -105.24041700000268, 39.774720000002034 ], [ -105.240443000002486, 39.783210000002235 ], [ -105.246142000002436, 39.797952000001885 ], [ -105.272077000002596, 39.841150000001669 ], [ -105.296856000001725, 39.866567000002142 ], [ -105.342281000001961, 39.913737000001845 ], [ -105.314702000002356, 39.913883000001825 ], [ -105.166150000001679, 39.914047000002142 ], [ -105.159796000001634, 39.914054000001649 ], [ -105.147143000001918, 39.913889000001497 ], [ -105.147041000002119, 39.928938000002184 ], [ -105.137604000001957, 39.928931000001761 ], [ -105.137585000002673, 39.93611200000182 ], [ -105.137579000002447, 39.939688000002022 ], [ -105.128029000002201, 39.950535000001757 ], [ -105.10952800000274, 39.956457000001606 ], [ -105.1139400000026, 39.928989000001977 ], [ -105.109406000001925, 39.926114000001867 ], [ -105.112202000002725, 39.928622000002107 ], [ -105.090853000001843, 39.936051000001854 ], [ -105.076636000002239, 39.943432000001643 ], [ -105.071920000001839, 39.950585000001944 ], [ -105.072002000001959, 39.957670000001613 ], [ -105.088695000002247, 39.958030000001457 ], [ -105.05279700000186, 39.977674000001848 ], [ -105.052774000002316, 39.986540000002215 ], [ -105.05282300000232, 40.000260000001852 ], [ -105.037067000001599, 40.000467000001805 ], [ -105.017772000002196, 40.000475000002211 ], [ -105.007906000001995, 40.00048300000168 ], [ -105.007995000002722, 40.00758100000153 ], [ -104.978526000002375, 40.043888000002227 ], [ -104.961071000001994, 40.044144000001445 ], [ -104.961405000002244, 40.000337000002183 ], [ -104.980944000001713, 40.000325000001816 ], [ -104.984300000002193, 39.993691000001789 ], [ -104.987716000001839, 39.986619000002129 ], [ -104.988159000001644, 39.968466000002017 ], [ -104.997118000001819, 39.968528000002109 ], [ -105.015845000001917, 39.981193000001817 ], [ -105.015653000002246, 39.957724000001598 ], [ -105.006190000002022, 39.946804000002032 ], [ -104.997100000002661, 39.943239000001896 ], [ -105.015657000002037, 39.943093000001674 ], [ -105.015586000002557, 39.937276000001965 ], [ -105.015521000002281, 39.933185000001551 ], [ -105.015491000002555, 39.928544000002198 ], [ -105.015488000001625, 39.928426000001849 ], [ -105.025003000002158, 39.921250000001749 ], [ -105.034347000002526, 39.914181000002031 ], [ -105.039070000002596, 39.914195000001691 ], [ -105.046209000002278, 39.914219000001459 ], [ -105.052892000001918, 39.9142240000021 ], [ -105.053005000002258, 39.899806000002137 ], [ -105.053035000002339, 39.892557000001695 ], [ -105.053036000001995, 39.892187000002146 ], [ -105.053091000002283, 39.885356000002169 ], [ -105.053139000002446, 39.875402000001628 ], [ -105.053198000002524, 39.870826000001877 ], [ -105.053191000001675, 39.86362000000176 ], [ -105.053263000001678, 39.859948000002085 ], [ -105.053289000002565, 39.856764000001597 ], [ -105.052900000001713, 39.852042000001873 ], [ -105.053188000002606, 39.849649000001961 ], [ -105.053240000001637, 39.844052000001561 ], [ -105.053236000002727, 39.841807000001893 ], [ -105.0532590000021, 39.839969000001688 ], [ -105.053266000002324, 39.834527000001579 ], [ -105.053270000001802, 39.830924000001758 ], [ -105.053262000001723, 39.827273000001895 ], [ -105.053282000001659, 39.821163000002343 ], [ -105.053270000001675, 39.820028000001741 ], [ -105.051386000002225, 39.820046000001661 ], [ -105.044099000001736, 39.812820000001757 ], [ -105.052886000002403, 39.800863000001868 ], [ -105.053193000002437, 39.796434000001902 ], [ -105.053246000002204, 39.791063000002183 ], [ -105.064992000002647, 39.78835900000152 ], [ -105.053184000002119, 39.783687000001486 ], [ -105.053245000002505, 39.776583000001771 ], [ -105.053240000002006, 39.76933300000163 ], [ -105.053241000002714, 39.763903000002252 ], [ -105.053239000002094, 39.758472000001973 ], [ -105.053237000001999, 39.755694000002109 ], [ -105.053212000002219, 39.743980000001891 ], [ -105.053210000002224, 39.743273000001786 ], [ -105.053206000001722, 39.740306000001638 ], [ -105.053228000001937, 39.734922000002221 ], [ -105.053252000002161, 39.726184000002227 ], [ -105.053253000002442, 39.72580000000233 ], [ -105.053259000001759, 39.724083000001883 ], [ -105.05327800000228, 39.718427000001711 ], [ -105.053250000002478, 39.711343000001882 ], [ -105.053252000002601, 39.707716000002101 ], [ -105.053247000002557, 39.703985000002213 ], [ -105.053225000002442, 39.696769000002334 ], [ -105.053218000002417, 39.694988000002297 ], [ -105.053266000001784, 39.68955900000163 ], [ -105.053221000002125, 39.682291000002166 ], [ -105.057797000001756, 39.682272000001845 ], [ -105.062621000002181, 39.675874000002295 ], [ -105.053234000001964, 39.674299000001731 ], [ -105.053256000002477, 39.667785000001473 ], [ -105.06011000000224, 39.667780000002217 ], [ -105.07150900000174, 39.667764000001981 ], [ -105.072201000001741, 39.669374000002165 ], [ -105.081348000002421, 39.670133000002309 ], [ -105.081451000002446, 39.667743000002126 ], [ -105.081453000001886, 39.662056000002323 ], [ -105.071972000002475, 39.659951000002323 ], [ -105.057150000001926, 39.652946000001847 ], [ -105.072045000002319, 39.64598400000218 ], [ -105.072049000001755, 39.645815000002223 ], [ -105.073271000002762, 39.638740000001938 ], [ -105.087380000002113, 39.638692000001868 ], [ -105.098526000001954, 39.635087000001946 ], [ -105.100542000002122, 39.635088000001588 ], [ -105.109875000001864, 39.635072000001927 ], [ -105.102693000001807, 39.62422400000176 ], [ -105.094461000002553, 39.624195000001798 ], [ -105.080587000002083, 39.630386000001906 ], [ -105.074796000001697, 39.618511000001774 ], [ -105.093172000002241, 39.618324000001678 ], [ -105.097028000001799, 39.617984000002309 ], [ -105.091401000001994, 39.614332000001824 ], [ -105.058232000001979, 39.614409000001942 ], [ -105.053516000002361, 39.620864000002271 ], [ -105.053655000001839, 39.615549000002133 ], [ -105.053625000001915, 39.609665000001868 ], [ -105.072532000001985, 39.609779000002021 ], [ -105.091426000002642, 39.609694000002023 ], [ -105.109975000002606, 39.609734000001502 ], [ -105.110066000002277, 39.600221000001696 ], [ -105.110132000002594, 39.598738000002037 ], [ -105.11015300000166, 39.597660000002172 ], [ -105.11017200000218, 39.593044000001711 ], [ -105.128816000002473, 39.598263000001971 ], [ -105.125295000002424, 39.592186000002066 ], [ -105.156317000002204, 39.600319000002173 ], [ -105.145973000002499, 39.577416000001584 ], [ -105.124098000002675, 39.552658000002211 ], [ -105.088696000001761, 39.546333000002306 ], [ -105.073045000002395, 39.545265000001848 ], [ -105.086751000002479, 39.493423000001833 ], [ -105.09333000000268, 39.488054000001576 ], [ -105.133132000002703, 39.466312000001871 ], [ -105.123522000002382, 39.434561000001572 ], [ -105.170656000002523, 39.408019000002014 ], [ -105.166435000001755, 39.362958000002273 ], [ -105.198268000002358, 39.309222000002194 ], [ -105.233938000002695, 39.246868000001882 ], [ -105.263511000001984, 39.22926100000182 ], [ -105.28737700000184, 39.179442000002069 ], [ -105.329445000002679, 39.129487000001518 ], [ -105.257280000001956, 39.129552000001468 ], [ -105.033573000002093, 39.129710000002341 ], [ -105.027514000002355, 39.019571000002365 ], [ -105.028809000002283, 39.007002000002338 ], [ -105.027056000002318, 38.954881000001521 ], [ -105.028632000002247, 38.868763000001593 ], [ -105.067559000001722, 38.862670000002325 ], [ -105.072457000002487, 38.805007000002036 ], [ -104.93986900000256, 38.796543000002131 ], [ -104.939215000002079, 38.736993000001576 ], [ -104.942425000002274, 38.650159000001899 ], [ -104.941933000001924, 38.567791000001677 ], [ -104.941533000001925, 38.519569000002079 ], [ -104.940889000001647, 38.372026000001746 ], [ -104.940746000002264, 38.337300000002195 ], [ -104.940366000002598, 38.258275000001802 ], [ -104.975517000002384, 38.258123000002243 ], [ -105.049215000002036, 38.257973000001712 ], [ -105.049978000002554, 37.985701000001619 ], [ -105.049998000001835, 37.985205000002026 ], [ -105.050119000002596, 37.983436000002378 ], [ -105.049917000001983, 37.91547900000208 ], [ -105.066056000001694, 37.944209000001678 ], [ -105.108507000001765, 37.943399000001769 ] ], [ [ -104.973050000002104, 40.033037000001507 ], [ -104.979911000002275, 40.033053000001587 ], [ -104.979917000002501, 40.02948600000223 ], [ -104.973074000001816, 40.029512000002221 ], [ -104.973050000002104, 40.033037000001507 ] ] ], [ [ [ -105.099960000002284, 39.958979000001904 ], [ -105.091025000002077, 39.957785000001941 ], [ -105.107374000001698, 39.957915000002203 ], [ -105.099960000002284, 39.958979000001904 ] ] ] ] } },
{ "type": "Feature", "properties": { "enacted_district": 8.0, "population": 725312.0, "voting_age_pop": 538968.0, "dem_votes": 138042.0, "rep_votes": 134418.0, "minority_pop": 235829.0, "dem_pct": 0.50665051732120292, "rep_pct": 0.49334948231177073 }, "geometry": { "type": "Polygon", "coordinates": [ [ [ -105.053193000002437, 39.796434000001902 ], [ -105.052886000002403, 39.800863000001868 ], [ -105.044099000001736, 39.812820000001757 ], [ -105.051386000002225, 39.820046000001661 ], [ -105.053270000001675, 39.820028000001741 ], [ -105.053282000001659, 39.821163000002343 ], [ -105.053262000001723, 39.827273000001895 ], [ -105.053270000001802, 39.830924000001758 ], [ -105.053266000002324, 39.834527000001579 ], [ -105.0532590000021, 39.839969000001688 ], [ -105.053236000002727, 39.841807000001893 ], [ -105.053240000001637, 39.844052000001561 ], [ -105.053188000002606, 39.849649000001961 ], [ -105.052900000001713, 39.852042000001873 ], [ -105.053289000002565, 39.856764000001597 ], [ -105.053263000001678, 39.859948000002085 ], [ -105.053191000001675, 39.86362000000176 ], [ -105.053198000002524, 39.870826000001877 ], [ -105.053139000002446, 39.875402000001628 ], [ -105.053091000002283, 39.885356000002169 ], [ -105.053036000001995, 39.892187000002146 ], [ -105.053035000002339, 39.892557000001695 ], [ -105.053005000002258, 39.899806000002137 ], [ -105.052892000001918, 39.9142240000021 ], [ -105.046209000002278, 39.914219000001459 ], [ -105.039070000002596, 39.914195000001691 ], [ -105.034347000002526, 39.914181000002031 ], [ -105.025003000002158, 39.921250000001749 ], [ -105.015488000001625, 39.928426000001849 ], [ -105.015491000002555, 39.928544000002198 ], [ -105.015521000002281, 39.933185000001551 ], [ -105.015586000002557, 39.937276000001965 ], [ -105.015657000002037, 39.943093000001674 ], [ -104.997100000002661, 39.943239000001896 ], [ -105.006190000002022, 39.946804000002032 ], [ -105.015653000002246, 39.957724000001598 ], [ -105.015845000001917, 39.981193000001817 ], [ -104.997118000001819, 39.968528000002109 ], [ -104.988159000001644, 39.968466000002017 ], [ -104.987716000001839, 39.986619000002129 ], [ -104.984300000002193, 39.993691000001789 ], [ -104.980944000001713, 40.000325000001816 ], [ -104.961405000002244, 40.000337000002183 ], [ -104.961071000001994, 40.044144000001445 ], [ -104.978526000002375, 40.043888000002227 ], [ -104.980817000002475, 40.058413000001735 ], [ -104.980636000001837, 40.087267000002321 ], [ -104.980632000002061, 40.087634000001927 ], [ -105.055409000001717, 40.096617000001721 ], [ -105.055436000002686, 40.109241000001944 ], [ -105.055393000001999, 40.138263000001757 ], [ -105.055375000001703, 40.14492900000193 ], [ -105.055332000002394, 40.160192000001778 ], [ -105.055276000002578, 40.170972000001555 ], [ -105.055202000001984, 40.182224000001469 ], [ -105.05521500000188, 40.187682000001843 ], [ -105.055184000002086, 40.203680000001853 ], [ -105.055076000002643, 40.232779000001933 ], [ -105.055100000002341, 40.256120000001843 ], [ -105.055089000002624, 40.261793000001504 ], [ -105.131155000002394, 40.261283000001491 ], [ -105.102708000002536, 40.298037000001827 ], [ -105.102768000001873, 40.305148000002283 ], [ -105.102057000002077, 40.319572000001557 ], [ -105.150318000001718, 40.319568000001688 ], [ -105.150403000002285, 40.33454700000145 ], [ -105.097342000002115, 40.349480000001961 ], [ -105.056720000002485, 40.349281000001881 ], [ -105.040417000002677, 40.34925700000192 ], [ -105.002429000002763, 40.349217000001545 ], [ -104.9834600000016, 40.349184000002275 ], [ -104.990800000001883, 40.37211000000233 ], [ -105.00124700000184, 40.378127000001548 ], [ -104.993861000002553, 40.388563000002101 ], [ -104.993462000001756, 40.392570000001527 ], [ -104.964183000001981, 40.407372000001871 ], [ -104.944568000002079, 40.406964000001445 ], [ -104.907296000002063, 40.406803000002292 ], [ -104.850892000001963, 40.440122000001914 ], [ -104.832679000002003, 40.437885000002197 ], [ -104.841924000002038, 40.457931000001871 ], [ -104.830930000002482, 40.462086000001612 ], [ -104.811456000002735, 40.480601000001883 ], [ -104.792442000002396, 40.480905000002132 ], [ -104.773363000002604, 40.48116900000209 ], [ -104.734988000002659, 40.495566000002214 ], [ -104.696915000002519, 40.49541100000198 ], [ -104.696670000001873, 40.538752000002184 ], [ -104.601424000002041, 40.536643000002229 ], [ -104.601865000002064, 40.478705000001654 ], [ -104.507839000001837, 40.478868000002279 ], [ -104.45187300000174, 40.494934000002083 ], [ -104.414136000001662, 40.522945000001506 ], [ -104.413485000002566, 40.479320000002069 ], [ -104.355933000002764, 40.479531000001771 ], [ -104.147312000002003, 40.481277000001874 ], [ -104.150143000001904, 40.29050300000231 ], [ -104.150120000002644, 40.284611000001519 ], [ -104.291532000002107, 40.293578000002192 ], [ -104.388751000001704, 40.312946000002142 ], [ -104.508321000002042, 40.319647000001723 ], [ -104.527583000002565, 40.276010000001968 ], [ -104.60235600000216, 40.275998000001834 ], [ -104.602738000001807, 40.203429000001499 ], [ -104.602824000002286, 40.120093000001503 ], [ -104.678397000002363, 40.116752000001746 ], [ -104.659603000002633, 40.058766000001633 ], [ -104.593610000002542, 40.058627000001792 ], [ -104.572253000001936, 40.000593000001878 ], [ -104.631210000002525, 40.000532000002259 ], [ -104.640689000002638, 39.972087000001594 ], [ -104.678445000002483, 39.972355000001855 ], [ -104.678143000002393, 39.928646000001933 ], [ -104.640361000002457, 39.906711000002318 ], [ -104.729806000002597, 39.896127000001535 ], [ -104.74700100000166, 39.845299000001766 ], [ -104.790859000001916, 39.841802000002119 ], [ -104.790895000001598, 39.798251000001869 ], [ -104.795503000002256, 39.798270000001878 ], [ -104.809690000002362, 39.798317000001674 ], [ -104.820038000002555, 39.798260000002003 ], [ -104.835390000001681, 39.798105000001726 ], [ -104.847181000002038, 39.798236000001666 ], [ -104.866041000001999, 39.798386000001649 ], [ -104.90356100000264, 39.798391000002134 ], [ -104.903485000001922, 39.787288000002221 ], [ -104.903439000002436, 39.783888000002257 ], [ -104.912887000002726, 39.783818000002043 ], [ -104.922274000002474, 39.783776000001495 ], [ -104.931646000001962, 39.791047000001669 ], [ -104.939882000001646, 39.790994000001895 ], [ -104.956327000002645, 39.793957000001811 ], [ -104.968861000002661, 39.791041000001641 ], [ -104.9675230000026, 39.79326900000197 ], [ -104.988848000001681, 39.791036000001469 ], [ -104.996737000002355, 39.791019000002137 ], [ -104.997790000002624, 39.791026000002319 ], [ -105.01583200000222, 39.791072000001634 ], [ -105.025149000001875, 39.794003000002235 ], [ -105.040419000002103, 39.791119000001615 ], [ -105.053246000002204, 39.791063000002183 ], [ -105.053193000002437, 39.796434000001902 ] ] ] } }
]
}
