{
"type": "FeatureCollection",
"name": "colorado_optimized_districts_county",
"crs": { "type": "name", "properties": { "name": "urn:ogc:def:crs:OGC:1.3:CRS84" } },
"features": [
{ "type": "Feature", "properties": { "district_id": 0, "voting_age_pop": 462845, "lib_votes": 0, "grn_votes": 0, "con_votes": 0, "ref_votes": 0, "total_pop": 628726, "dem_votes_sum": 805099834521, "rep_votes_sum": 124786, "lib_votes_sum": 0, "grn_votes_sum": 0, "con_votes_sum": 0, "ref_votes_sum": 0, "minority_pop_sum": 376000, "dem_pct": 0.99999984500558159, "rep_pct": 1.5499441846626241e-07, "lib_pct": 0.0, "grn_pct": 0.0, "con_pct": 0.0, "ref_pct": 0.0, "minority_pct": 0.59803475599863853, "compactness": 0.24000080501101267 }, "geometry": { "type": "MultiPolygon", "coordinates": [ [ [ [ -104.902719976233868, 39.576348431804846 ], [ -104.888870971704108, 39.565997431488789 ], [ -104.932102983459345, 39.574110429721365 ], [ -104.910995980477679, 39.593848434024721 ], [ -104.922897983668548, 39.59506543285525 ], [ -104.922646987758057, 39.638625439568045 ], [ -104.88813598009304, 39.639259441554856 ], [ -104.884794980592673, 39.653074444078527 ], [ -104.927204991109562, 39.653054441177005 ], [ -104.931674993007363, 39.658907441808552 ], [ -104.926136991494559, 39.664694442764137 ], [ -104.925671991844126, 39.667492442715108 ], [ -104.927841992946711, 39.670580443310712 ], [ -104.940689995524281, 39.668335442017941 ], [ -104.940696997512745, 39.682967444329655 ], [ -104.922275992174988, 39.678476444693366 ], [ -104.922261994408814, 39.695906446925967 ], [ -104.93400599795909, 39.701386446895562 ], [ -104.932766000277311, 39.720979450333267 ], [ -104.911133993897295, 39.711210450500403 ], [ -104.918366997134555, 39.725640451969063 ], [ -104.903467994495585, 39.732900453346467 ], [ -104.847161981131293, 39.733008457675574 ], [ -104.856532987835351, 39.768397461687094 ], [ -104.809888976755701, 39.773193465469348 ], [ -104.819903980726991, 39.783127466529692 ], [ -104.759101966761534, 39.783808470693863 ], [ -104.742370962618111, 39.781279471765153 ], [ -104.749331962849098, 39.769469469106966 ], [ -104.734610959494603, 39.769187470554108 ], [ -104.734841957257871, 39.750334467231653 ], [ -104.762947963434314, 39.752985465636357 ], [ -104.763047962120922, 39.740257464149401 ], [ -104.715954951252399, 39.740277467374035 ], [ -104.716034949687526, 39.725563465753325 ], [ -104.687741943234514, 39.725551467117917 ], [ -104.678366939629882, 39.711032466162671 ], [ -104.678246942781172, 39.740194469692057 ], [ -104.659629938010696, 39.74167747120412 ], [ -104.65913294661857, 39.814039481893126 ], [ -104.655520946543504, 39.822476482988954 ], [ -104.619947938094199, 39.822427485842425 ], [ -104.619850943984289, 39.873773492960595 ], [ -104.605800941182991, 39.873833493996422 ], [ -104.600440942056778, 39.899021497515008 ], [ -104.583459938282331, 39.898932499054339 ], [ -104.583399939859092, 39.913348500375349 ], [ -104.489321917514701, 39.912380506988761 ], [ -104.489648923272966, 39.95569151293946 ], [ -104.414346905234069, 39.955644518608004 ], [ -104.415331882410811, 39.758086490445997 ], [ -104.376966871234302, 39.733475489568654 ], [ -104.37806286565656, 39.680304481535529 ], [ -104.396945869456957, 39.680324480288007 ], [ -104.398716856617526, 39.563956463600782 ], [ -103.714364694883017, 39.566337509731476 ], [ -103.714953662424819, 39.267709466550478 ], [ -103.821826691888262, 39.303606465376518 ], [ -103.974248726158933, 39.28791245239649 ], [ -104.010225732935709, 39.273515448627883 ], [ -104.249299789539506, 39.273809432965173 ], [ -104.422792837331627, 39.334772429338472 ], [ -104.482288851170338, 39.335061426163449 ], [ -104.473560850803366, 39.346657428052083 ], [ -104.483754853290293, 39.349753427595815 ], [ -104.594198880769284, 39.361496422052561 ], [ -104.616270886841292, 39.371258422483486 ], [ -104.616356887664239, 39.383298423633384 ], [ -104.64429789452393, 39.380067421599279 ], [ -104.644165894994345, 39.390824422769725 ], [ -104.662906899392723, 39.390963421652536 ], [ -104.670017898463044, 39.362400417444626 ], [ -104.681635906561283, 39.412968423849222 ], [ -104.740000921776456, 39.428450422028035 ], [ -104.709372915752311, 39.43490742508294 ], [ -104.700373915542926, 39.45553542838551 ], [ -104.757879931345101, 39.478402427370376 ], [ -104.763955932074367, 39.467685425860012 ], [ -104.765474933534307, 39.478448427189562 ], [ -104.779784936175787, 39.473896426111139 ], [ -104.784266934741396, 39.453076422329659 ], [ -104.79608593795713, 39.456734422569106 ], [ -104.789077937718488, 39.464055423537033 ], [ -104.821796945122344, 39.463888421709264 ], [ -104.812270945663059, 39.492395426165757 ], [ -104.872377961553781, 39.507759424133269 ], [ -104.867426962064854, 39.521610426638361 ], [ -104.885764966672227, 39.521880425301305 ], [ -104.885562216797396, 39.534588406990409 ], [ -104.867503962204594, 39.523107426630396 ], [ -104.87561597030421, 39.57851743413967 ], [ -104.902719976233868, 39.576348431804846 ] ], [ [ -104.929281996631758, 39.701276447524577 ], [ -104.929138997283815, 39.702025448005024 ], [ -104.929278996578248, 39.702027447188705 ], [ -104.929281996631758, 39.701276447524577 ] ] ], [ [ [ -104.935914997896063, 39.69779644618577 ], [ -104.936401997849345, 39.696607446014127 ], [ -104.936385998142839, 39.697799446292521 ], [ -104.935914997896063, 39.69779644618577 ] ] ], [ [ [ -104.938644998387559, 39.696611446046681 ], [ -104.940747998885669, 39.697962446340959 ], [ -104.938719998446047, 39.69818844614057 ], [ -104.938644998387559, 39.696611446046681 ] ] ], [ [ [ -104.931660996850624, 39.698404446718897 ], [ -104.934144997969739, 39.700187447184369 ], [ -104.931723997278809, 39.700214446799222 ], [ -104.931660996850624, 39.698404446718897 ] ] ] ] } },
{ "type": "Feature", "properties": { "district_id": 1, "voting_age_pop": 483847, "lib_votes": 0, "grn_votes": 0, "con_votes": 0, "ref_votes": 0, "total_pop": 633555, "dem_votes_sum": 1069246654047, "rep_votes_sum": 171557, "lib_votes_sum": 0, "grn_votes_sum": 0, "con_votes_sum": 0, "ref_votes_sum": 0, "minority_pop_sum": 251613, "dem_pct": 0.99999983955341654, "rep_pct": 1.6044658341921217e-07, "lib_pct": 0.0, "grn_pct": 0.0, "con_pct": 0.0, "ref_pct": 0.0, "minority_pct": 0.39714468357127636, "compactness": 0.28311806176775262 }, "geometry": { "type": "Polygon", "coordinates": [ [ [ -105.470568841804294, 36.995994023089509 ], [ -105.431094834534491, 37.015814028692233 ], [ -105.41917384032655, 37.099849041092838 ], [ -105.403185837831117, 37.120037045224635 ], [ -105.431057851271561, 37.193090054349945 ], [ -105.498555866178066, 37.186613049191735 ], [ -105.521315869095531, 37.161861044853588 ], [ -105.521103864589932, 37.113356037493737 ], [ -105.746169915376058, 37.11076502363526 ], [ -105.740074913840061, 37.104728022608391 ], [ -105.740707913255207, 37.102164022663743 ], [ -105.749788916153719, 37.114368023724943 ], [ -105.729708918104478, 37.179877034713833 ], [ -105.746219928106214, 37.248982043448244 ], [ -105.719933925818083, 37.28643505099766 ], [ -105.753101939654229, 37.344885056793977 ], [ -105.485525900676592, 37.577905108005353 ], [ -105.49862190772302, 37.614498112009031 ], [ -105.477251908087624, 37.666205121259125 ], [ -105.477522912124002, 37.707538126787547 ], [ -105.454254908306936, 37.723957131464772 ], [ -105.4549219157404, 37.795702141801648 ], [ -105.435188911349414, 37.80477314358167 ], [ -105.428683914122175, 37.843672150234241 ], [ -105.450546922637599, 37.878118153251265 ], [ -105.478504928868958, 37.879856151857688 ], [ -105.47331692933551, 37.896655154993731 ], [ -105.511095942433968, 37.939137159116626 ], [ -105.583931961782568, 37.967202157782147 ], [ -105.604645970479226, 38.005020162130997 ], [ -105.603165972864119, 38.030974165843205 ], [ -105.653658990626539, 38.090886171399767 ], [ -105.610894981613896, 38.096894175050799 ], [ -105.577321977110543, 38.132844182748201 ], [ -105.46384595112859, 38.130930189558164 ], [ -105.456011952984881, 38.164177194696762 ], [ -105.435718947495218, 38.161070195252506 ], [ -105.440831946296626, 38.136204191276512 ], [ -105.386662934343079, 38.137838195662113 ], [ -105.357127928570804, 38.152025199117183 ], [ -105.344081924480491, 38.141001198095793 ], [ -105.324266920309682, 38.145336200240344 ], [ -105.287580913669302, 38.164451205490415 ], [ -105.299011917894674, 38.178749206983284 ], [ -105.242492907394634, 38.20467921399478 ], [ -105.28529192332546, 38.25852221899779 ], [ -104.975526851805853, 38.25812923853173 ], [ -104.991638848795318, 38.190440227726 ], [ -104.956422839165967, 38.182840229110624 ], [ -104.92578882783323, 38.139554225092411 ], [ -104.921688824253877, 38.106761220070531 ], [ -104.937096823352093, 38.070636214356441 ], [ -104.920241820461314, 38.074249215285604 ], [ -104.879809808271006, 38.048366214743311 ], [ -104.804169790797332, 38.0455792182658 ], [ -104.704795774180695, 38.115508235482693 ], [ -104.671406766886122, 38.12105823802942 ], [ -104.637020764484774, 38.169618247358954 ], [ -104.63604376308696, 38.15891024577634 ], [ -104.616160758075878, 38.160008247462102 ], [ -104.612380762282598, 38.20875325442907 ], [ -104.598322761313312, 38.23021625897826 ], [ -104.579601757489073, 38.23520226059555 ], [ -104.593385761728342, 38.247010261892918 ], [ -104.572700758122949, 38.256077264470726 ], [ -104.590133762001557, 38.25497526274993 ], [ -104.576707759958708, 38.269634265458507 ], [ -104.552489754665032, 38.271659268040544 ], [ -104.565914757495122, 38.265179265990461 ], [ -104.556892754110081, 38.258107264952727 ], [ -104.528349748921741, 38.269114268743209 ], [ -104.512940744000417, 38.257258268024778 ], [ -104.445443729826508, 38.27350127458741 ], [ -104.460141738326769, 38.317277279841299 ], [ -104.497005750985707, 38.363106284222432 ], [ -104.497099752976879, 38.375124286204766 ], [ -104.448929741726559, 38.375468288990731 ], [ -104.506416760876917, 38.432992294374849 ], [ -104.55274377125852, 38.432866290988734 ], [ -104.553178777778555, 38.492342299445504 ], [ -104.567096783607184, 38.520007303120266 ], [ -104.630691798427549, 38.519923298757099 ], [ -104.667931814780687, 38.588624306183355 ], [ -104.684093825611853, 38.6582413159406 ], [ -104.636452815271369, 38.664822319481424 ], [ -104.633438815939684, 38.682586322154286 ], [ -104.593919805743823, 38.668514323046296 ], [ -104.588284807152107, 38.694001327024637 ], [ -104.628866816812192, 38.696242324648665 ], [ -104.623914817330046, 38.711506326909216 ], [ -104.608879813854273, 38.711468327922361 ], [ -104.618117821484233, 38.765851335755507 ], [ -104.553310806344825, 38.767087339576527 ], [ -104.553647814255086, 38.838589350296445 ], [ -104.313763758382891, 38.838932365547336 ], [ -104.313708759164655, 38.853386367798208 ], [ -104.277725751488987, 38.853246369950227 ], [ -104.277658754166978, 38.882316373850074 ], [ -104.295945758198982, 38.882256373484566 ], [ -104.305883759535618, 38.867815370295297 ], [ -104.31445776585376, 38.911212376293712 ], [ -104.184613735288195, 38.911606384970931 ], [ -104.183864738735011, 38.940624389209219 ], [ -104.202383742729239, 38.94049438738724 ], [ -104.202065746994421, 38.983714393871146 ], [ -104.053269712084784, 38.98439140339913 ], [ -104.051598727428726, 39.128376424583969 ], [ -104.23646477059512, 39.128673412715528 ], [ -104.236085773385852, 39.150573415880089 ], [ -104.254573778517539, 39.157585415278767 ], [ -104.235981773834496, 39.157700416424554 ], [ -104.235679776575225, 39.179353419846862 ], [ -104.253979781117764, 39.186627419684172 ], [ -104.249546782247748, 39.200943422117888 ], [ -104.264545786148659, 39.211662422352376 ], [ -104.252234784355721, 39.215863424143251 ], [ -104.253536790867059, 39.274655432249894 ], [ -104.010225732935709, 39.273515448627883 ], [ -103.974248726158933, 39.28791245239649 ], [ -103.821826691888262, 39.303606465376518 ], [ -103.714953662424819, 39.267709466550478 ], [ -103.714126693591865, 39.548754507560133 ], [ -103.714364694883017, 39.566337509731476 ], [ -104.398716856617526, 39.563956463600782 ], [ -104.396945869456957, 39.680324480288007 ], [ -104.37806286565656, 39.680304481535529 ], [ -104.376966871234302, 39.733475489568654 ], [ -104.415331882410811, 39.758086490445997 ], [ -104.414346905234069, 39.955644518608004 ], [ -104.56506094110317, 39.956702507781237 ], [ -104.565301942260803, 39.971221510246174 ], [ -104.640698960258106, 39.972093504945889 ], [ -104.631219961271682, 40.000538509201292 ], [ -104.572262947250337, 40.000599513368783 ], [ -104.598918961412977, 40.069571521814638 ], [ -104.58521295877874, 40.073197523202658 ], [ -104.584216961878838, 40.102333527355142 ], [ -104.565475957464969, 40.102290528455633 ], [ -104.565547959081115, 40.110652529421472 ], [ -104.602639966815474, 40.102164525463579 ], [ -104.602747978301835, 40.203435539484531 ], [ -104.659301991606569, 40.203678536017122 ], [ -104.659220989735374, 40.18911953350726 ], [ -104.696737999281808, 40.189258531043997 ], [ -104.696524017373164, 40.342287552199217 ], [ -104.715504021082495, 40.341588550920648 ], [ -104.710600022129711, 40.356031553797621 ], [ -104.734735026522799, 40.348363550879192 ], [ -104.735135023608095, 40.319228546855122 ], [ -104.754170028135093, 40.31912354516875 ], [ -104.754201030290531, 40.340269548368106 ], [ -104.811188041379978, 40.319714541549374 ], [ -104.811855042996584, 40.330446543261637 ], [ -104.910167065874191, 40.334754536902956 ], [ -104.92380806779552, 40.320438533900806 ], [ -104.941762071758617, 40.321102532781246 ], [ -104.941722064769507, 40.262838524196624 ], [ -104.979262073507044, 40.262658522247442 ], [ -104.980328076132622, 40.277637523411912 ], [ -104.99870607883895, 40.268899521770606 ], [ -105.008248083585059, 40.287815523674119 ], [ -105.017547082577977, 40.262337519119392 ], [ -105.052575090164297, 40.256071515540008 ], [ -105.159070115488149, 40.261225509066506 ], [ -105.150257124062506, 40.349552521947047 ], [ -105.040427098508033, 40.349263529768784 ], [ -105.040155101973497, 40.378331533352771 ], [ -105.059208106425586, 40.378326531785049 ], [ -105.058894108469701, 40.396727534827335 ], [ -105.073255111711902, 40.392761532946714 ], [ -105.073127112325309, 40.402335534203289 ], [ -105.087466115759838, 40.400979533431297 ], [ -105.083714113537511, 40.392734532762219 ], [ -105.15652813124413, 40.392968527677986 ], [ -105.158666134878132, 40.421765531133616 ], [ -105.21426114634626, 40.410825525750219 ], [ -105.224592151837797, 40.438234528276304 ], [ -105.27018516772965, 40.48238853116144 ], [ -105.288214171003972, 40.47110652879288 ], [ -105.287197178590063, 40.536650537701455 ], [ -105.266621173733625, 40.536855538747659 ], [ -105.267063176222962, 40.551546540994948 ], [ -105.24821717195465, 40.55542054254034 ], [ -105.248163189798362, 40.699554562804437 ], [ -105.301976200134789, 40.685750556352808 ], [ -105.376340218718852, 40.69421155206085 ], [ -105.381251218347884, 40.683186550823329 ], [ -105.42899622865491, 40.674691545729203 ], [ -105.441302234649186, 40.699896548646315 ], [ -105.431286233565856, 40.707087550092623 ], [ -105.460857244432958, 40.744126553194718 ], [ -105.433141238706867, 40.751568555826161 ], [ -105.383091225412883, 40.734410557264354 ], [ -105.348456221508954, 40.768180564862909 ], [ -105.296016212146654, 40.791462571609337 ], [ -105.196557189128242, 40.793602578777254 ], [ -105.172041178929931, 40.758442575858005 ], [ -105.17292120913271, 40.998340607522557 ], [ -102.051726458486485, 41.002365828830271 ], [ -102.042098038474379, 36.993022223483351 ], [ -105.470568841804294, 36.995994023089509 ] ] ] } },
{ "type": "Feature", "properties": { "district_id": 2, "voting_age_pop": 489607, "lib_votes": 0, "grn_votes": 0, "con_votes": 0, "ref_votes": 0, "total_pop": 635652, "dem_votes_sum": 547557707087, "rep_votes_sum": 119782, "lib_votes_sum": 0, "grn_votes_sum": 0, "con_votes_sum": 0, "ref_votes_sum": 0, "minority_pop_sum": 350809, "dem_pct": 0.99999978124319644, "rep_pct": 2.1875680361456534e-07, "lib_pct": 0.0, "grn_pct": 0.0, "con_pct": 0.0, "ref_pct": 0.0, "minority_pct": 0.55188845468904368, "compactness": 0.14291908293222716 }, "geometry": { "type": "Polygon", "coordinates": [ [ [ -105.163090036289219, 39.569937413519519 ], [ -105.147699033336679, 39.577154415634332 ], [ -105.188296046282886, 39.60245041651774 ], [ -105.219298052401797, 39.595228413111592 ], [ -105.232885057419736, 39.613945414583682 ], [ -105.193629049445036, 39.623634418448084 ], [ -105.19851305434409, 39.653240422352859 ], [ -105.244655065448441, 39.656229419868787 ], [ -105.246905070167557, 39.697909425735041 ], [ -105.27522507617914, 39.691551422898442 ], [ -105.273585076949232, 39.702360423845441 ], [ -105.295160083015773, 39.709142424000852 ], [ -105.258173073596822, 39.706615425656068 ], [ -105.272970080834583, 39.733874428227018 ], [ -105.232459073758278, 39.756613434153671 ], [ -105.240453078596076, 39.783216437420108 ], [ -105.212234069987957, 39.765415437069471 ], [ -105.191488066510445, 39.775608439609321 ], [ -105.189325068601264, 39.797481443327712 ], [ -105.156971061100762, 39.798000445267554 ], [ -105.158020062831852, 39.812552447387745 ], [ -105.221669077035131, 39.809123442701825 ], [ -105.234844084677647, 39.844257446292254 ], [ -105.165266067903943, 39.845351451308382 ], [ -105.165581073569513, 39.892501457583087 ], [ -105.095907055924627, 39.878099460824913 ], [ -105.096167058794691, 39.8997874639118 ], [ -105.053015048075522, 39.899812467133827 ], [ -105.081460052346969, 39.874791461693889 ], [ -105.074127048513134, 39.856553459484878 ], [ -105.044733040379015, 39.847450460433251 ], [ -105.034360038877395, 39.854652461516643 ], [ -105.025013034291518, 39.836069459670888 ], [ -105.020288036572225, 39.859848463597515 ], [ -105.005978032517049, 39.859751464588214 ], [ -104.984139025475287, 39.841742463166554 ], [ -104.988604020652929, 39.791092455617843 ], [ -104.96662101652376, 39.793842457514607 ], [ -104.977842016947321, 39.779509454784368 ], [ -104.99834402232861, 39.782405454237974 ], [ -105.001045016980967, 39.757703754887174 ], [ -105.025223024731574, 39.746369447524614 ], [ -105.025102020497428, 39.711180442257699 ], [ -105.008613015777001, 39.707578443145479 ], [ -105.039060021866121, 39.696764439099482 ], [ -105.025067018200147, 39.6894914390883 ], [ -105.025083016203425, 39.673345436896568 ], [ -105.040673019499749, 39.674982436012677 ], [ -105.025118015386937, 39.667721436661203 ], [ -105.025324012151998, 39.642296432434009 ], [ -105.045693016143744, 39.631902429616773 ], [ -105.023122009659275, 39.624166430350662 ], [ -105.044058015467414, 39.628022429223734 ], [ -105.044289011662357, 39.595203424725156 ], [ -105.121097028886538, 39.593169418965871 ], [ -105.128721032988025, 39.614175421506175 ], [ -105.16009004024383, 39.609660419179377 ], [ -105.124108025361551, 39.552664413099691 ], [ -105.140733028613383, 39.551294412456841 ], [ -105.163090036289219, 39.569937413519519 ] ] ] } },
{ "type": "Feature", "properties": { "district_id": 3, "voting_age_pop": 463127, "lib_votes": 0, "grn_votes": 0, "con_votes": 0, "ref_votes": 0, "total_pop": 620987, "dem_votes_sum": 859303148288, "rep_votes_sum": 180984, "lib_votes_sum": 0, "grn_votes_sum": 0, "con_votes_sum": 0, "ref_votes_sum": 0, "minority_pop_sum": 221023, "dem_pct": 0.99999978938287115, "rep_pct": 2.1061712882379878e-07, "lib_pct": 0.0, "grn_pct": 0.0, "con_pct": 0.0, "ref_pct": 0.0, "minority_pct": 0.35592210464953372, "compactness": 0.092164847483105466 }, "geometry": { "type": "Polygon", "coordinates": [ [ [ -105.303087927180471, 38.260252217851196 ], [ -105.292449928264034, 38.29015622321009 ], [ -105.23749691830686, 38.315101230430216 ], [ -105.23726792932203, 38.428523246797063 ], [ -105.264491936045275, 38.433001245349359 ], [ -105.251779935304043, 38.452656248868486 ], [ -105.263439940731232, 38.479826252212014 ], [ -105.289259948345517, 38.495866253291531 ], [ -105.359469964933211, 38.498166249031286 ], [ -105.384868969997683, 38.487282245736566 ], [ -105.41713097773021, 38.49614324525318 ], [ -105.429388983034286, 38.515058247089542 ], [ -105.482100995797921, 38.521747244627761 ], [ -105.52355001047934, 38.575906248890632 ], [ -105.52937001084608, 38.562996246679084 ], [ -105.546450014618884, 38.563126246186997 ], [ -105.542980015167984, 38.575316248214705 ], [ -105.564650021905621, 38.59045824846131 ], [ -105.547797018833862, 38.599528250927321 ], [ -105.553850021931638, 38.612426252707969 ], [ -105.581600028756242, 38.617146251598136 ], [ -105.622930041314021, 38.652096253999744 ], [ -105.687178051753904, 38.607654242713579 ], [ -105.728176061175105, 38.60564723983169 ], [ -105.753045068164838, 38.624505240871784 ], [ -105.777558074512825, 38.623306239566446 ], [ -105.775434076976254, 38.658769244231344 ], [ -105.715406067884217, 38.694665253830401 ], [ -105.969760125564477, 38.693557237148681 ], [ -105.922651112482484, 38.677011237520098 ], [ -105.90768310682175, 38.651936235162538 ], [ -105.915675106143738, 38.63005423150382 ], [ -105.885982098741039, 38.62063223199462 ], [ -105.884649091929759, 38.562276223520428 ], [ -105.903770095209438, 38.547988220564605 ], [ -105.906864091198557, 38.506272214377326 ], [ -105.93805009813866, 38.503476212516631 ], [ -106.010761108201294, 38.446572198932138 ], [ -106.03356411447264, 38.454485199251643 ], [ -106.033809122054421, 38.521074208207025 ], [ -106.010972118136976, 38.533384211637468 ], [ -106.079666133516824, 38.535666207488696 ], [ -106.089038149938219, 38.665134224900825 ], [ -106.02265213475259, 38.66534022889865 ], [ -106.022764137632961, 38.694190233266049 ], [ -105.969909125366215, 38.694409236978515 ], [ -105.946195122353018, 38.716730241286108 ], [ -105.944550128077893, 38.768111249235865 ], [ -105.906595123374899, 38.806879257118382 ], [ -105.941855135087209, 38.840396259191834 ], [ -105.926501134933929, 38.873970264545676 ], [ -105.941248139733787, 38.885598265425948 ], [ -105.974307147105478, 38.882464263061514 ], [ -105.97942814921889, 38.894539264569055 ], [ -105.965780147484693, 38.905882266738246 ], [ -105.998180156241304, 38.915165265892128 ], [ -106.028148165812112, 38.942855267652021 ], [ -106.05826017262585, 38.941811265921281 ], [ -106.06592017309778, 38.931902263931903 ], [ -106.111005184126824, 38.940105261739781 ], [ -106.108963189096599, 38.987383268723931 ], [ -106.145424198221008, 38.997905267339277 ], [ -106.169144203168472, 38.991308265487383 ], [ -106.192964210976839, 39.017715266736808 ], [ -106.182511210888634, 39.038557270979886 ], [ -106.191016214858877, 39.056079272375094 ], [ -106.577976303125567, 39.057914246706581 ], [ -106.586167309000416, 39.094056251359191 ], [ -106.5633313053319, 39.107274254521499 ], [ -106.561275309877146, 39.15568326156091 ], [ -106.508624299359724, 39.166687266863406 ], [ -106.483148304112902, 39.26340028112174 ], [ -106.454187298190348, 39.269505283969174 ], [ -106.467976298900183, 39.247472280197925 ], [ -106.437458294702566, 39.270804285831602 ], [ -106.383787281996149, 39.267050288515428 ], [ -106.370273277283715, 39.252121287813935 ], [ -106.308888263193268, 39.248204291567944 ], [ -106.299636260425189, 39.237610290527634 ], [ -106.287660258786161, 39.248091292276008 ], [ -106.300145263629986, 39.272383295338471 ], [ -106.258580258386885, 39.304681301841761 ], [ -106.226725251686901, 39.31316030587282 ], [ -106.220892254370639, 39.349593311449162 ], [ -106.178709246029186, 39.361197315034133 ], [ -106.191422250919672, 39.379702317512084 ], [ -106.135539238567134, 39.379552320671792 ], [ -106.152953240598265, 39.362767317455841 ], [ -106.139936235480846, 39.339559315103841 ], [ -106.151256235456785, 39.320700311701231 ], [ -106.183719241348314, 39.310289308200602 ], [ -106.181576233873486, 39.247090299922192 ], [ -106.119346219701129, 39.247227304171197 ], [ -106.083637209004976, 39.224963302929275 ], [ -106.032119198434273, 39.233362308178847 ], [ -106.050470207181007, 39.274172312254315 ], [ -106.016017197797694, 39.257962312153929 ], [ -106.033902210747456, 39.336237321530795 ], [ -106.018150211627002, 39.381811328814408 ], [ -105.951877200747063, 39.414344337993739 ], [ -105.966053206677046, 39.438788340783979 ], [ -105.944165201578443, 39.440916342673468 ], [ -105.938673202657228, 39.458504345353532 ], [ -105.905969195310234, 39.459663347228009 ], [ -105.892235194703261, 39.48403535218516 ], [ -105.853897188340909, 39.504512357629956 ], [ -105.868075193309963, 39.51949635813687 ], [ -105.859517192866363, 39.531542361000184 ], [ -105.845387188240323, 39.523756360669566 ], [ -105.822935184431699, 39.529937363005196 ], [ -105.815817185312255, 39.551982366001972 ], [ -105.829672189470514, 39.564871367655059 ], [ -105.766684174964084, 39.563595371394996 ], [ -105.663112139420946, 39.459739363653348 ], [ -105.549116109076564, 39.419086366103556 ], [ -105.474590089886462, 39.405462369598375 ], [ -105.438508086843513, 39.454131378485634 ], [ -105.39806207451258, 39.427410377324854 ], [ -105.398351078551613, 39.464179382816042 ], [ -105.312220063369438, 39.503115393665041 ], [ -105.306124064448966, 39.52191139653187 ], [ -105.226734043413742, 39.498065398786892 ], [ -105.250217050500652, 39.519365400365245 ], [ -105.242799051645022, 39.539777403427792 ], [ -105.282783060790095, 39.544333401911508 ], [ -105.295306067885036, 39.580148405608902 ], [ -105.268099062469147, 39.588900408479446 ], [ -105.276282068460333, 39.620139413046644 ], [ -105.253446063974138, 39.627091415101866 ], [ -105.219298052401797, 39.595228413111592 ], [ -105.186798045124405, 39.601758416087584 ], [ -105.147699033336679, 39.577154415634332 ], [ -105.164938036326404, 39.568370412858791 ], [ -105.133182027339132, 39.549161412332282 ], [ -105.124108025361551, 39.552664413099691 ], [ -105.16009004024383, 39.609660419179377 ], [ -105.128721032988025, 39.614175421506175 ], [ -105.121097028886538, 39.593169418965871 ], [ -105.044289011662357, 39.595203424725156 ], [ -105.044058015467414, 39.628022429223734 ], [ -105.034965012671321, 39.624167429593705 ], [ -105.02267501003756, 39.627794430920218 ], [ -105.045314016430396, 39.638644431226766 ], [ -105.025324012151998, 39.642296432434009 ], [ -105.025072015516798, 39.671792437009373 ], [ -105.015709013234314, 39.671801437162721 ], [ -105.015839012178148, 39.656982435187963 ], [ -104.99346300700941, 39.660475437297293 ], [ -105.003653008193112, 39.645874434829217 ], [ -104.96148799742852, 39.638626436981035 ], [ -104.959796994763323, 39.624234435091182 ], [ -104.922793986628591, 39.624088437140152 ], [ -104.922897983668548, 39.59506543285525 ], [ -104.910966980168254, 39.595046433682725 ], [ -104.931306983267206, 39.58056243053975 ], [ -104.922972980272746, 39.566059429355327 ], [ -104.888870971704108, 39.565997431488789 ], [ -104.90427697692482, 39.58053143273159 ], [ -104.876758970444655, 39.580502434148976 ], [ -104.867503962204594, 39.523107426630396 ], [ -104.885562216797396, 39.534588406990409 ], [ -104.885764966672227, 39.521880425301305 ], [ -104.867426962064854, 39.521610426638361 ], [ -104.872377961553781, 39.507759424133269 ], [ -104.849163955808152, 39.507736425531597 ], [ -104.849374955282528, 39.49603642391542 ], [ -104.817913947893516, 39.497648426852102 ], [ -104.821796945122344, 39.463888421709264 ], [ -104.789077937718488, 39.464055423537033 ], [ -104.79608593795713, 39.456734422569106 ], [ -104.784266934741396, 39.453076422329659 ], [ -104.779784936175787, 39.473896426111139 ], [ -104.765474933534307, 39.478448427189562 ], [ -104.763955932074367, 39.467685425860012 ], [ -104.757879931345101, 39.478402427370376 ], [ -104.700373915542926, 39.45553542838551 ], [ -104.709372915752311, 39.43490742508294 ], [ -104.740000921776456, 39.428450422028035 ], [ -104.681635906561283, 39.412968423849222 ], [ -104.671433898505796, 39.362968417543826 ], [ -104.662906899392723, 39.390963421652536 ], [ -104.644165894994345, 39.390824422769725 ], [ -104.64429789452393, 39.380067421599279 ], [ -104.616356887664239, 39.383298423633384 ], [ -104.616270886841292, 39.371258422483486 ], [ -104.594198880769284, 39.361496422052561 ], [ -104.483754853290293, 39.349753427595815 ], [ -104.473560850803366, 39.346657428052083 ], [ -104.482288851170338, 39.335061426163449 ], [ -104.422792837331627, 39.334772429338472 ], [ -104.253536790867059, 39.274655432249894 ], [ -104.252234784355721, 39.215863424143251 ], [ -104.264545786148659, 39.211662422352376 ], [ -104.249546782247748, 39.200943422117888 ], [ -104.253979781117764, 39.186627419684172 ], [ -104.235679776575225, 39.179353419846862 ], [ -104.235981773834496, 39.157700416424554 ], [ -104.254573778517539, 39.157585415278767 ], [ -104.236085773385852, 39.150573415880089 ], [ -104.236407770648654, 39.128650412554641 ], [ -104.80294490321829, 39.129698375150362 ], [ -104.794369898263938, 39.100124371964263 ], [ -104.862771913795413, 39.092294365878068 ], [ -104.881003915296915, 39.067928361714799 ], [ -104.896425918806798, 39.068821360636122 ], [ -104.886024919856908, 39.103537366405014 ], [ -104.922171928991276, 39.105763364461019 ], [ -104.923678932214187, 39.129828367779112 ], [ -105.257290009396371, 39.129558344842302 ], [ -105.25558200318109, 39.081153338936666 ], [ -105.213988995781349, 39.099788343933277 ], [ -105.192064987116524, 39.068650341268409 ], [ -105.160487980661529, 39.078120344340753 ], [ -105.14520697685451, 39.072159344809208 ], [ -105.134204965267486, 38.99027333399394 ], [ -105.15821896862677, 38.966759328403477 ], [ -105.157603965293532, 38.941686325165847 ], [ -105.254763987555179, 38.938603318248092 ], [ -105.228033980060886, 38.92351231801954 ], [ -105.259610985470715, 38.904387313509503 ], [ -105.222773975121086, 38.886615313132339 ], [ -105.240304972815821, 38.827841303810082 ], [ -105.226382971258445, 38.842376306180057 ], [ -105.117769944933855, 38.834659312458975 ], [ -105.067429935949562, 38.862301320074486 ], [ -105.076512930913864, 38.789151309068629 ], [ -105.097950934129173, 38.778731305897992 ], [ -105.1047819338349, 38.75877030300056 ], [ -105.098553930450038, 38.743514300962268 ], [ -105.147020942718484, 38.75112029890542 ], [ -105.228957952272538, 38.666664281763161 ], [ -105.219446948335914, 38.647659279185461 ], [ -104.94243588494507, 38.649888297741093 ], [ -104.939295893407433, 38.736986310627159 ], [ -104.835513868762717, 38.737834317028174 ], [ -104.843663869915659, 38.723065314086178 ], [ -104.819625862490511, 38.710896313895347 ], [ -104.862093867659084, 38.66923030555958 ], [ -104.875653866447308, 38.624989298687922 ], [ -104.941942875961885, 38.567797285556367 ], [ -104.941542871272077, 38.519575278882733 ], [ -104.567096783607184, 38.520007303120266 ], [ -104.553178777778555, 38.492342299445504 ], [ -104.55274377125852, 38.432866290988734 ], [ -104.506416760876917, 38.432992294374849 ], [ -104.448929741726559, 38.375468288990731 ], [ -104.497099752976879, 38.375124286204766 ], [ -104.497005750985707, 38.363106284222432 ], [ -104.460141738326769, 38.317277279841299 ], [ -104.445443729826508, 38.27350127458741 ], [ -104.512940744000417, 38.257258268024778 ], [ -104.528349748921741, 38.269114268743209 ], [ -104.556892754110081, 38.258107264952727 ], [ -104.565914757495122, 38.265179265990461 ], [ -104.552489754665032, 38.271659268040544 ], [ -104.576707759958708, 38.269634265458507 ], [ -104.590133762001557, 38.25497526274993 ], [ -104.579232759861029, 38.258689264384024 ], [ -104.572700758122949, 38.256077264470726 ], [ -104.593385761728342, 38.247010261892918 ], [ -104.579601757489073, 38.23520226059555 ], [ -104.598322761313312, 38.23021625897826 ], [ -104.612380762282598, 38.20875325442907 ], [ -104.616160758075878, 38.160008247462102 ], [ -104.63604376308696, 38.15891024577634 ], [ -104.637020764484774, 38.169618247358954 ], [ -104.671406766886122, 38.12105823802942 ], [ -104.704795774180695, 38.115508235482693 ], [ -104.802779790250767, 38.045815218478957 ], [ -104.844534799875461, 38.044460216125529 ], [ -104.883307809502597, 38.049262214604987 ], [ -104.920401820687601, 38.074303215975021 ], [ -104.937096823352093, 38.070636214356441 ], [ -104.921688824253877, 38.106761220070531 ], [ -104.92578882783323, 38.139554225092411 ], [ -104.956422839165967, 38.182840229110624 ], [ -104.991638848795318, 38.190440227726 ], [ -104.975526851805853, 38.25812923853173 ], [ -105.303087927180471, 38.260252217851196 ] ], [ [ -106.020463118948655, 38.52339620946492 ], [ -106.018169118879129, 38.524534210093378 ], [ -106.02053111860549, 38.524369209501614 ], [ -106.020463118948655, 38.52339620946492 ] ] ] } },
{ "type": "Feature", "properties": { "district_id": 4, "voting_age_pop": 489597, "lib_votes": 0, "grn_votes": 0, "con_votes": 0, "ref_votes": 0, "total_pop": 645907, "dem_votes_sum": 660031994508, "rep_votes_sum": 80981, "lib_votes_sum": 0, "grn_votes_sum": 0, "con_votes_sum": 0, "ref_votes_sum": 0, "minority_pop_sum": 473108, "dem_pct": 0.99999987730747786, "rep_pct": 1.2269252208690517e-07, "lib_pct": 0.0, "grn_pct": 0.0, "con_pct": 0.0, "ref_pct": 0.0, "minority_pct": 0.73247077365626945, "compactness": 0.13916697425925975 }, "geometry": { "type": "MultiPolygon", "coordinates": [ [ [ [ -105.003653008193112, 39.645874434829217 ], [ -104.99346300700941, 39.660475437297293 ], [ -105.015839012178148, 39.656982435187963 ], [ -105.015709013234314, 39.671801437162721 ], [ -105.040693018700495, 39.667718435463918 ], [ -105.025083016203425, 39.673345436896568 ], [ -105.039075021657069, 39.696721439807426 ], [ -105.009798016329682, 39.703978442023079 ], [ -105.025102020497428, 39.711180442257699 ], [ -105.025223024731574, 39.746369447524614 ], [ -105.001045016980967, 39.757703754887174 ], [ -104.99834402232861, 39.782405454237974 ], [ -104.977842016947321, 39.779509454784368 ], [ -104.96662101652376, 39.793842457514607 ], [ -104.988604020652929, 39.791092455617843 ], [ -104.984139025475287, 39.841742463166554 ], [ -105.005978032517049, 39.859751464588214 ], [ -105.020288036572225, 39.859848463597515 ], [ -105.025013034291518, 39.836069459670888 ], [ -105.034360038877395, 39.854652461516643 ], [ -105.044733040379015, 39.847450460433251 ], [ -105.074127048513134, 39.856553459484878 ], [ -105.081460052346969, 39.874791461693889 ], [ -105.053015048075522, 39.899812467133827 ], [ -105.025030039852936, 39.88522046681129 ], [ -104.987432031146753, 39.885344468830958 ], [ -104.989623035296134, 39.914071472718284 ], [ -104.95166902622249, 39.913780475354145 ], [ -104.950940025306465, 39.902528473861921 ], [ -104.940311022976786, 39.904098475264355 ], [ -104.926461021485096, 39.920707478227271 ], [ -104.935397025238686, 39.933388479602392 ], [ -104.921937022332244, 39.936997481083225 ], [ -104.940285027158339, 39.942840480288325 ], [ -104.940172029020715, 39.957522482207324 ], [ -104.912668022278694, 39.957494484601831 ], [ -104.912577020881869, 39.943050482012914 ], [ -104.903353020856883, 39.961318485850462 ], [ -104.858216008189146, 39.947214486793108 ], [ -104.850435009519671, 39.974322491128397 ], [ -104.827353004250782, 39.972342491962905 ], [ -104.808181002934688, 40.000425497213655 ], [ -104.752544989997048, 40.000476501599039 ], [ -104.7544699869308, 39.972421497025124 ], [ -104.565301942260803, 39.971221510246174 ], [ -104.56506094110317, 39.956702507781237 ], [ -104.489648923272966, 39.95569151293946 ], [ -104.489321917514701, 39.912380506988761 ], [ -104.583399939859092, 39.913348500375349 ], [ -104.583459938282331, 39.898932499054339 ], [ -104.600440942056778, 39.899021497515008 ], [ -104.605800941182991, 39.873833493996422 ], [ -104.619850943984289, 39.873773492960595 ], [ -104.619947938094199, 39.822427485842425 ], [ -104.655520946543504, 39.822476482988954 ], [ -104.65913294661857, 39.814039481893126 ], [ -104.659629938010696, 39.74167747120412 ], [ -104.678246942781172, 39.740194469692057 ], [ -104.678366939629882, 39.711032466162671 ], [ -104.687741943234514, 39.725551467117917 ], [ -104.716034949687526, 39.725563465753325 ], [ -104.715954951252399, 39.740277467374035 ], [ -104.763047962120922, 39.740257464149401 ], [ -104.762947963434314, 39.752985465636357 ], [ -104.734841957257871, 39.750334467231653 ], [ -104.734610959494603, 39.769187470554108 ], [ -104.749331962849098, 39.769469469106966 ], [ -104.742370962618111, 39.781279471765153 ], [ -104.819820980480358, 39.783154465985625 ], [ -104.809888976755701, 39.773193465469348 ], [ -104.856532987835351, 39.768397461687094 ], [ -104.847161981131293, 39.733008457675574 ], [ -104.903467994495585, 39.732900453346467 ], [ -104.918366997134555, 39.725640451969063 ], [ -104.911133993897295, 39.711210450500403 ], [ -104.932766000277311, 39.720979450333267 ], [ -104.93400599795909, 39.701386446895562 ], [ -104.922261994408814, 39.695906446925967 ], [ -104.922275992174988, 39.678476444693366 ], [ -104.940696997512745, 39.682967444329655 ], [ -104.940689995524281, 39.668335442017941 ], [ -104.927841992946711, 39.670580443310712 ], [ -104.927204991109562, 39.653054441177005 ], [ -104.884794980592673, 39.653074444078527 ], [ -104.887271979666238, 39.639685441533068 ], [ -104.900851983861415, 39.645934441879177 ], [ -104.922646987758057, 39.638625439568045 ], [ -104.922793986628591, 39.624088437140152 ], [ -104.959796994763323, 39.624234435091182 ], [ -104.959713996923441, 39.637556436171728 ], [ -105.003653008193112, 39.645874434829217 ] ], [ [ -104.931723997278809, 39.700214446799222 ], [ -104.934085997734343, 39.698442446513148 ], [ -104.931660996850624, 39.698404446718897 ], [ -104.931723997278809, 39.700214446799222 ] ], [ [ -104.938644998387559, 39.696611446046681 ], [ -104.940747998885669, 39.697962446340959 ], [ -104.940621999183151, 39.696576446092017 ], [ -104.938644998387559, 39.696611446046681 ] ], [ [ -104.935926997417226, 39.696605446853219 ], [ -104.936385998142839, 39.697799446292521 ], [ -104.936401997849345, 39.696607446014127 ], [ -104.935926997417226, 39.696605446853219 ] ] ], [ [ [ -104.929281996631758, 39.701276447524577 ], [ -104.928930996614909, 39.701835447324612 ], [ -104.928349996604695, 39.701297447659982 ], [ -104.929281996631758, 39.701276447524577 ] ] ] ] } },
{ "type": "Feature", "properties": { "district_id": 5, "voting_age_pop": 489433, "lib_votes": 0, "grn_votes": 0, "con_votes": 0, "ref_votes": 0, "total_pop": 632286, "dem_votes_sum": 835501411719, "rep_votes_sum": 157895, "lib_votes_sum": 0, "grn_votes_sum": 0, "con_votes_sum": 0, "ref_votes_sum": 0, "minority_pop_sum": 207004, "dem_pct": 0.99999981101770996, "rep_pct": 1.8898229009066634e-07, "lib_pct": 0.0, "grn_pct": 0.0, "con_pct": 0.0, "ref_pct": 0.0, "minority_pct": 0.32738982042936265, "compactness": 0.21446533853946595 }, "geometry": { "type": "MultiPolygon", "coordinates": [ [ [ [ -109.04518263031396, 36.998982805058489 ], [ -109.042582747129956, 38.157021960703368 ], [ -109.060214763978237, 38.278243975546395 ], [ -109.050982963395668, 40.026370201177805 ], [ -109.018341955919311, 40.02863420391153 ], [ -109.001570954625009, 40.047566207316379 ], [ -108.945650945129159, 40.065036213407204 ], [ -108.776970910769933, 40.087896228704061 ], [ -108.770330902384103, 40.027496221399176 ], [ -108.783130900862531, 39.99696621705553 ], [ -108.747473885810606, 39.932742211255245 ], [ -108.729280872592341, 39.855494202657724 ], [ -108.760990874965032, 39.817776195504059 ], [ -108.799430872491826, 39.726626181181892 ], [ -108.788456860339878, 39.650165172433901 ], [ -108.554637809685261, 39.650170189257096 ], [ -108.554732814754587, 39.693646194250952 ], [ -107.938556679418298, 39.694470238186227 ], [ -107.938512695575298, 39.825002255519763 ], [ -107.907717688673117, 39.824981257631947 ], [ -107.934470710838369, 39.961725273389916 ], [ -107.924800716650878, 40.026486282269488 ], [ -107.912725714752696, 40.034223283895471 ], [ -107.921452719687309, 40.062671286716892 ], [ -107.909411718317372, 40.069177288970749 ], [ -107.931123725250302, 40.091500289997768 ], [ -107.90908972420813, 40.121949295823846 ], [ -107.846708712199998, 40.135149301887466 ], [ -107.818474709002672, 40.158662306673904 ], [ -107.838012717359916, 40.192512309407199 ], [ -107.82858871872584, 40.222498314499511 ], [ -107.037938542335567, 40.225378371338977 ], [ -107.033978504544336, 39.918919331657186 ], [ -106.626565412276719, 39.918677359898155 ], [ -106.626122422078254, 39.999992370471013 ], [ -106.637041424719314, 40.002112370622612 ], [ -106.632267464728329, 40.341565415442318 ], [ -106.652842469441467, 40.341568414110718 ], [ -106.652122482052746, 40.44523742774286 ], [ -106.622177472878889, 40.429769427707875 ], [ -106.629163473341237, 40.418931426005763 ], [ -106.612331464570303, 40.379389422335919 ], [ -106.579348457701357, 40.379406424582385 ], [ -106.566563451000164, 40.352691422070357 ], [ -106.468259420409126, 40.283894420184261 ], [ -106.422237400471857, 40.205059412535171 ], [ -106.414249392253993, 40.156416406343048 ], [ -106.430573393793622, 40.137802403170042 ], [ -106.428863391159211, 40.116704400602416 ], [ -106.396920377041809, 40.059200394558573 ], [ -106.350200365594262, 40.050234396862813 ], [ -106.269613348988116, 40.067690404962271 ], [ -106.19210233130508, 40.064903410112542 ], [ -106.182077331648586, 40.087512414160514 ], [ -106.203330343833358, 40.150288421103085 ], [ -106.180625340924635, 40.171361425148142 ], [ -106.166252337305906, 40.168744425636376 ], [ -106.140723335146916, 40.200038432251048 ], [ -106.148258331772638, 40.154640424812818 ], [ -106.068157315929923, 40.17871243401104 ], [ -106.009243298921064, 40.14939743402666 ], [ -105.998427288009793, 40.075744425068976 ], [ -106.013919288620556, 40.05550742151398 ], [ -106.045032295379556, 40.049240418167543 ], [ -106.030085289995284, 40.036140417680201 ], [ -106.031218287291267, 40.01034741446928 ], [ -105.988804272386545, 39.965685411236272 ], [ -105.926979261475125, 39.98781541834547 ], [ -105.90378326213154, 40.041869427080407 ], [ -105.883473257126909, 40.042476428694719 ], [ -105.88764026227409, 40.072730432821956 ], [ -105.870213258958472, 40.083266434804315 ], [ -105.846334252613374, 40.072019435202407 ], [ -105.821051248477133, 40.08969743980505 ], [ -105.806777243270275, 40.073040438424982 ], [ -105.754121230421248, 40.06763444118328 ], [ -105.683062207945667, 40.014148439184368 ], [ -105.621203195620708, 40.030723445684579 ], [ -105.569364183141573, 40.02794844864642 ], [ -105.557254177167735, 40.000752446178062 ], [ -105.577623179836593, 39.979705441668962 ], [ -105.519592164149145, 39.965732443328776 ], [ -105.519166162943478, 39.95507444233202 ], [ -105.484186156165649, 39.964006445990407 ], [ -105.482710154620037, 39.951295444537934 ], [ -105.449647146533053, 39.950665446465649 ], [ -105.376688130792658, 39.962035453099368 ], [ -105.36616712999637, 39.9722094549549 ], [ -105.34385412389409, 39.965534455330172 ], [ -105.33824712078642, 39.954024454848486 ], [ -105.356020125465946, 39.956008453654519 ], [ -105.346477120816914, 39.937785451417369 ], [ -105.314904113929686, 39.941515454350231 ], [ -105.295367108284537, 39.93056045441724 ], [ -105.263080101908017, 39.937165457275746 ], [ -105.244032099115486, 39.949185460569204 ], [ -105.241587098681109, 39.953223461348088 ], [ -105.235517097609616, 39.958114462260781 ], [ -105.233456097490048, 39.958758462512392 ], [ -105.227735091853432, 39.924549458045199 ], [ -105.176019082246654, 39.944465464581384 ], [ -105.165884079198307, 39.936220464334667 ], [ -105.167082076371955, 39.913899460655074 ], [ -105.342291117361825, 39.913743448559963 ], [ -105.333299114095013, 39.904287447983855 ], [ -105.347342117627136, 39.905918446910817 ], [ -105.319943107582148, 39.873848444849976 ], [ -105.288634098746414, 39.863849445871409 ], [ -105.276111093972133, 39.841125443382516 ], [ -105.232373084819912, 39.855954447895535 ], [ -105.221669077035131, 39.809123442701825 ], [ -105.156718062643264, 39.81169944759263 ], [ -105.157391060752147, 39.797742444996452 ], [ -105.191679068724014, 39.796076442931046 ], [ -105.191488066510445, 39.775608439609321 ], [ -105.212234069987957, 39.765415437069471 ], [ -105.240453078596076, 39.783216437420108 ], [ -105.232459073758278, 39.756613434153671 ], [ -105.272970080834583, 39.733874428227018 ], [ -105.258173073596822, 39.706615425656068 ], [ -105.262991074458924, 39.703937425565442 ], [ -105.283809080300614, 39.708845424528747 ], [ -105.295160083015773, 39.709142424000852 ], [ -105.273585076949232, 39.702360423845441 ], [ -105.27522507617914, 39.691551422898442 ], [ -105.246905070167557, 39.697909425735041 ], [ -105.244655065448441, 39.656229419868787 ], [ -105.227810061315822, 39.660376421276716 ], [ -105.192980051542676, 39.645608422250319 ], [ -105.204716051878933, 39.618312417043228 ], [ -105.235261058050568, 39.615943415107566 ], [ -105.253446063974138, 39.627091415101866 ], [ -105.276282068460333, 39.620139413046644 ], [ -105.268099062469147, 39.588900408479446 ], [ -105.295306067885036, 39.580148405608902 ], [ -105.282676061200732, 39.544102402025814 ], [ -105.242799051645022, 39.539777403427792 ], [ -105.250217050500652, 39.519365400365245 ], [ -105.226734043413742, 39.498065398786892 ], [ -105.306124064448966, 39.52191139653187 ], [ -105.312220063369438, 39.503115393665041 ], [ -105.398351078551613, 39.464179382816042 ], [ -105.39806207451258, 39.427410377324854 ], [ -105.438508086843513, 39.454131378485634 ], [ -105.475043090192202, 39.405421369469963 ], [ -105.549116109076564, 39.419086366103556 ], [ -105.663112139420946, 39.459739363653348 ], [ -105.766684174964084, 39.563595371394996 ], [ -105.829672189470514, 39.564871367655059 ], [ -105.815817185312255, 39.551982366001972 ], [ -105.822935184431699, 39.529937363005196 ], [ -105.845387188240323, 39.523756360669566 ], [ -105.859517192866363, 39.531542361000184 ], [ -105.868075193309963, 39.51949635813687 ], [ -105.853897188340909, 39.504512357629956 ], [ -105.892235194703261, 39.48403535218516 ], [ -105.905969195310234, 39.459663347228009 ], [ -105.938673202657228, 39.458504345353532 ], [ -105.944165201578443, 39.440916342673468 ], [ -105.966053206677046, 39.438788340783979 ], [ -105.951877200747063, 39.414344337993739 ], [ -106.018150211627002, 39.381811328814408 ], [ -106.033902210747456, 39.336237321530795 ], [ -106.016017197797694, 39.257962312153929 ], [ -106.050470207181007, 39.274172312254315 ], [ -106.032119198434273, 39.233362308178847 ], [ -106.083637209004976, 39.224963302929275 ], [ -106.119346219701129, 39.247227304171197 ], [ -106.181576233873486, 39.247090299922192 ], [ -106.183719241348314, 39.310289308200602 ], [ -106.151256235456785, 39.320700311701231 ], [ -106.139936235480846, 39.339559315103841 ], [ -106.152953240598265, 39.362767317455841 ], [ -106.135539238567134, 39.379552320671792 ], [ -106.191422250919672, 39.379702317512084 ], [ -106.178709246029186, 39.361197315034133 ], [ -106.220892254370639, 39.349593311449162 ], [ -106.226725251686901, 39.31316030587282 ], [ -106.258580258386885, 39.304681301841761 ], [ -106.300145263629986, 39.272383295338471 ], [ -106.287660258786161, 39.248091292276008 ], [ -106.299636260425189, 39.237610290527634 ], [ -106.308888263193268, 39.248204291567944 ], [ -106.370273277283715, 39.252121287813935 ], [ -106.383787281996149, 39.267050288515428 ], [ -106.437458294702566, 39.270804285831602 ], [ -106.467976298900183, 39.247472280197925 ], [ -106.454187298190348, 39.269505283969174 ], [ -106.483148304112902, 39.26340028112174 ], [ -106.508624299359724, 39.166687266863406 ], [ -106.561275309877146, 39.15568326156091 ], [ -106.5633313053319, 39.107274254521499 ], [ -106.586167309000416, 39.094056251359191 ], [ -106.577976303125567, 39.057914246706581 ], [ -106.191016214858877, 39.056079272375094 ], [ -106.182511210888634, 39.038557270979886 ], [ -106.192964210976839, 39.017715266736808 ], [ -106.169144203168472, 38.991308265487383 ], [ -106.145424198221008, 38.997905267339277 ], [ -106.108963189096599, 38.987383268723931 ], [ -106.111005184126824, 38.940105261739781 ], [ -106.06592017309778, 38.931902263931903 ], [ -106.05826017262585, 38.941811265921281 ], [ -106.028148165812112, 38.942855267652021 ], [ -105.998180156241304, 38.915165265892128 ], [ -105.965780147484693, 38.905882266738246 ], [ -105.97942814921889, 38.894539264569055 ], [ -105.974307147105478, 38.882464263061514 ], [ -105.941248139733787, 38.885598265425948 ], [ -105.926501134933929, 38.873970264545676 ], [ -105.941855135087209, 38.840396259191834 ], [ -105.906595123374899, 38.806879257118382 ], [ -105.944550128077893, 38.768111249235865 ], [ -105.946195122353018, 38.716730241286108 ], [ -105.969909125366215, 38.694409236978515 ], [ -106.022764137632961, 38.694190233266049 ], [ -106.02265213475259, 38.66534022889865 ], [ -106.089038149938219, 38.665134224900825 ], [ -106.079666133516824, 38.535666207488696 ], [ -106.010972118136976, 38.533384211637468 ], [ -106.033809122054421, 38.521074208207025 ], [ -106.03356411447264, 38.454485199251643 ], [ -106.010761108201294, 38.446572198932138 ], [ -105.93805009813866, 38.503476212516631 ], [ -105.906864091198557, 38.506272214377326 ], [ -105.903770095209438, 38.547988220564605 ], [ -105.884649091929759, 38.562276223520428 ], [ -105.885982098741039, 38.62063223199462 ], [ -105.915675106143738, 38.63005423150382 ], [ -105.90768310682175, 38.651936235162538 ], [ -105.922651112482484, 38.677011237520098 ], [ -105.969760125564477, 38.693557237148681 ], [ -105.715406067884217, 38.694665253830401 ], [ -105.775434076976254, 38.658769244231344 ], [ -105.777558074512825, 38.623306239566446 ], [ -105.753045068164838, 38.624505240871784 ], [ -105.728176061175105, 38.60564723983169 ], [ -105.687178051753904, 38.607654242713579 ], [ -105.622930041314021, 38.652096253999744 ], [ -105.581600028756242, 38.617146251598136 ], [ -105.553850021931638, 38.612426252707969 ], [ -105.547797018833862, 38.599528250927321 ], [ -105.564650021905621, 38.59045824846131 ], [ -105.542980015167984, 38.575316248214705 ], [ -105.546450014618884, 38.563126246186997 ], [ -105.52937001084608, 38.562996246679084 ], [ -105.52355001047934, 38.575906248890632 ], [ -105.482100995797921, 38.521747244627761 ], [ -105.429388983034286, 38.515058247089542 ], [ -105.41713097773021, 38.49614324525318 ], [ -105.384596969977764, 38.487238245517453 ], [ -105.359469964933211, 38.498166249031286 ], [ -105.28848994862301, 38.495776252775251 ], [ -105.259442939392812, 38.475454251674812 ], [ -105.25203493479664, 38.446563248484814 ], [ -105.264491936045275, 38.433001245349359 ], [ -105.237499929338796, 38.429066246719749 ], [ -105.241339927274467, 38.3927962413971 ], [ -105.229519922515365, 38.37402623901913 ], [ -105.23749691830686, 38.315101230430216 ], [ -105.292449928264034, 38.29015622321009 ], [ -105.304054927721936, 38.258231217828751 ], [ -105.276461920857813, 38.252359218649637 ], [ -105.245186907789716, 38.201226213268313 ], [ -105.299011917894674, 38.178749206983284 ], [ -105.287580913669302, 38.164451205490415 ], [ -105.329194921910144, 38.143784200078038 ], [ -105.357127928570804, 38.152025199117183 ], [ -105.386662934343079, 38.137838195662113 ], [ -105.440831946296626, 38.136204191276512 ], [ -105.435718947495218, 38.161070195252506 ], [ -105.456011952984881, 38.164177194696762 ], [ -105.46384595112859, 38.130930189558164 ], [ -105.577321977110543, 38.132844182748201 ], [ -105.610894981613896, 38.096894175050799 ], [ -105.653658990626539, 38.090886171399767 ], [ -105.603165972864119, 38.030974165843205 ], [ -105.604645970479226, 38.005020162130997 ], [ -105.583931961782568, 37.967202157782147 ], [ -105.511095942433968, 37.939137159116626 ], [ -105.47331692933551, 37.896655154993731 ], [ -105.478504928868958, 37.879856151857688 ], [ -105.450546922637599, 37.878118153251265 ], [ -105.428683914122175, 37.843672150234241 ], [ -105.435188911349414, 37.80477314358167 ], [ -105.4549219157404, 37.795702141801648 ], [ -105.454254908306936, 37.723957131464772 ], [ -105.477522912124002, 37.707538126787547 ], [ -105.477251908087624, 37.666205121259125 ], [ -105.49862190772302, 37.614498112009031 ], [ -105.485525900676592, 37.577905108005353 ], [ -105.753260938882562, 37.344404057015545 ], [ -105.719933925818083, 37.28643505099766 ], [ -105.746219928106214, 37.248982043448244 ], [ -105.729709918164232, 37.180018034042178 ], [ -105.748843918410145, 37.135362026443318 ], [ -105.749788916153719, 37.114368023724943 ], [ -105.744659914125023, 37.10522602288669 ], [ -105.632678890582199, 37.116871031490405 ], [ -105.521103864589932, 37.113356037493737 ], [ -105.521315869095531, 37.161861044853588 ], [ -105.498885866154779, 37.186317048967766 ], [ -105.432317852155805, 37.193600054485437 ], [ -105.402811839503087, 37.130859046786242 ], [ -105.437053835889515, 37.010341026943493 ], [ -105.471608842284937, 36.995436022393044 ], [ -109.04518263031396, 36.998982805058489 ] ], [ [ -105.236925097963308, 39.956804461826692 ], [ -105.236625097553471, 39.956844461898932 ], [ -105.236274097501777, 39.957089461563903 ], [ -105.236925097963308, 39.956804461826692 ] ] ], [ [ [ -106.02053111860549, 38.524369209501614 ], [ -106.017642118677045, 38.523955209425807 ], [ -106.020463118948655, 38.52339620946492 ], [ -106.02053111860549, 38.524369209501614 ] ] ] ] } },
{ "type": "Feature", "properties": { "district_id": 6, "voting_age_pop": 456935, "lib_votes": 0, "grn_votes": 0, "con_votes": 0, "ref_votes": 0, "total_pop": 617786, "dem_votes_sum": 599147937513, "rep_votes_sum": 157712, "lib_votes_sum": 0, "grn_votes_sum": 0, "con_votes_sum": 0, "ref_votes_sum": 0, "minority_pop_sum": 251221, "dem_pct": 0.99999973677292597, "rep_pct": 2.6322707400208612e-07, "lib_pct": 0.0, "grn_pct": 0.0, "con_pct": 0.0, "ref_pct": 0.0, "minority_pct": 0.40664728562965169, "compactness": 0.2001658450617296 }, "geometry": { "type": "Polygon", "coordinates": [ [ [ -105.228599952739316, 38.666395281034234 ], [ -105.147020942718484, 38.75112029890542 ], [ -105.098553930450038, 38.743514300962268 ], [ -105.1047819338349, 38.75877030300056 ], [ -105.097950934129173, 38.778731305897992 ], [ -105.076512930913864, 38.789151309068629 ], [ -105.067418936323875, 38.862159319801854 ], [ -105.117769944933855, 38.834659312458975 ], [ -105.226382971258445, 38.842376306180057 ], [ -105.240304972815821, 38.827841303810082 ], [ -105.222773975121086, 38.886615313132339 ], [ -105.259610985470715, 38.904387313509503 ], [ -105.228033980060886, 38.92351231801954 ], [ -105.256756987429725, 38.931544317143505 ], [ -105.254763987555179, 38.938603318248092 ], [ -105.157603965293532, 38.941686325165847 ], [ -105.15821896862677, 38.966759328403477 ], [ -105.134204965267486, 38.99027333399394 ], [ -105.14520697685451, 39.072159344809208 ], [ -105.160487980661529, 39.078120344340753 ], [ -105.192064987116524, 39.068650341268409 ], [ -105.213988995781349, 39.099788343933277 ], [ -105.25558200318109, 39.081153338936666 ], [ -105.257290009396371, 39.129558344842302 ], [ -104.923678932214187, 39.129828367779112 ], [ -104.922171928991276, 39.105763364461019 ], [ -104.886024919856908, 39.103537366405014 ], [ -104.896425918806798, 39.068821360636122 ], [ -104.881003915296915, 39.067928361714799 ], [ -104.862771913795413, 39.092294365878068 ], [ -104.794369898263938, 39.100124371964263 ], [ -104.80294490321829, 39.129698375150362 ], [ -104.051598727428726, 39.128376424583969 ], [ -104.053269712084784, 38.98439140339913 ], [ -104.202065746994421, 38.983714393871146 ], [ -104.202383742729239, 38.94049438738724 ], [ -104.183864738735011, 38.940624389209219 ], [ -104.184613735288195, 38.911606384970931 ], [ -104.31445776585376, 38.911212376293712 ], [ -104.305883759535618, 38.867815370295297 ], [ -104.295945758198982, 38.882256373484566 ], [ -104.277658754166978, 38.882316373850074 ], [ -104.277725751488987, 38.853246369950227 ], [ -104.313708759164655, 38.853386367798208 ], [ -104.313763758382891, 38.838932365547336 ], [ -104.553647814255086, 38.838589350296445 ], [ -104.553310806344825, 38.767087339576527 ], [ -104.618117821484233, 38.765851335755507 ], [ -104.608879813854273, 38.711468327922361 ], [ -104.623914817330046, 38.711506326909216 ], [ -104.628866816812192, 38.696242324648665 ], [ -104.588284807152107, 38.694001327024637 ], [ -104.593919805743823, 38.668514323046296 ], [ -104.633438815939684, 38.682586322154286 ], [ -104.636452815271369, 38.664822319481424 ], [ -104.684093825611853, 38.6582413159406 ], [ -104.667931814780687, 38.588624306183355 ], [ -104.630691798427549, 38.519923298757099 ], [ -104.941542871272077, 38.519575278882733 ], [ -104.941942875961885, 38.567797285556367 ], [ -104.875653866447308, 38.624989298687922 ], [ -104.862093867659084, 38.66923030555958 ], [ -104.819625862490511, 38.710896313895347 ], [ -104.843663869915659, 38.723065314086178 ], [ -104.835513868762717, 38.737834317028174 ], [ -104.939295893407433, 38.736986310627159 ], [ -104.94243588494507, 38.649888297741093 ], [ -105.219446948335914, 38.647659279185461 ], [ -105.228599952739316, 38.666395281034234 ] ] ] } },
{ "type": "Feature", "properties": { "district_id": 7, "voting_age_pop": 466649, "lib_votes": 0, "grn_votes": 0, "con_votes": 0, "ref_votes": 0, "total_pop": 612705, "dem_votes_sum": 985364200758, "rep_votes_sum": 131060, "lib_votes_sum": 0, "grn_votes_sum": 0, "con_votes_sum": 0, "ref_votes_sum": 0, "minority_pop_sum": 201324, "dem_pct": 0.99999986699335897, "rep_pct": 1.3300664106462421e-07, "lib_pct": 0.0, "grn_pct": 0.0, "con_pct": 0.0, "ref_pct": 0.0, "minority_pct": 0.32858227042377652, "compactness": 0.18708395306231065 }, "geometry": { "type": "MultiPolygon", "coordinates": [ [ [ [ -107.938512695575298, 39.825002255519763 ], [ -107.944795680704985, 39.694289237469746 ], [ -108.554732814754587, 39.693646194250952 ], [ -108.554637809685261, 39.650170189257096 ], [ -108.788456860339878, 39.650165172433901 ], [ -108.799430872491826, 39.726626181181892 ], [ -108.760990874965032, 39.817776195504059 ], [ -108.729280872592341, 39.855494202657724 ], [ -108.747473885810606, 39.932742211255245 ], [ -108.783130900862531, 39.99696621705553 ], [ -108.770330902384103, 40.027496221399176 ], [ -108.776970910769933, 40.087896228704061 ], [ -108.945650945129159, 40.065036213407204 ], [ -109.001570954625009, 40.047566207316379 ], [ -109.018341955919311, 40.02863420391153 ], [ -109.050982963395668, 40.026370201177805 ], [ -109.050037086666052, 41.000697322004953 ], [ -105.17292120913271, 40.998340607522557 ], [ -105.172041178929931, 40.758442575858005 ], [ -105.196557189128242, 40.793602578777254 ], [ -105.296016212146654, 40.791462571609337 ], [ -105.348456221508954, 40.768180564862909 ], [ -105.382927225012509, 40.734460557789951 ], [ -105.433141238706867, 40.751568555826161 ], [ -105.465207244797583, 40.738468552008158 ], [ -105.431346232765065, 40.707213550519832 ], [ -105.441302234649186, 40.699896548646315 ], [ -105.428901228746213, 40.674673545802825 ], [ -105.381251218347884, 40.683186550823329 ], [ -105.376340218718852, 40.69421155206085 ], [ -105.301976200134789, 40.685750556352808 ], [ -105.248163189798362, 40.699554562804437 ], [ -105.24821717195465, 40.55542054254034 ], [ -105.267063176222962, 40.551546540994948 ], [ -105.266621173733625, 40.536855538747659 ], [ -105.287197178590063, 40.536650537701455 ], [ -105.288214171003972, 40.47110652879288 ], [ -105.27018516772965, 40.48238853116144 ], [ -105.224592151837797, 40.438234528276304 ], [ -105.21426114634626, 40.410825525750219 ], [ -105.158666134878132, 40.421765531133616 ], [ -105.15652813124413, 40.392968527677986 ], [ -105.083714113537511, 40.392734532762219 ], [ -105.087466115759838, 40.400979533431297 ], [ -105.073127112325309, 40.402335534203289 ], [ -105.073255111711902, 40.392761532946714 ], [ -105.058894108469701, 40.396727534827335 ], [ -105.059208106425586, 40.378326531785049 ], [ -105.040155101973497, 40.378331533352771 ], [ -105.040427098508033, 40.349263529768784 ], [ -105.150257124062506, 40.349552521947047 ], [ -105.159070115488149, 40.261225509066506 ], [ -105.052575090164297, 40.256071515540008 ], [ -105.017547082577977, 40.262337519119392 ], [ -105.008248083585059, 40.287815523674119 ], [ -104.99870607883895, 40.268899521770606 ], [ -104.980328076132622, 40.277637523411912 ], [ -104.979262073507044, 40.262658522247442 ], [ -104.941722064769507, 40.262838524196624 ], [ -104.941762071758617, 40.321102532781246 ], [ -104.92380806779552, 40.320438533900806 ], [ -104.910167065874191, 40.334754536902956 ], [ -104.811855042996584, 40.330446543261637 ], [ -104.811188041379978, 40.319714541549374 ], [ -104.754201030290531, 40.340269548368106 ], [ -104.754170028135093, 40.31912354516875 ], [ -104.735135023608095, 40.319228546855122 ], [ -104.734735026522799, 40.348363550879192 ], [ -104.710600022129711, 40.356031553797621 ], [ -104.715504021082495, 40.341588550920648 ], [ -104.696524017373164, 40.342287552199217 ], [ -104.696737999281808, 40.189258531043997 ], [ -104.659220989735374, 40.18911953350726 ], [ -104.659301991606569, 40.203678536017122 ], [ -104.602747978301835, 40.203435539484531 ], [ -104.602639966815474, 40.102164525463579 ], [ -104.565547959081115, 40.110652529421472 ], [ -104.565475957464969, 40.102290528455633 ], [ -104.584216961878838, 40.102333527355142 ], [ -104.58521295877874, 40.073197523202658 ], [ -104.598918961412977, 40.069571521814638 ], [ -104.572262947250337, 40.000599513368783 ], [ -104.631219961271682, 40.000538509201292 ], [ -104.640698960258106, 39.972093504945889 ], [ -104.7544699869308, 39.972421497025124 ], [ -104.752544989997048, 40.000476501599039 ], [ -104.808181002934688, 40.000425497213655 ], [ -104.827353004250782, 39.972342491962905 ], [ -104.850435009519671, 39.974322491128397 ], [ -104.858216008189146, 39.947214486793108 ], [ -104.903353020856883, 39.961318485850462 ], [ -104.912577020881869, 39.943050482012914 ], [ -104.912668022278694, 39.957494484601831 ], [ -104.940172029020715, 39.957522482207324 ], [ -104.940285027158339, 39.942840480288325 ], [ -104.921988022696254, 39.943019481731177 ], [ -104.935561024689022, 39.932896479317165 ], [ -104.926461021485096, 39.920707478227271 ], [ -104.948730024465561, 39.902239474135897 ], [ -104.95166902622249, 39.913780475354145 ], [ -104.989623035296134, 39.914071472718284 ], [ -104.987432031146753, 39.885344468830958 ], [ -105.025030039852936, 39.88522046681129 ], [ -105.03891604480232, 39.899669467783127 ], [ -105.096167058794691, 39.8997874639118 ], [ -105.095907055924627, 39.878099460824913 ], [ -105.165581073569513, 39.892501457583087 ], [ -105.165266067903943, 39.845351451308382 ], [ -105.232135084011063, 39.84324744652703 ], [ -105.236170086329793, 39.855924448045613 ], [ -105.276111093972133, 39.841125443382516 ], [ -105.288634098746414, 39.863849445871409 ], [ -105.319943107582148, 39.873848444849976 ], [ -105.345513116797008, 39.900780446810558 ], [ -105.331145114536042, 39.908143448417917 ], [ -105.342291117361825, 39.913743448559963 ], [ -105.167082076371955, 39.913899460655074 ], [ -105.176019082246654, 39.944465464581384 ], [ -105.227735091853432, 39.924549458045199 ], [ -105.233456097490048, 39.958758462512392 ], [ -105.235517097609616, 39.958114462260781 ], [ -105.241587098681109, 39.953223461348088 ], [ -105.244032099115486, 39.949185460569204 ], [ -105.263080101908017, 39.937165457275746 ], [ -105.305878110743095, 39.930862453271118 ], [ -105.314904113929686, 39.941515454350231 ], [ -105.325489116593531, 39.937305453148454 ], [ -105.349935122072338, 39.939214451623215 ], [ -105.355952125969054, 39.956500453932485 ], [ -105.33824712078642, 39.954024454848486 ], [ -105.34385412389409, 39.965534455330172 ], [ -105.36616712999637, 39.9722094549549 ], [ -105.376688130792658, 39.962035453099368 ], [ -105.449647146533053, 39.950665446465649 ], [ -105.482710154620037, 39.951295444537934 ], [ -105.481732154982652, 39.957485444922895 ], [ -105.482686155219753, 39.958247445027546 ], [ -105.483104155344833, 39.962840446094518 ], [ -105.484186156165649, 39.964006445990407 ], [ -105.519166162943478, 39.95507444233202 ], [ -105.519592164149145, 39.965732443328776 ], [ -105.577623179836593, 39.979705441668962 ], [ -105.557254177167735, 40.000752446178062 ], [ -105.569364183141573, 40.02794844864642 ], [ -105.621203195620708, 40.030723445684579 ], [ -105.683062207945667, 40.014148439184368 ], [ -105.754121230421248, 40.06763444118328 ], [ -105.806777243270275, 40.073040438424982 ], [ -105.821051248477133, 40.08969743980505 ], [ -105.846334252613374, 40.072019435202407 ], [ -105.870213258958472, 40.083266434804315 ], [ -105.88764026227409, 40.072730432821956 ], [ -105.883473257126909, 40.042476428694719 ], [ -105.90378326213154, 40.041869427080407 ], [ -105.926979261475125, 39.98781541834547 ], [ -105.988804272386545, 39.965685411236272 ], [ -106.031218287291267, 40.01034741446928 ], [ -106.030085289995284, 40.036140417680201 ], [ -106.045032295379556, 40.049240418167543 ], [ -106.013919288620556, 40.05550742151398 ], [ -105.998427288009793, 40.075744425068976 ], [ -106.009243298921064, 40.14939743402666 ], [ -106.068157315929923, 40.17871243401104 ], [ -106.148258331772638, 40.154640424812818 ], [ -106.140723335146916, 40.200038432251048 ], [ -106.166252337305906, 40.168744425636376 ], [ -106.180625340924635, 40.171361425148142 ], [ -106.203330343833358, 40.150288421103085 ], [ -106.182077331648586, 40.087512414160514 ], [ -106.19210233130508, 40.064903410112542 ], [ -106.269613348988116, 40.067690404962271 ], [ -106.350200365594262, 40.050234396862813 ], [ -106.397283376792373, 40.059327395010705 ], [ -106.428863391159211, 40.116704400602416 ], [ -106.430573393793622, 40.137802403170042 ], [ -106.414249392253993, 40.156416406343048 ], [ -106.422237400471857, 40.205059412535171 ], [ -106.468259420409126, 40.283894420184261 ], [ -106.566563451000164, 40.352691422070357 ], [ -106.579348457701357, 40.379406424582385 ], [ -106.612331464570303, 40.379389422335919 ], [ -106.629163473341237, 40.418931426005763 ], [ -106.622177472878889, 40.429769427707875 ], [ -106.652122482052746, 40.44523742774286 ], [ -106.652842469441467, 40.341568414110718 ], [ -106.632267464728329, 40.341565415442318 ], [ -106.637041424719314, 40.002112370622612 ], [ -106.626122422078254, 39.999992370471013 ], [ -106.626565412276719, 39.918677359898155 ], [ -107.033978504544336, 39.918919331657186 ], [ -107.037938542335567, 40.225378371338977 ], [ -107.82858871872584, 40.222498314499511 ], [ -107.838012717359916, 40.192512309407199 ], [ -107.818474709002672, 40.158662306673904 ], [ -107.846708712199998, 40.135149301887466 ], [ -107.90908972420813, 40.121949295823846 ], [ -107.931123725250302, 40.091500289997768 ], [ -107.909411718317372, 40.069177288970749 ], [ -107.921452719687309, 40.062671286716892 ], [ -107.912725714752696, 40.034223283895471 ], [ -107.924800716650878, 40.026486282269488 ], [ -107.934470710838369, 39.961725273389916 ], [ -107.907717688673117, 39.824981257631947 ], [ -107.938512695575298, 39.825002255519763 ] ] ], [ [ [ -105.236511097671738, 39.956895461567697 ], [ -105.236925097963308, 39.956804461826692 ], [ -105.236274097501777, 39.957089461563903 ], [ -105.236511097671738, 39.956895461567697 ] ] ] ] } }
]
}
