{
"type": "FeatureCollection",
"name": "colorado_optimized_districts_all",
"crs": { "type": "name", "properties": { "name": "urn:ogc:def:crs:OGC:1.3:CRS84" } },
"features": [
{ "type": "Feature", "properties": { "opt_all": 1, "population": 723125.0, "voting_age_pop": 577213.0, "dem_votes": 236626.0, "rep_votes": 75512.0, "minority_pop": 252963.0, "dem_pct": 0.75808136120623526, "rep_pct": 0.24191863847339362 }, "geometry": { "type": "Polygon", "coordinates": [ [ [ -105.091401000001994, 39.614332000001824 ], [ -105.097028000001799, 39.617984000002309 ], [ -105.093172000002241, 39.618324000001678 ], [ -105.074796000001697, 39.618511000001774 ], [ -105.080587000002083, 39.630386000001906 ], [ -105.094461000002553, 39.624195000001798 ], [ -105.102693000001807, 39.62422400000176 ], [ -105.109875000001864, 39.635072000001927 ], [ -105.100542000002122, 39.635088000001588 ], [ -105.098526000001954, 39.635087000001946 ], [ -105.087380000002113, 39.638692000001868 ], [ -105.073271000002762, 39.638740000001938 ], [ -105.072049000001755, 39.645815000002223 ], [ -105.072045000002319, 39.64598400000218 ], [ -105.057150000001926, 39.652946000001847 ], [ -105.071972000002475, 39.659951000002323 ], [ -105.081453000001886, 39.662056000002323 ], [ -105.081451000002446, 39.667743000002126 ], [ -105.081348000002421, 39.670133000002309 ], [ -105.072201000001741, 39.669374000002165 ], [ -105.07150900000174, 39.667764000001981 ], [ -105.06011000000224, 39.667780000002217 ], [ -105.053256000002477, 39.667785000001473 ], [ -105.053234000001964, 39.674299000001731 ], [ -105.062621000002181, 39.675874000002295 ], [ -105.057797000001756, 39.682272000001845 ], [ -105.053221000002125, 39.682291000002166 ], [ -105.053266000001784, 39.68955900000163 ], [ -105.053218000002417, 39.694988000002297 ], [ -105.053225000002442, 39.696769000002334 ], [ -105.053247000002557, 39.703985000002213 ], [ -105.053252000002601, 39.707716000002101 ], [ -105.053250000002478, 39.711343000001882 ], [ -105.05327800000228, 39.718427000001711 ], [ -105.053259000001759, 39.724083000001883 ], [ -105.053253000002442, 39.72580000000233 ], [ -105.053252000002161, 39.726184000002227 ], [ -105.053228000001937, 39.734922000002221 ], [ -105.053206000001722, 39.740306000001638 ], [ -105.053210000002224, 39.743273000001786 ], [ -105.053212000002219, 39.743980000001891 ], [ -105.053237000001999, 39.755694000002109 ], [ -105.053239000002094, 39.758472000001973 ], [ -105.053241000002714, 39.763903000002252 ], [ -105.053240000002006, 39.76933300000163 ], [ -105.053245000002505, 39.776583000001771 ], [ -105.053184000002119, 39.783687000001486 ], [ -105.064992000002647, 39.78835900000152 ], [ -105.053246000002204, 39.791063000002183 ], [ -105.040419000002103, 39.791119000001615 ], [ -105.025149000001875, 39.794003000002235 ], [ -105.01583200000222, 39.791072000001634 ], [ -104.997790000002624, 39.791026000002319 ], [ -104.996737000002355, 39.791019000002137 ], [ -104.988848000001681, 39.791036000001469 ], [ -104.9675230000026, 39.79326900000197 ], [ -104.968861000002661, 39.791041000001641 ], [ -104.956327000002645, 39.793957000001811 ], [ -104.939882000001646, 39.790994000001895 ], [ -104.931646000001962, 39.791047000001669 ], [ -104.922274000002474, 39.783776000001495 ], [ -104.912887000002726, 39.783818000002043 ], [ -104.903439000002436, 39.783888000002257 ], [ -104.903485000001922, 39.787288000002221 ], [ -104.90356100000264, 39.798391000002134 ], [ -104.866041000001999, 39.798386000001649 ], [ -104.847181000002038, 39.798236000001666 ], [ -104.835390000001681, 39.798105000001726 ], [ -104.820038000002555, 39.798260000002003 ], [ -104.809690000002362, 39.798317000001674 ], [ -104.795503000002256, 39.798270000001878 ], [ -104.790895000001598, 39.798251000001869 ], [ -104.790859000001916, 39.841802000002119 ], [ -104.790990000001884, 39.856347000002167 ], [ -104.793493000002655, 39.870785000002066 ], [ -104.793444000002566, 39.87085700000199 ], [ -104.792526000001686, 39.876748000002173 ], [ -104.781944000002596, 39.880699000001478 ], [ -104.781092000002033, 39.885574000001895 ], [ -104.790328000002404, 39.885541000002199 ], [ -104.79353100000246, 39.891713000002234 ], [ -104.809257000001836, 39.895240000001621 ], [ -104.809332000002399, 39.885458000001925 ], [ -104.82787200000196, 39.885275000001847 ], [ -104.846673000002241, 39.88520100000229 ], [ -104.847834000001598, 39.885198000001481 ], [ -104.831218000001996, 39.899708000002171 ], [ -104.842907000001915, 39.899686000002255 ], [ -104.808910000002115, 39.914401000002108 ], [ -104.791714000002145, 39.933743000001861 ], [ -104.791008000001966, 39.935274000001897 ], [ -104.808935000002506, 39.936047000002148 ], [ -104.808834000002093, 39.943338000001525 ], [ -104.799515000002017, 39.957785000001643 ], [ -104.797754000001646, 39.972301000002219 ], [ -104.799220000002123, 39.972304000001877 ], [ -104.799440000002207, 39.979530000001752 ], [ -104.789865000002095, 39.979552000002158 ], [ -104.789948000002553, 39.972340000001935 ], [ -104.781586000001994, 39.972340000001722 ], [ -104.770978000002017, 39.97235800000184 ], [ -104.762410000002035, 39.9723740000017 ], [ -104.752269000002514, 39.972417000001549 ], [ -104.751113000002235, 39.972423000002188 ], [ -104.735735000002677, 39.986921000001978 ], [ -104.722614000001954, 39.995998000002096 ], [ -104.714754000001847, 40.000511000002291 ], [ -104.697142000002358, 40.000510000002159 ], [ -104.631210000002525, 40.000532000002259 ], [ -104.572253000001936, 40.000593000001878 ], [ -104.489757000002683, 40.000613000001614 ], [ -104.414630000002234, 40.000742000001956 ], [ -104.207951000001685, 40.000832000002269 ], [ -104.150332000002564, 40.000856000002145 ], [ -103.943238000002154, 40.001176000002012 ], [ -103.791626000002282, 40.001308000002062 ], [ -103.736032000001757, 40.001342000001671 ], [ -103.705701000001781, 40.001366000002051 ], [ -103.471991000001836, 40.001529000002314 ], [ -103.472325000001717, 40.245155000001894 ], [ -103.471397000002199, 40.291779000001519 ], [ -103.465377000002206, 40.436346000001961 ], [ -103.46720000000218, 40.523253000002157 ], [ -103.543181000002093, 40.523394000002163 ], [ -103.581844000002505, 40.523383000002198 ], [ -103.581462000002105, 40.61070700000159 ], [ -103.574301000002464, 40.702018000001523 ], [ -103.573727000002705, 40.891094000001829 ], [ -103.573774000001919, 41.001716000002226 ], [ -102.904875000002718, 41.002208000002149 ], [ -102.653463000001906, 41.002332000002113 ], [ -102.459650000002725, 41.002384000001548 ], [ -102.380219000001901, 41.002439000001594 ], [ -102.277863000001645, 41.002273000001885 ], [ -102.268012000002201, 41.002377000002006 ], [ -102.051717000002085, 41.002359000001583 ], [ -102.051416000001794, 40.749586000001976 ], [ -102.208837000001964, 40.748946000001723 ], [ -102.247961000002476, 40.74893100000245 ], [ -102.344718000002715, 40.74927000000163 ], [ -102.4582940000017, 40.749250000001886 ], [ -102.535715000002185, 40.7495290000019 ], [ -102.593598000002459, 40.749514000002023 ], [ -102.651310000002681, 40.749402000001886 ], [ -102.664689000001914, 40.70518900000188 ], [ -102.665572000002683, 40.613194000001812 ], [ -102.664804000002434, 40.438473000001693 ], [ -102.77996000000168, 40.438446000001768 ], [ -102.793582000002203, 40.351281000001549 ], [ -102.793299000002278, 40.263271000002035 ], [ -102.793359000002241, 40.21969600000233 ], [ -102.794128000002047, 40.132312000002088 ], [ -102.793305000001766, 40.002493000002239 ], [ -102.802985000002707, 39.960212000001917 ], [ -102.800417000002525, 39.830831000002426 ], [ -102.802932000002599, 39.56784100000192 ], [ -102.929340000001702, 39.568577000002449 ], [ -103.154376000002713, 39.565654000001778 ], [ -103.274566000001656, 39.56647400000162 ], [ -103.361029000001963, 39.566213000001923 ], [ -103.548469000001958, 39.56606700000242 ], [ -103.707072000002384, 39.566295000001887 ], [ -103.706547000002047, 39.739894000002131 ], [ -104.09624900000226, 39.739846000002153 ], [ -104.227935000001963, 39.738980000001654 ], [ -104.283825000002281, 39.738745000002105 ], [ -104.358684000001915, 39.738197000001627 ], [ -104.3772290000026, 39.73812100000201 ], [ -104.382874000001635, 39.738103000001921 ], [ -104.452224000001706, 39.738156000001602 ], [ -104.470927000002163, 39.738198000002157 ], [ -104.507422000001782, 39.73825100000186 ], [ -104.602222000002058, 39.739878000002271 ], [ -104.613603000002001, 39.739982000001639 ], [ -104.616197000002003, 39.740004000002095 ], [ -104.634448000002521, 39.739594000001922 ], [ -104.659953000002204, 39.740477000001647 ], [ -104.67823700000244, 39.740188000002163 ], [ -104.715945000001923, 39.740271000002231 ], [ -104.734834000002436, 39.740321000002261 ], [ -104.763038000002325, 39.740251000002274 ], [ -104.772470000001761, 39.740251000001997 ], [ -104.791219000002727, 39.740269000001689 ], [ -104.80062500000264, 39.740281000001872 ], [ -104.810022000001723, 39.740141000001564 ], [ -104.810127000001941, 39.740141000002232 ], [ -104.819416000002761, 39.740266000001611 ], [ -104.825219000002761, 39.740290000002005 ], [ -104.825460000002195, 39.740290000001586 ], [ -104.828271000002701, 39.74029700000164 ], [ -104.835595000002357, 39.74030000000166 ], [ -104.847013000002178, 39.740206000002345 ], [ -104.854087000002323, 39.740206000002154 ], [ -104.861113000002518, 39.740209000002267 ], [ -104.865803000001918, 39.740200000001529 ], [ -104.869363000002224, 39.740207000001753 ], [ -104.884646000001993, 39.740156000002294 ], [ -104.884708000002107, 39.732846000002006 ], [ -104.88258000000198, 39.725661000001921 ], [ -104.881934000002076, 39.724960000002326 ], [ -104.875330000002776, 39.725576000002086 ], [ -104.870596000001896, 39.718176000001876 ], [ -104.870625000001979, 39.710174000001537 ], [ -104.865971000002233, 39.71105300000179 ], [ -104.865967000002598, 39.703807000001646 ], [ -104.865964000002421, 39.69927900000198 ], [ -104.865962000001844, 39.696559000001912 ], [ -104.875318000001641, 39.698438000002163 ], [ -104.877720000001617, 39.696508000001984 ], [ -104.882313000002156, 39.696573000002083 ], [ -104.891783000001894, 39.696581000002233 ], [ -104.891715000002193, 39.696590000001862 ], [ -104.903544000001844, 39.698535000002167 ], [ -104.903510000002143, 39.69258100000193 ], [ -104.908211000002638, 39.692585000001863 ], [ -104.9127400000027, 39.6984440000017 ], [ -104.921625000001939, 39.697582000002043 ], [ -104.931543000002634, 39.703860000001995 ], [ -104.931654000002283, 39.700221000002209 ], [ -104.92818300000242, 39.696634000002277 ], [ -104.931735000001765, 39.696601000002296 ], [ -104.940625000002285, 39.695400000002145 ], [ -104.940549000002463, 39.689321000002209 ], [ -104.950041000001846, 39.689312000001578 ], [ -104.95934300000188, 39.692962000002012 ], [ -104.959321000001978, 39.696581000001935 ], [ -104.959328000002742, 39.700223000002303 ], [ -104.966365000002597, 39.700223000001522 ], [ -104.966377000002083, 39.692948000001522 ], [ -104.973414000002435, 39.692970000001701 ], [ -104.973424000002723, 39.689823000001951 ], [ -104.973431000002194, 39.67851200000225 ], [ -104.973477000002674, 39.674884000001811 ], [ -104.973486000002694, 39.667684000001749 ], [ -104.982835000001884, 39.667696000002039 ], [ -104.987572000001805, 39.667682000001506 ], [ -104.996198000002479, 39.6676910000022 ], [ -105.008664000002099, 39.67862700000191 ], [ -105.015699000002286, 39.671795000001566 ], [ -105.015800000002343, 39.660508000001784 ], [ -105.025269000001998, 39.656817000001801 ], [ -105.03307600000258, 39.656954000001981 ], [ -105.033562000002235, 39.653286000002254 ], [ -105.034603000001638, 39.649589000001711 ], [ -105.029979000002385, 39.642245000001786 ], [ -105.034707000002015, 39.638593000002153 ], [ -105.034739000002673, 39.635023000002285 ], [ -105.034756000002474, 39.63317700000205 ], [ -105.025422000002379, 39.628558000001632 ], [ -105.034822000002563, 39.62780900000223 ], [ -105.044161000001722, 39.628039000002211 ], [ -105.045711000002015, 39.631466000001986 ], [ -105.053410000002046, 39.631504000001677 ], [ -105.053342000001606, 39.638770000002289 ], [ -105.059138000002235, 39.638243000001552 ], [ -105.053457000002723, 39.629526000001697 ], [ -105.053440000001956, 39.627901000001934 ], [ -105.053483000002714, 39.624253000001474 ], [ -105.053516000002361, 39.620864000002271 ], [ -105.058232000001979, 39.614409000001942 ], [ -105.091401000001994, 39.614332000001824 ] ] ] } },
{ "type": "Feature", "properties": { "opt_all": 2, "population": 719485.0, "voting_age_pop": 561037.0, "dem_votes": 225392.0, "rep_votes": 113458.0, "minority_pop": 178878.0, "dem_pct": 0.66516747803890586, "rep_pct": 0.33483252166597832 }, "geometry": { "type": "Polygon", "coordinates": [ [ [ -105.675798000002203, 39.932445000002048 ], [ -105.690321000001873, 39.969768000001594 ], [ -105.689127000001761, 40.015853000001727 ], [ -105.652793000001765, 40.023772000001664 ], [ -105.638292000002366, 40.044326000001405 ], [ -105.636551000002143, 40.146375000002109 ], [ -105.671548000002304, 40.166249000002018 ], [ -105.677554000002075, 40.188507000002026 ], [ -105.653321000001682, 40.260457000001608 ], [ -105.54280100000264, 40.261340000001638 ], [ -105.522640000001658, 40.260876000002142 ], [ -105.392688000002124, 40.25786900000228 ], [ -105.338198000002762, 40.261685000001656 ], [ -105.224240000002482, 40.261449000001598 ], [ -105.196476000002036, 40.261085000001522 ], [ -105.15906000000264, 40.261219000001589 ], [ -105.131155000002394, 40.261283000001491 ], [ -105.055089000002624, 40.261793000001504 ], [ -105.055100000002341, 40.256120000001843 ], [ -105.055076000002643, 40.232779000001933 ], [ -105.055184000002086, 40.203680000001853 ], [ -105.05521500000188, 40.187682000001843 ], [ -105.055202000001984, 40.182224000001469 ], [ -105.055276000002578, 40.170972000001555 ], [ -105.055332000002394, 40.160192000001778 ], [ -105.055375000001703, 40.14492900000193 ], [ -105.055393000001999, 40.138263000001757 ], [ -105.055436000002686, 40.109241000001944 ], [ -105.055409000001717, 40.096617000001721 ], [ -105.055432000002114, 40.087832000001583 ], [ -105.055476000002457, 40.052747000001482 ], [ -105.055476000002159, 40.051468000001641 ], [ -105.055462000002038, 40.036636000002304 ], [ -105.055372000002635, 40.029309000002137 ], [ -105.05282300000232, 40.000260000001852 ], [ -105.037067000001599, 40.000467000001805 ], [ -105.017772000002196, 40.000475000002211 ], [ -105.007906000001995, 40.00048300000168 ], [ -105.007995000002722, 40.00758100000153 ], [ -104.978526000002375, 40.043888000002227 ], [ -104.961071000001994, 40.044144000001445 ], [ -104.961405000002244, 40.000337000002183 ], [ -104.959306000002698, 40.000330000001867 ], [ -104.941144000002396, 40.00033500000216 ], [ -104.922153000002496, 40.000330000001973 ], [ -104.885967000002495, 40.000356000001887 ], [ -104.884429000002584, 40.000363000001975 ], [ -104.867116000001644, 40.000370000002334 ], [ -104.827414000002761, 40.000403000001704 ], [ -104.808171000001821, 40.000419000002331 ], [ -104.799236000001599, 40.000440000002193 ], [ -104.788185000002201, 40.000408000002018 ], [ -104.771199000002042, 40.000451000001704 ], [ -104.761761000001684, 40.000461000001614 ], [ -104.7537280000018, 40.000471000001738 ], [ -104.752535000002055, 40.000470000002323 ], [ -104.741446000001673, 40.000499000001717 ], [ -104.721513000001636, 40.000511000001666 ], [ -104.714754000001847, 40.000511000002291 ], [ -104.722614000001954, 39.995998000002096 ], [ -104.735735000002677, 39.986921000001978 ], [ -104.751113000002235, 39.972423000002188 ], [ -104.752269000002514, 39.972417000001549 ], [ -104.762410000002035, 39.9723740000017 ], [ -104.770978000002017, 39.97235800000184 ], [ -104.781586000001994, 39.972340000001722 ], [ -104.789948000002553, 39.972340000001935 ], [ -104.789865000002095, 39.979552000002158 ], [ -104.799440000002207, 39.979530000001752 ], [ -104.799220000002123, 39.972304000001877 ], [ -104.797754000001646, 39.972301000002219 ], [ -104.799515000002017, 39.957785000001643 ], [ -104.808834000002093, 39.943338000001525 ], [ -104.808935000002506, 39.936047000002148 ], [ -104.791008000001966, 39.935274000001897 ], [ -104.791714000002145, 39.933743000001861 ], [ -104.808910000002115, 39.914401000002108 ], [ -104.842907000001915, 39.899686000002255 ], [ -104.831218000001996, 39.899708000002171 ], [ -104.847834000001598, 39.885198000001481 ], [ -104.846673000002241, 39.88520100000229 ], [ -104.82787200000196, 39.885275000001847 ], [ -104.809332000002399, 39.885458000001925 ], [ -104.809257000001836, 39.895240000001621 ], [ -104.79353100000246, 39.891713000002234 ], [ -104.790328000002404, 39.885541000002199 ], [ -104.781092000002033, 39.885574000001895 ], [ -104.781944000002596, 39.880699000001478 ], [ -104.792526000001686, 39.876748000002173 ], [ -104.793444000002566, 39.87085700000199 ], [ -104.793493000002655, 39.870785000002066 ], [ -104.790990000001884, 39.856347000002167 ], [ -104.790859000001916, 39.841802000002119 ], [ -104.790895000001598, 39.798251000001869 ], [ -104.795503000002256, 39.798270000001878 ], [ -104.809690000002362, 39.798317000001674 ], [ -104.820038000002555, 39.798260000002003 ], [ -104.835390000001681, 39.798105000001726 ], [ -104.847181000002038, 39.798236000001666 ], [ -104.866041000001999, 39.798386000001649 ], [ -104.90356100000264, 39.798391000002134 ], [ -104.903553000001963, 39.812959000001683 ], [ -104.903395000002121, 39.822010000002045 ], [ -104.915450000001897, 39.827225000001562 ], [ -104.924155000002358, 39.827230000002025 ], [ -104.927554000002459, 39.827235000001629 ], [ -104.942606000001874, 39.830873000002043 ], [ -104.944611000001714, 39.830880000001628 ], [ -104.949983000002476, 39.842140000001862 ], [ -104.955028000001803, 39.848853000002109 ], [ -104.967217000001824, 39.856137000001915 ], [ -104.954489000002127, 39.856159000001853 ], [ -104.953879000002161, 39.857571000001755 ], [ -104.950229000002366, 39.863049000002157 ], [ -104.968493000002326, 39.860775000001453 ], [ -104.968284000002484, 39.868051000001913 ], [ -104.977704000001737, 39.869531000002155 ], [ -104.977818000001633, 39.851054000001447 ], [ -104.977808000002526, 39.849025000002015 ], [ -104.9778800000025, 39.846525000001733 ], [ -104.984662000002103, 39.845348000001984 ], [ -104.987234000001834, 39.856233000002049 ], [ -105.005951000001801, 39.85617400000212 ], [ -104.996540000001701, 39.849063000002118 ], [ -105.006099000002166, 39.849054000001523 ], [ -105.015391000002424, 39.85110800000156 ], [ -105.020150000002005, 39.856323000001467 ], [ -105.024918000002714, 39.85627400000152 ], [ -105.0250080000027, 39.863492000001941 ], [ -105.025015000001957, 39.870815000002246 ], [ -105.034501000001796, 39.870802000001589 ], [ -105.034476000002201, 39.876722000001891 ], [ -105.034468000002562, 39.877982000001822 ], [ -105.034437000002285, 39.8851670000018 ], [ -105.034528000002723, 39.885167000001829 ], [ -105.034389000002278, 39.891954000002144 ], [ -105.039106000002477, 39.892450000001674 ], [ -105.038906000002754, 39.899663000001887 ], [ -105.043730000002157, 39.899690000001485 ], [ -105.053005000002258, 39.899806000002137 ], [ -105.052892000001918, 39.9142240000021 ], [ -105.052971000002216, 39.914224000002136 ], [ -105.062392000002319, 39.907025000002115 ], [ -105.071775000002233, 39.907018000002111 ], [ -105.071688000002297, 39.899832000001652 ], [ -105.096157000001639, 39.899781000001603 ], [ -105.108609000002218, 39.91413700000178 ], [ -105.147121000002443, 39.913890000001508 ], [ -105.128943000002636, 39.89303600000207 ], [ -105.134852000002155, 39.889292000002065 ], [ -105.164423000002415, 39.891408000001739 ], [ -105.147143000001918, 39.913889000001497 ], [ -105.159796000001634, 39.914054000001649 ], [ -105.166150000001679, 39.914047000002142 ], [ -105.314702000002356, 39.913883000001825 ], [ -105.342281000001961, 39.913737000001845 ], [ -105.39784900000204, 39.912886000001656 ], [ -105.397503000002601, 39.854334000001721 ], [ -105.397993000002515, 39.825957000001971 ], [ -105.397951000002521, 39.784391000002238 ], [ -105.397949000002527, 39.747735000002137 ], [ -105.397949000002086, 39.746040000001777 ], [ -105.494551000002204, 39.757406000001936 ], [ -105.538156000001621, 39.771912000001862 ], [ -105.574664000002443, 39.817449000001453 ], [ -105.633283000002621, 39.843702000002061 ], [ -105.690348000001805, 39.851996000002302 ], [ -105.700773000002087, 39.878942000002155 ], [ -105.675798000002203, 39.932445000002048 ] ] ] } },
{ "type": "Feature", "properties": { "opt_all": 3, "population": 724857.0, "voting_age_pop": 579076.0, "dem_votes": 159617.0, "rep_votes": 191561.0, "minority_pop": 131960.0, "dem_pct": 0.4545187909110141, "rep_pct": 0.54548120880423001 }, "geometry": { "type": "Polygon", "coordinates": [ [ [ -109.045776000001595, 37.326860000001545 ], [ -109.043366000002436, 37.484818000001681 ], [ -109.042028000001565, 37.754454000001409 ], [ -109.041992000002622, 37.881083000001865 ], [ -109.042586000002316, 38.102735000001559 ], [ -109.042583000002082, 38.153028000001456 ], [ -109.06018700000196, 38.275528000002083 ], [ -109.060119000001819, 38.499989000001733 ], [ -109.057279000002524, 38.799544000001859 ], [ -109.052013000002319, 39.066060000001805 ], [ -109.051478000001765, 39.116505000001673 ], [ -109.050765000002102, 39.3666770000018 ], [ -109.051227000002044, 39.660466000001669 ], [ -109.050972000001863, 40.02636400000128 ], [ -109.050949000001765, 40.222647000001288 ], [ -109.049716000001766, 40.540399000001337 ], [ -109.050026000001864, 41.00069100000168 ], [ -108.526029000001941, 40.999592000001805 ], [ -107.922984000002003, 41.002012000001841 ], [ -107.31779400000238, 41.002920000001637 ], [ -106.857773000001686, 41.002663000002087 ], [ -106.869891000002042, 40.956720000001738 ], [ -106.728333000002394, 40.871241000002037 ], [ -106.667834000001562, 40.8622890000022 ], [ -106.636922000001846, 40.789489000001552 ], [ -106.669981000002537, 40.760308000002098 ], [ -106.66795300000156, 40.696305000001921 ], [ -106.680320000001998, 40.647986000001453 ], [ -106.688998000001959, 40.635058000001898 ], [ -106.706149000001716, 40.61659700000223 ], [ -106.692851000002179, 40.556639000001717 ], [ -106.657163000002114, 40.48343500000221 ], [ -106.652112000002163, 40.445231000002117 ], [ -106.626518000002207, 40.426955000001392 ], [ -106.612321000002723, 40.379383000002143 ], [ -106.579338000001727, 40.379400000001688 ], [ -106.526741000002119, 40.384085000001413 ], [ -106.489842000001715, 40.411578000001889 ], [ -106.443420000002646, 40.346533000002005 ], [ -106.351456000002713, 40.355837000002246 ], [ -106.299245000002557, 40.330560000002215 ], [ -106.274219000002404, 40.355835000001825 ], [ -106.230746000002554, 40.324486000002082 ], [ -106.162011000002636, 40.34261200000185 ], [ -106.136033000002456, 40.33137800000145 ], [ -106.03602800000256, 40.36909900000186 ], [ -105.945147000002365, 40.36394700000217 ], [ -105.913600000002276, 40.401617000001984 ], [ -105.899209000002713, 40.465758000001749 ], [ -105.854926000001882, 40.486252000001812 ], [ -105.82246300000206, 40.476829000001509 ], [ -105.812094000001764, 40.41990700000207 ], [ -105.76769900000204, 40.359764000001995 ], [ -105.690140000001705, 40.308648000002243 ], [ -105.653321000001682, 40.260457000001608 ], [ -105.677554000002075, 40.188507000002026 ], [ -105.671548000002304, 40.166249000002018 ], [ -105.636551000002143, 40.146375000002109 ], [ -105.638292000002366, 40.044326000001405 ], [ -105.652793000001765, 40.023772000001664 ], [ -105.689127000001761, 40.015853000001727 ], [ -105.690321000001873, 39.969768000001594 ], [ -105.675798000002203, 39.932445000002048 ], [ -105.700773000002087, 39.878942000002155 ], [ -105.690348000001805, 39.851996000002302 ], [ -105.724125000002175, 39.819018000002252 ], [ -105.735925000002524, 39.804985000002013 ], [ -105.777029000002301, 39.798108000002074 ], [ -105.822954000002539, 39.785605000001453 ], [ -105.887622000002281, 39.796600000001909 ], [ -105.883714000001859, 39.737012000001592 ], [ -105.903857000002461, 39.728815000001454 ], [ -105.924618000002681, 39.698972000002293 ], [ -105.925085000001857, 39.679420000001997 ], [ -105.926290000002581, 39.672985000001766 ], [ -105.864767000002047, 39.667218000001526 ], [ -105.848665000002498, 39.64415600000229 ], [ -105.782674000002501, 39.629024000001586 ], [ -105.77596900000232, 39.605139000001948 ], [ -105.829662000001633, 39.564865000001888 ], [ -105.771720000002276, 39.56488900000214 ], [ -105.653343000001598, 39.566398000001904 ], [ -105.642798000002244, 39.566584000002123 ], [ -105.623875000002286, 39.567036000002012 ], [ -105.444922000002236, 39.565988000002136 ], [ -105.398949000002446, 39.566056000001794 ], [ -105.398807000002037, 39.537282000002172 ], [ -105.398341000002617, 39.464173000002305 ], [ -105.398052000002096, 39.427404000001651 ], [ -105.398051000002056, 39.424159000001673 ], [ -105.398154000002521, 39.401270000001595 ], [ -105.398453000002519, 39.363516000001468 ], [ -105.397881000002243, 39.203277000001634 ], [ -105.397875000001761, 39.129564000001835 ], [ -105.330382000001677, 39.129474000002226 ], [ -105.329862000001754, 38.960751000002134 ], [ -105.32914600000214, 38.857516000001937 ], [ -105.328962000002122, 38.69755800000155 ], [ -105.261929000002155, 38.697447000001617 ], [ -105.237043000001904, 38.697267000002348 ], [ -105.219885000002463, 38.647863000001955 ], [ -105.219505000002158, 38.647871000001572 ], [ -105.109887000002118, 38.647773000002246 ], [ -104.942425000002274, 38.650159000001899 ], [ -104.941933000001924, 38.567791000001677 ], [ -104.941533000001925, 38.519569000002079 ], [ -104.940889000001647, 38.372026000001746 ], [ -104.940746000002264, 38.337300000002195 ], [ -104.940366000002598, 38.258275000001802 ], [ -104.975517000002384, 38.258123000002243 ], [ -105.049215000002036, 38.257973000001712 ], [ -105.049978000002554, 37.985701000001619 ], [ -105.049998000001835, 37.985205000002026 ], [ -105.050119000002596, 37.983436000002378 ], [ -105.049917000001983, 37.91547900000208 ], [ -105.066056000001694, 37.944209000001678 ], [ -105.108507000001765, 37.943399000001769 ], [ -105.168652000002595, 38.018946000002344 ], [ -105.238560000001954, 37.962840000002188 ], [ -105.273818000001754, 37.907677000001947 ], [ -105.317081000002176, 37.938949000002083 ], [ -105.413635000001861, 37.890527000002265 ], [ -105.47320400000244, 37.895970000001739 ], [ -105.428893000001921, 37.851733000001531 ], [ -105.457255000002462, 37.75146400000218 ], [ -105.47730200000214, 37.707686000001971 ], [ -105.477351000002017, 37.665747000002263 ], [ -105.498602000002279, 37.614137000001946 ], [ -105.48551600000188, 37.577899000001878 ], [ -105.49631000000268, 37.563852000001788 ], [ -105.743339000001839, 37.356798000002108 ], [ -105.738409000002278, 37.306760000002136 ], [ -105.735779000002196, 37.303820000002098 ], [ -105.745765000002038, 37.218131000001812 ], [ -105.72981800000268, 37.180676000002379 ], [ -105.748834000002233, 37.135001000001758 ], [ -105.749162000002073, 37.112172000001763 ], [ -105.740698000002396, 37.102158000001694 ], [ -105.770673000001665, 37.041777000002028 ], [ -105.718463000002416, 36.995841000001839 ], [ -105.997195000002606, 36.995298000001718 ], [ -106.220411000002315, 36.994348000001892 ], [ -106.476090000002245, 36.993548000001681 ], [ -106.869820000002278, 36.992497000002174 ], [ -106.923311000002585, 37.000109000001629 ], [ -107.107757000002479, 37.000038000002121 ], [ -107.481737000002042, 37.000127000001513 ], [ -107.766850000001966, 37.000061000001907 ], [ -107.893919000002398, 36.999696000001421 ], [ -108.186675000002538, 36.999736000001427 ], [ -108.379303000002594, 36.999608000001459 ], [ -109.045172000002623, 36.998977000001815 ], [ -109.045498000001999, 37.239902000001408 ], [ -109.045776000001595, 37.326860000001545 ] ] ] } },
{ "type": "Feature", "properties": { "opt_all": 4, "population": 723948.0, "voting_age_pop": 549948.0, "dem_votes": 149414.0, "rep_votes": 207665.0, "minority_pop": 152791.0, "dem_pct": 0.41843401588487866, "rep_pct": 0.58156598383507119 }, "geometry": { "type": "Polygon", "coordinates": [ [ [ -105.471599000002513, 36.99543000000206 ], [ -105.718463000002416, 36.995841000001839 ], [ -105.770673000001665, 37.041777000002028 ], [ -105.740698000002396, 37.102158000001694 ], [ -105.749162000002073, 37.112172000001763 ], [ -105.748834000002233, 37.135001000001758 ], [ -105.72981800000268, 37.180676000002379 ], [ -105.745765000002038, 37.218131000001812 ], [ -105.735779000002196, 37.303820000002098 ], [ -105.738409000002278, 37.306760000002136 ], [ -105.743339000001839, 37.356798000002108 ], [ -105.49631000000268, 37.563852000001788 ], [ -105.48551600000188, 37.577899000001878 ], [ -105.498602000002279, 37.614137000001946 ], [ -105.477351000002017, 37.665747000002263 ], [ -105.47730200000214, 37.707686000001971 ], [ -105.457255000002462, 37.75146400000218 ], [ -105.428893000001921, 37.851733000001531 ], [ -105.47320400000244, 37.895970000001739 ], [ -105.413635000001861, 37.890527000002265 ], [ -105.317081000002176, 37.938949000002083 ], [ -105.273818000001754, 37.907677000001947 ], [ -105.238560000001954, 37.962840000002188 ], [ -105.168652000002595, 38.018946000002344 ], [ -105.108507000001765, 37.943399000001769 ], [ -105.066056000001694, 37.944209000001678 ], [ -105.049917000001983, 37.91547900000208 ], [ -105.050119000002596, 37.983436000002378 ], [ -105.049998000001835, 37.985205000002026 ], [ -105.049978000002554, 37.985701000001619 ], [ -105.049215000002036, 38.257973000001712 ], [ -104.975517000002384, 38.258123000002243 ], [ -104.940366000002598, 38.258275000001802 ], [ -104.940746000002264, 38.337300000002195 ], [ -104.940889000001647, 38.372026000001746 ], [ -104.941533000001925, 38.519569000002079 ], [ -104.644691000002098, 38.519842000001681 ], [ -104.630682000002594, 38.519917000001584 ], [ -104.567087000002203, 38.520001000001734 ], [ -104.275471000002497, 38.521133000001633 ], [ -104.053921000002404, 38.522393000001713 ], [ -104.052475000002303, 38.709235000001939 ], [ -104.273779000002762, 38.712898000001928 ], [ -104.27678100000206, 38.78143900000218 ], [ -104.31374300000256, 38.781304000001697 ], [ -104.313754000002206, 38.838926000002083 ], [ -104.553638000001996, 38.838583000002401 ], [ -104.55387100000182, 38.853356000001817 ], [ -104.552924000002307, 38.925309000001917 ], [ -104.552696000002754, 38.947509000002043 ], [ -104.578243000001862, 38.955068000001923 ], [ -104.56178900000242, 38.967436000002344 ], [ -104.587377000002562, 38.969591000001508 ], [ -104.603010000002286, 38.955228000001703 ], [ -104.607708000001935, 38.955228000002322 ], [ -104.607826000001936, 38.940656000001795 ], [ -104.629424000002686, 38.94043600000208 ], [ -104.673348000002406, 38.94058000000166 ], [ -104.691699000002274, 38.951725000002163 ], [ -104.688379000001859, 38.954911000002255 ], [ -104.663364000001835, 38.998441000001968 ], [ -104.663312000002193, 39.013032000002298 ], [ -104.625964000002327, 39.02046100000188 ], [ -104.589809000002063, 39.032948000002058 ], [ -104.552191000001883, 39.089609000002191 ], [ -104.551765000002575, 39.129427000002181 ], [ -104.644172000001817, 39.129528000001855 ], [ -104.662896000002561, 39.129527000002071 ], [ -104.692497000002234, 39.129536000001885 ], [ -104.802935000001966, 39.129692000001555 ], [ -104.830585000001633, 39.129764000001686 ], [ -104.857788000002515, 39.129854000002268 ], [ -104.863922000001821, 39.129791000002328 ], [ -104.895977000001864, 39.129858000001512 ], [ -104.923787000002619, 39.129822000001859 ], [ -105.029549000001637, 39.129831000001779 ], [ -105.033573000002093, 39.129710000002341 ], [ -105.257280000001956, 39.129552000001468 ], [ -105.329445000002679, 39.129487000001518 ], [ -105.28737700000184, 39.179442000002069 ], [ -105.263511000001984, 39.22926100000182 ], [ -105.233938000002695, 39.246868000001882 ], [ -105.198268000002358, 39.309222000002194 ], [ -105.166435000001755, 39.362958000002273 ], [ -105.170656000002523, 39.408019000002014 ], [ -105.123522000002382, 39.434561000001572 ], [ -105.133132000002703, 39.466312000001871 ], [ -105.09333000000268, 39.488054000001576 ], [ -105.086751000002479, 39.493423000001833 ], [ -105.073045000002395, 39.545265000001848 ], [ -105.053060000002176, 39.563109000001958 ], [ -105.048740000002084, 39.566088000002161 ], [ -105.032320000002642, 39.566184000002274 ], [ -105.001280000002723, 39.566150000002104 ], [ -104.98852900000206, 39.566124000002354 ], [ -104.973255000002723, 39.566069000001832 ], [ -104.979119000002001, 39.571977000001795 ], [ -104.988485000001646, 39.573473000001982 ], [ -104.988406000001802, 39.576117000002171 ], [ -104.988433000002161, 39.580625000001902 ], [ -104.988340000001756, 39.584243000002061 ], [ -104.988337000002659, 39.588575000002173 ], [ -104.978446000002236, 39.58922000000176 ], [ -104.975501000002723, 39.586764000001878 ], [ -104.968654000002417, 39.589335000002322 ], [ -104.96023900000236, 39.588854000002037 ], [ -104.960142000001838, 39.591340000001992 ], [ -104.956286000001796, 39.588510000002067 ], [ -104.949628000002363, 39.58059500000153 ], [ -104.941594000002198, 39.580555000001709 ], [ -104.931297000001763, 39.580556000002105 ], [ -104.930191000002623, 39.580557000001598 ], [ -104.930517000002496, 39.587819000002163 ], [ -104.922902000002082, 39.58896100000154 ], [ -104.922888000002473, 39.595059000001875 ], [ -104.922855000002116, 39.602327000002248 ], [ -104.932274000002167, 39.603139000002272 ], [ -104.932119000002757, 39.609594000001856 ], [ -104.922850000001887, 39.609582000001865 ], [ -104.922853000001979, 39.607118000001989 ], [ -104.916776000001775, 39.609573000002293 ], [ -104.904115000001966, 39.602294000002253 ], [ -104.897027000002439, 39.6022980000023 ], [ -104.89791300000276, 39.595032000001851 ], [ -104.904180000002043, 39.59503400000159 ], [ -104.904223000002204, 39.588234000001854 ], [ -104.911544000001996, 39.590564000002018 ], [ -104.913421000002216, 39.589861000002351 ], [ -104.909110000002642, 39.580530000001801 ], [ -104.90426700000252, 39.580525000002055 ], [ -104.904232000002665, 39.57656500000212 ], [ -104.904318000002405, 39.573280000002349 ], [ -104.904415000001862, 39.565982000002272 ], [ -104.897067000001755, 39.56597100000176 ], [ -104.888861000002564, 39.565991000002342 ], [ -104.885710000002561, 39.565979000002024 ], [ -104.872366000002543, 39.565997000002056 ], [ -104.860665000002442, 39.566050000001951 ], [ -104.815686000001776, 39.565988000002328 ], [ -104.801095000001794, 39.565885000001948 ], [ -104.800939000002558, 39.565887000001545 ], [ -104.785308000001919, 39.566088000002239 ], [ -104.784965000002558, 39.566088000001898 ], [ -104.774445000001805, 39.566088000001471 ], [ -104.718145000001883, 39.565895000001838 ], [ -104.707023000002195, 39.565988000002108 ], [ -104.6867590000017, 39.56598800000171 ], [ -104.679311000002286, 39.565900000001648 ], [ -104.660626000001841, 39.565909000001817 ], [ -104.642125000002039, 39.565890000002028 ], [ -104.604842000002122, 39.565910000001679 ], [ -104.587660000002401, 39.565618000001713 ], [ -104.531676000002761, 39.564678000002218 ], [ -104.398707000001963, 39.563950000001697 ], [ -104.365745000001823, 39.564220000001811 ], [ -104.285044000002515, 39.564718000001982 ], [ -104.174259000002479, 39.565278000001669 ], [ -103.714355000002158, 39.566331000001746 ], [ -103.707072000002384, 39.566295000001887 ], [ -103.548469000001958, 39.56606700000242 ], [ -103.361029000001963, 39.566213000001923 ], [ -103.274566000001656, 39.56647400000162 ], [ -103.154376000002713, 39.565654000001778 ], [ -102.929340000001702, 39.568577000002449 ], [ -102.802932000002599, 39.56784100000192 ], [ -102.800417000002525, 39.830831000002426 ], [ -102.802985000002707, 39.960212000001917 ], [ -102.793305000001766, 40.002493000002239 ], [ -102.794128000002047, 40.132312000002088 ], [ -102.793359000002241, 40.21969600000233 ], [ -102.793299000002278, 40.263271000002035 ], [ -102.793582000002203, 40.351281000001549 ], [ -102.77996000000168, 40.438446000001768 ], [ -102.664804000002434, 40.438473000001693 ], [ -102.665572000002683, 40.613194000001812 ], [ -102.664689000001914, 40.70518900000188 ], [ -102.651310000002681, 40.749402000001886 ], [ -102.593598000002459, 40.749514000002023 ], [ -102.535715000002185, 40.7495290000019 ], [ -102.4582940000017, 40.749250000001886 ], [ -102.344718000002715, 40.74927000000163 ], [ -102.247961000002476, 40.74893100000245 ], [ -102.208837000001964, 40.748946000001723 ], [ -102.051416000001794, 40.749586000001976 ], [ -102.051537000001815, 40.581915000002461 ], [ -102.05146500000194, 40.440008000002322 ], [ -102.051639000002496, 40.264869000002456 ], [ -102.051515000002297, 39.920217000002509 ], [ -102.05148800000218, 39.859483000002207 ], [ -102.049806000002235, 39.574058000002225 ], [ -102.048530000002202, 39.302916000001638 ], [ -102.046571000002601, 39.047038000002431 ], [ -102.045082000002523, 38.615172000002104 ], [ -102.044475000002421, 38.268749000001705 ], [ -102.044624000002756, 38.04804800000224 ], [ -102.041585000002314, 37.644282000002242 ], [ -102.041683000002521, 37.578556000001939 ], [ -102.041930000001983, 37.149175000001989 ], [ -102.042089000002164, 36.99301600000193 ], [ -102.325155000002354, 36.994348000001992 ], [ -102.698142000001837, 36.995149000001859 ], [ -102.841921000002159, 36.99960000000182 ], [ -103.086102000002199, 37.000188000001778 ], [ -103.20050000000208, 36.999825000002012 ], [ -103.79664200000272, 36.997431000001932 ], [ -104.215634000002765, 36.994754000002011 ], [ -104.366370000002306, 36.993464000001886 ], [ -104.433987000001878, 36.993738000001763 ], [ -104.480578000002041, 36.99386100000212 ], [ -104.840358000002738, 36.993363000001935 ], [ -105.155042000002155, 36.995262000001738 ], [ -105.471599000002513, 36.99543000000206 ] ] ] } },
{ "type": "Feature", "properties": { "opt_all": 5, "population": 720978.0, "voting_age_pop": 554340.0, "dem_votes": 122393.0, "rep_votes": 177153.0, "minority_pop": 169123.0, "dem_pct": 0.40859500697435619, "rep_pct": 0.59140499269180524 }, "geometry": { "type": "Polygon", "coordinates": [ [ [ -105.219505000002158, 38.647871000001572 ], [ -105.219885000002463, 38.647863000001955 ], [ -105.237043000001904, 38.697267000002348 ], [ -105.261929000002155, 38.697447000001617 ], [ -105.328962000002122, 38.69755800000155 ], [ -105.32914600000214, 38.857516000001937 ], [ -105.329862000001754, 38.960751000002134 ], [ -105.330382000001677, 39.129474000002226 ], [ -105.329445000002679, 39.129487000001518 ], [ -105.257280000001956, 39.129552000001468 ], [ -105.033573000002093, 39.129710000002341 ], [ -105.029549000001637, 39.129831000001779 ], [ -104.923787000002619, 39.129822000001859 ], [ -104.895977000001864, 39.129858000001512 ], [ -104.863922000001821, 39.129791000002328 ], [ -104.857788000002515, 39.129854000002268 ], [ -104.830585000001633, 39.129764000001686 ], [ -104.802935000001966, 39.129692000001555 ], [ -104.692497000002234, 39.129536000001885 ], [ -104.662896000002561, 39.129527000002071 ], [ -104.644172000001817, 39.129528000001855 ], [ -104.551765000002575, 39.129427000002181 ], [ -104.552191000001883, 39.089609000002191 ], [ -104.589809000002063, 39.032948000002058 ], [ -104.625964000002327, 39.02046100000188 ], [ -104.663312000002193, 39.013032000002298 ], [ -104.663364000001835, 38.998441000001968 ], [ -104.688379000001859, 38.954911000002255 ], [ -104.691699000002274, 38.951725000002163 ], [ -104.673348000002406, 38.94058000000166 ], [ -104.629424000002686, 38.94043600000208 ], [ -104.607826000001936, 38.940656000001795 ], [ -104.607708000001935, 38.955228000002322 ], [ -104.603010000002286, 38.955228000001703 ], [ -104.587377000002562, 38.969591000001508 ], [ -104.56178900000242, 38.967436000002344 ], [ -104.578243000001862, 38.955068000001923 ], [ -104.552696000002754, 38.947509000002043 ], [ -104.552924000002307, 38.925309000001917 ], [ -104.55387100000182, 38.853356000001817 ], [ -104.553638000001996, 38.838583000002401 ], [ -104.313754000002206, 38.838926000002083 ], [ -104.31374300000256, 38.781304000001697 ], [ -104.27678100000206, 38.78143900000218 ], [ -104.273779000002762, 38.712898000001928 ], [ -104.052475000002303, 38.709235000001939 ], [ -104.053921000002404, 38.522393000001713 ], [ -104.275471000002497, 38.521133000001633 ], [ -104.567087000002203, 38.520001000001734 ], [ -104.630682000002594, 38.519917000001584 ], [ -104.644691000002098, 38.519842000001681 ], [ -104.941533000001925, 38.519569000002079 ], [ -104.941933000001924, 38.567791000001677 ], [ -104.942425000002274, 38.650159000001899 ], [ -105.109887000002118, 38.647773000002246 ], [ -105.219505000002158, 38.647871000001572 ] ] ] } },
{ "type": "Feature", "properties": { "opt_all": 6, "population": 723432.0, "voting_age_pop": 561220.0, "dem_votes": 196577.0, "rep_votes": 123819.0, "minority_pop": 221749.0, "dem_pct": 0.61354386427622576, "rep_pct": 0.38645613541166052 }, "geometry": { "type": "Polygon", "coordinates": [ [ [ -105.054040000001805, 39.57576800000173 ], [ -105.05395000000162, 39.580739000002232 ], [ -105.053703000002287, 39.595220000001909 ], [ -105.053741000002006, 39.598637000002199 ], [ -105.053820000001778, 39.600836000002317 ], [ -105.053625000001915, 39.609665000001868 ], [ -105.053655000001839, 39.615549000002133 ], [ -105.053516000002361, 39.620864000002271 ], [ -105.053483000002714, 39.624253000001474 ], [ -105.053440000001956, 39.627901000001934 ], [ -105.053457000002723, 39.629526000001697 ], [ -105.059138000002235, 39.638243000001552 ], [ -105.053342000001606, 39.638770000002289 ], [ -105.053410000002046, 39.631504000001677 ], [ -105.045711000002015, 39.631466000001986 ], [ -105.044161000001722, 39.628039000002211 ], [ -105.034822000002563, 39.62780900000223 ], [ -105.025422000002379, 39.628558000001632 ], [ -105.034756000002474, 39.63317700000205 ], [ -105.034739000002673, 39.635023000002285 ], [ -105.034707000002015, 39.638593000002153 ], [ -105.029979000002385, 39.642245000001786 ], [ -105.034603000001638, 39.649589000001711 ], [ -105.033562000002235, 39.653286000002254 ], [ -105.03307600000258, 39.656954000001981 ], [ -105.025269000001998, 39.656817000001801 ], [ -105.015800000002343, 39.660508000001784 ], [ -105.015699000002286, 39.671795000001566 ], [ -105.008664000002099, 39.67862700000191 ], [ -104.996198000002479, 39.6676910000022 ], [ -104.987572000001805, 39.667682000001506 ], [ -104.982835000001884, 39.667696000002039 ], [ -104.973486000002694, 39.667684000001749 ], [ -104.973477000002674, 39.674884000001811 ], [ -104.973431000002194, 39.67851200000225 ], [ -104.973424000002723, 39.689823000001951 ], [ -104.973414000002435, 39.692970000001701 ], [ -104.966377000002083, 39.692948000001522 ], [ -104.966365000002597, 39.700223000001522 ], [ -104.959328000002742, 39.700223000002303 ], [ -104.959321000001978, 39.696581000001935 ], [ -104.95934300000188, 39.692962000002012 ], [ -104.950041000001846, 39.689312000001578 ], [ -104.940549000002463, 39.689321000002209 ], [ -104.940625000002285, 39.695400000002145 ], [ -104.931735000001765, 39.696601000002296 ], [ -104.92818300000242, 39.696634000002277 ], [ -104.931654000002283, 39.700221000002209 ], [ -104.931543000002634, 39.703860000001995 ], [ -104.921625000001939, 39.697582000002043 ], [ -104.9127400000027, 39.6984440000017 ], [ -104.908211000002638, 39.692585000001863 ], [ -104.903510000002143, 39.69258100000193 ], [ -104.903544000001844, 39.698535000002167 ], [ -104.891715000002193, 39.696590000001862 ], [ -104.891783000001894, 39.696581000002233 ], [ -104.882313000002156, 39.696573000002083 ], [ -104.877720000001617, 39.696508000001984 ], [ -104.875318000001641, 39.698438000002163 ], [ -104.865962000001844, 39.696559000001912 ], [ -104.865964000002421, 39.69927900000198 ], [ -104.865967000002598, 39.703807000001646 ], [ -104.865971000002233, 39.71105300000179 ], [ -104.870625000001979, 39.710174000001537 ], [ -104.870596000001896, 39.718176000001876 ], [ -104.875330000002776, 39.725576000002086 ], [ -104.881934000002076, 39.724960000002326 ], [ -104.88258000000198, 39.725661000001921 ], [ -104.884708000002107, 39.732846000002006 ], [ -104.884646000001993, 39.740156000002294 ], [ -104.869363000002224, 39.740207000001753 ], [ -104.865803000001918, 39.740200000001529 ], [ -104.861113000002518, 39.740209000002267 ], [ -104.854087000002323, 39.740206000002154 ], [ -104.847013000002178, 39.740206000002345 ], [ -104.835595000002357, 39.74030000000166 ], [ -104.828271000002701, 39.74029700000164 ], [ -104.825460000002195, 39.740290000001586 ], [ -104.825219000002761, 39.740290000002005 ], [ -104.819416000002761, 39.740266000001611 ], [ -104.810127000001941, 39.740141000002232 ], [ -104.810022000001723, 39.740141000001564 ], [ -104.80062500000264, 39.740281000001872 ], [ -104.791219000002727, 39.740269000001689 ], [ -104.772470000001761, 39.740251000001997 ], [ -104.763038000002325, 39.740251000002274 ], [ -104.734834000002436, 39.740321000002261 ], [ -104.715945000001923, 39.740271000002231 ], [ -104.67823700000244, 39.740188000002163 ], [ -104.659953000002204, 39.740477000001647 ], [ -104.634448000002521, 39.739594000001922 ], [ -104.616197000002003, 39.740004000002095 ], [ -104.613603000002001, 39.739982000001639 ], [ -104.602222000002058, 39.739878000002271 ], [ -104.507422000001782, 39.73825100000186 ], [ -104.470927000002163, 39.738198000002157 ], [ -104.452224000001706, 39.738156000001602 ], [ -104.382874000001635, 39.738103000001921 ], [ -104.3772290000026, 39.73812100000201 ], [ -104.358684000001915, 39.738197000001627 ], [ -104.283825000002281, 39.738745000002105 ], [ -104.227935000001963, 39.738980000001654 ], [ -104.09624900000226, 39.739846000002153 ], [ -103.706547000002047, 39.739894000002131 ], [ -103.707072000002384, 39.566295000001887 ], [ -103.714355000002158, 39.566331000001746 ], [ -104.174259000002479, 39.565278000001669 ], [ -104.285044000002515, 39.564718000001982 ], [ -104.365745000001823, 39.564220000001811 ], [ -104.398707000001963, 39.563950000001697 ], [ -104.531676000002761, 39.564678000002218 ], [ -104.587660000002401, 39.565618000001713 ], [ -104.604842000002122, 39.565910000001679 ], [ -104.642125000002039, 39.565890000002028 ], [ -104.660626000001841, 39.565909000001817 ], [ -104.679311000002286, 39.565900000001648 ], [ -104.6867590000017, 39.56598800000171 ], [ -104.707023000002195, 39.565988000002108 ], [ -104.718145000001883, 39.565895000001838 ], [ -104.774445000001805, 39.566088000001471 ], [ -104.784965000002558, 39.566088000001898 ], [ -104.785308000001919, 39.566088000002239 ], [ -104.800939000002558, 39.565887000001545 ], [ -104.801095000001794, 39.565885000001948 ], [ -104.815686000001776, 39.565988000002328 ], [ -104.860665000002442, 39.566050000001951 ], [ -104.872366000002543, 39.565997000002056 ], [ -104.885710000002561, 39.565979000002024 ], [ -104.888861000002564, 39.565991000002342 ], [ -104.897067000001755, 39.56597100000176 ], [ -104.904415000001862, 39.565982000002272 ], [ -104.904318000002405, 39.573280000002349 ], [ -104.904232000002665, 39.57656500000212 ], [ -104.90426700000252, 39.580525000002055 ], [ -104.909110000002642, 39.580530000001801 ], [ -104.913421000002216, 39.589861000002351 ], [ -104.911544000001996, 39.590564000002018 ], [ -104.904223000002204, 39.588234000001854 ], [ -104.904180000002043, 39.59503400000159 ], [ -104.89791300000276, 39.595032000001851 ], [ -104.897027000002439, 39.6022980000023 ], [ -104.904115000001966, 39.602294000002253 ], [ -104.916776000001775, 39.609573000002293 ], [ -104.922853000001979, 39.607118000001989 ], [ -104.922850000001887, 39.609582000001865 ], [ -104.932119000002757, 39.609594000001856 ], [ -104.932274000002167, 39.603139000002272 ], [ -104.922855000002116, 39.602327000002248 ], [ -104.922888000002473, 39.595059000001875 ], [ -104.922902000002082, 39.58896100000154 ], [ -104.930517000002496, 39.587819000002163 ], [ -104.930191000002623, 39.580557000001598 ], [ -104.931297000001763, 39.580556000002105 ], [ -104.941594000002198, 39.580555000001709 ], [ -104.949628000002363, 39.58059500000153 ], [ -104.956286000001796, 39.588510000002067 ], [ -104.960142000001838, 39.591340000001992 ], [ -104.96023900000236, 39.588854000002037 ], [ -104.968654000002417, 39.589335000002322 ], [ -104.975501000002723, 39.586764000001878 ], [ -104.978446000002236, 39.58922000000176 ], [ -104.988337000002659, 39.588575000002173 ], [ -104.988340000001756, 39.584243000002061 ], [ -104.988433000002161, 39.580625000001902 ], [ -104.988406000001802, 39.576117000002171 ], [ -104.988485000001646, 39.573473000001982 ], [ -104.979119000002001, 39.571977000001795 ], [ -104.973255000002723, 39.566069000001832 ], [ -104.98852900000206, 39.566124000002354 ], [ -105.001280000002723, 39.566150000002104 ], [ -105.032320000002642, 39.566184000002274 ], [ -105.048740000002084, 39.566088000002161 ], [ -105.054040000001805, 39.57576800000173 ] ] ] } },
{ "type": "Feature", "properties": { "opt_all": 7, "population": 719352.0, "voting_age_pop": 573049.0, "dem_votes": 207724.0, "rep_votes": 156125.0, "minority_pop": 162335.0, "dem_pct": 0.57090716188009116, "rep_pct": 0.42909283784506957 }, "geometry": { "type": "Polygon", "coordinates": [ [ [ -105.623875000002286, 39.567036000002012 ], [ -105.642798000002244, 39.566584000002123 ], [ -105.653343000001598, 39.566398000001904 ], [ -105.771720000002276, 39.56488900000214 ], [ -105.829662000001633, 39.564865000001888 ], [ -105.77596900000232, 39.605139000001948 ], [ -105.782674000002501, 39.629024000001586 ], [ -105.848665000002498, 39.64415600000229 ], [ -105.864767000002047, 39.667218000001526 ], [ -105.926290000002581, 39.672985000001766 ], [ -105.925085000001857, 39.679420000001997 ], [ -105.924618000002681, 39.698972000002293 ], [ -105.903857000002461, 39.728815000001454 ], [ -105.883714000001859, 39.737012000001592 ], [ -105.887622000002281, 39.796600000001909 ], [ -105.822954000002539, 39.785605000001453 ], [ -105.777029000002301, 39.798108000002074 ], [ -105.735925000002524, 39.804985000002013 ], [ -105.724125000002175, 39.819018000002252 ], [ -105.690348000001805, 39.851996000002302 ], [ -105.633283000002621, 39.843702000002061 ], [ -105.574664000002443, 39.817449000001453 ], [ -105.538156000001621, 39.771912000001862 ], [ -105.494551000002204, 39.757406000001936 ], [ -105.397949000002086, 39.746040000001777 ], [ -105.397949000002527, 39.747735000002137 ], [ -105.397951000002521, 39.784391000002238 ], [ -105.397993000002515, 39.825957000001971 ], [ -105.397503000002601, 39.854334000001721 ], [ -105.39784900000204, 39.912886000001656 ], [ -105.342281000001961, 39.913737000001845 ], [ -105.314702000002356, 39.913883000001825 ], [ -105.166150000001679, 39.914047000002142 ], [ -105.159796000001634, 39.914054000001649 ], [ -105.147143000001918, 39.913889000001497 ], [ -105.164423000002415, 39.891408000001739 ], [ -105.134852000002155, 39.889292000002065 ], [ -105.128943000002636, 39.89303600000207 ], [ -105.147121000002443, 39.913890000001508 ], [ -105.108609000002218, 39.91413700000178 ], [ -105.096157000001639, 39.899781000001603 ], [ -105.071688000002297, 39.899832000001652 ], [ -105.071775000002233, 39.907018000002111 ], [ -105.062392000002319, 39.907025000002115 ], [ -105.052971000002216, 39.914224000002136 ], [ -105.052892000001918, 39.9142240000021 ], [ -105.053005000002258, 39.899806000002137 ], [ -105.043730000002157, 39.899690000001485 ], [ -105.038906000002754, 39.899663000001887 ], [ -105.039106000002477, 39.892450000001674 ], [ -105.034389000002278, 39.891954000002144 ], [ -105.034528000002723, 39.885167000001829 ], [ -105.034437000002285, 39.8851670000018 ], [ -105.034468000002562, 39.877982000001822 ], [ -105.034476000002201, 39.876722000001891 ], [ -105.034501000001796, 39.870802000001589 ], [ -105.025015000001957, 39.870815000002246 ], [ -105.0250080000027, 39.863492000001941 ], [ -105.024918000002714, 39.85627400000152 ], [ -105.020150000002005, 39.856323000001467 ], [ -105.015391000002424, 39.85110800000156 ], [ -105.006099000002166, 39.849054000001523 ], [ -104.996540000001701, 39.849063000002118 ], [ -105.005951000001801, 39.85617400000212 ], [ -104.987234000001834, 39.856233000002049 ], [ -104.984662000002103, 39.845348000001984 ], [ -104.9778800000025, 39.846525000001733 ], [ -104.977808000002526, 39.849025000002015 ], [ -104.977818000001633, 39.851054000001447 ], [ -104.977704000001737, 39.869531000002155 ], [ -104.968284000002484, 39.868051000001913 ], [ -104.968493000002326, 39.860775000001453 ], [ -104.950229000002366, 39.863049000002157 ], [ -104.953879000002161, 39.857571000001755 ], [ -104.954489000002127, 39.856159000001853 ], [ -104.967217000001824, 39.856137000001915 ], [ -104.955028000001803, 39.848853000002109 ], [ -104.949983000002476, 39.842140000001862 ], [ -104.944611000001714, 39.830880000001628 ], [ -104.942606000001874, 39.830873000002043 ], [ -104.927554000002459, 39.827235000001629 ], [ -104.924155000002358, 39.827230000002025 ], [ -104.915450000001897, 39.827225000001562 ], [ -104.903395000002121, 39.822010000002045 ], [ -104.903553000001963, 39.812959000001683 ], [ -104.90356100000264, 39.798391000002134 ], [ -104.903485000001922, 39.787288000002221 ], [ -104.903439000002436, 39.783888000002257 ], [ -104.912887000002726, 39.783818000002043 ], [ -104.922274000002474, 39.783776000001495 ], [ -104.931646000001962, 39.791047000001669 ], [ -104.939882000001646, 39.790994000001895 ], [ -104.956327000002645, 39.793957000001811 ], [ -104.968861000002661, 39.791041000001641 ], [ -104.9675230000026, 39.79326900000197 ], [ -104.988848000001681, 39.791036000001469 ], [ -104.996737000002355, 39.791019000002137 ], [ -104.997790000002624, 39.791026000002319 ], [ -105.01583200000222, 39.791072000001634 ], [ -105.025149000001875, 39.794003000002235 ], [ -105.040419000002103, 39.791119000001615 ], [ -105.053246000002204, 39.791063000002183 ], [ -105.064992000002647, 39.78835900000152 ], [ -105.053184000002119, 39.783687000001486 ], [ -105.053245000002505, 39.776583000001771 ], [ -105.053240000002006, 39.76933300000163 ], [ -105.053241000002714, 39.763903000002252 ], [ -105.053239000002094, 39.758472000001973 ], [ -105.053237000001999, 39.755694000002109 ], [ -105.053212000002219, 39.743980000001891 ], [ -105.053210000002224, 39.743273000001786 ], [ -105.053206000001722, 39.740306000001638 ], [ -105.053228000001937, 39.734922000002221 ], [ -105.053252000002161, 39.726184000002227 ], [ -105.053253000002442, 39.72580000000233 ], [ -105.053259000001759, 39.724083000001883 ], [ -105.05327800000228, 39.718427000001711 ], [ -105.053250000002478, 39.711343000001882 ], [ -105.053252000002601, 39.707716000002101 ], [ -105.053247000002557, 39.703985000002213 ], [ -105.053225000002442, 39.696769000002334 ], [ -105.053218000002417, 39.694988000002297 ], [ -105.053266000001784, 39.68955900000163 ], [ -105.053221000002125, 39.682291000002166 ], [ -105.057797000001756, 39.682272000001845 ], [ -105.062621000002181, 39.675874000002295 ], [ -105.053234000001964, 39.674299000001731 ], [ -105.053256000002477, 39.667785000001473 ], [ -105.06011000000224, 39.667780000002217 ], [ -105.07150900000174, 39.667764000001981 ], [ -105.072201000001741, 39.669374000002165 ], [ -105.081348000002421, 39.670133000002309 ], [ -105.081451000002446, 39.667743000002126 ], [ -105.081453000001886, 39.662056000002323 ], [ -105.071972000002475, 39.659951000002323 ], [ -105.057150000001926, 39.652946000001847 ], [ -105.072045000002319, 39.64598400000218 ], [ -105.072049000001755, 39.645815000002223 ], [ -105.073271000002762, 39.638740000001938 ], [ -105.087380000002113, 39.638692000001868 ], [ -105.098526000001954, 39.635087000001946 ], [ -105.100542000002122, 39.635088000001588 ], [ -105.109875000001864, 39.635072000001927 ], [ -105.102693000001807, 39.62422400000176 ], [ -105.094461000002553, 39.624195000001798 ], [ -105.080587000002083, 39.630386000001906 ], [ -105.074796000001697, 39.618511000001774 ], [ -105.093172000002241, 39.618324000001678 ], [ -105.097028000001799, 39.617984000002309 ], [ -105.091401000001994, 39.614332000001824 ], [ -105.058232000001979, 39.614409000001942 ], [ -105.053516000002361, 39.620864000002271 ], [ -105.053655000001839, 39.615549000002133 ], [ -105.053625000001915, 39.609665000001868 ], [ -105.053820000001778, 39.600836000002317 ], [ -105.053741000002006, 39.598637000002199 ], [ -105.053703000002287, 39.595220000001909 ], [ -105.05395000000162, 39.580739000002232 ], [ -105.054040000001805, 39.57576800000173 ], [ -105.048740000002084, 39.566088000002161 ], [ -105.053060000002176, 39.563109000001958 ], [ -105.073045000002395, 39.545265000001848 ], [ -105.086751000002479, 39.493423000001833 ], [ -105.09333000000268, 39.488054000001576 ], [ -105.133132000002703, 39.466312000001871 ], [ -105.123522000002382, 39.434561000001572 ], [ -105.170656000002523, 39.408019000002014 ], [ -105.166435000001755, 39.362958000002273 ], [ -105.198268000002358, 39.309222000002194 ], [ -105.233938000002695, 39.246868000001882 ], [ -105.263511000001984, 39.22926100000182 ], [ -105.28737700000184, 39.179442000002069 ], [ -105.329445000002679, 39.129487000001518 ], [ -105.330382000001677, 39.129474000002226 ], [ -105.397875000001761, 39.129564000001835 ], [ -105.397881000002243, 39.203277000001634 ], [ -105.398453000002519, 39.363516000001468 ], [ -105.398154000002521, 39.401270000001595 ], [ -105.398051000002056, 39.424159000001673 ], [ -105.398052000002096, 39.427404000001651 ], [ -105.398341000002617, 39.464173000002305 ], [ -105.398807000002037, 39.537282000002172 ], [ -105.398949000002446, 39.566056000001794 ], [ -105.444922000002236, 39.565988000002136 ], [ -105.623875000002286, 39.567036000002012 ] ] ] } },
{ "type": "Feature", "properties": { "opt_all": 8, "population": 718537.0, "voting_age_pop": 553693.0, "dem_votes": 158418.0, "rep_votes": 173476.0, "minority_pop": 144113.0, "dem_pct": 0.47731504622641113, "rep_pct": 0.52268495347228783 }, "geometry": { "type": "Polygon", "coordinates": [ [ [ -105.338198000002762, 40.261685000001656 ], [ -105.392688000002124, 40.25786900000228 ], [ -105.522640000001658, 40.260876000002142 ], [ -105.54280100000264, 40.261340000001638 ], [ -105.653321000001682, 40.260457000001608 ], [ -105.690140000001705, 40.308648000002243 ], [ -105.76769900000204, 40.359764000001995 ], [ -105.812094000001764, 40.41990700000207 ], [ -105.82246300000206, 40.476829000001509 ], [ -105.854926000001882, 40.486252000001812 ], [ -105.899209000002713, 40.465758000001749 ], [ -105.913600000002276, 40.401617000001984 ], [ -105.945147000002365, 40.36394700000217 ], [ -106.03602800000256, 40.36909900000186 ], [ -106.136033000002456, 40.33137800000145 ], [ -106.162011000002636, 40.34261200000185 ], [ -106.230746000002554, 40.324486000002082 ], [ -106.274219000002404, 40.355835000001825 ], [ -106.299245000002557, 40.330560000002215 ], [ -106.351456000002713, 40.355837000002246 ], [ -106.443420000002646, 40.346533000002005 ], [ -106.489842000001715, 40.411578000001889 ], [ -106.526741000002119, 40.384085000001413 ], [ -106.579338000001727, 40.379400000001688 ], [ -106.612321000002723, 40.379383000002143 ], [ -106.626518000002207, 40.426955000001392 ], [ -106.652112000002163, 40.445231000002117 ], [ -106.657163000002114, 40.48343500000221 ], [ -106.692851000002179, 40.556639000001717 ], [ -106.706149000001716, 40.61659700000223 ], [ -106.688998000001959, 40.635058000001898 ], [ -106.680320000001998, 40.647986000001453 ], [ -106.66795300000156, 40.696305000001921 ], [ -106.669981000002537, 40.760308000002098 ], [ -106.636922000001846, 40.789489000001552 ], [ -106.667834000001562, 40.8622890000022 ], [ -106.728333000002394, 40.871241000002037 ], [ -106.869891000002042, 40.956720000001738 ], [ -106.857773000001686, 41.002663000002087 ], [ -106.439563000002366, 41.001978000001586 ], [ -106.190554000002621, 40.997578000001717 ], [ -105.726441000001799, 40.996836000001792 ], [ -105.497579000001593, 40.997601000002184 ], [ -105.172911000001847, 40.998334000001613 ], [ -104.943371000001719, 40.998213000002131 ], [ -104.467672000002381, 41.001473000002285 ], [ -103.878255000001616, 41.001717000002301 ], [ -103.573774000001919, 41.001716000002226 ], [ -103.573727000002705, 40.891094000001829 ], [ -103.574301000002464, 40.702018000001523 ], [ -103.581462000002105, 40.61070700000159 ], [ -103.581844000002505, 40.523383000002198 ], [ -103.543181000002093, 40.523394000002163 ], [ -103.46720000000218, 40.523253000002157 ], [ -103.465377000002206, 40.436346000001961 ], [ -103.471397000002199, 40.291779000001519 ], [ -103.472325000001717, 40.245155000001894 ], [ -103.471991000001836, 40.001529000002314 ], [ -103.705701000001781, 40.001366000002051 ], [ -103.736032000001757, 40.001342000001671 ], [ -103.791626000002282, 40.001308000002062 ], [ -103.943238000002154, 40.001176000002012 ], [ -104.150332000002564, 40.000856000002145 ], [ -104.207951000001685, 40.000832000002269 ], [ -104.414630000002234, 40.000742000001956 ], [ -104.489757000002683, 40.000613000001614 ], [ -104.572253000001936, 40.000593000001878 ], [ -104.631210000002525, 40.000532000002259 ], [ -104.697142000002358, 40.000510000002159 ], [ -104.714754000001847, 40.000511000002291 ], [ -104.721513000001636, 40.000511000001666 ], [ -104.741446000001673, 40.000499000001717 ], [ -104.752535000002055, 40.000470000002323 ], [ -104.7537280000018, 40.000471000001738 ], [ -104.761761000001684, 40.000461000001614 ], [ -104.771199000002042, 40.000451000001704 ], [ -104.788185000002201, 40.000408000002018 ], [ -104.799236000001599, 40.000440000002193 ], [ -104.808171000001821, 40.000419000002331 ], [ -104.827414000002761, 40.000403000001704 ], [ -104.867116000001644, 40.000370000002334 ], [ -104.884429000002584, 40.000363000001975 ], [ -104.885967000002495, 40.000356000001887 ], [ -104.922153000002496, 40.000330000001973 ], [ -104.941144000002396, 40.00033500000216 ], [ -104.959306000002698, 40.000330000001867 ], [ -104.961405000002244, 40.000337000002183 ], [ -104.961071000001994, 40.044144000001445 ], [ -104.978526000002375, 40.043888000002227 ], [ -105.007995000002722, 40.00758100000153 ], [ -105.007906000001995, 40.00048300000168 ], [ -105.017772000002196, 40.000475000002211 ], [ -105.037067000001599, 40.000467000001805 ], [ -105.05282300000232, 40.000260000001852 ], [ -105.055372000002635, 40.029309000002137 ], [ -105.055462000002038, 40.036636000002304 ], [ -105.055476000002159, 40.051468000001641 ], [ -105.055476000002457, 40.052747000001482 ], [ -105.055432000002114, 40.087832000001583 ], [ -105.055409000001717, 40.096617000001721 ], [ -105.055436000002686, 40.109241000001944 ], [ -105.055393000001999, 40.138263000001757 ], [ -105.055375000001703, 40.14492900000193 ], [ -105.055332000002394, 40.160192000001778 ], [ -105.055276000002578, 40.170972000001555 ], [ -105.055202000001984, 40.182224000001469 ], [ -105.05521500000188, 40.187682000001843 ], [ -105.055184000002086, 40.203680000001853 ], [ -105.055076000002643, 40.232779000001933 ], [ -105.055100000002341, 40.256120000001843 ], [ -105.055089000002624, 40.261793000001504 ], [ -105.131155000002394, 40.261283000001491 ], [ -105.15906000000264, 40.261219000001589 ], [ -105.196476000002036, 40.261085000001522 ], [ -105.224240000002482, 40.261449000001598 ], [ -105.338198000002762, 40.261685000001656 ] ] ] } }
]
}
