{
"type": "FeatureCollection",
"name": "connecticut_enacted_districts",
"crs": { "type": "name", "properties": { "name": "urn:ogc:def:crs:OGC:1.3:CRS84" } },
"features": [
{ "type": "Feature", "properties": { "enacted_district": 1, "population": 715463.0, "voting_age_pop": 570854.0, "dem_votes": 179745.0, "rep_votes": 108898.0, "minority_pop": 223985.0, "dem_pct": 0.62272426470667075, "rep_pct": 0.37727573494688049 }, "geometry": { "type": "MultiPolygon", "coordinates": [ [ [ [ -72.903213000001116, 41.56174700000313 ], [ -72.903470000001548, 41.561708000003335 ], [ -72.946350000001004, 41.556797000002646 ], [ -72.945103000001708, 41.559690000003023 ], [ -72.941099000001628, 41.577487000003117 ], [ -72.933644000000797, 41.607794000002976 ], [ -72.938501000001196, 41.644311000003007 ], [ -72.940895000001731, 41.64402800000348 ], [ -72.963931000000699, 41.641318000002748 ], [ -72.98325000000068, 41.639598000003005 ], [ -72.99354000000163, 41.690123000002856 ], [ -72.998550000001771, 41.712498000003265 ], [ -72.948090000001471, 41.717601000002681 ], [ -72.926951000001807, 41.720376000002709 ], [ -72.898270000001418, 41.723177000003453 ], [ -72.897031000001562, 41.717272000003497 ], [ -72.893750000000779, 41.69957500000347 ], [ -72.892883000000779, 41.696693000003201 ], [ -72.889214000000806, 41.678075000002721 ], [ -72.888526000000866, 41.675160000003189 ], [ -72.883388000001162, 41.64946800000267 ], [ -72.880613000001276, 41.64972200000291 ], [ -72.874881000000684, 41.650305000002689 ], [ -72.870588000001206, 41.650695000002877 ], [ -72.846766000001054, 41.653409000003201 ], [ -72.822573000001711, 41.655710000003197 ], [ -72.814188000001437, 41.645706000002825 ], [ -72.791160000000716, 41.647484000003132 ], [ -72.788520000001327, 41.647625000003117 ], [ -72.750357000000989, 41.650167000003457 ], [ -72.75055200000179, 41.653948000002657 ], [ -72.751915000001731, 41.659156000003328 ], [ -72.754427000001655, 41.672096000003087 ], [ -72.757552000001269, 41.688743000003107 ], [ -72.758241000000766, 41.69343600000262 ], [ -72.759063000001575, 41.698758000002911 ], [ -72.761586000000705, 41.713334000002817 ], [ -72.76217900000097, 41.718341000002987 ], [ -72.762346000000719, 41.726854000003449 ], [ -72.770752000001494, 41.738293000003132 ], [ -72.781228000001263, 41.746086000003089 ], [ -72.79276100000132, 41.747593000002688 ], [ -72.794973000001477, 41.747468000003153 ], [ -72.796742000001004, 41.758799000002881 ], [ -72.797943000001794, 41.796674000003115 ], [ -72.797241000001378, 41.804699000002799 ], [ -72.798552000001436, 41.824885000002944 ], [ -72.783336000000816, 41.82690700000272 ], [ -72.784440000000927, 41.855698000003265 ], [ -72.760585000001242, 41.905705000003451 ], [ -72.785440000000619, 41.917997000003211 ], [ -72.800890000001161, 41.918412000003137 ], [ -72.826429000001696, 41.918907000003415 ], [ -72.876644000000667, 41.920796000003406 ], [ -72.905945000000969, 41.921696000003195 ], [ -72.915346000001136, 41.896797000003417 ], [ -72.940647000001178, 41.895196000003118 ], [ -72.953810000001155, 41.849497000003183 ], [ -72.936348000000947, 41.839798000003007 ], [ -72.949024000001529, 41.806431000003258 ], [ -73.016936000001522, 41.798183000002922 ], [ -73.076683000000799, 41.798451000003496 ], [ -73.080743000001803, 41.798407000003309 ], [ -73.082508000000701, 41.798389000002572 ], [ -73.084941000001592, 41.80643900000328 ], [ -73.091291000001419, 41.822541000003227 ], [ -73.104902000000735, 41.830795000003306 ], [ -73.121272000000658, 41.812147000002774 ], [ -73.132955000000962, 41.813394000002674 ], [ -73.144187000000699, 41.818245000002818 ], [ -73.143511000001141, 41.80328100000348 ], [ -73.143640000000858, 41.80326900000307 ], [ -73.154138000000927, 41.78370500000328 ], [ -73.163181000001387, 41.793993000003091 ], [ -73.193997000000877, 41.790786000002612 ], [ -73.20183600000145, 41.790014000003403 ], [ -73.192566000001349, 41.820979000002936 ], [ -73.170664000000855, 41.894275000002935 ], [ -73.165005000001429, 41.913246000003049 ], [ -73.151494000001449, 41.959726000003201 ], [ -73.127228000000812, 42.04212700000307 ], [ -73.00876600000133, 42.038785000002726 ], [ -72.863640000000643, 42.037528000003306 ], [ -72.81378400000105, 42.03674400000348 ], [ -72.817053000000897, 41.997685000003237 ], [ -72.774691000001326, 42.002385000003486 ], [ -72.762939000000685, 41.985896000003144 ], [ -72.707622000001024, 41.973353000002874 ], [ -72.716169000001386, 41.949804000003283 ], [ -72.687636000001092, 41.948096000003261 ], [ -72.613964000001502, 41.943468000003307 ], [ -72.623434000001723, 41.934297000003106 ], [ -72.603892000000656, 41.936314000002902 ], [ -72.577367000001033, 41.938657000002841 ], [ -72.548002000001119, 41.941801000003103 ], [ -72.52618300000168, 41.944355000002773 ], [ -72.513330000001432, 41.945401000002732 ], [ -72.51733000000155, 41.869897000003171 ], [ -72.515142000001433, 41.857461000003127 ], [ -72.49681000000173, 41.86061600000339 ], [ -72.503211000001698, 41.830868000002702 ], [ -72.505430000001752, 41.820298000003028 ], [ -72.502559000001582, 41.81017600000316 ], [ -72.485404000001225, 41.812233000002976 ], [ -72.473468000000608, 41.798264000002632 ], [ -72.472281000001502, 41.790960000002883 ], [ -72.468829000001506, 41.771659000002963 ], [ -72.463899000001746, 41.745572000002873 ], [ -72.489123000000973, 41.742998000003446 ], [ -72.517132000001766, 41.739935000002738 ], [ -72.531898000000851, 41.738335000003374 ], [ -72.571233000001499, 41.733799000002662 ], [ -72.613848000001013, 41.728123000002803 ], [ -72.636335000000869, 41.72489900000329 ], [ -72.640573000000884, 41.714526000003339 ], [ -72.622035000001716, 41.712199000002663 ], [ -72.585483000001801, 41.718311000002842 ], [ -72.526165000000674, 41.721066000003198 ], [ -72.526747000001322, 41.712123000002649 ], [ -72.566090000000997, 41.718169000002632 ], [ -72.57531700000149, 41.689791000003169 ], [ -72.599032000001102, 41.679664000003037 ], [ -72.60863200000162, 41.681131000002679 ], [ -72.624797000000825, 41.669301000003117 ], [ -72.627836000001452, 41.640199000003136 ], [ -72.630524000001131, 41.633282000002815 ], [ -72.544230000001534, 41.642696000002914 ], [ -72.529290000000657, 41.617435000003255 ], [ -72.557674000001356, 41.578037000003413 ], [ -72.560802000001104, 41.55404900000341 ], [ -72.619757000000945, 41.561129000002929 ], [ -72.645687000001587, 41.56411700000308 ], [ -72.650991000000616, 41.56234000000336 ], [ -72.662912000001313, 41.560475000003123 ], [ -72.663458000000958, 41.560595000002714 ], [ -72.672680000001733, 41.552968000003403 ], [ -72.68763100000065, 41.55224000000311 ], [ -72.694345000001249, 41.549201000003421 ], [ -72.748878000001127, 41.54427900000271 ], [ -72.750240000001767, 41.55917700000338 ], [ -72.752181000000647, 41.578894000002691 ], [ -72.779721000000677, 41.575936000003168 ], [ -72.801243000001392, 41.573098000003107 ], [ -72.826141000001655, 41.555897000003505 ], [ -72.840244000001107, 41.569098000003422 ], [ -72.852707000001615, 41.546291000003109 ], [ -72.867806000001124, 41.548980000003183 ], [ -72.876233000001605, 41.560385000003158 ], [ -72.903213000001116, 41.56174700000313 ] ] ], [ [ [ -73.095301000000703, 41.820478000002744 ], [ -73.096382000001356, 41.819551000002974 ], [ -73.09560000000107, 41.822361000003127 ], [ -73.094899000001561, 41.822197000002951 ], [ -73.095301000000703, 41.820478000002744 ] ] ] ] } },
{ "type": "Feature", "properties": { "enacted_district": 2, "population": 725372.0, "voting_age_pop": 589007.0, "dem_votes": 172695.0, "rep_votes": 146951.0, "minority_pop": 114407.0, "dem_pct": 0.54026954801866145, "rep_pct": 0.45973045166849252 }, "geometry": { "type": "Polygon", "coordinates": [ [ [ -72.527901000000981, 41.177774000003453 ], [ -72.647478000000774, 41.154854000002857 ], [ -72.65014600000066, 41.257793000003268 ], [ -72.648775000001223, 41.288878000003272 ], [ -72.6355840000017, 41.31287600000298 ], [ -72.666952000000734, 41.337809000002821 ], [ -72.678649000000803, 41.360410000003228 ], [ -72.678739000000689, 41.433797000003011 ], [ -72.65367200000145, 41.438125000002948 ], [ -72.60896000000082, 41.443090000003309 ], [ -72.637039000000712, 41.463829000003237 ], [ -72.627920000001026, 41.485459000003225 ], [ -72.633701000001594, 41.500201000002896 ], [ -72.554912000001195, 41.51105000000274 ], [ -72.551341000001628, 41.535304000002768 ], [ -72.560802000001104, 41.55404900000341 ], [ -72.557674000001356, 41.578037000003413 ], [ -72.529290000000657, 41.617435000003255 ], [ -72.544230000001534, 41.642696000002914 ], [ -72.630524000001131, 41.633282000002815 ], [ -72.627836000001452, 41.640199000003136 ], [ -72.624797000000825, 41.669301000003117 ], [ -72.60863200000162, 41.681131000002679 ], [ -72.599032000001102, 41.679664000003037 ], [ -72.57531700000149, 41.689791000003169 ], [ -72.566090000000997, 41.718169000002632 ], [ -72.526747000001322, 41.712123000002649 ], [ -72.526165000000674, 41.721066000003198 ], [ -72.585483000001801, 41.718311000002842 ], [ -72.622035000001716, 41.712199000002663 ], [ -72.640573000000884, 41.714526000003339 ], [ -72.636335000000869, 41.72489900000329 ], [ -72.613848000001013, 41.728123000002803 ], [ -72.571233000001499, 41.733799000002662 ], [ -72.531898000000851, 41.738335000003374 ], [ -72.517132000001766, 41.739935000002738 ], [ -72.489123000000973, 41.742998000003446 ], [ -72.463899000001746, 41.745572000002873 ], [ -72.468829000001506, 41.771659000002963 ], [ -72.472281000001502, 41.790960000002883 ], [ -72.473468000000608, 41.798264000002632 ], [ -72.485404000001225, 41.812233000002976 ], [ -72.502559000001582, 41.81017600000316 ], [ -72.505430000001752, 41.820298000003028 ], [ -72.503211000001698, 41.830868000002702 ], [ -72.49681000000173, 41.86061600000339 ], [ -72.515142000001433, 41.857461000003127 ], [ -72.51733000000155, 41.869897000003171 ], [ -72.513330000001432, 41.945401000002732 ], [ -72.52618300000168, 41.944355000002773 ], [ -72.548002000001119, 41.941801000003103 ], [ -72.577367000001033, 41.938657000002841 ], [ -72.603892000000656, 41.936314000002902 ], [ -72.623434000001723, 41.934297000003106 ], [ -72.613964000001502, 41.943468000003307 ], [ -72.687636000001092, 41.948096000003261 ], [ -72.716169000001386, 41.949804000003283 ], [ -72.707622000001024, 41.973353000002874 ], [ -72.762939000000685, 41.985896000003144 ], [ -72.774691000001326, 42.002385000003486 ], [ -72.761363000000685, 42.009710000003139 ], [ -72.755894000001774, 42.036349000002879 ], [ -72.699330000001382, 42.036957000003305 ], [ -72.607978000001566, 42.031083000003235 ], [ -72.606959000001268, 42.025147000003237 ], [ -72.553077000000869, 42.032243000002822 ], [ -72.524589000001356, 42.034514000003277 ], [ -72.509233000001572, 42.034376000002659 ], [ -72.397434000001383, 42.033069000003252 ], [ -72.321266000000819, 42.032022000003153 ], [ -72.205081000001158, 42.031069000002653 ], [ -72.102170000000982, 42.028869000003411 ], [ -71.963020000001009, 42.026221000003375 ], [ -71.901090000001446, 42.02456200000308 ], [ -71.860398000000799, 42.024146000002652 ], [ -71.800671000001657, 42.023514000003082 ], [ -71.798646000001042, 41.976912000003331 ], [ -71.797894000000795, 41.932364000002941 ], [ -71.796828000001724, 41.904446000002814 ], [ -71.794474000000918, 41.849159000003411 ], [ -71.791254000001416, 41.774497000003528 ], [ -71.787658000001713, 41.639918000003348 ], [ -71.793160000001038, 41.505704000003384 ], [ -71.797747000001493, 41.416834000003099 ], [ -71.82033000000142, 41.419382000003054 ], [ -71.842488000001595, 41.408714000003521 ], [ -71.832591000001528, 41.386385000003351 ], [ -71.837633000001489, 41.365499000002906 ], [ -71.829365000000664, 41.342432000002717 ], [ -71.857458000000605, 41.320789000003337 ], [ -71.875011000001322, 41.322117000002869 ], [ -71.892067000000594, 41.330075000003163 ], [ -71.907258000001192, 41.304483000003074 ], [ -71.939804000001246, 41.308229000002711 ], [ -71.979147000000836, 41.300032000003135 ], [ -72.016012000001112, 41.291438000003161 ], [ -72.050058000001556, 41.276614000003541 ], [ -72.082820000001433, 41.262027000003172 ], [ -72.184863000001044, 41.242245000002939 ], [ -72.220393000000911, 41.235808000003459 ], [ -72.248529000000815, 41.230711000003261 ], [ -72.331453000000678, 41.21500400000285 ], [ -72.396529000000953, 41.202671000003129 ], [ -72.421688000001112, 41.197903000003109 ], [ -72.469464000000627, 41.188848000002771 ], [ -72.527901000000981, 41.177774000003453 ] ] ] } },
{ "type": "Feature", "properties": { "enacted_district": 3, "population": 717919.0, "voting_age_pop": 581215.0, "dem_votes": 172996.0, "rep_votes": 118411.0, "minority_pop": 206307.0, "dem_pct": 0.59365766759423844, "rep_pct": 0.4063423320625989 }, "geometry": { "type": "Polygon", "coordinates": [ [ [ -73.165755000001326, 41.154297000002778 ], [ -73.158783000001378, 41.174325000003272 ], [ -73.154731000001178, 41.184819000003074 ], [ -73.153819000000809, 41.192533000003117 ], [ -73.157988000000955, 41.205430000003375 ], [ -73.1619440000011, 41.217572000003216 ], [ -73.157636000000664, 41.228377000002645 ], [ -73.146219000001523, 41.237042000002823 ], [ -73.146882000000957, 41.255367000003375 ], [ -73.14736700000168, 41.256222000002722 ], [ -73.136556000001448, 41.27199900000349 ], [ -73.146730000001355, 41.294926000002981 ], [ -73.119398000001098, 41.311767000002803 ], [ -73.113174000000939, 41.330802000003025 ], [ -73.124654000000731, 41.345296000003202 ], [ -73.147555000001475, 41.367696000003065 ], [ -73.120029000000812, 41.383991000002879 ], [ -73.110526000000974, 41.398104000003279 ], [ -73.08358500000142, 41.40376600000338 ], [ -73.092698000001135, 41.413450000003422 ], [ -73.077366000001518, 41.465189000003058 ], [ -73.104234000001739, 41.489396000002664 ], [ -73.095314000001679, 41.501569000003066 ], [ -73.070114000000657, 41.514301000003258 ], [ -73.083727000001375, 41.531487000002812 ], [ -73.049124000001726, 41.543270000003119 ], [ -73.048565000000636, 41.543731000003277 ], [ -73.037497000000712, 41.544647000002634 ], [ -73.017206000001579, 41.53689300000292 ], [ -73.017173000001137, 41.536882000003061 ], [ -73.006602000001223, 41.530302000003168 ], [ -72.999551000001631, 41.525927000003101 ], [ -72.991418000001516, 41.528893000003386 ], [ -72.969365000000749, 41.530234000002977 ], [ -72.938613000000686, 41.511464000002981 ], [ -72.934647000000652, 41.501246000002787 ], [ -72.943566000001255, 41.487458000003343 ], [ -72.952392000001126, 41.464589000002768 ], [ -72.948048000000838, 41.464097000003079 ], [ -72.900098000001393, 41.452988000002762 ], [ -72.886667000001694, 41.447957000002731 ], [ -72.871264000000807, 41.469466000002981 ], [ -72.85745100000112, 41.488037000003381 ], [ -72.853268000000881, 41.494564000003329 ], [ -72.850299000000646, 41.515731000002816 ], [ -72.828231000000656, 41.51122900000265 ], [ -72.80026800000104, 41.505552000002709 ], [ -72.792627000001389, 41.503567000002697 ], [ -72.788636000001432, 41.502205000003265 ], [ -72.744780000001811, 41.498183000003465 ], [ -72.747116000001682, 41.52771900000301 ], [ -72.748878000001127, 41.54427900000271 ], [ -72.694345000001249, 41.549201000003421 ], [ -72.68763100000065, 41.55224000000311 ], [ -72.672680000001733, 41.552968000003403 ], [ -72.663458000000958, 41.560595000002714 ], [ -72.662912000001313, 41.560475000003123 ], [ -72.650991000000616, 41.56234000000336 ], [ -72.645687000001587, 41.56411700000308 ], [ -72.619757000000945, 41.561129000002929 ], [ -72.560802000001104, 41.55404900000341 ], [ -72.551341000001628, 41.535304000002768 ], [ -72.554912000001195, 41.51105000000274 ], [ -72.633701000001594, 41.500201000002896 ], [ -72.627920000001026, 41.485459000003225 ], [ -72.637039000000712, 41.463829000003237 ], [ -72.60896000000082, 41.443090000003309 ], [ -72.65367200000145, 41.438125000002948 ], [ -72.678739000000689, 41.433797000003011 ], [ -72.678649000000803, 41.360410000003228 ], [ -72.666952000000734, 41.337809000002821 ], [ -72.6355840000017, 41.31287600000298 ], [ -72.648775000001223, 41.288878000003272 ], [ -72.65014600000066, 41.257793000003268 ], [ -72.647478000000774, 41.154854000002857 ], [ -72.735817000001632, 41.137911000002958 ], [ -72.795024000001249, 41.126634000003008 ], [ -72.827828000001077, 41.120318000002825 ], [ -72.862708000000993, 41.113572000003224 ], [ -72.882601000001074, 41.10972500000269 ], [ -72.999547000000845, 41.087108000003305 ], [ -73.118210000001127, 41.05803900000295 ], [ -73.165755000001326, 41.154297000002778 ] ] ] } },
{ "type": "Feature", "properties": { "enacted_district": 4, "population": 726330.0, "voting_age_pop": 559395.0, "dem_votes": 176351.0, "rep_votes": 112676.0, "minority_pop": 225285.0, "dem_pct": 0.61015406843991937, "rep_pct": 0.38984593121409211 }, "geometry": { "type": "Polygon", "coordinates": [ [ [ -73.60061000000087, 40.953580000003171 ], [ -73.612885000001796, 40.95094300000288 ], [ -73.649832000001112, 40.979199000002666 ], [ -73.655650000000719, 41.012678000003248 ], [ -73.656117000001188, 41.013135000002855 ], [ -73.666539000000981, 41.025288000002739 ], [ -73.675575000001757, 41.036813000003107 ], [ -73.727775000001344, 41.10069600000336 ], [ -73.660573000001449, 41.13199600000263 ], [ -73.633930000000731, 41.14399200000296 ], [ -73.598098000001343, 41.160221000003446 ], [ -73.564759000000976, 41.175255000002878 ], [ -73.554783000001862, 41.179909000002901 ], [ -73.495901000001084, 41.206781000003055 ], [ -73.484898000001266, 41.211748000002878 ], [ -73.502532000001224, 41.237228000002773 ], [ -73.538387000000952, 41.280385000002731 ], [ -73.548845000001165, 41.292969000003382 ], [ -73.545293000000726, 41.361516000002695 ], [ -73.54361900000174, 41.375094000003031 ], [ -73.510730000001843, 41.377250000002846 ], [ -73.502177000001495, 41.36378900000345 ], [ -73.485401000000806, 41.356617000003475 ], [ -73.472831000001776, 41.332085000002877 ], [ -73.470102000000765, 41.326421000002611 ], [ -73.42433000000176, 41.335289000002987 ], [ -73.394296000001219, 41.340413000003309 ], [ -73.347055000000879, 41.350426000002933 ], [ -73.342788000001491, 41.340479000002865 ], [ -73.334846000001576, 41.321868000002823 ], [ -73.325287000001452, 41.322474000003304 ], [ -73.315111000001338, 41.327696000002838 ], [ -73.305999000001805, 41.332358000003083 ], [ -73.291929000000962, 41.339485000002625 ], [ -73.241034000001363, 41.364639000002825 ], [ -73.20236900000144, 41.371978000002663 ], [ -73.188963000001436, 41.38853200000333 ], [ -73.183269000000934, 41.391711000003063 ], [ -73.184857000001784, 41.406296000003032 ], [ -73.207688000000928, 41.42054400000314 ], [ -73.164755000001222, 41.447771000003215 ], [ -73.157843000000653, 41.464762000002665 ], [ -73.15789000000099, 41.489409000003363 ], [ -73.104234000001739, 41.489396000002664 ], [ -73.077366000001518, 41.465189000003058 ], [ -73.092698000001135, 41.413450000003422 ], [ -73.08358500000142, 41.40376600000338 ], [ -73.110526000000974, 41.398104000003279 ], [ -73.120029000000812, 41.383991000002879 ], [ -73.147555000001475, 41.367696000003065 ], [ -73.124654000000731, 41.345296000003202 ], [ -73.113174000000939, 41.330802000003025 ], [ -73.119398000001098, 41.311767000002803 ], [ -73.146730000001355, 41.294926000002981 ], [ -73.136556000001448, 41.27199900000349 ], [ -73.14736700000168, 41.256222000002722 ], [ -73.146882000000957, 41.255367000003375 ], [ -73.146219000001523, 41.237042000002823 ], [ -73.157636000000664, 41.228377000002645 ], [ -73.1619440000011, 41.217572000003216 ], [ -73.157988000000955, 41.205430000003375 ], [ -73.153819000000809, 41.192533000003117 ], [ -73.154731000001178, 41.184819000003074 ], [ -73.158783000001378, 41.174325000003272 ], [ -73.165755000001326, 41.154297000002778 ], [ -73.118210000001127, 41.05803900000295 ], [ -73.174830000000682, 41.044169000002803 ], [ -73.221524000001011, 41.032506000002954 ], [ -73.241353000000856, 41.027767000003415 ], [ -73.291406000000791, 41.017880000003018 ], [ -73.382408000000837, 40.999293000003362 ], [ -73.456460000000874, 40.983836000003272 ], [ -73.49606100000068, 40.975489000003137 ], [ -73.517067000001262, 40.971116000003249 ], [ -73.544192000000933, 40.965450000002711 ], [ -73.553675000001036, 40.963460000002648 ], [ -73.587438000001612, 40.956376000002699 ], [ -73.60061000000087, 40.953580000003171 ] ] ] } },
{ "type": "Feature", "properties": { "enacted_district": 5, "population": 720860.0, "voting_age_pop": 568756.0, "dem_votes": 153376.0, "rep_votes": 134517.0, "minority_pop": 185450.0, "dem_pct": 0.53275348809010514, "rep_pct": 0.46724651156254354 }, "geometry": { "type": "Polygon", "coordinates": [ [ [ -73.42433000000176, 41.335289000002987 ], [ -73.470102000000765, 41.326421000002611 ], [ -73.472831000001776, 41.332085000002877 ], [ -73.485401000000806, 41.356617000003475 ], [ -73.502177000001495, 41.36378900000345 ], [ -73.510730000001843, 41.377250000002846 ], [ -73.54361900000174, 41.375094000003031 ], [ -73.542644000000777, 41.389032000003304 ], [ -73.537261000001862, 41.437910000003399 ], [ -73.537093000001363, 41.439706000003056 ], [ -73.53526900000152, 41.463494000003102 ], [ -73.530713000000873, 41.519960000003053 ], [ -73.518080000001262, 41.666723000003245 ], [ -73.507930000001508, 41.791524000003136 ], [ -73.496601000001093, 41.921748000003035 ], [ -73.487319000001477, 42.049525000003321 ], [ -73.340544000000733, 42.048357000002973 ], [ -73.232950000001352, 42.045047000003187 ], [ -73.127228000000812, 42.04212700000307 ], [ -73.151494000001449, 41.959726000003201 ], [ -73.165005000001429, 41.913246000003049 ], [ -73.170664000000855, 41.894275000002935 ], [ -73.192566000001349, 41.820979000002936 ], [ -73.20183600000145, 41.790014000003403 ], [ -73.193997000000877, 41.790786000002612 ], [ -73.163181000001387, 41.793993000003091 ], [ -73.154138000000927, 41.78370500000328 ], [ -73.143640000000858, 41.80326900000307 ], [ -73.143511000001141, 41.80328100000348 ], [ -73.144187000000699, 41.818245000002818 ], [ -73.132955000000962, 41.813394000002674 ], [ -73.121272000000658, 41.812147000002774 ], [ -73.104902000000735, 41.830795000003306 ], [ -73.091291000001419, 41.822541000003227 ], [ -73.084941000001592, 41.80643900000328 ], [ -73.082508000000701, 41.798389000002572 ], [ -73.080743000001803, 41.798407000003309 ], [ -73.076683000000799, 41.798451000003496 ], [ -73.016936000001522, 41.798183000002922 ], [ -72.949024000001529, 41.806431000003258 ], [ -72.936348000000947, 41.839798000003007 ], [ -72.953810000001155, 41.849497000003183 ], [ -72.940647000001178, 41.895196000003118 ], [ -72.915346000001136, 41.896797000003417 ], [ -72.905945000000969, 41.921696000003195 ], [ -72.876644000000667, 41.920796000003406 ], [ -72.826429000001696, 41.918907000003415 ], [ -72.800890000001161, 41.918412000003137 ], [ -72.785440000000619, 41.917997000003211 ], [ -72.760585000001242, 41.905705000003451 ], [ -72.784440000000927, 41.855698000003265 ], [ -72.783336000000816, 41.82690700000272 ], [ -72.798552000001436, 41.824885000002944 ], [ -72.797241000001378, 41.804699000002799 ], [ -72.797943000001794, 41.796674000003115 ], [ -72.796742000001004, 41.758799000002881 ], [ -72.794973000001477, 41.747468000003153 ], [ -72.79276100000132, 41.747593000002688 ], [ -72.781228000001263, 41.746086000003089 ], [ -72.770752000001494, 41.738293000003132 ], [ -72.762346000000719, 41.726854000003449 ], [ -72.76217900000097, 41.718341000002987 ], [ -72.761586000000705, 41.713334000002817 ], [ -72.759063000001575, 41.698758000002911 ], [ -72.758241000000766, 41.69343600000262 ], [ -72.757552000001269, 41.688743000003107 ], [ -72.754427000001655, 41.672096000003087 ], [ -72.751915000001731, 41.659156000003328 ], [ -72.75055200000179, 41.653948000002657 ], [ -72.750357000000989, 41.650167000003457 ], [ -72.788520000001327, 41.647625000003117 ], [ -72.791160000000716, 41.647484000003132 ], [ -72.814188000001437, 41.645706000002825 ], [ -72.822573000001711, 41.655710000003197 ], [ -72.846766000001054, 41.653409000003201 ], [ -72.870588000001206, 41.650695000002877 ], [ -72.874881000000684, 41.650305000002689 ], [ -72.880613000001276, 41.64972200000291 ], [ -72.883388000001162, 41.64946800000267 ], [ -72.888526000000866, 41.675160000003189 ], [ -72.889214000000806, 41.678075000002721 ], [ -72.892883000000779, 41.696693000003201 ], [ -72.893750000000779, 41.69957500000347 ], [ -72.897031000001562, 41.717272000003497 ], [ -72.898270000001418, 41.723177000003453 ], [ -72.926951000001807, 41.720376000002709 ], [ -72.948090000001471, 41.717601000002681 ], [ -72.998550000001771, 41.712498000003265 ], [ -72.99354000000163, 41.690123000002856 ], [ -72.98325000000068, 41.639598000003005 ], [ -72.963931000000699, 41.641318000002748 ], [ -72.940895000001731, 41.64402800000348 ], [ -72.938501000001196, 41.644311000003007 ], [ -72.933644000000797, 41.607794000002976 ], [ -72.941099000001628, 41.577487000003117 ], [ -72.945103000001708, 41.559690000003023 ], [ -72.946350000001004, 41.556797000002646 ], [ -72.903470000001548, 41.561708000003335 ], [ -72.903213000001116, 41.56174700000313 ], [ -72.876233000001605, 41.560385000003158 ], [ -72.867806000001124, 41.548980000003183 ], [ -72.852707000001615, 41.546291000003109 ], [ -72.840244000001107, 41.569098000003422 ], [ -72.826141000001655, 41.555897000003505 ], [ -72.801243000001392, 41.573098000003107 ], [ -72.779721000000677, 41.575936000003168 ], [ -72.752181000000647, 41.578894000002691 ], [ -72.750240000001767, 41.55917700000338 ], [ -72.748878000001127, 41.54427900000271 ], [ -72.747116000001682, 41.52771900000301 ], [ -72.744780000001811, 41.498183000003465 ], [ -72.788636000001432, 41.502205000003265 ], [ -72.792627000001389, 41.503567000002697 ], [ -72.80026800000104, 41.505552000002709 ], [ -72.828231000000656, 41.51122900000265 ], [ -72.850299000000646, 41.515731000002816 ], [ -72.853268000000881, 41.494564000003329 ], [ -72.85745100000112, 41.488037000003381 ], [ -72.871264000000807, 41.469466000002981 ], [ -72.886667000001694, 41.447957000002731 ], [ -72.900098000001393, 41.452988000002762 ], [ -72.948048000000838, 41.464097000003079 ], [ -72.952392000001126, 41.464589000002768 ], [ -72.943566000001255, 41.487458000003343 ], [ -72.934647000000652, 41.501246000002787 ], [ -72.938613000000686, 41.511464000002981 ], [ -72.969365000000749, 41.530234000002977 ], [ -72.991418000001516, 41.528893000003386 ], [ -72.999551000001631, 41.525927000003101 ], [ -73.006602000001223, 41.530302000003168 ], [ -73.017173000001137, 41.536882000003061 ], [ -73.017206000001579, 41.53689300000292 ], [ -73.037497000000712, 41.544647000002634 ], [ -73.048565000000636, 41.543731000003277 ], [ -73.049124000001726, 41.543270000003119 ], [ -73.083727000001375, 41.531487000002812 ], [ -73.070114000000657, 41.514301000003258 ], [ -73.095314000001679, 41.501569000003066 ], [ -73.104234000001739, 41.489396000002664 ], [ -73.15789000000099, 41.489409000003363 ], [ -73.157843000000653, 41.464762000002665 ], [ -73.164755000001222, 41.447771000003215 ], [ -73.207688000000928, 41.42054400000314 ], [ -73.184857000001784, 41.406296000003032 ], [ -73.183269000000934, 41.391711000003063 ], [ -73.188963000001436, 41.38853200000333 ], [ -73.20236900000144, 41.371978000002663 ], [ -73.241034000001363, 41.364639000002825 ], [ -73.291929000000962, 41.339485000002625 ], [ -73.305999000001805, 41.332358000003083 ], [ -73.315111000001338, 41.327696000002838 ], [ -73.325287000001452, 41.322474000003304 ], [ -73.334846000001576, 41.321868000002823 ], [ -73.342788000001491, 41.340479000002865 ], [ -73.347055000000879, 41.350426000002933 ], [ -73.394296000001219, 41.340413000003309 ], [ -73.42433000000176, 41.335289000002987 ] ], [ [ -73.096382000001356, 41.819551000002974 ], [ -73.095301000000703, 41.820478000002744 ], [ -73.094899000001561, 41.822197000002951 ], [ -73.09560000000107, 41.822361000003127 ], [ -73.096382000001356, 41.819551000002974 ] ] ] } }
]
}
