{
"type": "FeatureCollection",
"name": "connecticut_optimized_districts_all",
"crs": { "type": "name", "properties": { "name": "urn:ogc:def:crs:OGC:1.3:CRS84" } },
"features": [
{ "type": "Feature", "properties": { "opt_all": 1, "population": 718973.0, "voting_age_pop": 569469.0, "dem_votes": 177111.0, "rep_votes": 103326.0, "minority_pop": 235699.0, "dem_pct": 0.63155361074624472, "rep_pct": 0.36844638889716891 }, "geometry": { "type": "Polygon", "coordinates": [ [ [ -72.842117000001025, 41.586625000003281 ], [ -72.857443000001126, 41.601179000002723 ], [ -72.864622000000722, 41.618261000002654 ], [ -72.898863000001441, 41.610484000003488 ], [ -72.898804000001576, 41.60664700000342 ], [ -72.921928000001785, 41.613010000003094 ], [ -72.925894000001435, 41.589489000003169 ], [ -72.924204000001325, 41.575356000003069 ], [ -72.945103000001708, 41.559690000003023 ], [ -72.941099000001628, 41.577487000003117 ], [ -72.933644000000797, 41.607794000002976 ], [ -72.938501000001196, 41.644311000003007 ], [ -72.940895000001731, 41.64402800000348 ], [ -72.963931000000699, 41.641318000002748 ], [ -72.98325000000068, 41.639598000003005 ], [ -72.99354000000163, 41.690123000002856 ], [ -72.998550000001771, 41.712498000003265 ], [ -72.998950000001642, 41.714398000003037 ], [ -73.016936000001522, 41.798183000002922 ], [ -73.076683000000799, 41.798451000003496 ], [ -73.058644000001763, 41.867690000003279 ], [ -73.05353400000179, 41.887324000002998 ], [ -72.940647000001178, 41.895196000003118 ], [ -72.915346000001136, 41.896797000003417 ], [ -72.905945000000969, 41.921696000003195 ], [ -72.887060000000758, 41.973121000002749 ], [ -73.029537000000857, 41.96660600000277 ], [ -73.00876600000133, 42.038785000002726 ], [ -72.863640000000643, 42.037528000003306 ], [ -72.81378400000105, 42.03674400000348 ], [ -72.817053000000897, 41.997685000003237 ], [ -72.774691000001326, 42.002385000003486 ], [ -72.761363000000685, 42.009710000003139 ], [ -72.755894000001774, 42.036349000002879 ], [ -72.699330000001382, 42.036957000003305 ], [ -72.607978000001566, 42.031083000003235 ], [ -72.606959000001268, 42.025147000003237 ], [ -72.553077000000869, 42.032243000002822 ], [ -72.524589000001356, 42.034514000003277 ], [ -72.509233000001572, 42.034376000002659 ], [ -72.49272900000139, 41.947497000003331 ], [ -72.513330000001432, 41.945401000002732 ], [ -72.52618300000168, 41.944355000002773 ], [ -72.548002000001119, 41.941801000003103 ], [ -72.558456000001556, 41.915663000003292 ], [ -72.587988000001715, 41.868313000003511 ], [ -72.51733000000155, 41.869897000003171 ], [ -72.515142000001433, 41.857461000003127 ], [ -72.49681000000173, 41.86061600000339 ], [ -72.503211000001698, 41.830868000002702 ], [ -72.505430000001752, 41.820298000003028 ], [ -72.535564000000846, 41.812972000002873 ], [ -72.524861000001124, 41.793965000003197 ], [ -72.549697000001203, 41.78099800000296 ], [ -72.57994900000098, 41.782189000003441 ], [ -72.577093000000843, 41.765943000003205 ], [ -72.573088000001249, 41.743921000003283 ], [ -72.571233000001499, 41.733799000002662 ], [ -72.613848000001013, 41.728123000002803 ], [ -72.636335000000869, 41.72489900000329 ], [ -72.647836000001263, 41.727899000003362 ], [ -72.668237000001767, 41.728219000003293 ], [ -72.680379000001565, 41.726793000003497 ], [ -72.691492000000792, 41.725460000003409 ], [ -72.691841000001148, 41.725481000003114 ], [ -72.695948000001039, 41.725052000002769 ], [ -72.705938000000828, 41.724300000003481 ], [ -72.705349000001505, 41.698054000002848 ], [ -72.705237000001446, 41.695298000002687 ], [ -72.701935000001427, 41.682634000003361 ], [ -72.70653400000127, 41.670628000002914 ], [ -72.706039000001084, 41.668799000003133 ], [ -72.715296000000649, 41.652706000003171 ], [ -72.732024000001019, 41.648958000003425 ], [ -72.751311000001166, 41.605192000003079 ], [ -72.768688000000751, 41.631593000003157 ], [ -72.770207000000681, 41.629019000002735 ], [ -72.790254000001141, 41.616577000002714 ], [ -72.799817000001056, 41.590029000003241 ], [ -72.824077000000898, 41.597013000002896 ], [ -72.833874000001686, 41.583244000002736 ], [ -72.842117000001025, 41.586625000003281 ] ] ] } },
{ "type": "Feature", "properties": { "opt_all": 2, "population": 721944.0, "voting_age_pop": 583145.0, "dem_votes": 170081.0, "rep_votes": 139627.0, "minority_pop": 127998.0, "dem_pct": 0.54916566554652591, "rep_pct": 0.45083433413058932 }, "geometry": { "type": "Polygon", "coordinates": [ [ [ -72.770207000000681, 41.629019000002735 ], [ -72.768688000000751, 41.631593000003157 ], [ -72.751311000001166, 41.605192000003079 ], [ -72.732024000001019, 41.648958000003425 ], [ -72.715296000000649, 41.652706000003171 ], [ -72.706039000001084, 41.668799000003133 ], [ -72.70653400000127, 41.670628000002914 ], [ -72.701935000001427, 41.682634000003361 ], [ -72.705237000001446, 41.695298000002687 ], [ -72.705349000001505, 41.698054000002848 ], [ -72.705938000000828, 41.724300000003481 ], [ -72.695948000001039, 41.725052000002769 ], [ -72.691841000001148, 41.725481000003114 ], [ -72.691492000000792, 41.725460000003409 ], [ -72.680379000001565, 41.726793000003497 ], [ -72.668237000001767, 41.728219000003293 ], [ -72.647836000001263, 41.727899000003362 ], [ -72.636335000000869, 41.72489900000329 ], [ -72.613848000001013, 41.728123000002803 ], [ -72.571233000001499, 41.733799000002662 ], [ -72.573088000001249, 41.743921000003283 ], [ -72.577093000000843, 41.765943000003205 ], [ -72.57994900000098, 41.782189000003441 ], [ -72.549697000001203, 41.78099800000296 ], [ -72.524861000001124, 41.793965000003197 ], [ -72.535564000000846, 41.812972000002873 ], [ -72.505430000001752, 41.820298000003028 ], [ -72.503211000001698, 41.830868000002702 ], [ -72.49681000000173, 41.86061600000339 ], [ -72.515142000001433, 41.857461000003127 ], [ -72.51733000000155, 41.869897000003171 ], [ -72.587988000001715, 41.868313000003511 ], [ -72.558456000001556, 41.915663000003292 ], [ -72.548002000001119, 41.941801000003103 ], [ -72.52618300000168, 41.944355000002773 ], [ -72.513330000001432, 41.945401000002732 ], [ -72.49272900000139, 41.947497000003331 ], [ -72.509233000001572, 42.034376000002659 ], [ -72.397434000001383, 42.033069000003252 ], [ -72.321266000000819, 42.032022000003153 ], [ -72.205081000001158, 42.031069000002653 ], [ -72.102170000000982, 42.028869000003411 ], [ -71.963020000001009, 42.026221000003375 ], [ -71.901090000001446, 42.02456200000308 ], [ -71.860398000000799, 42.024146000002652 ], [ -71.800671000001657, 42.023514000003082 ], [ -71.798646000001042, 41.976912000003331 ], [ -71.797894000000795, 41.932364000002941 ], [ -71.796828000001724, 41.904446000002814 ], [ -71.794474000000918, 41.849159000003411 ], [ -71.791254000001416, 41.774497000003528 ], [ -71.787658000001713, 41.639918000003348 ], [ -71.793160000001038, 41.505704000003384 ], [ -71.797747000001493, 41.416834000003099 ], [ -71.82033000000142, 41.419382000003054 ], [ -71.842488000001595, 41.408714000003521 ], [ -71.832591000001528, 41.386385000003351 ], [ -71.837633000001489, 41.365499000002906 ], [ -71.829365000000664, 41.342432000002717 ], [ -71.857458000000605, 41.320789000003337 ], [ -71.875011000001322, 41.322117000002869 ], [ -71.892067000000594, 41.330075000003163 ], [ -71.907258000001192, 41.304483000003074 ], [ -71.939804000001246, 41.308229000002711 ], [ -71.979147000000836, 41.300032000003135 ], [ -72.016012000001112, 41.291438000003161 ], [ -72.050058000001556, 41.276614000003541 ], [ -72.082820000001433, 41.262027000003172 ], [ -72.184863000001044, 41.242245000002939 ], [ -72.220393000000911, 41.235808000003459 ], [ -72.248529000000815, 41.230711000003261 ], [ -72.331453000000678, 41.21500400000285 ], [ -72.331497000000667, 41.26835500000297 ], [ -72.349548000000937, 41.296302000002683 ], [ -72.349121000001432, 41.324492000002877 ], [ -72.369147000001362, 41.342337000002757 ], [ -72.379397000001362, 41.349746000003314 ], [ -72.382594000000964, 41.382480000003355 ], [ -72.423514000001262, 41.391888000002766 ], [ -72.425663000001734, 41.400805000002975 ], [ -72.433710000000758, 41.423995000003131 ], [ -72.305531000000627, 41.436282000002969 ], [ -72.32293100000129, 41.518119000003331 ], [ -72.342629000001324, 41.532591000003386 ], [ -72.430767000000799, 41.524567000003032 ], [ -72.435138000001288, 41.531870000003273 ], [ -72.466730000001334, 41.583899000002774 ], [ -72.505431000001693, 41.646999000002765 ], [ -72.544230000001534, 41.642696000002914 ], [ -72.630524000001131, 41.633282000002815 ], [ -72.627836000001452, 41.640199000003136 ], [ -72.673550000000986, 41.633446000003211 ], [ -72.713897000001637, 41.627705000002614 ], [ -72.714538000001625, 41.604310000002769 ], [ -72.739077000001004, 41.5947940000028 ], [ -72.752181000000647, 41.578894000002691 ], [ -72.779721000000677, 41.575936000003168 ], [ -72.801243000001392, 41.573098000003107 ], [ -72.826141000001655, 41.555897000003505 ], [ -72.840244000001107, 41.569098000003422 ], [ -72.852707000001615, 41.546291000003109 ], [ -72.867806000001124, 41.548980000003183 ], [ -72.876233000001605, 41.560385000003158 ], [ -72.903213000001116, 41.56174700000313 ], [ -72.903470000001548, 41.561708000003335 ], [ -72.946350000001004, 41.556797000002646 ], [ -72.945103000001708, 41.559690000003023 ], [ -72.924204000001325, 41.575356000003069 ], [ -72.925894000001435, 41.589489000003169 ], [ -72.921928000001785, 41.613010000003094 ], [ -72.898804000001576, 41.60664700000342 ], [ -72.898863000001441, 41.610484000003488 ], [ -72.864622000000722, 41.618261000002654 ], [ -72.857443000001126, 41.601179000002723 ], [ -72.842117000001025, 41.586625000003281 ], [ -72.833874000001686, 41.583244000002736 ], [ -72.824077000000898, 41.597013000002896 ], [ -72.799817000001056, 41.590029000003241 ], [ -72.790254000001141, 41.616577000002714 ], [ -72.770207000000681, 41.629019000002735 ] ] ] } },
{ "type": "Feature", "properties": { "opt_all": 3, "population": 719092.0, "voting_age_pop": 573549.0, "dem_votes": 166600.0, "rep_votes": 107350.0, "minority_pop": 248024.0, "dem_pct": 0.60814017134216458, "rep_pct": 0.3918598282928053 }, "geometry": { "type": "Polygon", "coordinates": [ [ [ -73.214793000001663, 41.178991000002803 ], [ -73.208728000001599, 41.182040000002779 ], [ -73.206688000000995, 41.183099000002997 ], [ -73.200819000001161, 41.197421000003061 ], [ -73.201596000000862, 41.198578000003309 ], [ -73.202585000001349, 41.200063000002899 ], [ -73.205711000000875, 41.205399000003268 ], [ -73.206884000001452, 41.209706000002669 ], [ -73.199037000001709, 41.210876000003346 ], [ -73.201072000001233, 41.2282950000032 ], [ -73.195241000000948, 41.227254000003462 ], [ -73.19820600000098, 41.246015000003531 ], [ -73.220541000001276, 41.260464000003203 ], [ -73.246112000001233, 41.295848000003168 ], [ -73.27437100000104, 41.293806000002974 ], [ -73.27339900000112, 41.318786000003222 ], [ -73.231686000001716, 41.320421000003037 ], [ -73.207539000000708, 41.33275700000285 ], [ -73.241034000001363, 41.364639000002825 ], [ -73.20236900000144, 41.371978000002663 ], [ -73.188963000001436, 41.38853200000333 ], [ -73.258546000001431, 41.396334000002867 ], [ -73.270835000001398, 41.368653000002944 ], [ -73.305129000000889, 41.40885600000334 ], [ -73.283124000000697, 41.431345000002985 ], [ -73.298403000001002, 41.448916000003003 ], [ -73.31047300000175, 41.468815000003318 ], [ -73.327114000001032, 41.484527000002842 ], [ -73.318889000000922, 41.505189000003263 ], [ -73.252265000001429, 41.512134000003137 ], [ -73.246048000001537, 41.512774000002885 ], [ -73.204197000001031, 41.508527000003291 ], [ -73.170371000001623, 41.512587000002931 ], [ -73.155730000001398, 41.515279000003382 ], [ -73.164676000001222, 41.557088000002963 ], [ -73.145036000001326, 41.557822000003441 ], [ -73.093853000000735, 41.570196000003456 ], [ -73.091269000001461, 41.555744000002917 ], [ -73.090377000001737, 41.551475000002775 ], [ -73.088159000001127, 41.541199000002905 ], [ -73.083727000001375, 41.531487000002812 ], [ -73.070114000000657, 41.514301000003258 ], [ -73.095314000001679, 41.501569000003066 ], [ -73.104234000001739, 41.489396000002664 ], [ -73.077366000001518, 41.465189000003058 ], [ -73.05211700000153, 41.468960000002696 ], [ -73.029400000000678, 41.464827000003069 ], [ -73.025751000000966, 41.459596000002826 ], [ -73.003503000001459, 41.467092000003426 ], [ -73.001811000000643, 41.471159000003425 ], [ -72.952392000001126, 41.464589000002768 ], [ -72.948048000000838, 41.464097000003079 ], [ -72.961580000001405, 41.43243400000317 ], [ -72.949732000001717, 41.417517000002803 ], [ -72.939362000000827, 41.421695000002885 ], [ -72.936038000001474, 41.425654000002972 ], [ -72.921009000001732, 41.420384000002734 ], [ -72.922262000001098, 41.415597000002677 ], [ -72.922893000000798, 41.407160000002762 ], [ -72.90435700000171, 41.41346400000279 ], [ -72.88315200000082, 41.423309000003087 ], [ -72.851360000000696, 41.434382000002813 ], [ -72.847901000000633, 41.42607800000345 ], [ -72.837867000001225, 41.427168000002759 ], [ -72.826593000001083, 41.452355000002733 ], [ -72.824014000000801, 41.456880000003046 ], [ -72.813192000001422, 41.462654000003198 ], [ -72.790659000001213, 41.44429700000267 ], [ -72.802477000001602, 41.432867000003412 ], [ -72.824273000001412, 41.408967000002669 ], [ -72.827414000001141, 41.402702000003167 ], [ -72.817722000001012, 41.399449000002853 ], [ -72.817432000001006, 41.378987000002766 ], [ -72.817003000000895, 41.363877000003441 ], [ -72.817752000001477, 41.339982000003502 ], [ -72.818955000001282, 41.335652000003073 ], [ -72.821780000001752, 41.32576500000345 ], [ -72.823843000001347, 41.318324000003045 ], [ -72.840181000001451, 41.299796000002729 ], [ -72.860324000001498, 41.282169000003371 ], [ -72.862659000001813, 41.273183000003229 ], [ -72.851927000001609, 41.262181000003032 ], [ -72.862040000001741, 41.239249000003277 ], [ -72.862708000000993, 41.113572000003224 ], [ -72.882601000001074, 41.10972500000269 ], [ -72.999547000000845, 41.087108000003305 ], [ -73.118210000001127, 41.05803900000295 ], [ -73.174830000000682, 41.044169000002803 ], [ -73.221524000001011, 41.032506000002954 ], [ -73.241353000000856, 41.027767000003415 ], [ -73.241658000001593, 41.127396000003408 ], [ -73.23479300000136, 41.14377100000344 ], [ -73.23721900000163, 41.153661000003062 ], [ -73.22441700000131, 41.166297000002928 ], [ -73.223072000001423, 41.176385000003357 ], [ -73.215969000001635, 41.175862000003519 ], [ -73.213737000001387, 41.169953000003424 ], [ -73.214793000001663, 41.178991000002803 ] ] ] } },
{ "type": "Feature", "properties": { "opt_all": 4, "population": 722565.0, "voting_age_pop": 560317.0, "dem_votes": 176070.0, "rep_votes": 119373.0, "minority_pop": 197375.0, "dem_pct": 0.59595251855824893, "rep_pct": 0.40404748110327626 }, "geometry": { "type": "Polygon", "coordinates": [ [ [ -73.60061000000087, 40.953580000003171 ], [ -73.612885000001796, 40.95094300000288 ], [ -73.649832000001112, 40.979199000002666 ], [ -73.655650000000719, 41.012678000003248 ], [ -73.656117000001188, 41.013135000002855 ], [ -73.666539000000981, 41.025288000002739 ], [ -73.675575000001757, 41.036813000003107 ], [ -73.727775000001344, 41.10069600000336 ], [ -73.660573000001449, 41.13199600000263 ], [ -73.633930000000731, 41.14399200000296 ], [ -73.598098000001343, 41.160221000003446 ], [ -73.564759000000976, 41.175255000002878 ], [ -73.554783000001862, 41.179909000002901 ], [ -73.495901000001084, 41.206781000003055 ], [ -73.484898000001266, 41.211748000002878 ], [ -73.502532000001224, 41.237228000002773 ], [ -73.538387000000952, 41.280385000002731 ], [ -73.548845000001165, 41.292969000003382 ], [ -73.545293000000726, 41.361516000002695 ], [ -73.54361900000174, 41.375094000003031 ], [ -73.542644000000777, 41.389032000003304 ], [ -73.537261000001862, 41.437910000003399 ], [ -73.537093000001363, 41.439706000003056 ], [ -73.53526900000152, 41.463494000003102 ], [ -73.530713000000873, 41.519960000003053 ], [ -73.518080000001262, 41.666723000003245 ], [ -73.506923000001308, 41.665802000003296 ], [ -73.484686000001119, 41.647430000003347 ], [ -73.497810000001692, 41.638145000003391 ], [ -73.488723000001585, 41.617886000002869 ], [ -73.450368000000793, 41.534678000002913 ], [ -73.445086000000984, 41.522574000002663 ], [ -73.441466000001469, 41.491294000002732 ], [ -73.419085000001175, 41.501438000003169 ], [ -73.414559000001418, 41.50349600000277 ], [ -73.386964000001257, 41.514794000002958 ], [ -73.37526300000178, 41.489194000003494 ], [ -73.33165600000099, 41.472729000002907 ], [ -73.31047300000175, 41.468815000003318 ], [ -73.298403000001002, 41.448916000003003 ], [ -73.283124000000697, 41.431345000002985 ], [ -73.305129000000889, 41.40885600000334 ], [ -73.270835000001398, 41.368653000002944 ], [ -73.258546000001431, 41.396334000002867 ], [ -73.188963000001436, 41.38853200000333 ], [ -73.20236900000144, 41.371978000002663 ], [ -73.241034000001363, 41.364639000002825 ], [ -73.207539000000708, 41.33275700000285 ], [ -73.231686000001716, 41.320421000003037 ], [ -73.27339900000112, 41.318786000003222 ], [ -73.27437100000104, 41.293806000002974 ], [ -73.246112000001233, 41.295848000003168 ], [ -73.220541000001276, 41.260464000003203 ], [ -73.19820600000098, 41.246015000003531 ], [ -73.195241000000948, 41.227254000003462 ], [ -73.201072000001233, 41.2282950000032 ], [ -73.199037000001709, 41.210876000003346 ], [ -73.206884000001452, 41.209706000002669 ], [ -73.205711000000875, 41.205399000003268 ], [ -73.202585000001349, 41.200063000002899 ], [ -73.201596000000862, 41.198578000003309 ], [ -73.200819000001161, 41.197421000003061 ], [ -73.206688000000995, 41.183099000002997 ], [ -73.208728000001599, 41.182040000002779 ], [ -73.214793000001663, 41.178991000002803 ], [ -73.213737000001387, 41.169953000003424 ], [ -73.215969000001635, 41.175862000003519 ], [ -73.223072000001423, 41.176385000003357 ], [ -73.22441700000131, 41.166297000002928 ], [ -73.23721900000163, 41.153661000003062 ], [ -73.23479300000136, 41.14377100000344 ], [ -73.241658000001593, 41.127396000003408 ], [ -73.241353000000856, 41.027767000003415 ], [ -73.291406000000791, 41.017880000003018 ], [ -73.382408000000837, 40.999293000003362 ], [ -73.456460000000874, 40.983836000003272 ], [ -73.49606100000068, 40.975489000003137 ], [ -73.517067000001262, 40.971116000003249 ], [ -73.544192000000933, 40.965450000002711 ], [ -73.553675000001036, 40.963460000002648 ], [ -73.587438000001612, 40.956376000002699 ], [ -73.60061000000087, 40.953580000003171 ] ] ] } },
{ "type": "Feature", "properties": { "opt_all": 5, "population": 723370.0, "voting_age_pop": 582747.0, "dem_votes": 165301.0, "rep_votes": 151777.0, "minority_pop": 146338.0, "dem_pct": 0.52132598271676811, "rep_pct": 0.47867401696785206 }, "geometry": { "type": "Polygon", "coordinates": [ [ [ -73.414559000001418, 41.50349600000277 ], [ -73.419085000001175, 41.501438000003169 ], [ -73.441466000001469, 41.491294000002732 ], [ -73.445086000000984, 41.522574000002663 ], [ -73.450368000000793, 41.534678000002913 ], [ -73.488723000001585, 41.617886000002869 ], [ -73.497810000001692, 41.638145000003391 ], [ -73.484686000001119, 41.647430000003347 ], [ -73.506923000001308, 41.665802000003296 ], [ -73.518080000001262, 41.666723000003245 ], [ -73.507930000001508, 41.791524000003136 ], [ -73.496601000001093, 41.921748000003035 ], [ -73.487319000001477, 42.049525000003321 ], [ -73.340544000000733, 42.048357000002973 ], [ -73.232950000001352, 42.045047000003187 ], [ -73.127228000000812, 42.04212700000307 ], [ -73.00876600000133, 42.038785000002726 ], [ -73.029537000000857, 41.96660600000277 ], [ -72.887060000000758, 41.973121000002749 ], [ -72.905945000000969, 41.921696000003195 ], [ -72.915346000001136, 41.896797000003417 ], [ -72.940647000001178, 41.895196000003118 ], [ -73.05353400000179, 41.887324000002998 ], [ -73.058644000001763, 41.867690000003279 ], [ -73.076683000000799, 41.798451000003496 ], [ -73.016936000001522, 41.798183000002922 ], [ -72.998950000001642, 41.714398000003037 ], [ -72.998550000001771, 41.712498000003265 ], [ -72.99354000000163, 41.690123000002856 ], [ -72.98325000000068, 41.639598000003005 ], [ -72.963931000000699, 41.641318000002748 ], [ -72.940895000001731, 41.64402800000348 ], [ -72.938501000001196, 41.644311000003007 ], [ -72.933644000000797, 41.607794000002976 ], [ -72.941099000001628, 41.577487000003117 ], [ -72.945103000001708, 41.559690000003023 ], [ -72.946350000001004, 41.556797000002646 ], [ -72.903470000001548, 41.561708000003335 ], [ -72.903213000001116, 41.56174700000313 ], [ -72.876233000001605, 41.560385000003158 ], [ -72.867806000001124, 41.548980000003183 ], [ -72.852707000001615, 41.546291000003109 ], [ -72.840244000001107, 41.569098000003422 ], [ -72.826141000001655, 41.555897000003505 ], [ -72.801243000001392, 41.573098000003107 ], [ -72.779721000000677, 41.575936000003168 ], [ -72.752181000000647, 41.578894000002691 ], [ -72.739077000001004, 41.5947940000028 ], [ -72.714538000001625, 41.604310000002769 ], [ -72.713897000001637, 41.627705000002614 ], [ -72.673550000000986, 41.633446000003211 ], [ -72.627836000001452, 41.640199000003136 ], [ -72.630524000001131, 41.633282000002815 ], [ -72.544230000001534, 41.642696000002914 ], [ -72.505431000001693, 41.646999000002765 ], [ -72.466730000001334, 41.583899000002774 ], [ -72.435138000001288, 41.531870000003273 ], [ -72.430767000000799, 41.524567000003032 ], [ -72.342629000001324, 41.532591000003386 ], [ -72.32293100000129, 41.518119000003331 ], [ -72.305531000000627, 41.436282000002969 ], [ -72.433710000000758, 41.423995000003131 ], [ -72.425663000001734, 41.400805000002975 ], [ -72.423514000001262, 41.391888000002766 ], [ -72.382594000000964, 41.382480000003355 ], [ -72.379397000001362, 41.349746000003314 ], [ -72.369147000001362, 41.342337000002757 ], [ -72.349121000001432, 41.324492000002877 ], [ -72.349548000000937, 41.296302000002683 ], [ -72.331497000000667, 41.26835500000297 ], [ -72.331453000000678, 41.21500400000285 ], [ -72.396529000000953, 41.202671000003129 ], [ -72.421688000001112, 41.197903000003109 ], [ -72.469464000000627, 41.188848000002771 ], [ -72.527901000000981, 41.177774000003453 ], [ -72.647478000000774, 41.154854000002857 ], [ -72.735817000001632, 41.137911000002958 ], [ -72.795024000001249, 41.126634000003008 ], [ -72.827828000001077, 41.120318000002825 ], [ -72.862708000000993, 41.113572000003224 ], [ -72.862040000001741, 41.239249000003277 ], [ -72.851927000001609, 41.262181000003032 ], [ -72.862659000001813, 41.273183000003229 ], [ -72.860324000001498, 41.282169000003371 ], [ -72.840181000001451, 41.299796000002729 ], [ -72.823843000001347, 41.318324000003045 ], [ -72.821780000001752, 41.32576500000345 ], [ -72.818955000001282, 41.335652000003073 ], [ -72.817752000001477, 41.339982000003502 ], [ -72.817003000000895, 41.363877000003441 ], [ -72.817432000001006, 41.378987000002766 ], [ -72.817722000001012, 41.399449000002853 ], [ -72.827414000001141, 41.402702000003167 ], [ -72.824273000001412, 41.408967000002669 ], [ -72.802477000001602, 41.432867000003412 ], [ -72.790659000001213, 41.44429700000267 ], [ -72.813192000001422, 41.462654000003198 ], [ -72.824014000000801, 41.456880000003046 ], [ -72.826593000001083, 41.452355000002733 ], [ -72.837867000001225, 41.427168000002759 ], [ -72.847901000000633, 41.42607800000345 ], [ -72.851360000000696, 41.434382000002813 ], [ -72.88315200000082, 41.423309000003087 ], [ -72.90435700000171, 41.41346400000279 ], [ -72.922893000000798, 41.407160000002762 ], [ -72.922262000001098, 41.415597000002677 ], [ -72.921009000001732, 41.420384000002734 ], [ -72.936038000001474, 41.425654000002972 ], [ -72.939362000000827, 41.421695000002885 ], [ -72.949732000001717, 41.417517000002803 ], [ -72.961580000001405, 41.43243400000317 ], [ -72.948048000000838, 41.464097000003079 ], [ -72.952392000001126, 41.464589000002768 ], [ -73.001811000000643, 41.471159000003425 ], [ -73.003503000001459, 41.467092000003426 ], [ -73.025751000000966, 41.459596000002826 ], [ -73.029400000000678, 41.464827000003069 ], [ -73.05211700000153, 41.468960000002696 ], [ -73.077366000001518, 41.465189000003058 ], [ -73.104234000001739, 41.489396000002664 ], [ -73.095314000001679, 41.501569000003066 ], [ -73.070114000000657, 41.514301000003258 ], [ -73.083727000001375, 41.531487000002812 ], [ -73.088159000001127, 41.541199000002905 ], [ -73.090377000001737, 41.551475000002775 ], [ -73.091269000001461, 41.555744000002917 ], [ -73.093853000000735, 41.570196000003456 ], [ -73.145036000001326, 41.557822000003441 ], [ -73.164676000001222, 41.557088000002963 ], [ -73.155730000001398, 41.515279000003382 ], [ -73.170371000001623, 41.512587000002931 ], [ -73.204197000001031, 41.508527000003291 ], [ -73.246048000001537, 41.512774000002885 ], [ -73.252265000001429, 41.512134000003137 ], [ -73.318889000000922, 41.505189000003263 ], [ -73.327114000001032, 41.484527000002842 ], [ -73.31047300000175, 41.468815000003318 ], [ -73.33165600000099, 41.472729000002907 ], [ -73.37526300000178, 41.489194000003494 ], [ -73.386964000001257, 41.514794000002958 ], [ -73.414559000001418, 41.50349600000277 ] ] ] } }
]
}
