{
"type": "FeatureCollection",
"name": "delaware_enacted_districts",
"crs": { "type": "name", "properties": { "name": "urn:ogc:def:crs:OGC:1.3:CRS84" } },
"features": [
{ "type": "Feature", "properties": { "enacted_district": 1, "population": 989948.0, "voting_age_pop": 783543.0, "dem_votes": 251177.0, "rep_votes": 168580.0, "minority_pop": 294317.0, "dem_pct": 0.59838668548746377, "rep_pct": 0.40161331427430313 }, "geometry": { "type": "Polygon", "coordinates": [ [ [ -75.558208000001414, 38.455570000003277 ], [ -75.693670000001546, 38.460080000002741 ], [ -75.733744000000868, 38.967657000003399 ], [ -75.78859600000132, 39.72219900000303 ], [ -75.624347000001251, 39.832695000003248 ], [ -75.520306000001753, 39.83700500000284 ], [ -75.459440000000811, 39.765811000002969 ], [ -75.55877300000121, 39.629987000003226 ], [ -75.512770000001936, 39.578290000002845 ], [ -75.560538000001074, 39.455645000002775 ], [ -75.321021000001565, 39.251379000002878 ], [ -75.168462000000986, 39.056179000003546 ], [ -75.01610900000162, 38.790530000003407 ], [ -74.986282000001353, 38.451632000003485 ], [ -75.558208000001414, 38.455570000003277 ] ] ] } }
]
}
