{
"type": "FeatureCollection",
"name": "delaware_optimized_districts_headcount",
"crs": { "type": "name", "properties": { "name": "urn:ogc:def:crs:OGC:1.3:CRS84" } },
"features": [
{ "type": "Feature", "properties": { "district_id": -1, "voting_age_pop": 692169, "lib_votes": 0, "grn_votes": 0, "con_votes": 0, "ref_votes": 0, "total_pop": 897934, "dem_votes_sum": 235612, "rep_votes_sum": 185064, "lib_votes_sum": 0, "grn_votes_sum": 0, "con_votes_sum": 0, "ref_votes_sum": 0, "minority_pop_sum": 186782, "dem_pct": 0.56007949110479327, "rep_pct": 0.43992050889520679, "lib_pct": 0.0, "grn_pct": 0.0, "con_pct": 0.0, "ref_pct": 0.0, "minority_pct": 0.20801306109357703, "compactness": 0.45681668985536877 }, "geometry": { "type": "Polygon", "coordinates": [ [ [ -75.6936700002328, 38.460079999791418 ], [ -75.788596000385112, 39.722198999707445 ], [ -75.773786000013672, 39.722199999499061 ], [ -75.722747000827496, 39.787843000074886 ], [ -75.66437200060345, 39.820837999719338 ], [ -75.58395300087389, 39.83857700006299 ], [ -75.499905999460864, 39.833692999524132 ], [ -75.405414000575107, 39.796396000272026 ], [ -75.462197999989343, 39.763197000181819 ], [ -75.476503000745737, 39.716406999473115 ], [ -75.506863999308663, 39.697176999878003 ], [ -75.515075000755843, 39.666911000362589 ], [ -75.559736999877188, 39.630451999420302 ], [ -75.553567999326575, 39.601932000306348 ], [ -75.514956999856722, 39.580969000512034 ], [ -75.511956999608614, 39.567241999344375 ], [ -75.534014000431227, 39.540701999701845 ], [ -75.526973999669323, 39.4991679993825 ], [ -75.559089999073606, 39.495805999785944 ], [ -75.560538000666583, 39.455644999659974 ], [ -75.321020999555671, 39.251379000199847 ], [ -75.168461999519124, 39.056178999998245 ], [ -75.01610900024518, 38.790530000255352 ], [ -74.986281999813031, 38.451632000479051 ], [ -75.6936700002328, 38.460079999791418 ] ] ] } }
]
}
