{
"type": "FeatureCollection",
"name": "georgia_optimized_districts_age",
"crs": { "type": "name", "properties": { "name": "urn:ogc:def:crs:OGC:1.3:CRS84" } },
"features": [
{ "type": "Feature", "properties": { "district_id": 0, "voting_age_pop": 526351, "lib_votes": 0, "grn_votes": 0, "con_votes": 0, "ref_votes": 0, "total_pop": 739515, "dem_votes_sum": 141418, "rep_votes_sum": 186301, "lib_votes_sum": 0, "grn_votes_sum": 0, "con_votes_sum": 0, "ref_votes_sum": 0, "minority_pop_sum": 186926, "dem_pct": 0.43152212718823141, "rep_pct": 0.56847787281176865, "lib_pct": 0.0, "grn_pct": 0.0, "con_pct": 0.0, "ref_pct": 0.0, "minority_pct": 0.25276836845770539, "compactness": 0.12878296590423924 }, "geometry": { "type": "Polygon", "coordinates": [ [ [ -84.105424, 33.046399 ], [ -84.04288, 33.028716 ], [ -84.041498, 33.202629 ], [ -84.024854, 33.202598 ], [ -84.020327, 33.221338 ], [ -83.997767, 33.223345 ], [ -83.996389, 33.239635 ], [ -83.966554, 33.243757 ], [ -83.964701, 33.262882 ], [ -83.949768, 33.254586 ], [ -83.932952, 33.257816 ], [ -83.946445, 33.270151 ], [ -83.935577, 33.276797 ], [ -83.94988, 33.284587 ], [ -83.943758, 33.292089 ], [ -83.961632, 33.295942 ], [ -83.978872, 33.284357 ], [ -83.980091, 33.30468 ], [ -83.945665, 33.315594 ], [ -83.950362, 33.308449 ], [ -83.926016, 33.305833 ], [ -83.937982, 33.289127 ], [ -83.906493, 33.28825 ], [ -83.902553, 33.324702 ], [ -83.934945, 33.336178 ], [ -83.933703, 33.34544 ], [ -83.893908, 33.395184 ], [ -83.877345, 33.386239 ], [ -83.874484, 33.408075 ], [ -83.886825, 33.411809 ], [ -83.882952, 33.502644 ], [ -83.948499, 33.517323 ], [ -83.944445, 33.546854 ], [ -84.032117, 33.539408 ], [ -84.024279, 33.548226 ], [ -84.037452, 33.556365 ], [ -84.01503, 33.563621 ], [ -84.01481, 33.596473 ], [ -83.988648, 33.587748 ], [ -83.974921, 33.60298 ], [ -84.019882, 33.628267 ], [ -84.018903, 33.645936 ], [ -84.039386, 33.636878 ], [ -84.037206, 33.667524 ], [ -84.07448, 33.692609 ], [ -84.023713, 33.752808 ], [ -84.070558, 33.77888 ], [ -84.073994, 33.804403 ], [ -84.126637, 33.828265 ], [ -84.106924, 33.834849 ], [ -84.122197, 33.847141 ], [ -84.111375, 33.852202 ], [ -84.144644, 33.862795 ], [ -84.153027, 33.877103 ], [ -84.13363, 33.885099 ], [ -84.129779, 33.87093 ], [ -84.118343, 33.87269 ], [ -84.099659, 33.884401 ], [ -84.108789, 33.897651 ], [ -84.08856, 33.897164 ], [ -84.080069, 33.884857 ], [ -84.014472, 33.895131 ], [ -84.014191, 33.904671 ], [ -84.006256, 33.897873 ], [ -83.991084, 33.942624 ], [ -84.016491, 33.967136 ], [ -83.953041, 33.984388 ], [ -83.965621, 34.007163 ], [ -83.96035, 34.036255 ], [ -83.988167, 34.036048 ], [ -83.993338, 34.056719 ], [ -84.031117, 34.043301 ], [ -84.07401, 34.001354 ], [ -84.100835, 34.016283 ], [ -84.124235, 34.005731 ], [ -84.12789, 33.984844 ], [ -84.160374, 34.020345 ], [ -84.18102, 33.998922 ], [ -84.168106, 34.028814 ], [ -84.175865, 34.050148 ], [ -84.149667, 34.037719 ], [ -84.147736, 34.057185 ], [ -84.097692, 34.050654 ], [ -84.11797, 34.06666 ], [ -84.093343, 34.126273 ], [ -84.108604, 34.156673 ], [ -84.139354, 34.173572 ], [ -84.091888, 34.201301 ], [ -84.062246, 34.168446 ], [ -84.050041, 34.190529 ], [ -84.025848, 34.195152 ], [ -83.927443, 34.16013 ], [ -83.973567, 34.104071 ], [ -83.919235, 34.07973 ], [ -83.890097, 34.106179 ], [ -83.86803, 34.098281 ], [ -83.817602, 34.127518 ], [ -83.790431, 34.095292 ], [ -83.737705, 34.110237 ], [ -83.726047, 34.074469 ], [ -83.699693, 34.054243 ], [ -83.70918, 34.045127 ], [ -83.717076, 34.055073 ], [ -83.71455, 34.035578 ], [ -83.692131, 34.035939 ], [ -83.698922, 34.014009 ], [ -83.674678, 34.007179 ], [ -83.664394, 34.018974 ], [ -83.643978, 34.01589 ], [ -83.639498, 33.982641 ], [ -83.66391, 33.959424 ], [ -83.612972, 33.924919 ], [ -83.647031, 33.906198 ], [ -83.626427, 33.88493 ], [ -83.583763, 33.88385 ], [ -83.590622, 33.863361 ], [ -83.55832, 33.840674 ], [ -83.533463, 33.871846 ], [ -83.503666, 33.850433 ], [ -83.483065, 33.859241 ], [ -83.487077, 33.839853 ], [ -83.473018, 33.836668 ], [ -83.482918, 33.799427 ], [ -83.434219, 33.718975 ], [ -83.448099, 33.644325 ], [ -83.571887, 33.624655 ], [ -83.52249, 33.59644 ], [ -83.57666, 33.55593 ], [ -83.56185, 33.53617 ], [ -83.537865, 33.544889 ], [ -83.507946, 33.504868 ], [ -83.490066, 33.516207 ], [ -83.484254, 33.476144 ], [ -83.46342, 33.448667 ], [ -83.533736, 33.434472 ], [ -83.545876, 33.171944 ], [ -83.745849, 33.142573 ], [ -83.742022, 33.118164 ], [ -83.722742, 33.104318 ], [ -83.726206, 33.080219 ], [ -83.699534, 33.054043 ], [ -83.723214, 33.031939 ], [ -83.723453, 32.997238 ], [ -83.768013, 33.016557 ], [ -83.84368, 32.991646 ], [ -83.878659, 33.015398 ], [ -83.908811, 33.010457 ], [ -83.899547, 32.985902 ], [ -83.914516, 33.004427 ], [ -83.941546, 33.009972 ], [ -83.945998, 32.9941 ], [ -83.986158, 32.993589 ], [ -84.023864, 33.02427 ], [ -84.042944, 33.023919 ], [ -84.054175, 32.931497 ], [ -84.12334, 32.932184 ], [ -84.120542, 33.010677 ], [ -84.105424, 33.046399 ] ], [ [ -84.016865, 33.651667 ], [ -84.014045, 33.648142 ], [ -84.012806, 33.65035 ], [ -84.016865, 33.651667 ] ] ] } },
{ "type": "Feature", "properties": { "district_id": 1, "voting_age_pop": 527597, "lib_votes": 0, "grn_votes": 0, "con_votes": 0, "ref_votes": 0, "total_pop": 683289, "dem_votes_sum": 262744, "rep_votes_sum": 32593, "lib_votes_sum": 0, "grn_votes_sum": 0, "con_votes_sum": 0, "ref_votes_sum": 0, "minority_pop_sum": 441072, "dem_pct": 0.88964132499483639, "rep_pct": 0.1103586750051636, "lib_pct": 0.0, "grn_pct": 0.0, "con_pct": 0.0, "ref_pct": 0.0, "minority_pct": 0.64551309914252974, "compactness": 0.11484114940892831 }, "geometry": { "type": "MultiPolygon", "coordinates": [ [ [ [ -84.468432, 33.573022 ], [ -84.511047, 33.557806 ], [ -84.511985, 33.552643 ], [ -84.51564, 33.549154 ], [ -84.511694, 33.543675 ], [ -84.523833, 33.542687 ], [ -84.529331, 33.567543 ], [ -84.549734, 33.55789 ], [ -84.57918, 33.589943 ], [ -84.602374, 33.59455 ], [ -84.605875, 33.600546 ], [ -84.615763, 33.585961 ], [ -84.627259, 33.602057 ], [ -84.632938, 33.594413 ], [ -84.631666, 33.608545 ], [ -84.615124, 33.617464 ], [ -84.629375, 33.649712 ], [ -84.595454, 33.650811 ], [ -84.592289, 33.662629 ], [ -84.599711, 33.687956 ], [ -84.632649, 33.699286 ], [ -84.593563, 33.727203 ], [ -84.582841, 33.725051 ], [ -84.5833, 33.698077 ], [ -84.539572, 33.721048 ], [ -84.550962, 33.720361 ], [ -84.541092, 33.733454 ], [ -84.558932, 33.744007 ], [ -84.578132, 33.743507 ], [ -84.606383, 33.782902 ], [ -84.564742, 33.789555 ], [ -84.539598, 33.76979 ], [ -84.507911, 33.795532 ], [ -84.561694, 33.814315 ], [ -84.537321, 33.827925 ], [ -84.542534, 33.835317 ], [ -84.532276, 33.844644 ], [ -84.544935, 33.844708 ], [ -84.533681, 33.846372 ], [ -84.527988, 33.843503 ], [ -84.521623, 33.842906 ], [ -84.516779, 33.880227 ], [ -84.492839, 33.876625 ], [ -84.493849, 33.867772 ], [ -84.47603, 33.880156 ], [ -84.463422, 33.872959 ], [ -84.470189, 33.858008 ], [ -84.453909, 33.86764 ], [ -84.455493, 33.826808 ], [ -84.412744, 33.824285 ], [ -84.407806, 33.80304 ], [ -84.400509, 33.801345 ], [ -84.402959, 33.818461 ], [ -84.348325, 33.826504 ], [ -84.345814, 33.779105 ], [ -84.316983, 33.764646 ], [ -84.272656, 33.7744 ], [ -84.252431, 33.716008 ], [ -84.293734, 33.703737 ], [ -84.248771, 33.68352 ], [ -84.256895, 33.667674 ], [ -84.281983, 33.660372 ], [ -84.266882, 33.64717 ], [ -84.315627, 33.643602 ], [ -84.307613, 33.615831 ], [ -84.349586, 33.615759 ], [ -84.337635, 33.588545 ], [ -84.303265, 33.582198 ], [ -84.307932, 33.572161 ], [ -84.428955, 33.597056 ], [ -84.436312, 33.566866 ], [ -84.458924, 33.559759 ], [ -84.458627, 33.586456 ], [ -84.468985, 33.588731 ], [ -84.468432, 33.573022 ] ], [ [ -84.585277, 33.622622 ], [ -84.596695, 33.595591 ], [ -84.575608, 33.611741 ], [ -84.571024, 33.602454 ], [ -84.556865, 33.60637 ], [ -84.585277, 33.622622 ] ], [ [ -84.538623, 33.832437 ], [ -84.536522, 33.833747 ], [ -84.537075, 33.833787 ], [ -84.538623, 33.832437 ] ] ], [ [ [ -84.649969, 33.58604 ], [ -84.653427, 33.597986 ], [ -84.636148, 33.603954 ], [ -84.649969, 33.58604 ] ] ], [ [ [ -84.491601, 33.878015 ], [ -84.490985, 33.876143 ], [ -84.492839, 33.876625 ], [ -84.491601, 33.878015 ] ] ] ] } },
{ "type": "Feature", "properties": { "district_id": 2, "voting_age_pop": 499293, "lib_votes": 0, "grn_votes": 0, "con_votes": 0, "ref_votes": 0, "total_pop": 670535, "dem_votes_sum": 93774, "rep_votes_sum": 145831, "lib_votes_sum": 0, "grn_votes_sum": 0, "con_votes_sum": 0, "ref_votes_sum": 0, "minority_pop_sum": 245132, "dem_pct": 0.3913691283570877, "rep_pct": 0.6086308716429123, "lib_pct": 0.0, "grn_pct": 0.0, "con_pct": 0.0, "ref_pct": 0.0, "minority_pct": 0.36557674096057624, "compactness": 0.22039920315121536 }, "geometry": { "type": "MultiPolygon", "coordinates": [ [ [ [ -82.418914, 30.581767 ], [ -84.864693, 30.711542 ], [ -84.920123, 30.76599 ], [ -84.937424, 30.820889 ], [ -84.925665, 30.842685 ], [ -84.934424, 30.883588 ], [ -84.983127, 30.934786 ], [ -84.982527, 30.965586 ], [ -85.005734, 30.975908 ], [ -84.999428, 31.013844 ], [ -85.035615, 31.108192 ], [ -85.076628, 31.156927 ], [ -85.100207, 31.16549 ], [ -85.107516, 31.186451 ], [ -85.096763, 31.225651 ], [ -85.114601, 31.277333 ], [ -85.091587, 31.291681 ], [ -85.083776, 31.31821 ], [ -85.092327, 31.364049 ], [ -85.056928, 31.500171 ], [ -85.029387, 31.51867 ], [ -85.029227, 31.486071 ], [ -84.915339, 31.502326 ], [ -85.002125, 31.603271 ], [ -85.037886, 31.617586 ], [ -85.029065, 31.63261 ], [ -84.931349, 31.655425 ], [ -84.930998, 31.672309 ], [ -84.949784, 31.679914 ], [ -84.958864, 31.734606 ], [ -84.910833, 31.731378 ], [ -84.893826, 31.745174 ], [ -84.873416, 31.735848 ], [ -84.806876, 31.76668 ], [ -84.780444, 31.852226 ], [ -84.798486, 31.922799 ], [ -84.45331, 31.919224 ], [ -84.443734, 31.967456 ], [ -84.379525, 31.911006 ], [ -84.431503, 31.910592 ], [ -84.428597, 31.847986 ], [ -84.4464, 31.787645 ], [ -84.438674, 31.7863 ], [ -84.374151, 31.82605 ], [ -84.286839, 31.769266 ], [ -84.286456, 31.791182 ], [ -84.258558, 31.790742 ], [ -84.258326, 31.790936 ], [ -84.256427, 31.852786 ], [ -84.208912, 31.860666 ], [ -84.169824, 31.794815 ], [ -84.141981, 31.772129 ], [ -84.071181, 31.866255 ], [ -84.084719, 31.914007 ], [ -83.922494, 31.909653 ], [ -83.925025, 31.948208 ], [ -83.961278, 32.030595 ], [ -83.840505, 32.030191 ], [ -83.825002, 32.010792 ], [ -83.833063, 31.982548 ], [ -83.869994, 31.969795 ], [ -83.859764, 31.959743 ], [ -83.832848, 31.963214 ], [ -83.846883, 31.943527 ], [ -83.831219, 31.937763 ], [ -83.857664, 31.902029 ], [ -83.767017, 31.901101 ], [ -83.802223, 31.803495 ], [ -83.613492, 31.804113 ], [ -83.579444, 31.730342 ], [ -83.580746, 31.710386 ], [ -83.626474, 31.715286 ], [ -83.639991, 31.685457 ], [ -83.685089, 31.681258 ], [ -83.71964, 31.62738 ], [ -83.736923, 31.622282 ], [ -83.706677, 31.619203 ], [ -83.698863, 31.602834 ], [ -83.669978, 31.595137 ], [ -83.663494, 31.565557 ], [ -83.649384, 31.567977 ], [ -83.648972, 31.596466 ], [ -83.500702, 31.59399 ], [ -83.500951, 31.570117 ], [ -83.470825, 31.569391 ], [ -83.47093, 31.555957 ], [ -83.420699, 31.553567 ], [ -83.409519, 31.620216 ], [ -83.461319, 31.668602 ], [ -83.452919, 31.708597 ], [ -83.466782, 31.741325 ], [ -83.452545, 31.763027 ], [ -83.484529, 31.835521 ], [ -83.480176, 31.847312 ], [ -83.443957, 31.847008 ], [ -83.44381, 31.880922 ], [ -83.475171, 31.880526 ], [ -83.474373, 31.953692 ], [ -83.545668, 31.980373 ], [ -83.572137, 32.035247 ], [ -83.609474, 32.036123 ], [ -83.608547, 32.118405 ], [ -83.55102, 32.118139 ], [ -83.55083, 32.126165 ], [ -83.435657, 32.117244 ], [ -83.413091, 32.13326 ], [ -83.39059, 32.090552 ], [ -83.421863, 32.089748 ], [ -83.415363, 32.076833 ], [ -83.433886, 32.057187 ], [ -83.397819, 32.036478 ], [ -83.399085, 31.965764 ], [ -83.381608, 31.932522 ], [ -83.417016, 31.882533 ], [ -83.392212, 31.881691 ], [ -83.39942, 31.847051 ], [ -83.207673, 31.840386 ], [ -83.241466, 31.803674 ], [ -83.253025, 31.723849 ], [ -83.234797, 31.666896 ], [ -83.243979, 31.653259 ], [ -83.177218, 31.651691 ], [ -83.176509, 31.678515 ], [ -82.99836, 31.673164 ], [ -82.99028, 31.787603 ], [ -82.862839, 31.783041 ], [ -82.836366, 31.816154 ], [ -82.836633, 31.671398 ], [ -82.627342, 31.672672 ], [ -82.628273, 31.558329 ], [ -82.596283, 31.557899 ], [ -82.597509, 31.469293 ], [ -82.494384, 31.460993 ], [ -82.498494, 31.481287 ], [ -82.485735, 31.475744 ], [ -82.470711, 31.495607 ], [ -82.433916, 31.504452 ], [ -82.361476, 31.449154 ], [ -82.35683, 31.430229 ], [ -82.437374, 31.416907 ], [ -82.463561, 31.352143 ], [ -82.532642, 31.383889 ], [ -82.556463, 31.36895 ], [ -82.548659, 31.350557 ], [ -82.569325, 31.313445 ], [ -82.561072, 31.302572 ], [ -82.521736, 31.320546 ], [ -82.449762, 31.300481 ], [ -82.425075, 31.211646 ], [ -82.666473, 31.172923 ], [ -82.592071, 31.018487 ], [ -82.55059, 31.000856 ], [ -82.520124, 30.963132 ], [ -82.490558, 30.963166 ], [ -82.495476, 30.819553 ], [ -82.435852, 30.820068 ], [ -82.435242, 30.729149 ], [ -82.420128, 30.729198 ], [ -82.41999, 30.716637 ], [ -82.435112, 30.716566 ], [ -82.430862, 30.612848 ], [ -82.418793, 30.613132 ], [ -82.418914, 30.581767 ] ] ], [ [ [ -84.438728, 31.786324 ], [ -84.436253, 31.789632 ], [ -84.436313, 31.787869 ], [ -84.438728, 31.786324 ] ] ], [ [ [ -84.442755, 31.78861 ], [ -84.443182, 31.787835 ], [ -84.443463, 31.788599 ], [ -84.442755, 31.78861 ] ] ] ] } },
{ "type": "Feature", "properties": { "district_id": 3, "voting_age_pop": 497695, "lib_votes": 0, "grn_votes": 0, "con_votes": 0, "ref_votes": 0, "total_pop": 662501, "dem_votes_sum": 106422, "rep_votes_sum": 143407, "lib_votes_sum": 0, "grn_votes_sum": 0, "con_votes_sum": 0, "ref_votes_sum": 0, "minority_pop_sum": 198999, "dem_pct": 0.42597936988900409, "rep_pct": 0.57402063011099591, "lib_pct": 0.0, "grn_pct": 0.0, "con_pct": 0.0, "ref_pct": 0.0, "minority_pct": 0.30037539565978011, "compactness": 0.18188168623674483 }, "geometry": { "type": "Polygon", "coordinates": [ [ [ -82.040001, 30.436661 ], [ -82.042139, 30.365409 ], [ -82.066184, 30.355757 ], [ -82.105241, 30.368896 ], [ -82.170197, 30.358972 ], [ -82.206764, 30.406878 ], [ -82.201301, 30.485273 ], [ -82.240403, 30.53777 ], [ -82.214677, 30.568556 ], [ -82.418914, 30.581767 ], [ -82.418793, 30.613132 ], [ -82.430862, 30.612848 ], [ -82.435112, 30.716566 ], [ -82.41999, 30.716637 ], [ -82.420128, 30.729198 ], [ -82.435242, 30.729149 ], [ -82.435852, 30.820068 ], [ -82.495476, 30.819553 ], [ -82.490558, 30.963166 ], [ -82.520124, 30.963132 ], [ -82.55059, 31.000856 ], [ -82.592071, 31.018487 ], [ -82.666473, 31.172923 ], [ -82.425075, 31.211646 ], [ -82.449762, 31.300481 ], [ -82.521736, 31.320546 ], [ -82.561072, 31.302572 ], [ -82.569325, 31.313445 ], [ -82.548659, 31.350557 ], [ -82.556463, 31.36895 ], [ -82.532642, 31.383889 ], [ -82.463561, 31.352143 ], [ -82.437374, 31.416907 ], [ -82.35683, 31.430229 ], [ -82.361476, 31.449154 ], [ -82.433916, 31.504452 ], [ -82.470711, 31.495607 ], [ -82.485735, 31.475744 ], [ -82.498494, 31.481287 ], [ -82.493341, 31.469199 ], [ -82.494384, 31.460993 ], [ -82.597509, 31.469293 ], [ -82.596283, 31.557899 ], [ -82.628273, 31.558329 ], [ -82.627342, 31.672672 ], [ -82.836633, 31.671398 ], [ -82.836721, 31.761826 ], [ -82.750493, 31.762185 ], [ -82.686846, 31.813187 ], [ -82.65326, 31.813361 ], [ -82.627, 31.783455 ], [ -82.608738, 31.842281 ], [ -82.617804, 31.848504 ], [ -82.602845, 31.859522 ], [ -82.600682, 31.850586 ], [ -82.570071, 31.858225 ], [ -82.51888, 31.838393 ], [ -82.431362, 31.837993 ], [ -82.431464, 31.870397 ], [ -82.41077, 31.868647 ], [ -82.380115, 31.830101 ], [ -82.376095, 31.844057 ], [ -82.353018, 31.843969 ], [ -82.356407, 31.853737 ], [ -82.282151, 31.850228 ], [ -82.310469, 31.809101 ], [ -82.362973, 31.811853 ], [ -82.367666, 31.80158 ], [ -82.35271, 31.791015 ], [ -82.36296, 31.783293 ], [ -82.339682, 31.775594 ], [ -82.344162, 31.76086 ], [ -82.315168, 31.741287 ], [ -82.312448, 31.775509 ], [ -82.267419, 31.75446 ], [ -82.267272, 31.772887 ], [ -82.234784, 31.761919 ], [ -82.233245, 31.790535 ], [ -82.199459, 31.810978 ], [ -82.199167, 31.834772 ], [ -82.138536, 31.870099 ], [ -82.132402, 31.882712 ], [ -82.134046, 31.882778 ], [ -82.135355, 31.884285 ], [ -82.135018, 31.884862 ], [ -82.043232, 31.821192 ], [ -82.026076, 31.815095 ], [ -82.016396, 31.823731 ], [ -82.006777, 31.800047 ], [ -81.97554, 31.782707 ], [ -81.979912, 31.80455 ], [ -81.955132, 31.809851 ], [ -81.912468, 31.886959 ], [ -81.892548, 31.895033 ], [ -81.881989, 31.91823 ], [ -81.889626, 31.948963 ], [ -81.876068, 31.968376 ], [ -81.71389, 32.092551 ], [ -81.619514, 32.032536 ], [ -81.593582, 31.97154 ], [ -81.564544, 31.959593 ], [ -81.485481, 31.963642 ], [ -81.476112, 31.974302 ], [ -81.463844, 31.950014 ], [ -81.425086, 31.938189 ], [ -81.337586, 31.952371 ], [ -81.304436, 32.000709 ], [ -81.368026, 32.048526 ], [ -81.391261, 32.099827 ], [ -81.406977, 32.102165 ], [ -81.405875, 32.1421 ], [ -81.380372, 32.174664 ], [ -81.385557, 32.19898 ], [ -81.345189, 32.246581 ], [ -81.287308, 32.200145 ], [ -81.228981, 32.24564 ], [ -81.231196, 32.267688 ], [ -81.189549, 32.288701 ], [ -81.176992, 32.281912 ], [ -81.174871, 32.327216 ], [ -81.159739, 32.349589 ], [ -81.158142, 32.33988 ], [ -81.143175, 32.351369 ], [ -81.129149, 32.340998 ], [ -81.138013, 32.32824 ], [ -81.119496, 32.287557 ], [ -81.156607, 32.243284 ], [ -81.143634, 32.229266 ], [ -81.152064, 32.222042 ], [ -81.114032, 32.195701 ], [ -81.111132, 32.172703 ], [ -81.129756, 32.165839 ], [ -81.112236, 32.150804 ], [ -81.113343, 32.1132 ], [ -81.050317, 32.085324 ], [ -81.002318, 32.100056 ], [ -80.918003, 32.037579 ], [ -80.751429, 32.033468 ], [ -80.780693, 32.01137 ], [ -80.796272, 31.953459 ], [ -80.855339, 31.910809 ], [ -80.928589, 31.816982 ], [ -80.970726, 31.798353 ], [ -81.013812, 31.728643 ], [ -81.056623, 31.714875 ], [ -81.049789, 31.688633 ], [ -81.066635, 31.657328 ], [ -81.087067, 31.529158 ], [ -81.190758, 31.399876 ], [ -81.171089, 31.370323 ], [ -81.186119, 31.326796 ], [ -81.187675, 31.246258 ], [ -81.234337, 31.170258 ], [ -81.296417, 31.15188 ], [ -81.290199, 31.093494 ], [ -81.313637, 31.067852 ], [ -81.345306, 31.059362 ], [ -81.353416, 31.037121 ], [ -81.310709, 30.997329 ], [ -81.304832, 30.970774 ], [ -81.345207, 30.931503 ], [ -81.362682, 30.845926 ], [ -81.400482, 30.766426 ], [ -81.359146, 30.744314 ], [ -81.347015, 30.712444 ], [ -81.451241, 30.709484 ], [ -81.488464, 30.726309 ], [ -81.532295, 30.724091 ], [ -81.538391, 30.708656 ], [ -81.548377, 30.718279 ], [ -81.596176, 30.718666 ], [ -81.601882, 30.729586 ], [ -81.60987, 30.715933 ], [ -81.624366, 30.73634 ], [ -81.652153, 30.72887 ], [ -81.662323, 30.754177 ], [ -81.683096, 30.748492 ], [ -81.672494, 30.73879 ], [ -81.72013, 30.744719 ], [ -81.76172, 30.775698 ], [ -81.78263, 30.761454 ], [ -81.793075, 30.787251 ], [ -81.868515, 30.792906 ], [ -81.901245, 30.82988 ], [ -81.909111, 30.81568 ], [ -81.949638, 30.827845 ], [ -81.97364, 30.778719 ], [ -82.007674, 30.793037 ], [ -82.02288, 30.787706 ], [ -82.011603, 30.761878 ], [ -82.036773, 30.754434 ], [ -82.045608, 30.727552 ], [ -82.035927, 30.706205 ], [ -82.049023, 30.655295 ], [ -82.005401, 30.563698 ], [ -82.01905, 30.533012 ], [ -82.016906, 30.475111 ], [ -82.040001, 30.436661 ] ] ] } },
{ "type": "Feature", "properties": { "district_id": 4, "voting_age_pop": 490610, "lib_votes": 0, "grn_votes": 0, "con_votes": 0, "ref_votes": 0, "total_pop": 679494, "dem_votes_sum": 133826, "rep_votes_sum": 161061, "lib_votes_sum": 0, "grn_votes_sum": 0, "con_votes_sum": 0, "ref_votes_sum": 0, "minority_pop_sum": 205553, "dem_pct": 0.45382129425847867, "rep_pct": 0.54617870574152128, "lib_pct": 0.0, "grn_pct": 0.0, "con_pct": 0.0, "ref_pct": 0.0, "minority_pct": 0.3025089257594622, "compactness": 0.075916821172164264 }, "geometry": { "type": "MultiPolygon", "coordinates": [ [ [ [ -84.955327, 32.712972 ], [ -85.011517, 32.689515 ], [ -85.007508, 32.68134 ], [ -85.063952, 32.636163 ], [ -85.085436, 32.630235 ], [ -85.104532, 32.641011 ], [ -85.088483, 32.657758 ], [ -85.117037, 32.692033 ], [ -85.113329, 32.735751 ], [ -85.142987, 32.759934 ], [ -85.122326, 32.774383 ], [ -85.168048, 32.811841 ], [ -85.156289, 32.850524 ], [ -85.184888, 32.863355 ], [ -85.376433, 33.85065 ], [ -85.35556, 33.86539 ], [ -85.34117, 33.84637 ], [ -85.26496, 33.84666 ], [ -85.26128, 33.88817 ], [ -85.272269, 33.900095 ], [ -85.185851, 33.905951 ], [ -85.18374, 33.87815 ], [ -85.213244, 33.863558 ], [ -85.187766, 33.869375 ], [ -85.13738, 33.817695 ], [ -85.146684, 33.813241 ], [ -85.133716, 33.78202 ], [ -85.17889, 33.76607 ], [ -85.18514, 33.73404 ], [ -85.161707, 33.665113 ], [ -85.149337, 33.664232 ], [ -85.148868, 33.646245 ], [ -85.160019, 33.646209 ], [ -85.15279, 33.620241 ], [ -85.124106, 33.609285 ], [ -85.111674, 33.628421 ], [ -85.111029, 33.617492 ], [ -85.100605, 33.617326 ], [ -85.103172, 33.624853 ], [ -85.091101, 33.633397 ], [ -85.081697, 33.622585 ], [ -85.100083, 33.624895 ], [ -85.090891, 33.61469 ], [ -85.102286, 33.611349 ], [ -85.07766, 33.605771 ], [ -85.061161, 33.616564 ], [ -85.053819, 33.604782 ], [ -85.042793, 33.612093 ], [ -85.043188, 33.598519 ], [ -85.023148, 33.604223 ], [ -85.023089, 33.616044 ], [ -85.022938, 33.590934 ], [ -85.030019, 33.599287 ], [ -85.033464, 33.58609 ], [ -85.041247, 33.588906 ], [ -85.041841, 33.573331 ], [ -85.01439, 33.57709 ], [ -85.016307, 33.574057 ], [ -85.016842, 33.572646 ], [ -85.017914, 33.565842 ], [ -85.038287, 33.570549 ], [ -85.031884, 33.553039 ], [ -84.969343, 33.558736 ], [ -84.958363, 33.563066 ], [ -84.97018, 33.578857 ], [ -84.955582, 33.597318 ], [ -84.968808, 33.612834 ], [ -84.936417, 33.656441 ], [ -84.915073, 33.659181 ], [ -84.902741, 33.649999 ], [ -84.905788, 33.573378 ], [ -84.808934, 33.574085 ], [ -84.8326, 33.547061 ], [ -84.815057, 33.521194 ], [ -84.850713, 33.511457 ], [ -84.757791, 33.510855 ], [ -84.75011, 33.527344 ], [ -84.729065, 33.532932 ], [ -84.745027, 33.54504 ], [ -84.741907, 33.567033 ], [ -84.784814, 33.563631 ], [ -84.808284, 33.578896 ], [ -84.781269, 33.610632 ], [ -84.808662, 33.629659 ], [ -84.805937, 33.644509 ], [ -84.827529, 33.667533 ], [ -84.83244, 33.689386 ], [ -84.813669, 33.706391 ], [ -84.834693, 33.716355 ], [ -84.819373, 33.729039 ], [ -84.826695, 33.748374 ], [ -84.815143, 33.751261 ], [ -84.825604, 33.778822 ], [ -84.86941, 33.774983 ], [ -84.889714, 33.808723 ], [ -84.841682, 33.867354 ], [ -84.807147, 33.866878 ], [ -84.806498, 33.893469 ], [ -84.794121, 33.89039 ], [ -84.824213, 33.909076 ], [ -84.834859, 33.895169 ], [ -84.855242, 33.906127 ], [ -84.887918, 33.89401 ], [ -84.894037, 33.875265 ], [ -84.925857, 33.889118 ], [ -84.916655, 33.933548 ], [ -84.901967, 33.932703 ], [ -84.906431, 33.954748 ], [ -84.939939, 33.983704 ], [ -84.966329, 33.981015 ], [ -84.922742, 34.082497 ], [ -84.692812, 34.078626 ], [ -84.703508, 34.068825 ], [ -84.692256, 34.06385 ], [ -84.702354, 34.052227 ], [ -84.691968, 34.035123 ], [ -84.705459, 33.997497 ], [ -84.653572, 33.998261 ], [ -84.663059, 33.989707 ], [ -84.652168, 33.97442 ], [ -84.628743, 33.991964 ], [ -84.60817, 33.960788 ], [ -84.609112, 33.985766 ], [ -84.597173, 33.992863 ], [ -84.577475, 33.984566 ], [ -84.597694, 33.973627 ], [ -84.569671, 33.978888 ], [ -84.55804, 33.970407 ], [ -84.5512, 33.957376 ], [ -84.594144, 33.953005 ], [ -84.586512, 33.926419 ], [ -84.596747, 33.91094 ], [ -84.59367, 33.901936 ], [ -84.558077, 33.910668 ], [ -84.554372, 33.88753 ], [ -84.570055, 33.880861 ], [ -84.568949, 33.864552 ], [ -84.594402, 33.86162 ], [ -84.582621, 33.84461 ], [ -84.532276, 33.844644 ], [ -84.561694, 33.814315 ], [ -84.507911, 33.795532 ], [ -84.539598, 33.76979 ], [ -84.564742, 33.789555 ], [ -84.606383, 33.782902 ], [ -84.578132, 33.743507 ], [ -84.558932, 33.744007 ], [ -84.541092, 33.733454 ], [ -84.550962, 33.720361 ], [ -84.538936, 33.724115 ], [ -84.5833, 33.698077 ], [ -84.582841, 33.725051 ], [ -84.593563, 33.727203 ], [ -84.632649, 33.699286 ], [ -84.599711, 33.687956 ], [ -84.592322, 33.662877 ], [ -84.595454, 33.650811 ], [ -84.629375, 33.649712 ], [ -84.615124, 33.617464 ], [ -84.635432, 33.599123 ], [ -84.615763, 33.585961 ], [ -84.610026, 33.600706 ], [ -84.594021, 33.594301 ], [ -84.61686, 33.585217 ], [ -84.61491, 33.56589 ], [ -84.626766, 33.572652 ], [ -84.628526, 33.544686 ], [ -84.615848, 33.541653 ], [ -84.610406, 33.553343 ], [ -84.597936, 33.550297 ], [ -84.597566, 33.545209 ], [ -84.598884, 33.542758 ], [ -84.598201, 33.542436 ], [ -84.602239, 33.538515 ], [ -84.601381, 33.550056 ], [ -84.607753, 33.54192 ], [ -84.625955, 33.537623 ], [ -84.607682, 33.529922 ], [ -84.623938, 33.52834 ], [ -84.632147, 33.511097 ], [ -84.671374, 33.506068 ], [ -84.700439, 33.450207 ], [ -84.691835, 33.437587 ], [ -84.721481, 33.432518 ], [ -84.72834, 33.376534 ], [ -84.757754, 33.375203 ], [ -84.771629, 33.330816 ], [ -84.809417, 33.305365 ], [ -84.792783, 33.282291 ], [ -84.799309, 33.266233 ], [ -84.779002, 33.262678 ], [ -84.789669, 33.249129 ], [ -84.773912, 33.249101 ], [ -84.795278, 33.223346 ], [ -84.824733, 33.223472 ], [ -84.820894, 33.2083 ], [ -84.779565, 33.197079 ], [ -84.802706, 33.175925 ], [ -84.765923, 33.164338 ], [ -84.756891, 33.146881 ], [ -84.787826, 33.115536 ], [ -84.766223, 33.067003 ], [ -84.784612, 33.0056 ], [ -84.775213, 32.993014 ], [ -84.80815, 32.966022 ], [ -84.842717, 32.96089 ], [ -84.864465, 32.970143 ], [ -84.861855, 32.868617 ], [ -84.964999, 32.869087 ], [ -84.981362, 32.854087 ], [ -84.963378, 32.821695 ], [ -84.918986, 32.811331 ], [ -84.930628, 32.797072 ], [ -84.999203, 32.772363 ], [ -85.021109, 32.796763 ], [ -85.017582, 32.747197 ], [ -84.979877, 32.745699 ], [ -84.973336, 32.712966 ], [ -84.955327, 32.712972 ] ], [ [ -84.641754, 33.597118 ], [ -84.653427, 33.597986 ], [ -84.649969, 33.58604 ], [ -84.641754, 33.597118 ] ], [ [ -85.041108, 33.591572 ], [ -85.038365, 33.588048 ], [ -85.038356, 33.591552 ], [ -85.041108, 33.591572 ] ], [ [ -85.035447, 33.599191 ], [ -85.036171, 33.599417 ], [ -85.035927, 33.59697 ], [ -85.035447, 33.599191 ] ], [ [ -85.038998, 33.594107 ], [ -85.039705, 33.594605 ], [ -85.039319, 33.593377 ], [ -85.038998, 33.594107 ] ], [ [ -84.597794, 33.967911 ], [ -84.593743, 33.963518 ], [ -84.593422, 33.967376 ], [ -84.597794, 33.967911 ] ], [ [ -84.603254, 33.947572 ], [ -84.600134, 33.953069 ], [ -84.603229, 33.953071 ], [ -84.603254, 33.947572 ] ], [ [ -84.597991, 33.960527 ], [ -84.595658, 33.963515 ], [ -84.598049, 33.963721 ], [ -84.597991, 33.960527 ] ], [ [ -84.601387, 33.964838 ], [ -84.600624, 33.965517 ], [ -84.600627, 33.965967 ], [ -84.601387, 33.964838 ] ], [ [ -84.594724, 33.983024 ], [ -84.597969, 33.980501 ], [ -84.59124, 33.983018 ], [ -84.594724, 33.983024 ] ] ], [ [ [ -85.014965, 33.575748 ], [ -85.01493, 33.574921 ], [ -85.015649, 33.574879 ], [ -85.014965, 33.575748 ] ] ], [ [ [ -84.689856, 34.077526 ], [ -84.692812, 34.078626 ], [ -84.689822, 34.078582 ], [ -84.689856, 34.077526 ] ] ], [ [ [ -84.571156, 33.555346 ], [ -84.570548, 33.549129 ], [ -84.579641, 33.552709 ], [ -84.571156, 33.555346 ] ] ], [ [ [ -84.55515, 33.567139 ], [ -84.548048, 33.560123 ], [ -84.55501, 33.556635 ], [ -84.55515, 33.567139 ] ] ], [ [ [ -84.587295, 33.591285 ], [ -84.587313, 33.592357 ], [ -84.583867, 33.587703 ], [ -84.587295, 33.591285 ] ] ], [ [ [ -84.596695, 33.595591 ], [ -84.584954, 33.625242 ], [ -84.556488, 33.606946 ], [ -84.571024, 33.602454 ], [ -84.575608, 33.611741 ], [ -84.596695, 33.595591 ] ] ], [ [ [ -84.536724, 33.832145 ], [ -84.537075, 33.833787 ], [ -84.536522, 33.833747 ], [ -84.536724, 33.832145 ] ] ], [ [ [ -84.605628, 33.990783 ], [ -84.604271, 33.990192 ], [ -84.606632, 33.990215 ], [ -84.605628, 33.990783 ] ] ], [ [ [ -84.60593, 33.993853 ], [ -84.606784, 33.990656 ], [ -84.608168, 33.993499 ], [ -84.60593, 33.993853 ] ] ], [ [ [ -84.600845, 34.00115 ], [ -84.600454, 34.00257 ], [ -84.600151, 34.001281 ], [ -84.600845, 34.00115 ] ] ], [ [ [ -84.605264, 34.00637 ], [ -84.604529, 34.00207 ], [ -84.605987, 34.005932 ], [ -84.605264, 34.00637 ] ] ], [ [ [ -84.600726, 34.003595 ], [ -84.609839, 34.012169 ], [ -84.608767, 34.013537 ], [ -84.600726, 34.003595 ] ] ], [ [ [ -84.609406, 34.013288 ], [ -84.612614, 34.013467 ], [ -84.611868, 34.014234 ], [ -84.609406, 34.013288 ] ] ] ] } },
{ "type": "Feature", "properties": { "district_id": 5, "voting_age_pop": 524696, "lib_votes": 0, "grn_votes": 0, "con_votes": 0, "ref_votes": 0, "total_pop": 711196, "dem_votes_sum": 168801, "rep_votes_sum": 93830, "lib_votes_sum": 0, "grn_votes_sum": 0, "con_votes_sum": 0, "ref_votes_sum": 0, "minority_pop_sum": 171119, "dem_pct": 0.64273067535820216, "rep_pct": 0.35726932464179778, "lib_pct": 0.0, "grn_pct": 0.0, "con_pct": 0.0, "ref_pct": 0.0, "minority_pct": 0.24060737124505763, "compactness": 0.11838261168662709 }, "geometry": { "type": "Polygon", "coordinates": [ [ [ -84.264502, 33.757065 ], [ -84.274965, 33.775106 ], [ -84.316983, 33.764646 ], [ -84.348325, 33.782605 ], [ -84.348506, 33.825117 ], [ -84.314514, 33.821172 ], [ -84.327061, 33.835775 ], [ -84.273425, 33.879231 ], [ -84.289849, 33.897405 ], [ -84.288111, 33.936499 ], [ -84.256636, 33.946587 ], [ -84.264729, 33.965159 ], [ -84.295041, 33.965047 ], [ -84.278796, 33.975185 ], [ -84.296403, 33.978298 ], [ -84.296436, 33.988822 ], [ -84.323628, 33.987418 ], [ -84.309082, 33.983914 ], [ -84.302502, 33.960065 ], [ -84.338779, 33.969345 ], [ -84.335822, 34.00507 ], [ -84.315716, 34.033812 ], [ -84.286439, 34.038858 ], [ -84.264984, 34.021375 ], [ -84.219382, 34.052322 ], [ -84.199014, 34.043975 ], [ -84.188403, 34.054678 ], [ -84.168106, 34.028814 ], [ -84.18102, 33.998922 ], [ -84.160374, 34.020345 ], [ -84.12789, 33.984844 ], [ -84.11529, 34.011447 ], [ -84.096735, 34.016738 ], [ -84.07401, 34.001354 ], [ -84.009455, 34.054039 ], [ -83.993338, 34.056719 ], [ -83.988167, 34.036048 ], [ -83.96035, 34.036255 ], [ -83.965621, 34.007163 ], [ -83.953041, 33.984388 ], [ -84.016491, 33.967136 ], [ -83.991084, 33.942624 ], [ -84.006256, 33.897873 ], [ -84.014191, 33.904671 ], [ -84.014472, 33.895131 ], [ -84.080069, 33.884857 ], [ -84.08856, 33.897164 ], [ -84.108789, 33.897651 ], [ -84.099659, 33.884401 ], [ -84.118343, 33.87269 ], [ -84.129779, 33.87093 ], [ -84.13363, 33.885099 ], [ -84.153027, 33.877103 ], [ -84.144644, 33.862795 ], [ -84.111375, 33.852202 ], [ -84.122197, 33.847141 ], [ -84.106924, 33.834849 ], [ -84.126637, 33.828265 ], [ -84.073815, 33.804211 ], [ -84.070655, 33.779009 ], [ -84.046474, 33.764664 ], [ -84.054497, 33.739509 ], [ -84.061605, 33.733489 ], [ -84.083898, 33.748054 ], [ -84.102759, 33.739089 ], [ -84.097217, 33.798371 ], [ -84.12614, 33.822915 ], [ -84.170859, 33.818721 ], [ -84.178732, 33.797569 ], [ -84.186548, 33.803407 ], [ -84.179334, 33.790215 ], [ -84.223019, 33.767433 ], [ -84.219607, 33.782673 ], [ -84.250407, 33.811657 ], [ -84.245795, 33.78669 ], [ -84.262433, 33.780052 ], [ -84.251579, 33.768641 ], [ -84.264502, 33.757065 ] ] ] } },
{ "type": "Feature", "properties": { "district_id": 6, "voting_age_pop": 531128, "lib_votes": 0, "grn_votes": 0, "con_votes": 0, "ref_votes": 0, "total_pop": 714084, "dem_votes_sum": 130381, "rep_votes_sum": 162314, "lib_votes_sum": 0, "grn_votes_sum": 0, "con_votes_sum": 0, "ref_votes_sum": 0, "minority_pop_sum": 254052, "dem_pct": 0.44545004185244025, "rep_pct": 0.5545499581475597, "lib_pct": 0.0, "grn_pct": 0.0, "con_pct": 0.0, "ref_pct": 0.0, "minority_pct": 0.35577327037155293, "compactness": 0.11806767912282189 }, "geometry": { "type": "Polygon", "coordinates": [ [ [ -84.915339, 31.502326 ], [ -85.029227, 31.486071 ], [ -85.029387, 31.51867 ], [ -85.045495, 31.517129 ], [ -85.041361, 31.542495 ], [ -85.05796, 31.57084 ], [ -85.057473, 31.618624 ], [ -85.12543, 31.694765 ], [ -85.12523, 31.767063 ], [ -85.141931, 31.781963 ], [ -85.134131, 31.89216 ], [ -85.11203, 31.89476 ], [ -85.113131, 31.911859 ], [ -85.07893, 31.940159 ], [ -85.08673, 31.959158 ], [ -85.067829, 31.967358 ], [ -85.048825, 32.021701 ], [ -85.05883, 32.046956 ], [ -85.044761, 32.085836 ], [ -85.061907, 32.132863 ], [ -85.011267, 32.180493 ], [ -84.963728, 32.195852 ], [ -84.980229, 32.207751 ], [ -84.973328, 32.21765 ], [ -84.928227, 32.219851 ], [ -84.912727, 32.24335 ], [ -84.924427, 32.250149 ], [ -84.888246, 32.25967 ], [ -84.934648, 32.298916 ], [ -85.006402, 32.326757 ], [ -85.004582, 32.345196 ], [ -84.972154, 32.376914 ], [ -84.98841, 32.385216 ], [ -84.96873, 32.391457 ], [ -84.980954, 32.406064 ], [ -84.96303, 32.424244 ], [ -84.99533, 32.453243 ], [ -85.0071, 32.523868 ], [ -85.067535, 32.579546 ], [ -85.090936, 32.626236 ], [ -85.063952, 32.636163 ], [ -85.007508, 32.68134 ], [ -85.011517, 32.689515 ], [ -84.957409, 32.703839 ], [ -84.955327, 32.712972 ], [ -84.973336, 32.712966 ], [ -84.979877, 32.745699 ], [ -85.017582, 32.747197 ], [ -85.021109, 32.796763 ], [ -84.999203, 32.772363 ], [ -84.957229, 32.782558 ], [ -84.918599, 32.810346 ], [ -84.963378, 32.821695 ], [ -84.981362, 32.854087 ], [ -84.964999, 32.869087 ], [ -84.861855, 32.868617 ], [ -84.864465, 32.970143 ], [ -84.842717, 32.96089 ], [ -84.80815, 32.966022 ], [ -84.775213, 32.993014 ], [ -84.784612, 33.0056 ], [ -84.766223, 33.067003 ], [ -84.787826, 33.115536 ], [ -84.756891, 33.146881 ], [ -84.765923, 33.164338 ], [ -84.802706, 33.175925 ], [ -84.779565, 33.197079 ], [ -84.820894, 33.2083 ], [ -84.824733, 33.223472 ], [ -84.795278, 33.223346 ], [ -84.773912, 33.249101 ], [ -84.789669, 33.249129 ], [ -84.779002, 33.262678 ], [ -84.799309, 33.266233 ], [ -84.792783, 33.282291 ], [ -84.809417, 33.305365 ], [ -84.771629, 33.330816 ], [ -84.757754, 33.375203 ], [ -84.72834, 33.376534 ], [ -84.721481, 33.432518 ], [ -84.691835, 33.437587 ], [ -84.700439, 33.450207 ], [ -84.671374, 33.506068 ], [ -84.632147, 33.511097 ], [ -84.623938, 33.52834 ], [ -84.607682, 33.529922 ], [ -84.625955, 33.537623 ], [ -84.607753, 33.54192 ], [ -84.601381, 33.550056 ], [ -84.602239, 33.538515 ], [ -84.598201, 33.542436 ], [ -84.597936, 33.550297 ], [ -84.610406, 33.553343 ], [ -84.615848, 33.541653 ], [ -84.628526, 33.544686 ], [ -84.626075, 33.575291 ], [ -84.61491, 33.56589 ], [ -84.61686, 33.585217 ], [ -84.58891, 33.593995 ], [ -84.55501, 33.556635 ], [ -84.521072, 33.56304 ], [ -84.516854, 33.542613 ], [ -84.513726, 33.559365 ], [ -84.468432, 33.573022 ], [ -84.468985, 33.588731 ], [ -84.458627, 33.586456 ], [ -84.458637, 33.559718 ], [ -84.436312, 33.566866 ], [ -84.43644, 33.575095 ], [ -84.424312, 33.582361 ], [ -84.434244, 33.570435 ], [ -84.421409, 33.558178 ], [ -84.439448, 33.550734 ], [ -84.416458, 33.542149 ], [ -84.427384, 33.516941 ], [ -84.420428, 33.493992 ], [ -84.387068, 33.476441 ], [ -84.38454, 33.433304 ], [ -84.363303, 33.438235 ], [ -84.372389, 33.415216 ], [ -84.353749, 33.420537 ], [ -84.3544, 33.352514 ], [ -84.315368, 33.352519 ], [ -84.286246, 33.295428 ], [ -84.24315, 33.302506 ], [ -84.232625, 33.282212 ], [ -84.189793, 33.292712 ], [ -84.190519, 33.245216 ], [ -84.135277, 33.23137 ], [ -84.123152, 33.242748 ], [ -84.123767, 33.202824 ], [ -84.041498, 33.202629 ], [ -84.04288, 33.028716 ], [ -84.076665, 33.046248 ], [ -84.105424, 33.046399 ], [ -84.120542, 33.010677 ], [ -84.12334, 32.932184 ], [ -84.054273, 32.927185 ], [ -84.015267, 32.871295 ], [ -83.968421, 32.84886 ], [ -83.891922, 32.848351 ], [ -83.891728, 32.818861 ], [ -83.809161, 32.731231 ], [ -83.845221, 32.71563 ], [ -83.87042, 32.65787 ], [ -83.943658, 32.630834 ], [ -83.940749, 32.619735 ], [ -83.894912, 32.61101 ], [ -83.92952, 32.58729 ], [ -83.883945, 32.561335 ], [ -83.923363, 32.511355 ], [ -84.022279, 32.505634 ], [ -84.015308, 32.460572 ], [ -83.978985, 32.472949 ], [ -83.956108, 32.462707 ], [ -84.019583, 32.416832 ], [ -84.015242, 32.383124 ], [ -84.001203, 32.381422 ], [ -83.996526, 32.361037 ], [ -84.057925, 32.229667 ], [ -84.03813, 32.194394 ], [ -84.043673, 32.179409 ], [ -84.026305, 32.168694 ], [ -84.033029, 32.152167 ], [ -83.997905, 32.101301 ], [ -83.974784, 32.091952 ], [ -83.987161, 32.071634 ], [ -83.977411, 32.058742 ], [ -83.955806, 32.074315 ], [ -83.949465, 32.052577 ], [ -83.919207, 32.059187 ], [ -83.917963, 32.115425 ], [ -83.897524, 32.129806 ], [ -83.862321, 32.117261 ], [ -83.849606, 32.129053 ], [ -83.838735, 32.12415 ], [ -83.824089, 32.155486 ], [ -83.826824, 32.21803 ], [ -83.748231, 32.213057 ], [ -83.7499, 32.196869 ], [ -83.721737, 32.22365 ], [ -83.703236, 32.222161 ], [ -83.714591, 32.20827 ], [ -83.69288, 32.18629 ], [ -83.689476, 32.147457 ], [ -83.607892, 32.17016 ], [ -83.609474, 32.036123 ], [ -83.572137, 32.035247 ], [ -83.545668, 31.980373 ], [ -83.474373, 31.953692 ], [ -83.475171, 31.880526 ], [ -83.44381, 31.880922 ], [ -83.443957, 31.847008 ], [ -83.480176, 31.847312 ], [ -83.484529, 31.835521 ], [ -83.452545, 31.763027 ], [ -83.466782, 31.741325 ], [ -83.452919, 31.708597 ], [ -83.461319, 31.668602 ], [ -83.409519, 31.620216 ], [ -83.420699, 31.553567 ], [ -83.47093, 31.555957 ], [ -83.470825, 31.569391 ], [ -83.500951, 31.570117 ], [ -83.500702, 31.59399 ], [ -83.648972, 31.596466 ], [ -83.649384, 31.567977 ], [ -83.663494, 31.565557 ], [ -83.669978, 31.595137 ], [ -83.698863, 31.602834 ], [ -83.706677, 31.619203 ], [ -83.736923, 31.622282 ], [ -83.71964, 31.62738 ], [ -83.685089, 31.681258 ], [ -83.632494, 31.691421 ], [ -83.634977, 31.712295 ], [ -83.580746, 31.710386 ], [ -83.594339, 31.776805 ], [ -83.613492, 31.804113 ], [ -83.802223, 31.803495 ], [ -83.767017, 31.901101 ], [ -83.857664, 31.902029 ], [ -83.831219, 31.937763 ], [ -83.846883, 31.943527 ], [ -83.832848, 31.963214 ], [ -83.859764, 31.959743 ], [ -83.869994, 31.969795 ], [ -83.842331, 31.9723 ], [ -83.826113, 32.01568 ], [ -83.840505, 32.030191 ], [ -83.961278, 32.030595 ], [ -83.925025, 31.948208 ], [ -83.922494, 31.909653 ], [ -84.084719, 31.914007 ], [ -84.071181, 31.866255 ], [ -84.141981, 31.772129 ], [ -84.169824, 31.794815 ], [ -84.208912, 31.860666 ], [ -84.256427, 31.852786 ], [ -84.258326, 31.790936 ], [ -84.286456, 31.791182 ], [ -84.286839, 31.769266 ], [ -84.374151, 31.82605 ], [ -84.438674, 31.7863 ], [ -84.4464, 31.787645 ], [ -84.428597, 31.847986 ], [ -84.431503, 31.910592 ], [ -84.379525, 31.911006 ], [ -84.443734, 31.967456 ], [ -84.45331, 31.919224 ], [ -84.798486, 31.922799 ], [ -84.780444, 31.852226 ], [ -84.806876, 31.76668 ], [ -84.873416, 31.735848 ], [ -84.893826, 31.745174 ], [ -84.910833, 31.731378 ], [ -84.958864, 31.734606 ], [ -84.949784, 31.679914 ], [ -84.930998, 31.672309 ], [ -84.931349, 31.655425 ], [ -85.029065, 31.63261 ], [ -85.037886, 31.617586 ], [ -85.002125, 31.603271 ], [ -84.915339, 31.502326 ] ], [ [ -84.439371, 31.788976 ], [ -84.436313, 31.787869 ], [ -84.436253, 31.789632 ], [ -84.439371, 31.788976 ] ], [ [ -84.443182, 31.787835 ], [ -84.442755, 31.78861 ], [ -84.443463, 31.788599 ], [ -84.443182, 31.787835 ] ], [ [ -84.579641, 33.552709 ], [ -84.561359, 33.553123 ], [ -84.562736, 33.558568 ], [ -84.579641, 33.552709 ] ] ] } },
{ "type": "Feature", "properties": { "district_id": 7, "voting_age_pop": 495095, "lib_votes": 0, "grn_votes": 0, "con_votes": 0, "ref_votes": 0, "total_pop": 688170, "dem_votes_sum": 221839, "rep_votes_sum": 77714, "lib_votes_sum": 0, "grn_votes_sum": 0, "con_votes_sum": 0, "ref_votes_sum": 0, "minority_pop_sum": 427375, "dem_pct": 0.74056677783230351, "rep_pct": 0.25943322216769654, "lib_pct": 0.0, "grn_pct": 0.0, "con_pct": 0.0, "ref_pct": 0.0, "minority_pct": 0.62103114056119857, "compactness": 0.18834522843217341 }, "geometry": { "type": "MultiPolygon", "coordinates": [ [ [ [ -84.354128, 33.420684 ], [ -84.372291, 33.415069 ], [ -84.363303, 33.438235 ], [ -84.38454, 33.433304 ], [ -84.387134, 33.476565 ], [ -84.420428, 33.493992 ], [ -84.416458, 33.542149 ], [ -84.439448, 33.550734 ], [ -84.421409, 33.558178 ], [ -84.434244, 33.570435 ], [ -84.428955, 33.597056 ], [ -84.386532, 33.593539 ], [ -84.327092, 33.569644 ], [ -84.304754, 33.573915 ], [ -84.303265, 33.582198 ], [ -84.337635, 33.588545 ], [ -84.349586, 33.615759 ], [ -84.307613, 33.615831 ], [ -84.315627, 33.643602 ], [ -84.266882, 33.64717 ], [ -84.281983, 33.660372 ], [ -84.2494, 33.680712 ], [ -84.265978, 33.69886 ], [ -84.293798, 33.704429 ], [ -84.252431, 33.716008 ], [ -84.252144, 33.738504 ], [ -84.270645, 33.7565 ], [ -84.251579, 33.768641 ], [ -84.262433, 33.780052 ], [ -84.245795, 33.78669 ], [ -84.250407, 33.811657 ], [ -84.219607, 33.782673 ], [ -84.223019, 33.767433 ], [ -84.179334, 33.790215 ], [ -84.186548, 33.803407 ], [ -84.178732, 33.797569 ], [ -84.170859, 33.818721 ], [ -84.12614, 33.822915 ], [ -84.097217, 33.798371 ], [ -84.102759, 33.739089 ], [ -84.075207, 33.746909 ], [ -84.061512, 33.733529 ], [ -84.046474, 33.764664 ], [ -84.023713, 33.752808 ], [ -84.07448, 33.692609 ], [ -84.037206, 33.667524 ], [ -84.039386, 33.636878 ], [ -84.018903, 33.645936 ], [ -84.019882, 33.628267 ], [ -83.974921, 33.60298 ], [ -83.988648, 33.587748 ], [ -84.01481, 33.596473 ], [ -84.01503, 33.563621 ], [ -84.037452, 33.556365 ], [ -84.024279, 33.548226 ], [ -84.032117, 33.539408 ], [ -83.944445, 33.546854 ], [ -83.948499, 33.517323 ], [ -83.882906, 33.502563 ], [ -83.886825, 33.411809 ], [ -83.874804, 33.409027 ], [ -83.875313, 33.391012 ], [ -83.893908, 33.395184 ], [ -83.934826, 33.340323 ], [ -83.905769, 33.330727 ], [ -83.906493, 33.28825 ], [ -83.937982, 33.289127 ], [ -83.92627, 33.306177 ], [ -83.965828, 33.312807 ], [ -83.980166, 33.304629 ], [ -83.978872, 33.284357 ], [ -83.961632, 33.295942 ], [ -83.943758, 33.292089 ], [ -83.934771, 33.254969 ], [ -83.964701, 33.262882 ], [ -83.966427, 33.243869 ], [ -83.996389, 33.239635 ], [ -83.997767, 33.223345 ], [ -84.020327, 33.221338 ], [ -84.024854, 33.202598 ], [ -84.123767, 33.202824 ], [ -84.123152, 33.242748 ], [ -84.135277, 33.23137 ], [ -84.190519, 33.245216 ], [ -84.189793, 33.292712 ], [ -84.232625, 33.282212 ], [ -84.24315, 33.302506 ], [ -84.286246, 33.295428 ], [ -84.315368, 33.352519 ], [ -84.3544, 33.352514 ], [ -84.354128, 33.420684 ] ] ], [ [ [ -84.01634, 33.648181 ], [ -84.012806, 33.65035 ], [ -84.014045, 33.648142 ], [ -84.01634, 33.648181 ] ] ] ] } },
{ "type": "Feature", "properties": { "district_id": 8, "voting_age_pop": 524185, "lib_votes": 0, "grn_votes": 0, "con_votes": 0, "ref_votes": 0, "total_pop": 721468, "dem_votes_sum": 103061, "rep_votes_sum": 251722, "lib_votes_sum": 0, "grn_votes_sum": 0, "con_votes_sum": 0, "ref_votes_sum": 0, "minority_pop_sum": 35516, "dem_pct": 0.29049024333183948, "rep_pct": 0.70950975666816052, "lib_pct": 0.0, "grn_pct": 0.0, "con_pct": 0.0, "ref_pct": 0.0, "minority_pct": 0.049227408561433081, "compactness": 0.20009020686271245 }, "geometry": { "type": "Polygon", "coordinates": [ [ [ -84.503468, 34.002197 ], [ -84.527367, 34.008858 ], [ -84.527745, 34.0322 ], [ -84.509469, 34.039566 ], [ -84.526335, 34.050779 ], [ -84.521992, 34.075399 ], [ -84.57235, 34.086947 ], [ -84.574237, 34.094689 ], [ -84.553494, 34.095105 ], [ -84.571627, 34.100742 ], [ -84.567448, 34.1204 ], [ -84.554012, 34.12018 ], [ -84.575892, 34.129139 ], [ -84.573103, 34.153809 ], [ -84.596222, 34.179635 ], [ -84.566542, 34.195402 ], [ -84.570992, 34.230832 ], [ -84.555099, 34.225127 ], [ -84.550463, 34.228635 ], [ -84.560957, 34.245876 ], [ -84.58475, 34.241807 ], [ -84.580143, 34.252778 ], [ -84.595454, 34.263364 ], [ -84.573678, 34.282416 ], [ -84.512071, 34.281233 ], [ -84.495034, 34.294295 ], [ -84.490439, 34.323652 ], [ -84.430635, 34.359042 ], [ -84.442924, 34.364083 ], [ -84.436209, 34.374957 ], [ -84.58263, 34.381492 ], [ -84.58283, 34.412191 ], [ -84.733878, 34.412968 ], [ -84.734118, 34.396495 ], [ -84.756568, 34.397201 ], [ -84.780636, 34.431274 ], [ -84.773275, 34.426133 ], [ -84.766741, 34.448734 ], [ -84.789359, 34.494217 ], [ -84.791668, 34.523635 ], [ -84.772676, 34.523757 ], [ -84.779125, 34.551916 ], [ -84.801064, 34.549573 ], [ -84.773852, 34.591159 ], [ -84.779654, 34.608322 ], [ -84.802198, 34.60839 ], [ -84.764839, 34.623137 ], [ -84.756995, 34.643046 ], [ -84.774956, 34.686921 ], [ -84.787575, 34.687426 ], [ -84.779407, 34.714063 ], [ -84.792416, 34.7631 ], [ -84.815533, 34.764695 ], [ -84.804008, 34.78287 ], [ -84.896407, 34.779282 ], [ -84.926068, 34.827859 ], [ -84.913886, 34.832662 ], [ -84.931444, 34.837753 ], [ -84.889212, 34.867894 ], [ -84.84432, 34.853114 ], [ -84.819875, 34.865981 ], [ -84.833369, 34.896829 ], [ -84.824111, 34.901747 ], [ -84.842705, 34.918126 ], [ -84.810477, 34.987605 ], [ -83.936413, 34.987483 ], [ -83.945961, 34.97094 ], [ -83.915204, 34.926887 ], [ -83.865733, 34.914686 ], [ -83.852864, 34.899452 ], [ -83.812199, 34.90879 ], [ -83.799047, 34.843566 ], [ -83.817211, 34.823979 ], [ -83.838045, 34.835841 ], [ -83.852647, 34.823508 ], [ -83.865793, 34.833236 ], [ -83.880104, 34.809558 ], [ -83.902059, 34.809043 ], [ -83.895123, 34.792251 ], [ -83.939366, 34.780864 ], [ -83.947772, 34.7688 ], [ -83.939602, 34.76811 ], [ -83.939103, 34.76603 ], [ -83.939651, 34.764758 ], [ -83.951995, 34.76397 ], [ -83.939007, 34.740859 ], [ -83.984879, 34.713951 ], [ -83.994412, 34.67849 ], [ -84.024109, 34.670753 ], [ -84.03651, 34.641934 ], [ -84.124914, 34.664419 ], [ -84.158035, 34.648243 ], [ -84.188557, 34.602692 ], [ -84.19104, 34.539181 ], [ -84.106675, 34.465852 ], [ -83.991287, 34.422158 ], [ -84.036438, 34.363407 ], [ -84.048088, 34.377677 ], [ -84.075156, 34.379787 ], [ -84.112363, 34.359073 ], [ -84.11885, 34.336217 ], [ -83.946311, 34.329925 ], [ -83.949836, 34.312305 ], [ -84.043457, 34.283016 ], [ -84.063194, 34.26403 ], [ -84.050476, 34.249008 ], [ -84.022422, 34.246109 ], [ -83.954025, 34.264549 ], [ -83.949554, 34.240154 ], [ -83.971809, 34.22813 ], [ -83.966327, 34.216644 ], [ -83.989914, 34.195133 ], [ -84.048714, 34.191223 ], [ -84.062246, 34.168446 ], [ -84.091888, 34.201301 ], [ -84.138113, 34.180165 ], [ -84.093343, 34.126273 ], [ -84.11797, 34.06666 ], [ -84.097692, 34.050654 ], [ -84.147736, 34.057185 ], [ -84.149667, 34.037719 ], [ -84.188662, 34.054744 ], [ -84.199014, 34.043975 ], [ -84.219382, 34.052322 ], [ -84.265406, 34.021322 ], [ -84.273784, 34.034094 ], [ -84.301773, 34.038881 ], [ -84.343693, 34.004242 ], [ -84.366217, 34.014367 ], [ -84.407275, 33.998274 ], [ -84.491599, 34.017908 ], [ -84.488008, 33.987301 ], [ -84.498148, 33.983781 ], [ -84.503468, 34.002197 ] ] ] } },
{ "type": "Feature", "properties": { "district_id": 9, "voting_age_pop": 516380, "lib_votes": 0, "grn_votes": 0, "con_votes": 0, "ref_votes": 0, "total_pop": 670312, "dem_votes_sum": 151265, "rep_votes_sum": 139707, "lib_votes_sum": 0, "grn_votes_sum": 0, "con_votes_sum": 0, "ref_votes_sum": 0, "minority_pop_sum": 118900, "dem_pct": 0.51986101755495373, "rep_pct": 0.48013898244504627, "lib_pct": 0.0, "grn_pct": 0.0, "con_pct": 0.0, "ref_pct": 0.0, "minority_pct": 0.1773800856914392, "compactness": 0.1057210306059868 }, "geometry": { "type": "MultiPolygon", "coordinates": [ [ [ [ -84.650795, 33.974962 ], [ -84.663059, 33.989707 ], [ -84.653572, 33.998261 ], [ -84.705459, 33.997497 ], [ -84.691968, 34.035123 ], [ -84.702354, 34.052227 ], [ -84.696943, 34.051242 ], [ -84.692256, 34.06385 ], [ -84.703508, 34.068825 ], [ -84.659234, 34.077999 ], [ -84.657881, 34.142471 ], [ -84.62384, 34.129113 ], [ -84.626026, 34.155916 ], [ -84.595845, 34.152423 ], [ -84.585933, 34.128705 ], [ -84.560362, 34.130462 ], [ -84.554296, 34.117822 ], [ -84.567448, 34.1204 ], [ -84.571627, 34.100742 ], [ -84.553412, 34.095334 ], [ -84.574237, 34.094689 ], [ -84.57235, 34.086947 ], [ -84.521992, 34.075399 ], [ -84.526335, 34.050779 ], [ -84.509469, 34.039566 ], [ -84.527745, 34.0322 ], [ -84.527367, 34.008858 ], [ -84.502397, 34.001701 ], [ -84.498277, 33.98378 ], [ -84.488008, 33.987301 ], [ -84.491599, 34.017908 ], [ -84.407984, 33.998251 ], [ -84.362889, 34.014341 ], [ -84.350492, 34.003715 ], [ -84.333361, 34.009376 ], [ -84.338779, 33.969345 ], [ -84.302502, 33.960065 ], [ -84.309082, 33.983914 ], [ -84.321437, 33.985659 ], [ -84.323628, 33.987418 ], [ -84.296856, 33.988907 ], [ -84.296403, 33.978298 ], [ -84.278796, 33.975185 ], [ -84.295041, 33.965047 ], [ -84.25559, 33.957137 ], [ -84.256636, 33.946587 ], [ -84.288111, 33.936499 ], [ -84.289849, 33.897405 ], [ -84.273425, 33.879231 ], [ -84.327061, 33.835775 ], [ -84.313088, 33.822426 ], [ -84.367437, 33.828459 ], [ -84.402959, 33.818461 ], [ -84.400509, 33.801345 ], [ -84.412744, 33.824285 ], [ -84.455493, 33.826808 ], [ -84.453909, 33.86764 ], [ -84.470189, 33.858008 ], [ -84.463422, 33.872959 ], [ -84.475923, 33.880132 ], [ -84.493849, 33.867772 ], [ -84.492839, 33.876625 ], [ -84.517082, 33.880057 ], [ -84.521623, 33.842906 ], [ -84.558387, 33.851827 ], [ -84.582621, 33.84461 ], [ -84.594503, 33.861977 ], [ -84.568949, 33.864552 ], [ -84.570055, 33.880861 ], [ -84.554372, 33.88753 ], [ -84.558077, 33.910668 ], [ -84.59367, 33.901936 ], [ -84.596694, 33.945727 ], [ -84.587133, 33.958901 ], [ -84.551376, 33.957792 ], [ -84.569046, 33.978751 ], [ -84.570233, 33.972401 ], [ -84.597749, 33.973666 ], [ -84.577475, 33.984566 ], [ -84.597173, 33.992863 ], [ -84.609112, 33.985766 ], [ -84.601252, 33.974087 ], [ -84.605473, 33.960781 ], [ -84.628743, 33.991964 ], [ -84.650795, 33.974962 ] ], [ [ -84.491601, 33.878015 ], [ -84.490042, 33.876189 ], [ -84.488574, 33.876823 ], [ -84.491601, 33.878015 ] ], [ [ -84.608338, 33.992572 ], [ -84.60593, 33.993853 ], [ -84.608168, 33.993499 ], [ -84.608338, 33.992572 ] ], [ [ -84.608993, 34.013455 ], [ -84.608738, 34.010119 ], [ -84.600726, 34.003595 ], [ -84.608993, 34.013455 ] ], [ [ -84.600151, 34.001281 ], [ -84.601413, 34.002423 ], [ -84.600845, 34.00115 ], [ -84.600151, 34.001281 ] ], [ [ -84.605372, 34.006408 ], [ -84.604529, 34.00207 ], [ -84.602443, 34.00227 ], [ -84.605372, 34.006408 ] ], [ [ -84.604887, 33.992509 ], [ -84.606632, 33.990215 ], [ -84.604271, 33.990192 ], [ -84.604887, 33.992509 ] ], [ [ -84.609406, 34.013288 ], [ -84.612614, 34.013467 ], [ -84.610151, 34.012166 ], [ -84.609406, 34.013288 ] ] ], [ [ [ -84.603254, 33.947572 ], [ -84.600134, 33.953069 ], [ -84.600126, 33.945948 ], [ -84.603254, 33.947572 ] ] ], [ [ [ -84.597991, 33.960527 ], [ -84.595658, 33.963515 ], [ -84.59552, 33.960531 ], [ -84.597991, 33.960527 ] ] ], [ [ [ -84.600627, 33.965967 ], [ -84.6004, 33.964795 ], [ -84.601387, 33.964838 ], [ -84.600627, 33.965967 ] ] ], [ [ [ -84.593743, 33.963518 ], [ -84.597794, 33.967911 ], [ -84.593084, 33.967119 ], [ -84.593743, 33.963518 ] ] ], [ [ [ -84.596667, 33.980715 ], [ -84.59918, 33.982741 ], [ -84.59124, 33.983018 ], [ -84.596667, 33.980715 ] ] ] ] } },
{ "type": "Feature", "properties": { "district_id": 10, "voting_age_pop": 508139, "lib_votes": 0, "grn_votes": 0, "con_votes": 0, "ref_votes": 0, "total_pop": 672803, "dem_votes_sum": 104888, "rep_votes_sum": 146113, "lib_votes_sum": 0, "grn_votes_sum": 0, "con_votes_sum": 0, "ref_votes_sum": 0, "minority_pop_sum": 242863, "dem_pct": 0.4178788132318198, "rep_pct": 0.58212118676818025, "lib_pct": 0.0, "grn_pct": 0.0, "con_pct": 0.0, "ref_pct": 0.0, "minority_pct": 0.36097193383501558, "compactness": 0.12394284829802032 }, "geometry": { "type": "Polygon", "coordinates": [ [ [ -83.838735, 32.12415 ], [ -83.917963, 32.115425 ], [ -83.919207, 32.059187 ], [ -83.949465, 32.052577 ], [ -83.955806, 32.074315 ], [ -83.977411, 32.058742 ], [ -83.987161, 32.071634 ], [ -83.974784, 32.091952 ], [ -83.997905, 32.101301 ], [ -84.033029, 32.152167 ], [ -84.026305, 32.168694 ], [ -84.043673, 32.179409 ], [ -84.03813, 32.194394 ], [ -84.057925, 32.229667 ], [ -83.996526, 32.361037 ], [ -84.001203, 32.381422 ], [ -84.015242, 32.383124 ], [ -84.019473, 32.417181 ], [ -83.956108, 32.462707 ], [ -83.978985, 32.472949 ], [ -84.015308, 32.460572 ], [ -84.022279, 32.505634 ], [ -83.923363, 32.511355 ], [ -83.883945, 32.561335 ], [ -83.92952, 32.58729 ], [ -83.894912, 32.61101 ], [ -83.940749, 32.619735 ], [ -83.943658, 32.630834 ], [ -83.87042, 32.65787 ], [ -83.845221, 32.71563 ], [ -83.809161, 32.731231 ], [ -83.891728, 32.818861 ], [ -83.891922, 32.848351 ], [ -83.968421, 32.84886 ], [ -83.983277, 32.864498 ], [ -84.011235, 32.867959 ], [ -84.039866, 32.917385 ], [ -84.073993, 32.931609 ], [ -84.054175, 32.931497 ], [ -84.044113, 32.947874 ], [ -84.042944, 33.023919 ], [ -84.023864, 33.02427 ], [ -83.986158, 32.993589 ], [ -83.945998, 32.9941 ], [ -83.941546, 33.009972 ], [ -83.914516, 33.004427 ], [ -83.899547, 32.985902 ], [ -83.908811, 33.010457 ], [ -83.878659, 33.015398 ], [ -83.84368, 32.991646 ], [ -83.768013, 33.016557 ], [ -83.723453, 32.997238 ], [ -83.723214, 33.031939 ], [ -83.707785, 33.037787 ], [ -83.693757, 32.999883 ], [ -83.656962, 33.020098 ], [ -83.6191, 32.981171 ], [ -83.577602, 33.04326 ], [ -83.554365, 33.046099 ], [ -83.536755, 33.029284 ], [ -83.552068, 33.020971 ], [ -83.548342, 32.992836 ], [ -83.53289, 32.996641 ], [ -83.52427, 32.98276 ], [ -83.50667, 32.991028 ], [ -83.529327, 32.993935 ], [ -83.518064, 33.008897 ], [ -83.530589, 33.020246 ], [ -83.515429, 33.037541 ], [ -83.486902, 33.020666 ], [ -83.494782, 32.994464 ], [ -83.470447, 32.9823 ], [ -83.440822, 32.988254 ], [ -83.429482, 32.973658 ], [ -83.318485, 33.031471 ], [ -83.286925, 33.002428 ], [ -83.265257, 33.007799 ], [ -83.235742, 32.972004 ], [ -83.20616, 32.983597 ], [ -83.16227, 32.969602 ], [ -83.179469, 32.987401 ], [ -83.144054, 33.008728 ], [ -83.122813, 33.001294 ], [ -83.125147, 32.983466 ], [ -83.077922, 32.946235 ], [ -83.068232, 32.974366 ], [ -83.052628, 32.980626 ], [ -82.991667, 32.961219 ], [ -82.956359, 32.96326 ], [ -82.884763, 32.927625 ], [ -82.843299, 32.961807 ], [ -82.815049, 32.967382 ], [ -82.794601, 32.960884 ], [ -82.806405, 32.938508 ], [ -82.756814, 32.945956 ], [ -82.704196, 32.920108 ], [ -82.678054, 32.963875 ], [ -82.711429, 32.963061 ], [ -82.7027, 32.985914 ], [ -82.713434, 32.984175 ], [ -82.720098, 33.036248 ], [ -82.749562, 33.054972 ], [ -82.738328, 33.065357 ], [ -82.700273, 33.055748 ], [ -82.675474, 33.063277 ], [ -82.66935, 33.095585 ], [ -82.688526, 33.118972 ], [ -82.669782, 33.127324 ], [ -82.638105, 33.100701 ], [ -82.641569, 33.084392 ], [ -82.600253, 33.032838 ], [ -82.550225, 33.019351 ], [ -82.53551, 32.961761 ], [ -82.453909, 32.92998 ], [ -82.430923, 32.846593 ], [ -82.451864, 32.826476 ], [ -82.434149, 32.762258 ], [ -82.452751, 32.71926 ], [ -82.499431, 32.68634 ], [ -82.490315, 32.662035 ], [ -82.463854, 32.647236 ], [ -82.517717, 32.633677 ], [ -82.512002, 32.625163 ], [ -82.594439, 32.579158 ], [ -82.591186, 32.557691 ], [ -82.564358, 32.532449 ], [ -82.597855, 32.532866 ], [ -82.602563, 32.509473 ], [ -82.602955, 32.521467 ], [ -82.647733, 32.512507 ], [ -82.49055, 32.496502 ], [ -82.38194, 32.440596 ], [ -82.410761, 32.357135 ], [ -82.358787, 32.318646 ], [ -82.346147, 32.291882 ], [ -82.279845, 32.294182 ], [ -82.232788, 32.318838 ], [ -82.238217, 32.344617 ], [ -82.254572, 32.351498 ], [ -82.226157, 32.385178 ], [ -82.159764, 32.376576 ], [ -82.073248, 32.398035 ], [ -82.012109, 32.390728 ], [ -82.009783, 32.419747 ], [ -81.93768, 32.424238 ], [ -81.956153, 32.449452 ], [ -81.945795, 32.467574 ], [ -81.925438, 32.462697 ], [ -81.910041, 32.498083 ], [ -81.875804, 32.477122 ], [ -81.873394, 32.496111 ], [ -81.848886, 32.508158 ], [ -81.852681, 32.522087 ], [ -81.841989, 32.518346 ], [ -81.783594, 32.446996 ], [ -81.752737, 32.442762 ], [ -81.756441, 32.412574 ], [ -81.785508, 32.408429 ], [ -81.816136, 32.436283 ], [ -81.862705, 32.414313 ], [ -81.855424, 32.39705 ], [ -81.862048, 32.39423 ], [ -81.884327, 32.428213 ], [ -81.929933, 32.429823 ], [ -81.936757, 32.422928 ], [ -81.918652, 32.415073 ], [ -81.944304, 32.333575 ], [ -81.916883, 32.320816 ], [ -81.857227, 32.355496 ], [ -81.858303, 32.337255 ], [ -81.814142, 32.299885 ], [ -81.795513, 32.239369 ], [ -81.806699, 32.205132 ], [ -81.781308, 32.176499 ], [ -81.780858, 32.15289 ], [ -81.435732, 32.241307 ], [ -81.413367, 32.207787 ], [ -81.406977, 32.102165 ], [ -81.391261, 32.099827 ], [ -81.368026, 32.048526 ], [ -81.304269, 31.999174 ], [ -81.337586, 31.952371 ], [ -81.404961, 31.937002 ], [ -81.463844, 31.950014 ], [ -81.475761, 31.974255 ], [ -81.485481, 31.963642 ], [ -81.564231, 31.95949 ], [ -81.593582, 31.97154 ], [ -81.619514, 32.032536 ], [ -81.71408, 32.092525 ], [ -81.876068, 31.968376 ], [ -81.889626, 31.948963 ], [ -81.881989, 31.91823 ], [ -81.892548, 31.895033 ], [ -81.912468, 31.886959 ], [ -81.955132, 31.809851 ], [ -81.979912, 31.80455 ], [ -81.97554, 31.782707 ], [ -82.006777, 31.800047 ], [ -82.016396, 31.823731 ], [ -82.026076, 31.815095 ], [ -82.043232, 31.821192 ], [ -82.135018, 31.884862 ], [ -82.138536, 31.870099 ], [ -82.199167, 31.834772 ], [ -82.199459, 31.810978 ], [ -82.233245, 31.790535 ], [ -82.234784, 31.761919 ], [ -82.267272, 31.772887 ], [ -82.267419, 31.75446 ], [ -82.312448, 31.775509 ], [ -82.315168, 31.741287 ], [ -82.344162, 31.76086 ], [ -82.339682, 31.775594 ], [ -82.36296, 31.783293 ], [ -82.35271, 31.791015 ], [ -82.367666, 31.80158 ], [ -82.362973, 31.811853 ], [ -82.310469, 31.809101 ], [ -82.282151, 31.850228 ], [ -82.356407, 31.853737 ], [ -82.353018, 31.843969 ], [ -82.376095, 31.844057 ], [ -82.380115, 31.830101 ], [ -82.41077, 31.868647 ], [ -82.431464, 31.870397 ], [ -82.431362, 31.837993 ], [ -82.51888, 31.838393 ], [ -82.570071, 31.858225 ], [ -82.600682, 31.850586 ], [ -82.602845, 31.859522 ], [ -82.617804, 31.848504 ], [ -82.608738, 31.842281 ], [ -82.627, 31.783455 ], [ -82.654103, 31.813467 ], [ -82.687106, 31.813135 ], [ -82.750493, 31.762185 ], [ -82.836721, 31.761826 ], [ -82.836366, 31.816154 ], [ -82.875893, 31.780916 ], [ -82.899345, 31.782969 ], [ -82.898773, 31.791452 ], [ -82.918573, 31.778693 ], [ -82.97831, 31.793201 ], [ -82.995698, 31.780983 ], [ -82.99836, 31.673164 ], [ -83.176509, 31.678515 ], [ -83.177218, 31.651691 ], [ -83.243979, 31.653259 ], [ -83.234797, 31.666896 ], [ -83.253025, 31.723849 ], [ -83.241466, 31.803674 ], [ -83.207673, 31.840386 ], [ -83.39942, 31.847051 ], [ -83.392212, 31.881691 ], [ -83.417016, 31.882533 ], [ -83.381608, 31.932522 ], [ -83.399085, 31.965764 ], [ -83.397819, 32.036478 ], [ -83.433886, 32.057187 ], [ -83.415363, 32.076833 ], [ -83.421863, 32.089748 ], [ -83.39059, 32.090552 ], [ -83.413091, 32.13326 ], [ -83.435657, 32.117244 ], [ -83.55083, 32.126165 ], [ -83.55102, 32.118139 ], [ -83.608547, 32.118405 ], [ -83.607892, 32.17016 ], [ -83.689476, 32.147457 ], [ -83.69288, 32.18629 ], [ -83.714591, 32.20827 ], [ -83.701453, 32.22017 ], [ -83.71418, 32.226519 ], [ -83.7499, 32.196869 ], [ -83.748231, 32.213057 ], [ -83.826824, 32.21803 ], [ -83.824089, 32.155486 ], [ -83.838735, 32.12415 ] ] ] } },
{ "type": "Feature", "properties": { "district_id": 11, "voting_age_pop": 501576, "lib_votes": 0, "grn_votes": 0, "con_votes": 0, "ref_votes": 0, "total_pop": 668590, "dem_votes_sum": 122264, "rep_votes_sum": 153854, "lib_votes_sum": 0, "grn_votes_sum": 0, "con_votes_sum": 0, "ref_votes_sum": 0, "minority_pop_sum": 249317, "dem_pct": 0.44279619582931934, "rep_pct": 0.55720380417068061, "lib_pct": 0.0, "grn_pct": 0.0, "con_pct": 0.0, "ref_pct": 0.0, "minority_pct": 0.37289968441047577, "compactness": 0.15154429042296422 }, "geometry": { "type": "Polygon", "coordinates": [ [ [ -83.549196, 32.993525 ], [ -83.552068, 33.020971 ], [ -83.536755, 33.029284 ], [ -83.554365, 33.046099 ], [ -83.577602, 33.04326 ], [ -83.6191, 32.981171 ], [ -83.656962, 33.020098 ], [ -83.693839, 32.999936 ], [ -83.711891, 33.040828 ], [ -83.699575, 33.054219 ], [ -83.726206, 33.080219 ], [ -83.722742, 33.104318 ], [ -83.742022, 33.118164 ], [ -83.745849, 33.142573 ], [ -83.545876, 33.171944 ], [ -83.533736, 33.434472 ], [ -83.46342, 33.448667 ], [ -83.484254, 33.476144 ], [ -83.490066, 33.516207 ], [ -83.507946, 33.504868 ], [ -83.537865, 33.544889 ], [ -83.56185, 33.53617 ], [ -83.57666, 33.55593 ], [ -83.52249, 33.59644 ], [ -83.571887, 33.624655 ], [ -83.448099, 33.644325 ], [ -83.434219, 33.718975 ], [ -83.470657, 33.784167 ], [ -83.421579, 33.807955 ], [ -83.36767, 33.710272 ], [ -83.29145, 33.734315 ], [ -83.28034, 33.761774 ], [ -83.118729, 33.698818 ], [ -83.049141, 33.715561 ], [ -83.007881, 33.689869 ], [ -82.949046, 33.733333 ], [ -82.986311, 33.78558 ], [ -82.912364, 33.877193 ], [ -82.873606, 33.879845 ], [ -82.858989, 33.864456 ], [ -82.864627, 33.842568 ], [ -82.841525, 33.824481 ], [ -82.832892, 33.820075 ], [ -82.833269, 33.839606 ], [ -82.816957, 33.841386 ], [ -82.792455, 33.810521 ], [ -82.779776, 33.812742 ], [ -82.726066, 33.868153 ], [ -82.70326, 33.85756 ], [ -82.694505, 33.877879 ], [ -82.652049, 33.868014 ], [ -82.632351, 33.878559 ], [ -82.617125, 33.892979 ], [ -82.645451, 33.984195 ], [ -82.639146, 33.972691 ], [ -82.603195, 33.9799 ], [ -82.554435, 33.943798 ], [ -82.51295, 33.936969 ], [ -82.429164, 33.865844 ], [ -82.403879, 33.865475 ], [ -82.32448, 33.820033 ], [ -82.298286, 33.783518 ], [ -82.247472, 33.752591 ], [ -82.234572, 33.700217 ], [ -82.199898, 33.6617 ], [ -82.186155, 33.620881 ], [ -82.138028, 33.592236 ], [ -82.10784, 33.596277 ], [ -82.046335, 33.56383 ], [ -82.001338, 33.520135 ], [ -81.985938, 33.486536 ], [ -81.926336, 33.462937 ], [ -81.913126, 33.438333 ], [ -81.93243, 33.425706 ], [ -81.909693, 33.411979 ], [ -81.945181, 33.407531 ], [ -81.924837, 33.37414 ], [ -81.946337, 33.37064 ], [ -81.939737, 33.344941 ], [ -81.909137, 33.346641 ], [ -81.913737, 33.320042 ], [ -81.901384, 33.335774 ], [ -81.880737, 33.302243 ], [ -81.867936, 33.314043 ], [ -81.863929, 33.302036 ], [ -81.847336, 33.306843 ], [ -81.863236, 33.288844 ], [ -81.828336, 33.263045 ], [ -81.847336, 33.266345 ], [ -81.839636, 33.255245 ], [ -81.851137, 33.252545 ], [ -81.853137, 33.250745 ], [ -81.852076, 33.247288 ], [ -81.805238, 33.211441 ], [ -81.768935, 33.217447 ], [ -81.756835, 33.197947 ], [ -81.772435, 33.180449 ], [ -81.752135, 33.14855 ], [ -81.704634, 33.11645 ], [ -81.642333, 33.093152 ], [ -81.611657, 33.094259 ], [ -81.612072, 33.080019 ], [ -81.60132, 33.087049 ], [ -81.602212, 33.073473 ], [ -81.57288, 33.05418 ], [ -81.563372, 33.060156 ], [ -81.561948, 33.045844 ], [ -81.529124, 33.04081 ], [ -81.51069, 33.010315 ], [ -81.491954, 33.009093 ], [ -81.49983, 32.963816 ], [ -81.511347, 32.966721 ], [ -81.502427, 32.935353 ], [ -81.483198, 32.921802 ], [ -81.480812, 32.898614 ], [ -81.464433, 32.898603 ], [ -81.479445, 32.881082 ], [ -81.452883, 32.872964 ], [ -81.460722, 32.846038 ], [ -81.426475, 32.840773 ], [ -81.428235, 32.818584 ], [ -81.417984, 32.818196 ], [ -81.431235, 32.784141 ], [ -81.414456, 32.778149 ], [ -81.43194, 32.768911 ], [ -81.412093, 32.763866 ], [ -81.419698, 32.749167 ], [ -81.404932, 32.745559 ], [ -81.427517, 32.701895 ], [ -81.409012, 32.696551 ], [ -81.397154, 32.661378 ], [ -81.407193, 32.660519 ], [ -81.393033, 32.651542 ], [ -81.41866, 32.629392 ], [ -81.366782, 32.576915 ], [ -81.28058, 32.55603 ], [ -81.279655, 32.536338 ], [ -81.233794, 32.51831 ], [ -81.233111, 32.498069 ], [ -81.187347, 32.464463 ], [ -81.208498, 32.436289 ], [ -81.160879, 32.35497 ], [ -81.182099, 32.306029 ], [ -81.174429, 32.28472 ], [ -81.189549, 32.288701 ], [ -81.231196, 32.267688 ], [ -81.228981, 32.24564 ], [ -81.287308, 32.200145 ], [ -81.345189, 32.246581 ], [ -81.379265, 32.210194 ], [ -81.3829, 32.167088 ], [ -81.401931, 32.150184 ], [ -81.413833, 32.160725 ], [ -81.413367, 32.207787 ], [ -81.435756, 32.24131 ], [ -81.780858, 32.15289 ], [ -81.781308, 32.176499 ], [ -81.806699, 32.205132 ], [ -81.795513, 32.239369 ], [ -81.814142, 32.299885 ], [ -81.858303, 32.337255 ], [ -81.857227, 32.355496 ], [ -81.916883, 32.320816 ], [ -81.944304, 32.333575 ], [ -81.918652, 32.415073 ], [ -81.936757, 32.422928 ], [ -81.929933, 32.429823 ], [ -81.884327, 32.428213 ], [ -81.862048, 32.39423 ], [ -81.862705, 32.414313 ], [ -81.816136, 32.436283 ], [ -81.785508, 32.408429 ], [ -81.756441, 32.412574 ], [ -81.752737, 32.442762 ], [ -81.783594, 32.446996 ], [ -81.824813, 32.506493 ], [ -81.852681, 32.522087 ], [ -81.848886, 32.508158 ], [ -81.873394, 32.496111 ], [ -81.875804, 32.477122 ], [ -81.910041, 32.498083 ], [ -81.925438, 32.462697 ], [ -81.946715, 32.466973 ], [ -81.956171, 32.44836 ], [ -81.937969, 32.424087 ], [ -82.009783, 32.419747 ], [ -82.012109, 32.390728 ], [ -82.073248, 32.398035 ], [ -82.159764, 32.376576 ], [ -82.226157, 32.385178 ], [ -82.254572, 32.351498 ], [ -82.238217, 32.344617 ], [ -82.232788, 32.318838 ], [ -82.279845, 32.294182 ], [ -82.354546, 32.292194 ], [ -82.358787, 32.318646 ], [ -82.411169, 32.358914 ], [ -82.38194, 32.440596 ], [ -82.49055, 32.496502 ], [ -82.647733, 32.512507 ], [ -82.602955, 32.521467 ], [ -82.602563, 32.509473 ], [ -82.597855, 32.532866 ], [ -82.564358, 32.532449 ], [ -82.591186, 32.557691 ], [ -82.594439, 32.579158 ], [ -82.512002, 32.625163 ], [ -82.517717, 32.633677 ], [ -82.498921, 32.642733 ], [ -82.492924, 32.634046 ], [ -82.463854, 32.647236 ], [ -82.490315, 32.662035 ], [ -82.499431, 32.68634 ], [ -82.452751, 32.71926 ], [ -82.434149, 32.762258 ], [ -82.451864, 32.826476 ], [ -82.430923, 32.846593 ], [ -82.453909, 32.92998 ], [ -82.53551, 32.961761 ], [ -82.550225, 33.019351 ], [ -82.600253, 33.032838 ], [ -82.662854, 33.126869 ], [ -82.688526, 33.118972 ], [ -82.66935, 33.095585 ], [ -82.675754, 33.063034 ], [ -82.701395, 33.055788 ], [ -82.738328, 33.065357 ], [ -82.749562, 33.054972 ], [ -82.720098, 33.036248 ], [ -82.713434, 32.984175 ], [ -82.7027, 32.985914 ], [ -82.711429, 32.963061 ], [ -82.678054, 32.963875 ], [ -82.704196, 32.920108 ], [ -82.756814, 32.945956 ], [ -82.806405, 32.938508 ], [ -82.794601, 32.960884 ], [ -82.815049, 32.967382 ], [ -82.843299, 32.961807 ], [ -82.884763, 32.927625 ], [ -82.956359, 32.96326 ], [ -82.991667, 32.961219 ], [ -83.052628, 32.980626 ], [ -83.068232, 32.974366 ], [ -83.070305, 32.948021 ], [ -83.077922, 32.946235 ], [ -83.125147, 32.983466 ], [ -83.122813, 33.001294 ], [ -83.144054, 33.008728 ], [ -83.179469, 32.987401 ], [ -83.16227, 32.969602 ], [ -83.20616, 32.983597 ], [ -83.235742, 32.972004 ], [ -83.265257, 33.007799 ], [ -83.286925, 33.002428 ], [ -83.318485, 33.031471 ], [ -83.424713, 32.974283 ], [ -83.440822, 32.988254 ], [ -83.470447, 32.9823 ], [ -83.494612, 32.994339 ], [ -83.486902, 33.020666 ], [ -83.515429, 33.037541 ], [ -83.530589, 33.020246 ], [ -83.518064, 33.008897 ], [ -83.529327, 32.993935 ], [ -83.50667, 32.991028 ], [ -83.52427, 32.98276 ], [ -83.53289, 32.996641 ], [ -83.549196, 32.993525 ] ] ] } },
{ "type": "Feature", "properties": { "district_id": 12, "voting_age_pop": 516353, "lib_votes": 0, "grn_votes": 0, "con_votes": 0, "ref_votes": 0, "total_pop": 699056, "dem_votes_sum": 55700, "rep_votes_sum": 192250, "lib_votes_sum": 0, "grn_votes_sum": 0, "con_votes_sum": 0, "ref_votes_sum": 0, "minority_pop_sum": 58377, "dem_pct": 0.22464206493244607, "rep_pct": 0.77535793506755391, "lib_pct": 0.0, "grn_pct": 0.0, "con_pct": 0.0, "ref_pct": 0.0, "minority_pct": 0.08350833123526584, "compactness": 0.1777133377397076 }, "geometry": { "type": "MultiPolygon", "coordinates": [ [ [ [ -85.372995, 33.852688 ], [ -85.605165, 34.984678 ], [ -84.810477, 34.987605 ], [ -84.842705, 34.918126 ], [ -84.824111, 34.901747 ], [ -84.833369, 34.896829 ], [ -84.819875, 34.865981 ], [ -84.84432, 34.853114 ], [ -84.889212, 34.867894 ], [ -84.931477, 34.837649 ], [ -84.913886, 34.832662 ], [ -84.926068, 34.827859 ], [ -84.896407, 34.779282 ], [ -84.804008, 34.78287 ], [ -84.815533, 34.764695 ], [ -84.792416, 34.7631 ], [ -84.779407, 34.714063 ], [ -84.787575, 34.687426 ], [ -84.774956, 34.686921 ], [ -84.75701, 34.643511 ], [ -84.764839, 34.623137 ], [ -84.802198, 34.60839 ], [ -84.779654, 34.608322 ], [ -84.773863, 34.59126 ], [ -84.791247, 34.578053 ], [ -84.781648, 34.567602 ], [ -84.801557, 34.55906 ], [ -84.801025, 34.549289 ], [ -84.779125, 34.551916 ], [ -84.772676, 34.523757 ], [ -84.791927, 34.521534 ], [ -84.780562, 34.459913 ], [ -84.766741, 34.448734 ], [ -84.777852, 34.424805 ], [ -84.752871, 34.396731 ], [ -84.734118, 34.396495 ], [ -84.733878, 34.412968 ], [ -84.58283, 34.412191 ], [ -84.58263, 34.381492 ], [ -84.454725, 34.38047 ], [ -84.436209, 34.374957 ], [ -84.442924, 34.364083 ], [ -84.430635, 34.359042 ], [ -84.490439, 34.323652 ], [ -84.495034, 34.294295 ], [ -84.512071, 34.281233 ], [ -84.573678, 34.282416 ], [ -84.595454, 34.263364 ], [ -84.580143, 34.252778 ], [ -84.58475, 34.241807 ], [ -84.560957, 34.245876 ], [ -84.550463, 34.228635 ], [ -84.570992, 34.230832 ], [ -84.566542, 34.195402 ], [ -84.596222, 34.179635 ], [ -84.573103, 34.153809 ], [ -84.575892, 34.129139 ], [ -84.597526, 34.153115 ], [ -84.603443, 34.146207 ], [ -84.626026, 34.155916 ], [ -84.62384, 34.129113 ], [ -84.657881, 34.142471 ], [ -84.659234, 34.077999 ], [ -84.922742, 34.082497 ], [ -84.966329, 33.981015 ], [ -84.939939, 33.983704 ], [ -84.906431, 33.954748 ], [ -84.901967, 33.932703 ], [ -84.916655, 33.933548 ], [ -84.925857, 33.889118 ], [ -84.894037, 33.875265 ], [ -84.887918, 33.89401 ], [ -84.855242, 33.906127 ], [ -84.834859, 33.895169 ], [ -84.824213, 33.909076 ], [ -84.794121, 33.89039 ], [ -84.806498, 33.893469 ], [ -84.807147, 33.866878 ], [ -84.841682, 33.867354 ], [ -84.889714, 33.808723 ], [ -84.86941, 33.774983 ], [ -84.825604, 33.778822 ], [ -84.826805, 33.758854 ], [ -84.815274, 33.754237 ], [ -84.834693, 33.716355 ], [ -84.813669, 33.706391 ], [ -84.83244, 33.689386 ], [ -84.827529, 33.667533 ], [ -84.805937, 33.644509 ], [ -84.808662, 33.629659 ], [ -84.781269, 33.610632 ], [ -84.808284, 33.578896 ], [ -84.784814, 33.563631 ], [ -84.741907, 33.567033 ], [ -84.745027, 33.54504 ], [ -84.729028, 33.532747 ], [ -84.75011, 33.527344 ], [ -84.757791, 33.510855 ], [ -84.850713, 33.511457 ], [ -84.815057, 33.521194 ], [ -84.8326, 33.547061 ], [ -84.808934, 33.574085 ], [ -84.905788, 33.573378 ], [ -84.902741, 33.649999 ], [ -84.915073, 33.659181 ], [ -84.936417, 33.656441 ], [ -84.968808, 33.612834 ], [ -84.955582, 33.597318 ], [ -84.97018, 33.578857 ], [ -84.958363, 33.563066 ], [ -84.969343, 33.558736 ], [ -85.031884, 33.553039 ], [ -85.038287, 33.570549 ], [ -85.017914, 33.565842 ], [ -85.016842, 33.572646 ], [ -85.016307, 33.574057 ], [ -85.01439, 33.57709 ], [ -85.041841, 33.573331 ], [ -85.041247, 33.588906 ], [ -85.038, 33.586795 ], [ -85.033464, 33.58609 ], [ -85.030019, 33.599287 ], [ -85.022938, 33.590934 ], [ -85.023089, 33.616044 ], [ -85.023148, 33.604223 ], [ -85.043188, 33.598519 ], [ -85.042793, 33.612093 ], [ -85.053819, 33.604782 ], [ -85.061161, 33.616564 ], [ -85.07766, 33.605771 ], [ -85.102286, 33.611349 ], [ -85.090891, 33.61469 ], [ -85.100083, 33.624895 ], [ -85.081697, 33.622585 ], [ -85.091101, 33.633397 ], [ -85.103172, 33.624853 ], [ -85.100605, 33.617326 ], [ -85.111674, 33.628421 ], [ -85.124106, 33.609285 ], [ -85.15279, 33.620241 ], [ -85.160019, 33.646209 ], [ -85.148868, 33.646245 ], [ -85.149337, 33.664232 ], [ -85.161707, 33.665113 ], [ -85.18514, 33.73404 ], [ -85.17889, 33.76607 ], [ -85.133716, 33.78202 ], [ -85.146684, 33.813241 ], [ -85.13738, 33.817695 ], [ -85.187766, 33.869375 ], [ -85.207066, 33.859906 ], [ -85.213244, 33.863558 ], [ -85.18374, 33.87815 ], [ -85.185851, 33.905951 ], [ -85.272269, 33.900095 ], [ -85.26128, 33.88817 ], [ -85.26496, 33.84666 ], [ -85.34117, 33.84637 ], [ -85.35556, 33.86539 ], [ -85.372995, 33.852688 ] ], [ [ -85.01493, 33.574921 ], [ -85.014965, 33.575748 ], [ -85.015649, 33.574879 ], [ -85.01493, 33.574921 ] ] ], [ [ [ -85.038356, 33.591552 ], [ -85.041143, 33.589455 ], [ -85.041108, 33.591572 ], [ -85.038356, 33.591552 ] ] ], [ [ [ -85.038983, 33.594902 ], [ -85.039319, 33.593377 ], [ -85.039877, 33.593552 ], [ -85.038983, 33.594902 ] ] ], [ [ [ -85.035447, 33.599191 ], [ -85.036171, 33.599417 ], [ -85.034017, 33.599434 ], [ -85.035447, 33.599191 ] ] ] ] } },
{ "type": "Feature", "properties": { "district_id": 13, "voting_age_pop": 537003, "lib_votes": 0, "grn_votes": 0, "con_votes": 0, "ref_votes": 0, "total_pop": 706640, "dem_votes_sum": 81282, "rep_votes_sum": 202817, "lib_votes_sum": 0, "grn_votes_sum": 0, "con_votes_sum": 0, "ref_votes_sum": 0, "minority_pop_sum": 75599, "dem_pct": 0.28610449174407515, "rep_pct": 0.71389550825592485, "lib_pct": 0.0, "grn_pct": 0.0, "con_pct": 0.0, "ref_pct": 0.0, "minority_pct": 0.10698375410392845, "compactness": 0.24202832955099096 }, "geometry": { "type": "Polygon", "coordinates": [ [ [ -83.911527, 34.080226 ], [ -83.973583, 34.104278 ], [ -83.927443, 34.16013 ], [ -84.005881, 34.192968 ], [ -83.966786, 34.21593 ], [ -83.972298, 34.227205 ], [ -83.949554, 34.240154 ], [ -83.950522, 34.261587 ], [ -84.036048, 34.246055 ], [ -84.063194, 34.26403 ], [ -84.043457, 34.283016 ], [ -83.949836, 34.312305 ], [ -83.945571, 34.329399 ], [ -84.119045, 34.337231 ], [ -84.112363, 34.359073 ], [ -84.075156, 34.379787 ], [ -84.048088, 34.377677 ], [ -84.036438, 34.363407 ], [ -83.991287, 34.422158 ], [ -84.106675, 34.465852 ], [ -84.19104, 34.539181 ], [ -84.188557, 34.602692 ], [ -84.158035, 34.648243 ], [ -84.124914, 34.664419 ], [ -84.03651, 34.641934 ], [ -84.024109, 34.670753 ], [ -83.994412, 34.67849 ], [ -83.984879, 34.713951 ], [ -83.939007, 34.740859 ], [ -83.951995, 34.76397 ], [ -83.939651, 34.764758 ], [ -83.939366, 34.780864 ], [ -83.895123, 34.792251 ], [ -83.902059, 34.809043 ], [ -83.880104, 34.809558 ], [ -83.865793, 34.833236 ], [ -83.852647, 34.823508 ], [ -83.838045, 34.835841 ], [ -83.817211, 34.823979 ], [ -83.799047, 34.843566 ], [ -83.812199, 34.90879 ], [ -83.852864, 34.899452 ], [ -83.865733, 34.914686 ], [ -83.915204, 34.926887 ], [ -83.945961, 34.97094 ], [ -83.936413, 34.987483 ], [ -83.103363, 34.997639 ], [ -83.12211, 34.964329 ], [ -83.114059, 34.950279 ], [ -83.127052, 34.954239 ], [ -83.111755, 34.934963 ], [ -83.127312, 34.938633 ], [ -83.141518, 34.924515 ], [ -83.156891, 34.930767 ], [ -83.15699, 34.915123 ], [ -83.168607, 34.919355 ], [ -83.205261, 34.880165 ], [ -83.214027, 34.888569 ], [ -83.220131, 34.878036 ], [ -83.242996, 34.877537 ], [ -83.234703, 34.870743 ], [ -83.248092, 34.865577 ], [ -83.248927, 34.845141 ], [ -83.267196, 34.848469 ], [ -83.270882, 34.818588 ], [ -83.306061, 34.816048 ], [ -83.300842, 34.804344 ], [ -83.324142, 34.789246 ], [ -83.318748, 34.757626 ], [ -83.353325, 34.728691 ], [ -83.35379, 34.698166 ], [ -83.340527, 34.680736 ], [ -83.253881, 34.636696 ], [ -83.23258, 34.611597 ], [ -83.159677, 34.603298 ], [ -83.170978, 34.598098 ], [ -83.158677, 34.578999 ], [ -83.034565, 34.483571 ], [ -82.995901, 34.472204 ], [ -82.979746, 34.482938 ], [ -82.901551, 34.486764 ], [ -82.858837, 34.45522 ], [ -82.834457, 34.365221 ], [ -82.79447, 34.340379 ], [ -82.782128, 34.298278 ], [ -82.746811, 34.266588 ], [ -82.741875, 34.210209 ], [ -82.717459, 34.150546 ], [ -82.676985, 34.131425 ], [ -82.642416, 34.093264 ], [ -82.642883, 34.070843 ], [ -82.594734, 34.029667 ], [ -82.575386, 33.991899 ], [ -82.564462, 33.955728 ], [ -82.602844, 33.979782 ], [ -82.639146, 33.972691 ], [ -82.645451, 33.984195 ], [ -82.617125, 33.892979 ], [ -82.652049, 33.868014 ], [ -82.694308, 33.877935 ], [ -82.70326, 33.85756 ], [ -82.726066, 33.868153 ], [ -82.750766, 33.833038 ], [ -82.792455, 33.810521 ], [ -82.816957, 33.841386 ], [ -82.833269, 33.839606 ], [ -82.833587, 33.819838 ], [ -82.864118, 33.841989 ], [ -82.858989, 33.864456 ], [ -82.873606, 33.879845 ], [ -82.912276, 33.877246 ], [ -82.986311, 33.78558 ], [ -82.949046, 33.733333 ], [ -83.007881, 33.689869 ], [ -83.049141, 33.715561 ], [ -83.118729, 33.698818 ], [ -83.28034, 33.761774 ], [ -83.29145, 33.734315 ], [ -83.36767, 33.710272 ], [ -83.421579, 33.807955 ], [ -83.470657, 33.784167 ], [ -83.478374, 33.791879 ], [ -83.483065, 33.859241 ], [ -83.503666, 33.850433 ], [ -83.533463, 33.871846 ], [ -83.55832, 33.840674 ], [ -83.590622, 33.863361 ], [ -83.583763, 33.88385 ], [ -83.630567, 33.8868 ], [ -83.647031, 33.906198 ], [ -83.612972, 33.924919 ], [ -83.66391, 33.959424 ], [ -83.639498, 33.982641 ], [ -83.643978, 34.01589 ], [ -83.664394, 34.018974 ], [ -83.674678, 34.007179 ], [ -83.698922, 34.014009 ], [ -83.692131, 34.035939 ], [ -83.71455, 34.035578 ], [ -83.717076, 34.055073 ], [ -83.70918, 34.045127 ], [ -83.699693, 34.054243 ], [ -83.726047, 34.074469 ], [ -83.737705, 34.110237 ], [ -83.790431, 34.095292 ], [ -83.817602, 34.127518 ], [ -83.86803, 34.098281 ], [ -83.890097, 34.106179 ], [ -83.911527, 34.080226 ] ] ] } }
]
}
