{
"type": "FeatureCollection",
"name": "georgia_optimized_districts_county",
"crs": { "type": "name", "properties": { "name": "urn:ogc:def:crs:OGC:1.3:CRS84" } },
"features": [
{ "type": "Feature", "properties": { "district_id": 0, "voting_age_pop": 505615, "lib_votes": 0, "grn_votes": 0, "con_votes": 0, "ref_votes": 0, "total_pop": 705747, "dem_votes_sum": 137665, "rep_votes_sum": 181185, "lib_votes_sum": 0, "grn_votes_sum": 0, "con_votes_sum": 0, "ref_votes_sum": 0, "minority_pop_sum": 81554, "dem_pct": 0.43175474360984789, "rep_pct": 0.56824525639015211, "lib_pct": 0.0, "grn_pct": 0.0, "con_pct": 0.0, "ref_pct": 0.0, "minority_pct": 0.11555699138643168, "compactness": 0.12047652037273711 }, "geometry": { "type": "Polygon", "coordinates": [ [ [ -84.498602, 34.007322 ], [ -84.527171, 34.008245 ], [ -84.536466, 34.056644 ], [ -84.556182, 34.052127 ], [ -84.570965, 34.074601 ], [ -84.57999, 34.056859 ], [ -84.592774, 34.060679 ], [ -84.575842, 34.085413 ], [ -84.615181, 34.092055 ], [ -84.62007, 34.118196 ], [ -84.590446, 34.121431 ], [ -84.54806, 34.10725 ], [ -84.524584, 34.134134 ], [ -84.503018, 34.12124 ], [ -84.461321, 34.126076 ], [ -84.451115, 34.143235 ], [ -84.474899, 34.135028 ], [ -84.494043, 34.160255 ], [ -84.515093, 34.148781 ], [ -84.502854, 34.195862 ], [ -84.476884, 34.209592 ], [ -84.491763, 34.211187 ], [ -84.488675, 34.220266 ], [ -84.462669, 34.220183 ], [ -84.455202, 34.208761 ], [ -84.434922, 34.214568 ], [ -84.460143, 34.24875 ], [ -84.444154, 34.247946 ], [ -84.443482, 34.261676 ], [ -84.428564, 34.257996 ], [ -84.435618, 34.269973 ], [ -84.417004, 34.264667 ], [ -84.431179, 34.278634 ], [ -84.406535, 34.278143 ], [ -84.397479, 34.291935 ], [ -84.409106, 34.30057 ], [ -84.366277, 34.294545 ], [ -84.360505, 34.30514 ], [ -84.35022, 34.299636 ], [ -84.348081, 34.317407 ], [ -84.316675, 34.324128 ], [ -84.283738, 34.299465 ], [ -84.258492, 34.299275 ], [ -84.329724, 34.256514 ], [ -84.327262, 34.227692 ], [ -84.302431, 34.217851 ], [ -84.317522, 34.186289 ], [ -84.258743, 34.185909 ], [ -84.258777, 34.14315 ], [ -84.226112, 34.132656 ], [ -84.210548, 34.129592 ], [ -84.173088, 34.157821 ], [ -84.148666, 34.149127 ], [ -84.147857, 34.123668 ], [ -84.097724, 34.125263 ], [ -84.117994, 34.065945 ], [ -84.092147, 34.049075 ], [ -84.056863, 34.080295 ], [ -84.083425, 34.102544 ], [ -84.076896, 34.118744 ], [ -84.094362, 34.132266 ], [ -84.07441, 34.135075 ], [ -84.0601, 34.123665 ], [ -84.046382, 34.13929 ], [ -84.019452, 34.141162 ], [ -84.030273, 34.105782 ], [ -84.013167, 34.09607 ], [ -84.023558, 34.071531 ], [ -84.010095, 34.066818 ], [ -84.031117, 34.043301 ], [ -83.993338, 34.056719 ], [ -83.991096, 34.025635 ], [ -83.969197, 34.011844 ], [ -83.989544, 34.000994 ], [ -83.985409, 33.979195 ], [ -83.953041, 33.984388 ], [ -83.921853, 33.967374 ], [ -83.96694, 33.941894 ], [ -83.994564, 33.957026 ], [ -83.994458, 33.935137 ], [ -84.028954, 33.91247 ], [ -84.04521, 33.957602 ], [ -84.080913, 33.940442 ], [ -84.07949, 33.962469 ], [ -84.095855, 33.964185 ], [ -84.196486, 33.949024 ], [ -84.208457, 33.961024 ], [ -84.241507, 33.951264 ], [ -84.243768, 33.970122 ], [ -84.301021, 33.959529 ], [ -84.333965, 34.009902 ], [ -84.350492, 34.003715 ], [ -84.361551, 34.023246 ], [ -84.401325, 34.025795 ], [ -84.408386, 34.03798 ], [ -84.419792, 34.02717 ], [ -84.441716, 34.033229 ], [ -84.454384, 34.019737 ], [ -84.46722, 34.031114 ], [ -84.498602, 34.007322 ] ] ] } },
{ "type": "Feature", "properties": { "district_id": 1, "voting_age_pop": 482564, "lib_votes": 0, "grn_votes": 0, "con_votes": 0, "ref_votes": 0, "total_pop": 671519, "dem_votes_sum": 152218, "rep_votes_sum": 150358, "lib_votes_sum": 0, "grn_votes_sum": 0, "con_votes_sum": 0, "ref_votes_sum": 0, "minority_pop_sum": 247838, "dem_pct": 0.50307360795304323, "rep_pct": 0.49692639204695682, "lib_pct": 0.0, "grn_pct": 0.0, "con_pct": 0.0, "ref_pct": 0.0, "minority_pct": 0.36907071877340775, "compactness": 0.13087740226513869 }, "geometry": { "type": "MultiPolygon", "coordinates": [ [ [ [ -84.93226, 33.224623 ], [ -84.940605, 33.16075 ], [ -84.980196, 33.092396 ], [ -85.011224, 33.10241 ], [ -85.051008, 33.093359 ], [ -85.075262, 33.105898 ], [ -85.09645, 33.096294 ], [ -85.101228, 33.069034 ], [ -85.12212, 33.062365 ], [ -85.11642, 33.104084 ], [ -85.098256, 33.117485 ], [ -85.115903, 33.125712 ], [ -85.10798, 33.195098 ], [ -85.087712, 33.186588 ], [ -85.088036, 33.171701 ], [ -85.044655, 33.181978 ], [ -85.052796, 33.200736 ], [ -85.082274, 33.214888 ], [ -85.065366, 33.21736 ], [ -85.056064, 33.246043 ], [ -85.037778, 33.248444 ], [ -85.036216, 33.282975 ], [ -84.968201, 33.302163 ], [ -85.004005, 33.396006 ], [ -84.927832, 33.359805 ], [ -84.905421, 33.370665 ], [ -84.893513, 33.337172 ], [ -84.845929, 33.38274 ], [ -84.852518, 33.389024 ], [ -84.82798, 33.397553 ], [ -84.839333, 33.422379 ], [ -84.815256, 33.434081 ], [ -84.818676, 33.44867 ], [ -84.881947, 33.487184 ], [ -84.856302, 33.495074 ], [ -84.850713, 33.511457 ], [ -84.627734, 33.511038 ], [ -84.60954, 33.502511 ], [ -84.570289, 33.524918 ], [ -84.577099, 33.546298 ], [ -84.535589, 33.565015 ], [ -84.529365, 33.537798 ], [ -84.483656, 33.545732 ], [ -84.492113, 33.529373 ], [ -84.481594, 33.511037 ], [ -84.429931, 33.511764 ], [ -84.439448, 33.550734 ], [ -84.421409, 33.558178 ], [ -84.434244, 33.570435 ], [ -84.428955, 33.597056 ], [ -84.407778, 33.593762 ], [ -84.411446, 33.581387 ], [ -84.370524, 33.555572 ], [ -84.371658, 33.573096 ], [ -84.360997, 33.565788 ], [ -84.344692, 33.597918 ], [ -84.324768, 33.580886 ], [ -84.303265, 33.582198 ], [ -84.287941, 33.601318 ], [ -84.211606, 33.605426 ], [ -84.191964, 33.623338 ], [ -84.171495, 33.619954 ], [ -84.124983, 33.561204 ], [ -84.108521, 33.566769 ], [ -84.080669, 33.554511 ], [ -84.064178, 33.579822 ], [ -84.05268, 33.57028 ], [ -84.015018, 33.582985 ], [ -84.01503, 33.563621 ], [ -84.037452, 33.556365 ], [ -84.024279, 33.548226 ], [ -84.032117, 33.539408 ], [ -83.944445, 33.546854 ], [ -83.948499, 33.517323 ], [ -83.882952, 33.502644 ], [ -83.886759, 33.411453 ], [ -83.874804, 33.409027 ], [ -83.863304, 33.342085 ], [ -83.839865, 33.328217 ], [ -83.832337, 33.272269 ], [ -83.813412, 33.248584 ], [ -83.834295, 33.210138 ], [ -83.807265, 33.192986 ], [ -83.822202, 33.18022 ], [ -83.868332, 33.20196 ], [ -84.024854, 33.202598 ], [ -84.020327, 33.221338 ], [ -83.997767, 33.223345 ], [ -83.996389, 33.239635 ], [ -83.966427, 33.243869 ], [ -83.964701, 33.262882 ], [ -83.934494, 33.255264 ], [ -83.946445, 33.270151 ], [ -83.935593, 33.282089 ], [ -83.956841, 33.295969 ], [ -83.965381, 33.284487 ], [ -83.978872, 33.284357 ], [ -83.973898, 33.294145 ], [ -84.017184, 33.290957 ], [ -84.068998, 33.264398 ], [ -84.095162, 33.261428 ], [ -84.102585, 33.272301 ], [ -84.128259, 33.231304 ], [ -84.176004, 33.245148 ], [ -84.232469, 33.23389 ], [ -84.261261, 33.278352 ], [ -84.26373, 33.250084 ], [ -84.297345, 33.247447 ], [ -84.300385, 33.22423 ], [ -84.301605, 33.239909 ], [ -84.372567, 33.258214 ], [ -84.341258, 33.228391 ], [ -84.335018, 33.206529 ], [ -84.352267, 33.189542 ], [ -84.373685, 33.189625 ], [ -84.393467, 33.208311 ], [ -84.451336, 33.208889 ], [ -84.49641, 33.183441 ], [ -84.502352, 33.221055 ], [ -84.634145, 33.219248 ], [ -84.637223, 33.195794 ], [ -84.65332, 33.18741 ], [ -84.624469, 33.177366 ], [ -84.662321, 33.162698 ], [ -84.632656, 33.15016 ], [ -84.61551, 33.122895 ], [ -84.652967, 33.128096 ], [ -84.673041, 33.096561 ], [ -84.772996, 33.100125 ], [ -84.787826, 33.115536 ], [ -84.756891, 33.146881 ], [ -84.765923, 33.164338 ], [ -84.802706, 33.175925 ], [ -84.779565, 33.197079 ], [ -84.820894, 33.2083 ], [ -84.824733, 33.223472 ], [ -84.85236, 33.22359 ], [ -84.852304, 33.191043 ], [ -84.869904, 33.195662 ], [ -84.862135, 33.223863 ], [ -84.93226, 33.224623 ] ] ], [ [ [ -84.248226, 33.240029 ], [ -84.245651, 33.238875 ], [ -84.248265, 33.237769 ], [ -84.248226, 33.240029 ] ] ] ] } },
{ "type": "Feature", "properties": { "district_id": 2, "voting_age_pop": 511395, "lib_votes": 0, "grn_votes": 0, "con_votes": 0, "ref_votes": 0, "total_pop": 681657, "dem_votes_sum": 113517, "rep_votes_sum": 154170, "lib_votes_sum": 0, "grn_votes_sum": 0, "con_votes_sum": 0, "ref_votes_sum": 0, "minority_pop_sum": 236023, "dem_pct": 0.42406616682916987, "rep_pct": 0.57593383317083013, "lib_pct": 0.0, "grn_pct": 0.0, "con_pct": 0.0, "ref_pct": 0.0, "minority_pct": 0.34624891991133372, "compactness": 0.17215021856042609 }, "geometry": { "type": "Polygon", "coordinates": [ [ [ -84.94513, 32.376018 ], [ -84.98841, 32.385216 ], [ -84.96873, 32.391457 ], [ -84.980954, 32.406064 ], [ -84.96303, 32.424244 ], [ -84.99533, 32.453243 ], [ -85.001532, 32.514741 ], [ -85.067535, 32.579546 ], [ -85.090886, 32.625135 ], [ -85.083118, 32.636161 ], [ -85.104532, 32.641011 ], [ -85.088483, 32.657758 ], [ -85.117037, 32.692033 ], [ -85.113329, 32.735751 ], [ -85.142987, 32.759934 ], [ -85.122326, 32.774383 ], [ -85.168048, 32.811841 ], [ -85.156289, 32.850524 ], [ -85.1844, 32.861317 ], [ -85.293805, 33.428098 ], [ -85.015358, 33.425506 ], [ -84.968201, 33.302163 ], [ -85.036216, 33.282975 ], [ -85.037778, 33.248444 ], [ -85.056064, 33.246043 ], [ -85.065366, 33.21736 ], [ -85.082274, 33.214888 ], [ -85.052796, 33.200736 ], [ -85.044655, 33.181978 ], [ -85.088036, 33.171701 ], [ -85.087712, 33.186588 ], [ -85.10798, 33.195098 ], [ -85.115903, 33.125712 ], [ -85.098256, 33.117485 ], [ -85.11642, 33.104084 ], [ -85.12212, 33.062365 ], [ -85.101228, 33.069034 ], [ -85.09645, 33.096294 ], [ -85.075262, 33.105898 ], [ -85.051008, 33.093359 ], [ -85.011224, 33.10241 ], [ -84.980196, 33.092396 ], [ -84.940605, 33.16075 ], [ -84.93226, 33.224623 ], [ -84.862135, 33.223863 ], [ -84.869904, 33.195662 ], [ -84.852304, 33.191043 ], [ -84.85236, 33.22359 ], [ -84.824733, 33.223472 ], [ -84.820894, 33.2083 ], [ -84.779565, 33.197079 ], [ -84.802706, 33.175925 ], [ -84.765923, 33.164338 ], [ -84.756891, 33.146881 ], [ -84.787826, 33.115536 ], [ -84.772996, 33.100125 ], [ -84.673041, 33.096561 ], [ -84.652967, 33.128096 ], [ -84.61551, 33.122895 ], [ -84.632656, 33.15016 ], [ -84.662321, 33.162698 ], [ -84.624469, 33.177366 ], [ -84.65332, 33.18741 ], [ -84.637223, 33.195794 ], [ -84.634145, 33.219248 ], [ -84.502352, 33.221055 ], [ -84.49641, 33.183441 ], [ -84.451336, 33.208889 ], [ -84.393467, 33.208311 ], [ -84.373685, 33.189625 ], [ -84.352267, 33.189542 ], [ -84.335018, 33.206529 ], [ -84.371255, 33.258743 ], [ -84.301605, 33.239909 ], [ -84.300385, 33.22423 ], [ -84.297345, 33.247447 ], [ -84.26373, 33.250084 ], [ -84.261728, 33.277572 ], [ -84.257446, 33.278083 ], [ -84.232469, 33.23389 ], [ -84.176004, 33.245148 ], [ -84.128259, 33.231304 ], [ -84.102585, 33.272301 ], [ -84.095162, 33.261428 ], [ -84.068998, 33.264398 ], [ -84.017184, 33.290957 ], [ -83.973898, 33.294145 ], [ -83.978872, 33.284357 ], [ -83.965381, 33.284487 ], [ -83.956983, 33.295991 ], [ -83.935593, 33.282089 ], [ -83.946445, 33.270151 ], [ -83.934494, 33.255264 ], [ -83.964701, 33.262882 ], [ -83.966427, 33.243869 ], [ -83.996389, 33.239635 ], [ -83.997767, 33.223345 ], [ -84.020327, 33.221338 ], [ -84.024854, 33.202598 ], [ -83.841127, 33.196061 ], [ -83.822261, 33.180238 ], [ -83.816362, 33.124563 ], [ -83.723093, 33.026628 ], [ -83.704029, 33.035231 ], [ -83.693757, 32.999883 ], [ -83.656962, 33.020098 ], [ -83.61914, 32.981235 ], [ -83.612397, 32.887846 ], [ -83.658601, 32.887836 ], [ -83.674501, 32.902937 ], [ -83.688127, 32.890898 ], [ -83.712094, 32.903751 ], [ -83.733367, 32.899371 ], [ -83.728735, 32.874163 ], [ -83.720071, 32.878827 ], [ -83.727735, 32.863214 ], [ -83.713745, 32.857922 ], [ -83.721811, 32.866149 ], [ -83.708038, 32.871439 ], [ -83.714398, 32.851194 ], [ -83.687919, 32.815506 ], [ -83.725869, 32.809738 ], [ -83.709289, 32.757061 ], [ -83.737495, 32.694135 ], [ -83.605546, 32.660674 ], [ -83.594193, 32.666389 ], [ -83.582377, 32.655175 ], [ -83.566198, 32.660786 ], [ -83.549291, 32.641976 ], [ -83.536718, 32.574635 ], [ -83.620582, 32.585248 ], [ -83.625931, 32.538628 ], [ -83.662248, 32.530544 ], [ -83.665489, 32.49521 ], [ -83.598149, 32.427225 ], [ -83.710426, 32.428322 ], [ -83.836385, 32.401528 ], [ -83.837041, 32.382195 ], [ -83.85654, 32.382399 ], [ -83.847286, 32.33797 ], [ -83.877865, 32.325705 ], [ -83.882405, 32.346096 ], [ -83.924481, 32.341599 ], [ -83.92487, 32.300227 ], [ -83.938554, 32.292448 ], [ -84.005323, 32.293325 ], [ -83.994446, 32.31505 ], [ -84.009628, 32.314145 ], [ -84.052354, 32.256377 ], [ -84.043515, 32.181458 ], [ -84.090881, 32.192155 ], [ -84.134736, 32.185392 ], [ -84.134095, 32.227972 ], [ -84.181657, 32.229703 ], [ -84.183569, 32.158493 ], [ -84.430215, 32.166257 ], [ -84.42008, 32.191677 ], [ -84.429916, 32.194166 ], [ -84.429451, 32.232151 ], [ -84.410415, 32.231856 ], [ -84.413304, 32.297531 ], [ -84.389927, 32.297237 ], [ -84.390102, 32.317822 ], [ -84.435298, 32.37249 ], [ -84.476526, 32.378909 ], [ -84.475857, 32.365288 ], [ -84.496874, 32.354352 ], [ -84.533934, 32.369518 ], [ -84.616927, 32.371229 ], [ -84.64735, 32.361645 ], [ -84.657925, 32.337497 ], [ -84.657325, 32.49494 ], [ -84.638225, 32.494841 ], [ -84.637323, 32.534855 ], [ -84.724265, 32.507756 ], [ -84.767959, 32.420495 ], [ -84.874698, 32.412768 ], [ -84.94513, 32.376018 ] ], [ [ -84.245651, 33.238875 ], [ -84.248226, 33.240029 ], [ -84.248265, 33.237769 ], [ -84.245651, 33.238875 ] ], [ [ -83.738552, 32.879855 ], [ -83.732831, 32.882086 ], [ -83.739741, 32.880916 ], [ -83.738552, 32.879855 ] ] ] } },
{ "type": "Feature", "properties": { "district_id": 3, "voting_age_pop": 525465, "lib_votes": 0, "grn_votes": 0, "con_votes": 0, "ref_votes": 0, "total_pop": 718404, "dem_votes_sum": 121849, "rep_votes_sum": 187377, "lib_votes_sum": 0, "grn_votes_sum": 0, "con_votes_sum": 0, "ref_votes_sum": 0, "minority_pop_sum": 154366, "dem_pct": 0.39404513203934988, "rep_pct": 0.60595486796065012, "lib_pct": 0.0, "grn_pct": 0.0, "con_pct": 0.0, "ref_pct": 0.0, "minority_pct": 0.21487352520308908, "compactness": 0.17338662296884227 }, "geometry": { "type": "MultiPolygon", "coordinates": [ [ [ [ -85.020334, 33.425587 ], [ -85.293805, 33.428098 ], [ -85.386581, 33.901719 ], [ -85.272269, 33.900095 ], [ -85.25711, 33.980106 ], [ -85.22619, 33.986189 ], [ -85.22017, 34.016743 ], [ -85.178971, 34.010095 ], [ -85.155071, 34.026229 ], [ -85.153894, 34.050899 ], [ -85.124246, 34.047178 ], [ -85.109331, 34.057837 ], [ -85.111259, 34.024039 ], [ -85.080788, 34.028893 ], [ -85.065546, 34.017191 ], [ -85.009564, 34.037173 ], [ -84.818971, 34.006177 ], [ -84.817885, 34.031225 ], [ -84.779189, 34.004825 ], [ -84.783448, 34.024299 ], [ -84.7649, 34.049814 ], [ -84.738438, 34.057396 ], [ -84.737836, 34.079399 ], [ -84.700464, 34.079097 ], [ -84.712682, 34.109452 ], [ -84.733157, 34.115456 ], [ -84.725653, 34.164781 ], [ -84.705974, 34.16919 ], [ -84.676873, 34.140184 ], [ -84.67029, 34.150069 ], [ -84.657881, 34.142471 ], [ -84.658833, 34.095713 ], [ -84.577161, 34.088029 ], [ -84.571859, 34.076299 ], [ -84.588432, 34.076599 ], [ -84.592774, 34.060679 ], [ -84.57999, 34.056859 ], [ -84.570965, 34.074601 ], [ -84.556182, 34.052127 ], [ -84.536343, 34.056571 ], [ -84.527171, 34.008245 ], [ -84.502397, 34.001701 ], [ -84.491599, 34.017908 ], [ -84.472533, 34.011947 ], [ -84.454604, 33.983105 ], [ -84.477664, 33.9743 ], [ -84.467679, 33.957427 ], [ -84.440541, 33.977985 ], [ -84.425242, 33.963009 ], [ -84.45305, 33.936946 ], [ -84.471777, 33.941987 ], [ -84.478623, 33.924344 ], [ -84.471147, 33.92641 ], [ -84.467938, 33.921735 ], [ -84.487852, 33.911006 ], [ -84.480203, 33.895611 ], [ -84.500919, 33.901577 ], [ -84.496388, 33.912363 ], [ -84.522296, 33.937697 ], [ -84.555446, 33.932858 ], [ -84.544377, 33.958818 ], [ -84.570664, 33.959485 ], [ -84.624127, 33.946091 ], [ -84.637738, 33.927029 ], [ -84.634598, 33.898593 ], [ -84.675853, 33.897875 ], [ -84.671974, 33.875246 ], [ -84.662826, 33.880611 ], [ -84.656036, 33.866013 ], [ -84.643288, 33.860919 ], [ -84.657293, 33.857434 ], [ -84.643989, 33.838965 ], [ -84.621671, 33.833831 ], [ -84.624161, 33.824411 ], [ -84.61476, 33.828774 ], [ -84.617698, 33.816913 ], [ -84.604626, 33.819072 ], [ -84.623784, 33.812727 ], [ -84.619988, 33.801547 ], [ -84.572025, 33.81089 ], [ -84.533546, 33.779122 ], [ -84.539598, 33.76979 ], [ -84.564742, 33.789555 ], [ -84.592344, 33.789192 ], [ -84.60159, 33.776546 ], [ -84.690336, 33.7577 ], [ -84.682595, 33.740877 ], [ -84.703765, 33.712611 ], [ -84.686517, 33.701167 ], [ -84.741438, 33.678004 ], [ -84.768035, 33.644709 ], [ -84.752935, 33.62791 ], [ -84.805655, 33.58642 ], [ -84.784814, 33.563631 ], [ -84.741907, 33.567033 ], [ -84.745027, 33.54504 ], [ -84.729028, 33.532747 ], [ -84.720955, 33.548375 ], [ -84.673729, 33.540314 ], [ -84.6808, 33.522602 ], [ -84.699748, 33.527939 ], [ -84.721003, 33.510895 ], [ -84.850713, 33.511457 ], [ -84.857073, 33.494484 ], [ -84.878874, 33.490586 ], [ -84.818676, 33.44867 ], [ -84.815256, 33.434081 ], [ -84.837779, 33.426178 ], [ -84.82798, 33.397553 ], [ -84.852518, 33.389024 ], [ -84.845929, 33.38274 ], [ -84.886255, 33.337833 ], [ -84.905421, 33.370665 ], [ -84.927832, 33.359805 ], [ -84.968054, 33.378463 ], [ -85.004005, 33.396006 ], [ -85.020334, 33.425587 ] ], [ [ -84.657168, 33.859602 ], [ -84.656142, 33.860916 ], [ -84.657155, 33.860924 ], [ -84.657168, 33.859602 ] ], [ [ -84.631562, 33.80498 ], [ -84.62384, 33.809393 ], [ -84.632413, 33.8064 ], [ -84.631562, 33.80498 ] ], [ [ -84.62132, 33.814847 ], [ -84.62087, 33.815653 ], [ -84.622353, 33.814735 ], [ -84.62132, 33.814847 ] ], [ [ -84.617719, 33.822491 ], [ -84.615223, 33.827506 ], [ -84.622782, 33.824654 ], [ -84.617719, 33.822491 ] ], [ [ -84.618197, 33.818981 ], [ -84.618785, 33.818237 ], [ -84.618284, 33.818215 ], [ -84.618197, 33.818981 ] ], [ [ -84.618015, 33.821543 ], [ -84.618611, 33.822295 ], [ -84.61865, 33.821543 ], [ -84.618015, 33.821543 ] ], [ [ -84.623662, 33.833222 ], [ -84.622887, 33.833006 ], [ -84.622986, 33.833208 ], [ -84.623662, 33.833222 ] ], [ [ -84.505135, 33.922935 ], [ -84.496356, 33.922836 ], [ -84.496515, 33.925706 ], [ -84.504229, 33.924398 ], [ -84.505135, 33.922935 ] ], [ [ -84.502702, 33.930526 ], [ -84.506981, 33.926788 ], [ -84.500592, 33.925181 ], [ -84.502702, 33.930526 ] ], [ [ -84.4974, 33.919254 ], [ -84.500398, 33.920998 ], [ -84.500515, 33.919304 ], [ -84.4974, 33.919254 ] ] ], [ [ [ -84.699835, 33.511369 ], [ -84.682063, 33.519697 ], [ -84.680029, 33.51147 ], [ -84.699835, 33.511369 ] ] ], [ [ [ -84.645428, 33.874613 ], [ -84.653066, 33.865949 ], [ -84.657975, 33.87676 ], [ -84.645428, 33.874613 ] ] ], [ [ [ -84.557816, 33.920608 ], [ -84.560401, 33.923582 ], [ -84.556848, 33.923511 ], [ -84.557816, 33.920608 ] ] ], [ [ [ -84.478353, 33.901366 ], [ -84.477889, 33.902422 ], [ -84.477718, 33.901225 ], [ -84.478353, 33.901366 ] ] ], [ [ [ -84.502982, 33.924134 ], [ -84.504042, 33.923147 ], [ -84.504077, 33.924142 ], [ -84.502982, 33.924134 ] ] ], [ [ [ -84.501995, 33.924131 ], [ -84.501337, 33.923412 ], [ -84.501997, 33.923468 ], [ -84.501995, 33.924131 ] ] ], [ [ [ -84.556793, 33.923895 ], [ -84.556655, 33.932094 ], [ -84.555425, 33.932229 ], [ -84.556793, 33.923895 ] ] ], [ [ [ -84.473841, 33.929454 ], [ -84.474462, 33.929463 ], [ -84.474481, 33.930116 ], [ -84.473841, 33.929454 ] ] ] ] } },
{ "type": "Feature", "properties": { "district_id": 4, "voting_age_pop": 528897, "lib_votes": 0, "grn_votes": 0, "con_votes": 0, "ref_votes": 0, "total_pop": 680948, "dem_votes_sum": 179137, "rep_votes_sum": 124942, "lib_votes_sum": 0, "grn_votes_sum": 0, "con_votes_sum": 0, "ref_votes_sum": 0, "minority_pop_sum": 138041, "dem_pct": 0.58911335541092935, "rep_pct": 0.41088664458907059, "lib_pct": 0.0, "grn_pct": 0.0, "con_pct": 0.0, "ref_pct": 0.0, "minority_pct": 0.20271885665278405, "compactness": 0.12897643349373913 }, "geometry": { "type": "MultiPolygon", "coordinates": [ [ [ [ -84.507911, 33.795532 ], [ -84.600729, 33.825297 ], [ -84.617684, 33.81709 ], [ -84.613867, 33.828009 ], [ -84.624161, 33.824411 ], [ -84.621671, 33.833831 ], [ -84.643989, 33.838965 ], [ -84.657247, 33.857254 ], [ -84.645881, 33.864242 ], [ -84.656036, 33.866013 ], [ -84.662826, 33.880611 ], [ -84.671974, 33.875246 ], [ -84.676014, 33.897541 ], [ -84.634598, 33.898593 ], [ -84.637738, 33.927029 ], [ -84.624127, 33.946091 ], [ -84.570664, 33.959485 ], [ -84.544377, 33.958818 ], [ -84.552449, 33.955404 ], [ -84.550396, 33.947259 ], [ -84.555487, 33.947301 ], [ -84.551281, 33.944382 ], [ -84.555961, 33.936116 ], [ -84.555446, 33.932858 ], [ -84.522296, 33.937697 ], [ -84.496388, 33.912363 ], [ -84.500919, 33.901577 ], [ -84.480203, 33.895611 ], [ -84.487852, 33.911006 ], [ -84.467938, 33.921735 ], [ -84.478623, 33.924344 ], [ -84.471777, 33.941987 ], [ -84.45305, 33.936946 ], [ -84.425242, 33.963009 ], [ -84.437132, 33.97802 ], [ -84.465624, 33.95705 ], [ -84.479176, 33.969102 ], [ -84.454833, 33.979177 ], [ -84.472533, 34.011947 ], [ -84.491599, 34.017908 ], [ -84.46722, 34.031114 ], [ -84.454384, 34.019737 ], [ -84.441716, 34.033229 ], [ -84.419792, 34.02717 ], [ -84.408386, 34.03798 ], [ -84.401325, 34.025795 ], [ -84.361551, 34.023246 ], [ -84.359955, 34.008618 ], [ -84.333965, 34.009902 ], [ -84.309082, 33.983914 ], [ -84.302502, 33.960065 ], [ -84.280497, 33.95602 ], [ -84.243768, 33.970122 ], [ -84.243314, 33.953417 ], [ -84.224813, 33.945706 ], [ -84.220349, 33.935538 ], [ -84.259011, 33.91882 ], [ -84.251093, 33.905733 ], [ -84.263801, 33.905858 ], [ -84.261124, 33.914937 ], [ -84.28583, 33.890006 ], [ -84.232205, 33.869777 ], [ -84.247985, 33.861091 ], [ -84.25172, 33.815777 ], [ -84.276338, 33.804528 ], [ -84.348066, 33.80468 ], [ -84.348506, 33.825117 ], [ -84.392205, 33.811553 ], [ -84.395029, 33.797344 ], [ -84.430299, 33.812132 ], [ -84.427666, 33.777853 ], [ -84.452376, 33.770087 ], [ -84.461772, 33.806931 ], [ -84.48903, 33.812805 ], [ -84.507911, 33.795532 ] ], [ [ -84.653066, 33.865949 ], [ -84.645428, 33.874613 ], [ -84.657975, 33.87676 ], [ -84.653066, 33.865949 ] ], [ [ -84.560079, 33.919881 ], [ -84.560401, 33.923582 ], [ -84.561949, 33.917956 ], [ -84.560079, 33.919881 ] ], [ [ -84.555425, 33.932229 ], [ -84.556793, 33.923895 ], [ -84.554976, 33.925178 ], [ -84.554329, 33.926981 ], [ -84.555425, 33.932229 ] ], [ [ -84.477718, 33.901225 ], [ -84.478233, 33.902134 ], [ -84.478308, 33.901323 ], [ -84.477718, 33.901225 ] ], [ [ -84.474481, 33.930116 ], [ -84.474455, 33.929256 ], [ -84.473841, 33.929454 ], [ -84.474481, 33.930116 ] ] ], [ [ [ -84.618785, 33.818237 ], [ -84.618197, 33.818981 ], [ -84.618284, 33.818215 ], [ -84.618785, 33.818237 ] ] ], [ [ [ -84.618015, 33.822294 ], [ -84.61865, 33.821543 ], [ -84.618611, 33.822295 ], [ -84.618015, 33.822294 ] ] ], [ [ [ -84.616398, 33.827111 ], [ -84.617719, 33.822491 ], [ -84.62277, 33.824619 ], [ -84.616398, 33.827111 ] ] ], [ [ [ -84.623563, 33.832795 ], [ -84.622986, 33.833208 ], [ -84.622887, 33.833006 ], [ -84.623563, 33.832795 ] ] ], [ [ [ -84.656137, 33.859715 ], [ -84.657155, 33.860924 ], [ -84.656142, 33.860916 ], [ -84.656137, 33.859715 ] ] ], [ [ [ -84.4974, 33.919254 ], [ -84.500398, 33.920998 ], [ -84.497408, 33.921626 ], [ -84.4974, 33.919254 ] ] ], [ [ [ -84.504082, 33.924399 ], [ -84.500514, 33.924219 ], [ -84.497843, 33.926332 ], [ -84.496356, 33.922836 ], [ -84.504886, 33.922563 ], [ -84.504082, 33.924399 ] ], [ [ -84.504077, 33.924142 ], [ -84.502982, 33.923295 ], [ -84.502982, 33.924134 ], [ -84.504077, 33.924142 ] ], [ [ -84.501997, 33.923468 ], [ -84.501336, 33.924129 ], [ -84.501995, 33.924131 ], [ -84.501997, 33.923468 ] ] ], [ [ [ -84.502702, 33.930526 ], [ -84.500592, 33.925181 ], [ -84.508134, 33.928242 ], [ -84.502702, 33.930526 ] ] ] ] } },
{ "type": "Feature", "properties": { "district_id": 5, "voting_age_pop": 515247, "lib_votes": 0, "grn_votes": 0, "con_votes": 0, "ref_votes": 0, "total_pop": 680201, "dem_votes_sum": 257342, "rep_votes_sum": 26245, "lib_votes_sum": 0, "grn_votes_sum": 0, "con_votes_sum": 0, "ref_votes_sum": 0, "minority_pop_sum": 468513, "dem_pct": 0.90745344462193256, "rep_pct": 0.092546555378067399, "lib_pct": 0.0, "grn_pct": 0.0, "con_pct": 0.0, "ref_pct": 0.0, "minority_pct": 0.68878610881195412, "compactness": 0.1509143031663383 }, "geometry": { "type": "MultiPolygon", "coordinates": [ [ [ [ -84.720071, 33.512065 ], [ -84.699748, 33.527939 ], [ -84.681082, 33.522347 ], [ -84.673729, 33.540314 ], [ -84.720955, 33.548375 ], [ -84.729028, 33.532747 ], [ -84.745027, 33.54504 ], [ -84.741907, 33.567033 ], [ -84.784814, 33.563631 ], [ -84.808284, 33.578896 ], [ -84.752935, 33.62791 ], [ -84.768035, 33.644709 ], [ -84.741569, 33.677877 ], [ -84.686517, 33.701167 ], [ -84.703765, 33.712611 ], [ -84.682595, 33.740877 ], [ -84.690336, 33.7577 ], [ -84.60159, 33.776546 ], [ -84.592344, 33.789192 ], [ -84.564742, 33.789555 ], [ -84.539598, 33.76979 ], [ -84.533546, 33.779122 ], [ -84.572025, 33.81089 ], [ -84.619988, 33.801547 ], [ -84.623784, 33.812727 ], [ -84.608812, 33.811943 ], [ -84.607696, 33.821123 ], [ -84.617684, 33.81709 ], [ -84.604972, 33.825108 ], [ -84.507911, 33.795532 ], [ -84.48903, 33.812805 ], [ -84.461772, 33.806931 ], [ -84.452376, 33.770087 ], [ -84.427666, 33.777853 ], [ -84.430697, 33.811989 ], [ -84.395029, 33.797344 ], [ -84.392205, 33.811553 ], [ -84.348506, 33.825117 ], [ -84.348325, 33.782605 ], [ -84.316081, 33.764962 ], [ -84.349193, 33.748104 ], [ -84.349452, 33.721902 ], [ -84.339976, 33.733078 ], [ -84.32949, 33.708418 ], [ -84.312488, 33.703988 ], [ -84.302366, 33.709219 ], [ -84.309732, 33.745255 ], [ -84.266003, 33.729528 ], [ -84.276503, 33.720182 ], [ -84.260604, 33.6929 ], [ -84.272309, 33.691087 ], [ -84.265835, 33.674083 ], [ -84.282619, 33.659929 ], [ -84.266882, 33.64717 ], [ -84.281464, 33.63937 ], [ -84.262566, 33.631004 ], [ -84.267916, 33.59665 ], [ -84.287941, 33.601318 ], [ -84.303265, 33.582198 ], [ -84.324768, 33.580886 ], [ -84.344692, 33.597918 ], [ -84.360997, 33.565788 ], [ -84.371658, 33.573096 ], [ -84.370939, 33.555533 ], [ -84.411446, 33.581387 ], [ -84.407778, 33.593762 ], [ -84.428955, 33.597056 ], [ -84.434244, 33.570435 ], [ -84.421409, 33.558178 ], [ -84.439448, 33.550734 ], [ -84.429931, 33.511764 ], [ -84.481594, 33.511037 ], [ -84.492113, 33.529373 ], [ -84.483656, 33.545732 ], [ -84.529365, 33.537798 ], [ -84.535589, 33.565015 ], [ -84.577099, 33.546298 ], [ -84.570289, 33.524918 ], [ -84.60954, 33.502511 ], [ -84.680016, 33.510893 ], [ -84.682063, 33.519697 ], [ -84.720071, 33.512065 ] ] ], [ [ [ -84.62384, 33.809393 ], [ -84.631562, 33.80498 ], [ -84.632413, 33.8064 ], [ -84.62384, 33.809393 ] ] ], [ [ [ -84.622059, 33.815445 ], [ -84.62132, 33.814847 ], [ -84.622353, 33.814735 ], [ -84.622059, 33.815445 ] ] ] ] } },
{ "type": "Feature", "properties": { "district_id": 6, "voting_age_pop": 517164, "lib_votes": 0, "grn_votes": 0, "con_votes": 0, "ref_votes": 0, "total_pop": 700417, "dem_votes_sum": 64253, "rep_votes_sum": 244829, "lib_votes_sum": 0, "grn_votes_sum": 0, "con_votes_sum": 0, "ref_votes_sum": 0, "minority_pop_sum": 31995, "dem_pct": 0.20788334487288163, "rep_pct": 0.79211665512711837, "lib_pct": 0.0, "grn_pct": 0.0, "con_pct": 0.0, "ref_pct": 0.0, "minority_pct": 0.045679930669872373, "compactness": 0.12883448200156328 }, "geometry": { "type": "Polygon", "coordinates": [ [ [ -84.654263, 34.093983 ], [ -84.653998, 34.346934 ], [ -84.644293, 34.355168 ], [ -84.654038, 34.355176 ], [ -84.653644, 34.445556 ], [ -84.621518, 34.450455 ], [ -84.613466, 34.46817 ], [ -84.591146, 34.476379 ], [ -84.552434, 34.451895 ], [ -84.553309, 34.419808 ], [ -84.54705, 34.42876 ], [ -84.508218, 34.399569 ], [ -84.481017, 34.435231 ], [ -84.494114, 34.444982 ], [ -84.508226, 34.439115 ], [ -84.509174, 34.470011 ], [ -84.4309, 34.458199 ], [ -84.369096, 34.46453 ], [ -84.330673, 34.440025 ], [ -84.310499, 34.442375 ], [ -84.300484, 34.449692 ], [ -84.337167, 34.487729 ], [ -84.326402, 34.488576 ], [ -84.345553, 34.562735 ], [ -84.371496, 34.562912 ], [ -84.371352, 34.548495 ], [ -84.392684, 34.551496 ], [ -84.4344, 34.607756 ], [ -84.406962, 34.621234 ], [ -84.413037, 34.652484 ], [ -84.341422, 34.661828 ], [ -84.335659, 34.671792 ], [ -84.339894, 34.64463 ], [ -84.309416, 34.636784 ], [ -84.316413, 34.623381 ], [ -84.311395, 34.609476 ], [ -84.295018, 34.609548 ], [ -84.296219, 34.576954 ], [ -84.280504, 34.584119 ], [ -84.260202, 34.572749 ], [ -84.254677, 34.597496 ], [ -84.223907, 34.596992 ], [ -84.196754, 34.617924 ], [ -84.197424, 34.642725 ], [ -84.242624, 34.670908 ], [ -84.252292, 34.66461 ], [ -84.25229, 34.693972 ], [ -84.198015, 34.730343 ], [ -84.17677, 34.770305 ], [ -84.184818, 34.799667 ], [ -84.214725, 34.795055 ], [ -84.23141, 34.778962 ], [ -84.250377, 34.801931 ], [ -84.244847, 34.820724 ], [ -84.273099, 34.824054 ], [ -84.264668, 34.844142 ], [ -84.279051, 34.851431 ], [ -84.263642, 34.867428 ], [ -84.28697, 34.889273 ], [ -84.247603, 34.89278 ], [ -84.221065, 34.917457 ], [ -84.256989, 34.920883 ], [ -84.245395, 34.933583 ], [ -84.263527, 34.951992 ], [ -84.268643, 34.988124 ], [ -83.10247, 34.996895 ], [ -83.12211, 34.964329 ], [ -83.114059, 34.950279 ], [ -83.127052, 34.954239 ], [ -83.111755, 34.934963 ], [ -83.127312, 34.938633 ], [ -83.141518, 34.924515 ], [ -83.156891, 34.930767 ], [ -83.15699, 34.915123 ], [ -83.168607, 34.919355 ], [ -83.205261, 34.880165 ], [ -83.214027, 34.888569 ], [ -83.220131, 34.878036 ], [ -83.242996, 34.877537 ], [ -83.234703, 34.870743 ], [ -83.248092, 34.865577 ], [ -83.248927, 34.845141 ], [ -83.267196, 34.848469 ], [ -83.270882, 34.818588 ], [ -83.306061, 34.816048 ], [ -83.300842, 34.804344 ], [ -83.324142, 34.789246 ], [ -83.318748, 34.757626 ], [ -83.353325, 34.728691 ], [ -83.353928, 34.699478 ], [ -83.23258, 34.611597 ], [ -83.159677, 34.603298 ], [ -83.170278, 34.592398 ], [ -83.103673, 34.536617 ], [ -83.177838, 34.477017 ], [ -83.373054, 34.470216 ], [ -83.398396, 34.460883 ], [ -83.382565, 34.428928 ], [ -83.393915, 34.324801 ], [ -83.337967, 34.261791 ], [ -83.355269, 34.22373 ], [ -83.337897, 34.230359 ], [ -83.278681, 34.169609 ], [ -83.256758, 34.165435 ], [ -83.234821, 34.177223 ], [ -83.218017, 34.159281 ], [ -83.201094, 34.168636 ], [ -83.202149, 34.145934 ], [ -83.163067, 34.139349 ], [ -83.161681, 34.11025 ], [ -83.130885, 34.107508 ], [ -83.118065, 34.12921 ], [ -83.089358, 34.115898 ], [ -83.089199, 34.10467 ], [ -83.047822, 34.087853 ], [ -83.062554, 34.044001 ], [ -83.08532, 34.053065 ], [ -83.100639, 34.024715 ], [ -83.123924, 34.047596 ], [ -83.135109, 34.044743 ], [ -83.219453, 34.000593 ], [ -83.237006, 34.013557 ], [ -83.258257, 33.998935 ], [ -83.294434, 34.008087 ], [ -83.358877, 34.039958 ], [ -83.308149, 34.094958 ], [ -83.289237, 34.097772 ], [ -83.278542, 34.11862 ], [ -83.303908, 34.132315 ], [ -83.296419, 34.150258 ], [ -83.315957, 34.156284 ], [ -83.352768, 34.137435 ], [ -83.359054, 34.150435 ], [ -83.368949, 34.140326 ], [ -83.482754, 34.147926 ], [ -83.460391, 34.084739 ], [ -83.503745, 34.092833 ], [ -83.569025, 34.119619 ], [ -83.56691, 34.181394 ], [ -83.547059, 34.213941 ], [ -83.581971, 34.237397 ], [ -83.607306, 34.236958 ], [ -83.659479, 34.261873 ], [ -83.819218, 34.126507 ], [ -83.865585, 34.151847 ], [ -83.885168, 34.143691 ], [ -83.878014, 34.123381 ], [ -83.902131, 34.110561 ], [ -83.949858, 34.127642 ], [ -83.973567, 34.104071 ], [ -84.001949, 34.122572 ], [ -84.027616, 34.104975 ], [ -84.019452, 34.141162 ], [ -84.046382, 34.13929 ], [ -84.0601, 34.123665 ], [ -84.090722, 34.134933 ], [ -84.076896, 34.118744 ], [ -84.083563, 34.102761 ], [ -84.056863, 34.080295 ], [ -84.092147, 34.049075 ], [ -84.117994, 34.065945 ], [ -84.097724, 34.125263 ], [ -84.147857, 34.123668 ], [ -84.148666, 34.149127 ], [ -84.173088, 34.157821 ], [ -84.210548, 34.129592 ], [ -84.226112, 34.132656 ], [ -84.258777, 34.14315 ], [ -84.258743, 34.185909 ], [ -84.317522, 34.186289 ], [ -84.302431, 34.217851 ], [ -84.327262, 34.227692 ], [ -84.329724, 34.256514 ], [ -84.258492, 34.299275 ], [ -84.283738, 34.299465 ], [ -84.316675, 34.324128 ], [ -84.348081, 34.317407 ], [ -84.35022, 34.299636 ], [ -84.360505, 34.30514 ], [ -84.366277, 34.294545 ], [ -84.409106, 34.30057 ], [ -84.397479, 34.291935 ], [ -84.406535, 34.278143 ], [ -84.431179, 34.278634 ], [ -84.417004, 34.264667 ], [ -84.435618, 34.269973 ], [ -84.428564, 34.257996 ], [ -84.443482, 34.261676 ], [ -84.444154, 34.247946 ], [ -84.460143, 34.24875 ], [ -84.434922, 34.214568 ], [ -84.455202, 34.208761 ], [ -84.462669, 34.220183 ], [ -84.488675, 34.220266 ], [ -84.491763, 34.211187 ], [ -84.476884, 34.209592 ], [ -84.502854, 34.195862 ], [ -84.515093, 34.148781 ], [ -84.494043, 34.160255 ], [ -84.474899, 34.135028 ], [ -84.451115, 34.143235 ], [ -84.461476, 34.125975 ], [ -84.503018, 34.12124 ], [ -84.524584, 34.134134 ], [ -84.54806, 34.10725 ], [ -84.613728, 34.122859 ], [ -84.609555, 34.095411 ], [ -84.654263, 34.093983 ] ] ] } },
{ "type": "Feature", "properties": { "district_id": 7, "voting_age_pop": 512860, "lib_votes": 0, "grn_votes": 0, "con_votes": 0, "ref_votes": 0, "total_pop": 698390, "dem_votes_sum": 225683, "rep_votes_sum": 47853, "lib_votes_sum": 0, "grn_votes_sum": 0, "con_votes_sum": 0, "ref_votes_sum": 0, "minority_pop_sum": 373533, "dem_pct": 0.82505776204960224, "rep_pct": 0.17494223795039776, "lib_pct": 0.0, "grn_pct": 0.0, "con_pct": 0.0, "ref_pct": 0.0, "minority_pct": 0.53484872349260437, "compactness": 0.17033719276039588 }, "geometry": { "type": "Polygon", "coordinates": [ [ [ -84.27247, 33.690005 ], [ -84.260604, 33.6929 ], [ -84.276503, 33.720182 ], [ -84.266306, 33.730385 ], [ -84.302308, 33.739105 ], [ -84.29518, 33.74492 ], [ -84.309732, 33.745255 ], [ -84.305233, 33.706564 ], [ -84.327193, 33.706096 ], [ -84.339976, 33.733078 ], [ -84.349452, 33.721902 ], [ -84.349193, 33.748104 ], [ -84.316081, 33.764962 ], [ -84.346724, 33.779905 ], [ -84.34816, 33.804735 ], [ -84.309077, 33.800775 ], [ -84.25172, 33.815777 ], [ -84.247985, 33.861091 ], [ -84.232205, 33.869777 ], [ -84.281645, 33.883176 ], [ -84.282591, 33.895698 ], [ -84.261124, 33.914937 ], [ -84.263801, 33.905858 ], [ -84.251093, 33.905733 ], [ -84.259011, 33.91882 ], [ -84.220349, 33.935538 ], [ -84.231703, 33.949023 ], [ -84.208457, 33.961024 ], [ -84.196486, 33.949024 ], [ -84.139561, 33.96389 ], [ -84.129928, 33.952163 ], [ -84.07949, 33.962469 ], [ -84.080913, 33.940442 ], [ -84.04521, 33.957602 ], [ -84.038538, 33.932882 ], [ -84.078531, 33.920042 ], [ -84.079507, 33.902514 ], [ -84.056538, 33.891312 ], [ -84.084385, 33.890597 ], [ -84.077777, 33.879842 ], [ -84.089623, 33.873821 ], [ -84.076091, 33.869276 ], [ -84.077899, 33.849519 ], [ -84.03567, 33.819913 ], [ -84.063374, 33.819959 ], [ -84.079858, 33.834787 ], [ -84.11574, 33.822598 ], [ -84.088856, 33.805628 ], [ -84.027982, 33.804266 ], [ -84.037621, 33.777825 ], [ -84.011764, 33.782785 ], [ -84.002791, 33.769525 ], [ -84.056614, 33.726608 ], [ -84.115791, 33.614666 ], [ -84.15447, 33.645748 ], [ -84.161589, 33.63775 ], [ -84.184143, 33.646157 ], [ -84.172814, 33.618219 ], [ -84.199388, 33.622628 ], [ -84.205234, 33.607353 ], [ -84.253564, 33.600534 ], [ -84.262566, 33.631004 ], [ -84.281464, 33.63937 ], [ -84.266882, 33.64717 ], [ -84.282619, 33.659929 ], [ -84.265835, 33.674083 ], [ -84.27247, 33.690005 ] ] ] } },
{ "type": "Feature", "properties": { "district_id": 8, "voting_age_pop": 540969, "lib_votes": 0, "grn_votes": 0, "con_votes": 0, "ref_votes": 0, "total_pop": 723716, "dem_votes_sum": 104578, "rep_votes_sum": 149325, "lib_votes_sum": 0, "grn_votes_sum": 0, "con_votes_sum": 0, "ref_votes_sum": 0, "minority_pop_sum": 282544, "dem_pct": 0.41188170285502729, "rep_pct": 0.58811829714497266, "lib_pct": 0.0, "grn_pct": 0.0, "con_pct": 0.0, "ref_pct": 0.0, "minority_pct": 0.39040728683627279, "compactness": 0.2999151413966703 }, "geometry": { "type": "Polygon", "coordinates": [ [ [ -82.418914, 30.581767 ], [ -84.864693, 30.711542 ], [ -84.920123, 30.76599 ], [ -84.937424, 30.820889 ], [ -84.925665, 30.842685 ], [ -84.934424, 30.883588 ], [ -84.983127, 30.934786 ], [ -84.982527, 30.965586 ], [ -85.005734, 30.975908 ], [ -84.999428, 31.013844 ], [ -85.035615, 31.108192 ], [ -85.076628, 31.156927 ], [ -85.100207, 31.16549 ], [ -85.107516, 31.186451 ], [ -85.096763, 31.225651 ], [ -85.114601, 31.277333 ], [ -85.089774, 31.295026 ], [ -85.092327, 31.364049 ], [ -85.041361, 31.542495 ], [ -85.05796, 31.57084 ], [ -85.058169, 31.620227 ], [ -85.086229, 31.638567 ], [ -85.079129, 31.654766 ], [ -85.12553, 31.694965 ], [ -85.12523, 31.767063 ], [ -85.141931, 31.781963 ], [ -85.134131, 31.89216 ], [ -85.11203, 31.89476 ], [ -85.113131, 31.911859 ], [ -85.07893, 31.940159 ], [ -85.08673, 31.959158 ], [ -85.067829, 31.967358 ], [ -85.048825, 32.021701 ], [ -85.05883, 32.046956 ], [ -85.044761, 32.085836 ], [ -85.061907, 32.132863 ], [ -85.011267, 32.180493 ], [ -84.963728, 32.195852 ], [ -84.980229, 32.207751 ], [ -84.973328, 32.21765 ], [ -84.928227, 32.219851 ], [ -84.912727, 32.24335 ], [ -84.924427, 32.250149 ], [ -84.888278, 32.259334 ], [ -84.934648, 32.298916 ], [ -85.002791, 32.322428 ], [ -85.004582, 32.345196 ], [ -84.983338, 32.373938 ], [ -84.94513, 32.376018 ], [ -84.881801, 32.410704 ], [ -84.767959, 32.420495 ], [ -84.724616, 32.507436 ], [ -84.648977, 32.534956 ], [ -84.637323, 32.534855 ], [ -84.638225, 32.494841 ], [ -84.657325, 32.49494 ], [ -84.657925, 32.337497 ], [ -84.64735, 32.361645 ], [ -84.616927, 32.371229 ], [ -84.533934, 32.369518 ], [ -84.496874, 32.354352 ], [ -84.475857, 32.365288 ], [ -84.476526, 32.378909 ], [ -84.455831, 32.378884 ], [ -84.449974, 32.36878 ], [ -84.435298, 32.37249 ], [ -84.390102, 32.317822 ], [ -84.389927, 32.297237 ], [ -84.413304, 32.297531 ], [ -84.410415, 32.231856 ], [ -84.429451, 32.232151 ], [ -84.429916, 32.194166 ], [ -84.42008, 32.191677 ], [ -84.430215, 32.166257 ], [ -84.183569, 32.158493 ], [ -84.181657, 32.229703 ], [ -84.134095, 32.227972 ], [ -84.134736, 32.185392 ], [ -84.090881, 32.192155 ], [ -84.043515, 32.181458 ], [ -84.057925, 32.229667 ], [ -84.040033, 32.283873 ], [ -84.019554, 32.293554 ], [ -84.029, 32.300671 ], [ -83.994446, 32.31505 ], [ -84.005323, 32.293325 ], [ -83.938554, 32.292448 ], [ -83.92487, 32.300227 ], [ -83.924481, 32.341599 ], [ -83.882405, 32.346096 ], [ -83.877865, 32.325705 ], [ -83.847286, 32.33797 ], [ -83.85654, 32.382399 ], [ -83.837041, 32.382195 ], [ -83.836909, 32.401242 ], [ -83.732558, 32.422476 ], [ -83.711399, 32.327939 ], [ -83.737104, 32.29018 ], [ -83.606397, 32.288435 ], [ -83.608547, 32.118405 ], [ -83.55102, 32.118139 ], [ -83.55083, 32.126165 ], [ -83.435657, 32.117244 ], [ -83.413091, 32.13326 ], [ -83.39059, 32.090552 ], [ -83.421863, 32.089748 ], [ -83.415363, 32.076833 ], [ -83.433886, 32.057187 ], [ -83.397819, 32.036478 ], [ -83.39817, 32.009135 ], [ -83.38408, 32.008395 ], [ -83.373589, 32.0265 ], [ -83.344931, 32.011042 ], [ -83.338962, 31.989315 ], [ -83.279099, 31.996578 ], [ -83.291784, 31.98323 ], [ -83.261534, 31.952076 ], [ -83.235506, 31.95072 ], [ -83.204236, 31.884682 ], [ -83.181191, 31.879202 ], [ -83.177469, 31.847857 ], [ -83.206979, 31.848656 ], [ -83.240946, 31.805379 ], [ -83.252853, 31.706954 ], [ -83.234847, 31.665316 ], [ -83.243979, 31.653259 ], [ -83.263396, 31.65409 ], [ -83.275375, 31.63303 ], [ -83.271503, 31.622977 ], [ -83.219014, 31.62602 ], [ -83.169903, 31.595949 ], [ -83.165355, 31.626937 ], [ -83.14767, 31.630797 ], [ -83.121104, 31.595479 ], [ -83.059679, 31.57998 ], [ -83.11166, 31.478229 ], [ -83.145587, 31.472276 ], [ -83.151141, 31.460223 ], [ -83.136033, 31.431151 ], [ -83.140686, 31.401941 ], [ -83.116341, 31.388655 ], [ -83.099709, 31.353949 ], [ -83.059567, 31.329857 ], [ -83.059011, 31.304228 ], [ -83.033468, 31.275041 ], [ -83.052192, 31.225468 ], [ -83.047865, 31.18431 ], [ -82.846141, 31.184135 ], [ -82.837226, 31.116304 ], [ -82.815705, 31.076192 ], [ -82.833293, 31.073105 ], [ -82.805961, 31.054481 ], [ -82.806194, 31.037392 ], [ -82.842716, 31.055235 ], [ -82.835183, 31.013711 ], [ -82.803581, 31.02089 ], [ -82.798402, 31.004741 ], [ -82.77884, 31.010153 ], [ -82.776257, 30.987057 ], [ -82.726548, 30.92282 ], [ -82.739574, 30.859471 ], [ -82.710378, 30.815259 ], [ -82.650117, 30.825477 ], [ -82.66071, 30.859617 ], [ -82.62842, 30.864776 ], [ -82.62434, 30.897143 ], [ -82.578908, 30.92343 ], [ -82.593798, 30.957397 ], [ -82.541875, 30.955807 ], [ -82.534262, 30.9807 ], [ -82.520124, 30.963132 ], [ -82.490558, 30.963166 ], [ -82.495476, 30.819553 ], [ -82.435852, 30.820068 ], [ -82.435242, 30.729149 ], [ -82.420128, 30.729198 ], [ -82.41999, 30.716637 ], [ -82.435112, 30.716566 ], [ -82.430862, 30.612848 ], [ -82.418793, 30.613132 ], [ -82.418914, 30.581767 ] ] ] } },
{ "type": "Feature", "properties": { "district_id": 9, "voting_age_pop": 503000, "lib_votes": 0, "grn_votes": 0, "con_votes": 0, "ref_votes": 0, "total_pop": 665800, "dem_votes_sum": 94146, "rep_votes_sum": 146077, "lib_votes_sum": 0, "grn_votes_sum": 0, "con_votes_sum": 0, "ref_votes_sum": 0, "minority_pop_sum": 230655, "dem_pct": 0.3919108495023374, "rep_pct": 0.60808915049766255, "lib_pct": 0.0, "grn_pct": 0.0, "con_pct": 0.0, "ref_pct": 0.0, "minority_pct": 0.346432862721538, "compactness": 0.091548112056148656 }, "geometry": { "type": "MultiPolygon", "coordinates": [ [ [ [ -83.282662, 31.995946 ], [ -83.338962, 31.989315 ], [ -83.344931, 32.011042 ], [ -83.373589, 32.0265 ], [ -83.38408, 32.008395 ], [ -83.39817, 32.009135 ], [ -83.397819, 32.036478 ], [ -83.433886, 32.057187 ], [ -83.415363, 32.076833 ], [ -83.421863, 32.089748 ], [ -83.39059, 32.090552 ], [ -83.413091, 32.13326 ], [ -83.435657, 32.117244 ], [ -83.55083, 32.126165 ], [ -83.55102, 32.118139 ], [ -83.608547, 32.118405 ], [ -83.606397, 32.288435 ], [ -83.737104, 32.29018 ], [ -83.711399, 32.327939 ], [ -83.732558, 32.422476 ], [ -83.598149, 32.427225 ], [ -83.665489, 32.49521 ], [ -83.659808, 32.538201 ], [ -83.626315, 32.538161 ], [ -83.620582, 32.585248 ], [ -83.548449, 32.571802 ], [ -83.534123, 32.585659 ], [ -83.56285, 32.659668 ], [ -83.582377, 32.655175 ], [ -83.594193, 32.666389 ], [ -83.605546, 32.660674 ], [ -83.737495, 32.694135 ], [ -83.709289, 32.757061 ], [ -83.725869, 32.809738 ], [ -83.687919, 32.815506 ], [ -83.714398, 32.851194 ], [ -83.708038, 32.871439 ], [ -83.721811, 32.866149 ], [ -83.713745, 32.857922 ], [ -83.727735, 32.863214 ], [ -83.720071, 32.878827 ], [ -83.728735, 32.874163 ], [ -83.733367, 32.899371 ], [ -83.712094, 32.903751 ], [ -83.688127, 32.890898 ], [ -83.674501, 32.902937 ], [ -83.658601, 32.887836 ], [ -83.612397, 32.887846 ], [ -83.6191, 32.981171 ], [ -83.656962, 33.020098 ], [ -83.693839, 32.999936 ], [ -83.698248, 33.029763 ], [ -83.714592, 33.037422 ], [ -83.723093, 33.026628 ], [ -83.816821, 33.125875 ], [ -83.437578, 33.185764 ], [ -83.427168, 33.253478 ], [ -83.384648, 33.297151 ], [ -83.396948, 33.307311 ], [ -83.385808, 33.322478 ], [ -83.390941, 33.334819 ], [ -83.396424, 33.328002 ], [ -83.404612, 33.33115 ], [ -83.369103, 33.394078 ], [ -83.370074, 33.42415 ], [ -83.341834, 33.418758 ], [ -83.318899, 33.431964 ], [ -83.274618, 33.403675 ], [ -83.282274, 33.400071 ], [ -83.28359, 33.395144 ], [ -83.272346, 33.403622 ], [ -83.277897, 33.366235 ], [ -83.232118, 33.346028 ], [ -83.255827, 33.325523 ], [ -83.237936, 33.318194 ], [ -83.25503, 33.281703 ], [ -83.293125, 33.265838 ], [ -83.281019, 33.245787 ], [ -83.254359, 33.243538 ], [ -83.24147, 33.262608 ], [ -83.221831, 33.247822 ], [ -83.217161, 33.268357 ], [ -83.152193, 33.239807 ], [ -83.148918, 33.254719 ], [ -83.105014, 33.258189 ], [ -83.11099, 33.277769 ], [ -83.08015, 33.281805 ], [ -83.06878, 33.261688 ], [ -83.033417, 33.258257 ], [ -83.071933, 33.228201 ], [ -83.077967, 33.193387 ], [ -83.152499, 33.164001 ], [ -83.09523, 33.147067 ], [ -83.118829, 33.087066 ], [ -83.102057, 33.050626 ], [ -83.048333, 33.075395 ], [ -83.067909, 33.024842 ], [ -83.051218, 32.979138 ], [ -82.991667, 32.961219 ], [ -82.956359, 32.96326 ], [ -82.884763, 32.927625 ], [ -82.902349, 32.92058 ], [ -82.922889, 32.883767 ], [ -82.809397, 32.854368 ], [ -82.769277, 32.880268 ], [ -82.693316, 32.889763 ], [ -82.68398, 32.862096 ], [ -82.639482, 32.832178 ], [ -82.623932, 32.847333 ], [ -82.606381, 32.835341 ], [ -82.582314, 32.84749 ], [ -82.591094, 32.828992 ], [ -82.578871, 32.816226 ], [ -82.521052, 32.822356 ], [ -82.45063, 32.76538 ], [ -82.43447, 32.762294 ], [ -82.451864, 32.826476 ], [ -82.430923, 32.846593 ], [ -82.452145, 32.892268 ], [ -82.444251, 32.904401 ], [ -82.454803, 32.905929 ], [ -82.431199, 32.929233 ], [ -82.391143, 32.919371 ], [ -82.374052, 32.939196 ], [ -82.371191, 32.927984 ], [ -82.35826, 32.935353 ], [ -82.33742, 32.924764 ], [ -82.317267, 32.835538 ], [ -82.272353, 32.937796 ], [ -82.197498, 32.904504 ], [ -82.204241, 32.884324 ], [ -82.174151, 32.868071 ], [ -82.145024, 32.812677 ], [ -82.123742, 32.883656 ], [ -82.081331, 32.916782 ], [ -82.03699, 32.919122 ], [ -82.061014, 32.956739 ], [ -82.058068, 32.970118 ], [ -82.03825, 32.959673 ], [ -82.038833, 33.003724 ], [ -81.97004, 33.017165 ], [ -81.868524, 33.080266 ], [ -81.8199, 33.07618 ], [ -81.8195, 33.091127 ], [ -81.790333, 33.078469 ], [ -81.780076, 33.116228 ], [ -81.768047, 33.10855 ], [ -81.721124, 33.126112 ], [ -81.643733, 33.093552 ], [ -81.614033, 33.095251 ], [ -81.612072, 33.080019 ], [ -81.60132, 33.087049 ], [ -81.602212, 33.073473 ], [ -81.57288, 33.05418 ], [ -81.563372, 33.060156 ], [ -81.561948, 33.045844 ], [ -81.529124, 33.04081 ], [ -81.51069, 33.010315 ], [ -81.491954, 33.009093 ], [ -81.49983, 32.963816 ], [ -81.511347, 32.966721 ], [ -81.502427, 32.935353 ], [ -81.483198, 32.921802 ], [ -81.480812, 32.898614 ], [ -81.464433, 32.898603 ], [ -81.479445, 32.881082 ], [ -81.452883, 32.872964 ], [ -81.460722, 32.846038 ], [ -81.426475, 32.840773 ], [ -81.428235, 32.818584 ], [ -81.417984, 32.818196 ], [ -81.431235, 32.784141 ], [ -81.414456, 32.778149 ], [ -81.43194, 32.768911 ], [ -81.412093, 32.763866 ], [ -81.419698, 32.749167 ], [ -81.404932, 32.745559 ], [ -81.427517, 32.701895 ], [ -81.409012, 32.696551 ], [ -81.397154, 32.661378 ], [ -81.407193, 32.660519 ], [ -81.393033, 32.651542 ], [ -81.41866, 32.629392 ], [ -81.366782, 32.576915 ], [ -81.357749, 32.582119 ], [ -81.322806, 32.559662 ], [ -81.297652, 32.562931 ], [ -81.296691, 32.553393 ], [ -81.290626, 32.562534 ], [ -81.271923, 32.529984 ], [ -81.233596, 32.51815 ], [ -81.233111, 32.498069 ], [ -81.186984, 32.463816 ], [ -81.208498, 32.436289 ], [ -81.177299, 32.389676 ], [ -81.182369, 32.373271 ], [ -81.257694, 32.335579 ], [ -81.311711, 32.353209 ], [ -81.318814, 32.366238 ], [ -81.346818, 32.351143 ], [ -81.383976, 32.402175 ], [ -81.458249, 32.381121 ], [ -81.48508, 32.385353 ], [ -81.508455, 32.37063 ], [ -81.487857, 32.333908 ], [ -81.465575, 32.328884 ], [ -81.433044, 32.245303 ], [ -81.51813, 32.21409 ], [ -81.462466, 32.142797 ], [ -81.408136, 32.12874 ], [ -81.406977, 32.102165 ], [ -81.391844, 32.100517 ], [ -81.384727, 32.079517 ], [ -81.435456, 32.097921 ], [ -81.592634, 32.103462 ], [ -81.668187, 32.179471 ], [ -81.780858, 32.15289 ], [ -81.81628, 32.23747 ], [ -81.842009, 32.241065 ], [ -81.892725, 32.274783 ], [ -81.953732, 32.266819 ], [ -82.025339, 32.278883 ], [ -82.014181, 32.228403 ], [ -82.095242, 32.143043 ], [ -82.120424, 32.14119 ], [ -82.120929, 32.117482 ], [ -82.142751, 32.110512 ], [ -82.156112, 32.130167 ], [ -82.168469, 32.122978 ], [ -82.195317, 32.140929 ], [ -82.196477, 32.120756 ], [ -82.263716, 32.150444 ], [ -82.287389, 32.135503 ], [ -82.300168, 32.148876 ], [ -82.342827, 32.149242 ], [ -82.370856, 32.107632 ], [ -82.396941, 32.128239 ], [ -82.462797, 32.095605 ], [ -82.483131, 31.968961 ], [ -82.431531, 31.966182 ], [ -82.431464, 31.870397 ], [ -82.41077, 31.868647 ], [ -82.380115, 31.830101 ], [ -82.376095, 31.844057 ], [ -82.353018, 31.843969 ], [ -82.356407, 31.853737 ], [ -82.282151, 31.850228 ], [ -82.310469, 31.809101 ], [ -82.362973, 31.811853 ], [ -82.367666, 31.80158 ], [ -82.35271, 31.791015 ], [ -82.36296, 31.783293 ], [ -82.450969, 31.813246 ], [ -82.447445, 31.761396 ], [ -82.469195, 31.753615 ], [ -82.453921, 31.735997 ], [ -82.410845, 31.735014 ], [ -82.415192, 31.708017 ], [ -82.398357, 31.703312 ], [ -82.431855, 31.658139 ], [ -82.367041, 31.630212 ], [ -82.441448, 31.558749 ], [ -82.442754, 31.533499 ], [ -82.41554, 31.48764 ], [ -82.367777, 31.456308 ], [ -82.356705, 31.430636 ], [ -82.401512, 31.430292 ], [ -82.401794, 31.417278 ], [ -82.417246, 31.417119 ], [ -82.402519, 31.400006 ], [ -82.416987, 31.378856 ], [ -82.389398, 31.360983 ], [ -82.381299, 31.375842 ], [ -82.358451, 31.355168 ], [ -82.352154, 31.370517 ], [ -82.320562, 31.368205 ], [ -82.30517, 31.348354 ], [ -82.27091, 31.339402 ], [ -82.245471, 31.303349 ], [ -82.322939, 31.238492 ], [ -82.357887, 31.264023 ], [ -82.400107, 31.261111 ], [ -82.427523, 31.245303 ], [ -82.425075, 31.211646 ], [ -82.402846, 31.214286 ], [ -82.383589, 31.21367 ], [ -82.399247, 31.20433 ], [ -82.383913, 31.207409 ], [ -82.383079, 31.193253 ], [ -82.443384, 31.151086 ], [ -82.460003, 31.114372 ], [ -82.4792, 31.113239 ], [ -82.459716, 31.090548 ], [ -82.473424, 31.081322 ], [ -82.466365, 31.070502 ], [ -82.431436, 31.058366 ], [ -82.404182, 31.030335 ], [ -82.357618, 31.031205 ], [ -82.342466, 31.013429 ], [ -82.415603, 31.01359 ], [ -82.420442, 30.795229 ], [ -82.132074, 30.784847 ], [ -82.127759, 30.857859 ], [ -82.073583, 30.849246 ], [ -82.071105, 30.820757 ], [ -82.043087, 30.821618 ], [ -82.033645, 30.810292 ], [ -82.001944, 30.819732 ], [ -81.978872, 30.776831 ], [ -82.007674, 30.793037 ], [ -82.023025, 30.787525 ], [ -82.011212, 30.763121 ], [ -82.038665, 30.751087 ], [ -82.035927, 30.706205 ], [ -82.050331, 30.675737 ], [ -82.005401, 30.563698 ], [ -82.01905, 30.533012 ], [ -82.016906, 30.475111 ], [ -82.040001, 30.436661 ], [ -82.042139, 30.365409 ], [ -82.066184, 30.355757 ], [ -82.126484, 30.368308 ], [ -82.161777, 30.357111 ], [ -82.192596, 30.378831 ], [ -82.21086, 30.425379 ], [ -82.20124, 30.485114 ], [ -82.240403, 30.53777 ], [ -82.214677, 30.568556 ], [ -82.418914, 30.581767 ], [ -82.418793, 30.613132 ], [ -82.430862, 30.612848 ], [ -82.435112, 30.716566 ], [ -82.41999, 30.716637 ], [ -82.420128, 30.729198 ], [ -82.435242, 30.729149 ], [ -82.435852, 30.820068 ], [ -82.495476, 30.819553 ], [ -82.490558, 30.963166 ], [ -82.520124, 30.963132 ], [ -82.534262, 30.9807 ], [ -82.541875, 30.955807 ], [ -82.593798, 30.957397 ], [ -82.578908, 30.92343 ], [ -82.62434, 30.897143 ], [ -82.62842, 30.864776 ], [ -82.66071, 30.859617 ], [ -82.650117, 30.825477 ], [ -82.710378, 30.815259 ], [ -82.739574, 30.859471 ], [ -82.726548, 30.92282 ], [ -82.776257, 30.987057 ], [ -82.77884, 31.010153 ], [ -82.798402, 31.004741 ], [ -82.803581, 31.02089 ], [ -82.835183, 31.013711 ], [ -82.842716, 31.055235 ], [ -82.806194, 31.037392 ], [ -82.805961, 31.054481 ], [ -82.828836, 31.064584 ], [ -82.833293, 31.073105 ], [ -82.815705, 31.076192 ], [ -82.837226, 31.116304 ], [ -82.846141, 31.184135 ], [ -83.047736, 31.184132 ], [ -83.052192, 31.225468 ], [ -83.033468, 31.275041 ], [ -83.059011, 31.304228 ], [ -83.059567, 31.329857 ], [ -83.099709, 31.353949 ], [ -83.116341, 31.388655 ], [ -83.140686, 31.401941 ], [ -83.136033, 31.431151 ], [ -83.151141, 31.460223 ], [ -83.145587, 31.472276 ], [ -83.11166, 31.478229 ], [ -83.059679, 31.57998 ], [ -83.121104, 31.595479 ], [ -83.14767, 31.630797 ], [ -83.165355, 31.626937 ], [ -83.165456, 31.595906 ], [ -83.219014, 31.62602 ], [ -83.271503, 31.622977 ], [ -83.263396, 31.65409 ], [ -83.243979, 31.653259 ], [ -83.234775, 31.66574 ], [ -83.252853, 31.706954 ], [ -83.240946, 31.805379 ], [ -83.206979, 31.848656 ], [ -83.177469, 31.847857 ], [ -83.176843, 31.868416 ], [ -83.204236, 31.884682 ], [ -83.235506, 31.95072 ], [ -83.261534, 31.952076 ], [ -83.291784, 31.98323 ], [ -83.282662, 31.995946 ] ] ], [ [ [ -83.738552, 32.879855 ], [ -83.732831, 32.882086 ], [ -83.731345, 32.879959 ], [ -83.738552, 32.879855 ] ] ], [ [ [ -82.388588, 31.209113 ], [ -82.387792, 31.209485 ], [ -82.387798, 31.209114 ], [ -82.388588, 31.209113 ] ] ] ] } },
{ "type": "Feature", "properties": { "district_id": 10, "voting_age_pop": 505804, "lib_votes": 0, "grn_votes": 0, "con_votes": 0, "ref_votes": 0, "total_pop": 676530, "dem_votes_sum": 133459, "rep_votes_sum": 150508, "lib_votes_sum": 0, "grn_votes_sum": 0, "con_votes_sum": 0, "ref_votes_sum": 0, "minority_pop_sum": 256971, "dem_pct": 0.46998066676761735, "rep_pct": 0.53001933323238259, "lib_pct": 0.0, "grn_pct": 0.0, "con_pct": 0.0, "ref_pct": 0.0, "minority_pct": 0.37983681433195865, "compactness": 0.12093992166338129 }, "geometry": { "type": "Polygon", "coordinates": [ [ [ -83.832422, 33.272529 ], [ -83.840089, 33.328574 ], [ -83.863304, 33.342085 ], [ -83.874594, 33.408515 ], [ -83.886759, 33.411453 ], [ -83.882952, 33.502644 ], [ -83.948499, 33.517323 ], [ -83.944445, 33.546854 ], [ -84.032117, 33.539408 ], [ -84.024279, 33.548226 ], [ -84.037452, 33.556365 ], [ -84.01503, 33.563621 ], [ -84.015018, 33.582985 ], [ -84.05268, 33.57028 ], [ -84.064178, 33.579822 ], [ -84.080669, 33.554511 ], [ -84.128008, 33.562407 ], [ -84.181584, 33.629174 ], [ -84.184143, 33.646157 ], [ -84.161589, 33.63775 ], [ -84.15447, 33.645748 ], [ -84.115791, 33.614666 ], [ -84.056614, 33.726608 ], [ -84.01879, 33.756625 ], [ -83.984721, 33.73402 ], [ -83.953799, 33.731755 ], [ -83.932452, 33.709364 ], [ -83.920802, 33.721503 ], [ -83.913244, 33.712809 ], [ -83.92524, 33.710183 ], [ -83.925757, 33.664623 ], [ -83.951645, 33.628773 ], [ -83.927726, 33.618152 ], [ -83.953488, 33.62275 ], [ -83.965635, 33.612494 ], [ -83.963941, 33.578601 ], [ -83.936897, 33.579923 ], [ -83.941866, 33.567152 ], [ -83.913018, 33.547366 ], [ -83.881851, 33.578951 ], [ -83.860208, 33.565875 ], [ -83.850259, 33.571976 ], [ -83.862947, 33.596076 ], [ -83.85125, 33.596306 ], [ -83.843028, 33.559556 ], [ -83.830845, 33.549042 ], [ -83.801182, 33.566061 ], [ -83.7877, 33.535696 ], [ -83.764067, 33.569148 ], [ -83.705788, 33.526947 ], [ -83.706512, 33.501766 ], [ -83.685769, 33.482741 ], [ -83.674644, 33.487225 ], [ -83.682196, 33.52622 ], [ -83.653403, 33.507946 ], [ -83.64938, 33.52435 ], [ -83.61446, 33.54858 ], [ -83.55787, 33.56142 ], [ -83.558181, 33.576048 ], [ -83.52419, 33.594 ], [ -83.55421, 33.60626 ], [ -83.54944, 33.61921 ], [ -83.567561, 33.627612 ], [ -83.541206, 33.623461 ], [ -83.448099, 33.644325 ], [ -83.434219, 33.718975 ], [ -83.370422, 33.655827 ], [ -83.348869, 33.597286 ], [ -83.286072, 33.542553 ], [ -83.267446, 33.589428 ], [ -83.287458, 33.616171 ], [ -83.289321, 33.647488 ], [ -83.237012, 33.685172 ], [ -83.186985, 33.66603 ], [ -83.223217, 33.660324 ], [ -83.227408, 33.641799 ], [ -83.125765, 33.659209 ], [ -83.101351, 33.639314 ], [ -83.117861, 33.621744 ], [ -83.11617, 33.602125 ], [ -83.040577, 33.573904 ], [ -83.000496, 33.591274 ], [ -82.989899, 33.603279 ], [ -83.00161, 33.620243 ], [ -82.987724, 33.628941 ], [ -82.980102, 33.614716 ], [ -82.951142, 33.658032 ], [ -82.963757, 33.676821 ], [ -82.996452, 33.69397 ], [ -83.01564, 33.691204 ], [ -83.049141, 33.715561 ], [ -83.118729, 33.698818 ], [ -83.280662, 33.761902 ], [ -83.28248, 33.78816 ], [ -83.217297, 33.827099 ], [ -83.223121, 33.833816 ], [ -83.16038, 33.848424 ], [ -83.160579, 33.868208 ], [ -83.140948, 33.888922 ], [ -83.156997, 33.898383 ], [ -83.15479, 33.944323 ], [ -83.129211, 33.973297 ], [ -83.11294, 33.957002 ], [ -83.090977, 33.973933 ], [ -83.059266, 34.01773 ], [ -83.092639, 34.039453 ], [ -83.08532, 34.053065 ], [ -83.062554, 34.044001 ], [ -83.044767, 34.07499 ], [ -83.049695, 34.089682 ], [ -83.118065, 34.12921 ], [ -83.130885, 34.107508 ], [ -83.161681, 34.11025 ], [ -83.163067, 34.139349 ], [ -83.202149, 34.145934 ], [ -83.201094, 34.168636 ], [ -83.218017, 34.159281 ], [ -83.234821, 34.177223 ], [ -83.256758, 34.165435 ], [ -83.278681, 34.169609 ], [ -83.337897, 34.230359 ], [ -83.355269, 34.22373 ], [ -83.337967, 34.261791 ], [ -83.393915, 34.324801 ], [ -83.382565, 34.428928 ], [ -83.398396, 34.460883 ], [ -83.373054, 34.470216 ], [ -83.177838, 34.477017 ], [ -83.103673, 34.536617 ], [ -83.03336, 34.48309 ], [ -82.995901, 34.472204 ], [ -82.979746, 34.482938 ], [ -82.901551, 34.486764 ], [ -82.858837, 34.45522 ], [ -82.834457, 34.365221 ], [ -82.79447, 34.340379 ], [ -82.782128, 34.298278 ], [ -82.746811, 34.266588 ], [ -82.741875, 34.210209 ], [ -82.717459, 34.150546 ], [ -82.676985, 34.131425 ], [ -82.642416, 34.093264 ], [ -82.643661, 34.072105 ], [ -82.594459, 34.029304 ], [ -82.556765, 33.945324 ], [ -82.524515, 33.94336 ], [ -82.455105, 33.88165 ], [ -82.32448, 33.820033 ], [ -82.298286, 33.783518 ], [ -82.247472, 33.752591 ], [ -82.234572, 33.700217 ], [ -82.199898, 33.6617 ], [ -82.186155, 33.620881 ], [ -82.138028, 33.592236 ], [ -82.10784, 33.596277 ], [ -82.046335, 33.56383 ], [ -82.001338, 33.520135 ], [ -81.985938, 33.486536 ], [ -81.926336, 33.462937 ], [ -81.913126, 33.438333 ], [ -81.93243, 33.425706 ], [ -81.909693, 33.411979 ], [ -81.945181, 33.407531 ], [ -81.924837, 33.37414 ], [ -81.946337, 33.37064 ], [ -81.939737, 33.344941 ], [ -81.909137, 33.346641 ], [ -81.913737, 33.320042 ], [ -81.901384, 33.335774 ], [ -81.880737, 33.302243 ], [ -81.867936, 33.314043 ], [ -81.863929, 33.302036 ], [ -81.847336, 33.306843 ], [ -81.863236, 33.288844 ], [ -81.828336, 33.263045 ], [ -81.847336, 33.266345 ], [ -81.839636, 33.255245 ], [ -81.851137, 33.252545 ], [ -81.853137, 33.250745 ], [ -81.852076, 33.247288 ], [ -81.805238, 33.211441 ], [ -81.768935, 33.217447 ], [ -81.756835, 33.197947 ], [ -81.772435, 33.181249 ], [ -81.768035, 33.167549 ], [ -81.721287, 33.124636 ], [ -81.768047, 33.10855 ], [ -81.781737, 33.115633 ], [ -81.790333, 33.078469 ], [ -81.8195, 33.091127 ], [ -81.8199, 33.07618 ], [ -81.868524, 33.080266 ], [ -81.97004, 33.017165 ], [ -82.038833, 33.003724 ], [ -82.03825, 32.959673 ], [ -82.058068, 32.970118 ], [ -82.061014, 32.956739 ], [ -82.03699, 32.919122 ], [ -82.081331, 32.916782 ], [ -82.123742, 32.883656 ], [ -82.145024, 32.812677 ], [ -82.174151, 32.868071 ], [ -82.204241, 32.884324 ], [ -82.197498, 32.904504 ], [ -82.272353, 32.937796 ], [ -82.317267, 32.835538 ], [ -82.33742, 32.924764 ], [ -82.35826, 32.935353 ], [ -82.371191, 32.927984 ], [ -82.374052, 32.939196 ], [ -82.391143, 32.919371 ], [ -82.431199, 32.929233 ], [ -82.454803, 32.905929 ], [ -82.444251, 32.904401 ], [ -82.452145, 32.892268 ], [ -82.431224, 32.852744 ], [ -82.451864, 32.826476 ], [ -82.43447, 32.762294 ], [ -82.473251, 32.777558 ], [ -82.521052, 32.822356 ], [ -82.578871, 32.816226 ], [ -82.591094, 32.828992 ], [ -82.582314, 32.84749 ], [ -82.606381, 32.835341 ], [ -82.623932, 32.847333 ], [ -82.639482, 32.832178 ], [ -82.68398, 32.862096 ], [ -82.693316, 32.889763 ], [ -82.769277, 32.880268 ], [ -82.809397, 32.854368 ], [ -82.907475, 32.875247 ], [ -82.924838, 32.88622 ], [ -82.884763, 32.927625 ], [ -82.956359, 32.96326 ], [ -82.991667, 32.961219 ], [ -83.050689, 32.978673 ], [ -83.067909, 33.024842 ], [ -83.048333, 33.075395 ], [ -83.102057, 33.050626 ], [ -83.118829, 33.087066 ], [ -83.09523, 33.147067 ], [ -83.152499, 33.164001 ], [ -83.077967, 33.193387 ], [ -83.071933, 33.228201 ], [ -83.033417, 33.258257 ], [ -83.06878, 33.261688 ], [ -83.08015, 33.281805 ], [ -83.11099, 33.277769 ], [ -83.105014, 33.258189 ], [ -83.148918, 33.254719 ], [ -83.152193, 33.239807 ], [ -83.217161, 33.268357 ], [ -83.221831, 33.247822 ], [ -83.24147, 33.262608 ], [ -83.254359, 33.243538 ], [ -83.281019, 33.245787 ], [ -83.293125, 33.265838 ], [ -83.25503, 33.281703 ], [ -83.237936, 33.318194 ], [ -83.255827, 33.325523 ], [ -83.232118, 33.346028 ], [ -83.277897, 33.366235 ], [ -83.272346, 33.403622 ], [ -83.28359, 33.395144 ], [ -83.274618, 33.403675 ], [ -83.319482, 33.432198 ], [ -83.341834, 33.418758 ], [ -83.370074, 33.42415 ], [ -83.369103, 33.394078 ], [ -83.404612, 33.33115 ], [ -83.390941, 33.334819 ], [ -83.396948, 33.307311 ], [ -83.384648, 33.297151 ], [ -83.427168, 33.253478 ], [ -83.437578, 33.185764 ], [ -83.816048, 33.131816 ], [ -83.8246, 33.176205 ], [ -83.807265, 33.192986 ], [ -83.834419, 33.210575 ], [ -83.81334, 33.24593 ], [ -83.832422, 33.272529 ] ] ] } },
{ "type": "Feature", "properties": { "district_id": 11, "voting_age_pop": 491017, "lib_votes": 0, "grn_votes": 0, "con_votes": 0, "ref_votes": 0, "total_pop": 659858, "dem_votes_sum": 48794, "rep_votes_sum": 185372, "lib_votes_sum": 0, "grn_votes_sum": 0, "con_votes_sum": 0, "ref_votes_sum": 0, "minority_pop_sum": 40394, "dem_pct": 0.20837354697095223, "rep_pct": 0.79162645302904777, "lib_pct": 0.0, "grn_pct": 0.0, "con_pct": 0.0, "ref_pct": 0.0, "minority_pct": 0.061216201061440489, "compactness": 0.32350071986529744 }, "geometry": { "type": "Polygon", "coordinates": [ [ [ -85.386595, 33.901792 ], [ -85.605165, 34.984678 ], [ -84.268643, 34.988124 ], [ -84.263527, 34.951992 ], [ -84.245395, 34.933583 ], [ -84.256989, 34.920883 ], [ -84.221065, 34.917457 ], [ -84.247603, 34.89278 ], [ -84.28697, 34.889273 ], [ -84.263642, 34.867428 ], [ -84.279051, 34.851431 ], [ -84.264668, 34.844142 ], [ -84.273099, 34.824054 ], [ -84.244847, 34.820724 ], [ -84.250377, 34.801931 ], [ -84.23141, 34.778962 ], [ -84.214725, 34.795055 ], [ -84.184818, 34.799667 ], [ -84.17677, 34.770305 ], [ -84.198015, 34.730343 ], [ -84.25229, 34.693972 ], [ -84.252292, 34.66461 ], [ -84.242624, 34.670908 ], [ -84.197424, 34.642725 ], [ -84.193527, 34.62509 ], [ -84.223907, 34.596992 ], [ -84.254677, 34.597496 ], [ -84.260202, 34.572749 ], [ -84.280504, 34.584119 ], [ -84.296517, 34.577027 ], [ -84.295018, 34.609548 ], [ -84.311693, 34.609809 ], [ -84.309635, 34.637099 ], [ -84.339894, 34.64463 ], [ -84.333401, 34.66922 ], [ -84.336972, 34.672393 ], [ -84.341422, 34.661828 ], [ -84.413037, 34.652484 ], [ -84.406962, 34.621234 ], [ -84.434402, 34.608155 ], [ -84.392684, 34.551496 ], [ -84.371352, 34.548495 ], [ -84.371496, 34.562912 ], [ -84.345553, 34.562735 ], [ -84.326402, 34.488576 ], [ -84.337167, 34.487729 ], [ -84.300484, 34.449692 ], [ -84.330217, 34.439938 ], [ -84.369096, 34.46453 ], [ -84.4309, 34.458199 ], [ -84.509174, 34.470011 ], [ -84.508226, 34.439115 ], [ -84.494114, 34.444982 ], [ -84.481017, 34.435231 ], [ -84.490088, 34.410232 ], [ -84.508218, 34.399569 ], [ -84.54705, 34.42876 ], [ -84.553309, 34.419808 ], [ -84.552434, 34.451895 ], [ -84.591146, 34.476379 ], [ -84.613466, 34.46817 ], [ -84.621518, 34.450455 ], [ -84.653644, 34.445556 ], [ -84.654038, 34.355176 ], [ -84.644293, 34.355168 ], [ -84.653998, 34.346934 ], [ -84.657881, 34.142471 ], [ -84.67029, 34.150069 ], [ -84.676873, 34.140184 ], [ -84.704504, 34.16871 ], [ -84.725653, 34.164781 ], [ -84.733157, 34.115456 ], [ -84.712682, 34.109452 ], [ -84.700464, 34.079097 ], [ -84.737836, 34.079399 ], [ -84.738438, 34.057396 ], [ -84.7649, 34.049814 ], [ -84.783448, 34.024299 ], [ -84.779189, 34.004825 ], [ -84.817885, 34.031225 ], [ -84.818971, 34.006177 ], [ -85.009564, 34.037173 ], [ -85.065546, 34.017191 ], [ -85.080788, 34.028893 ], [ -85.111259, 34.024039 ], [ -85.109331, 34.057837 ], [ -85.124246, 34.047178 ], [ -85.153894, 34.050899 ], [ -85.155071, 34.026229 ], [ -85.178971, 34.010095 ], [ -85.22017, 34.016743 ], [ -85.22619, 33.986189 ], [ -85.25711, 33.980106 ], [ -85.272269, 33.900095 ], [ -85.386595, 33.901792 ] ] ] } },
{ "type": "Feature", "properties": { "district_id": 12, "voting_age_pop": 527483, "lib_votes": 0, "grn_votes": 0, "con_votes": 0, "ref_votes": 0, "total_pop": 720356, "dem_votes_sum": 133231, "rep_votes_sum": 186239, "lib_votes_sum": 0, "grn_votes_sum": 0, "con_votes_sum": 0, "ref_votes_sum": 0, "minority_pop_sum": 156576, "dem_pct": 0.41703759351425801, "rep_pct": 0.58296240648574205, "lib_pct": 0.0, "grn_pct": 0.0, "con_pct": 0.0, "ref_pct": 0.0, "minority_pct": 0.21735919462043768, "compactness": 0.14522049666195933 }, "geometry": { "type": "Polygon", "coordinates": [ [ [ -83.862941, 33.596228 ], [ -83.850259, 33.571976 ], [ -83.860208, 33.565875 ], [ -83.881851, 33.578951 ], [ -83.913018, 33.547366 ], [ -83.941866, 33.567152 ], [ -83.936897, 33.579923 ], [ -83.963941, 33.578601 ], [ -83.965635, 33.612494 ], [ -83.953488, 33.62275 ], [ -83.927726, 33.618152 ], [ -83.951645, 33.628773 ], [ -83.930863, 33.651823 ], [ -83.915514, 33.718811 ], [ -83.932452, 33.709364 ], [ -83.953799, 33.731755 ], [ -84.009488, 33.748671 ], [ -84.011764, 33.782785 ], [ -84.037659, 33.777929 ], [ -84.027982, 33.804266 ], [ -84.088856, 33.805628 ], [ -84.11574, 33.822598 ], [ -84.079858, 33.834787 ], [ -84.063374, 33.819959 ], [ -84.03567, 33.819913 ], [ -84.077899, 33.849519 ], [ -84.076091, 33.869276 ], [ -84.089436, 33.8729 ], [ -84.077713, 33.880064 ], [ -84.08598, 33.882948 ], [ -84.084385, 33.890597 ], [ -84.059999, 33.886664 ], [ -84.054143, 33.896136 ], [ -84.079507, 33.902514 ], [ -84.077921, 33.922831 ], [ -84.042109, 33.931893 ], [ -84.028954, 33.91247 ], [ -83.994458, 33.935137 ], [ -83.994564, 33.957026 ], [ -83.96694, 33.941894 ], [ -83.921879, 33.967217 ], [ -83.953041, 33.984388 ], [ -83.985409, 33.979195 ], [ -83.989544, 34.000994 ], [ -83.969197, 34.011844 ], [ -83.991096, 34.025635 ], [ -83.993338, 34.056719 ], [ -84.031117, 34.043301 ], [ -84.010095, 34.066818 ], [ -84.023558, 34.071531 ], [ -84.013167, 34.09607 ], [ -84.027616, 34.104975 ], [ -84.001949, 34.122572 ], [ -83.973567, 34.104071 ], [ -83.949858, 34.127642 ], [ -83.902131, 34.110561 ], [ -83.878014, 34.123381 ], [ -83.885168, 34.143691 ], [ -83.865585, 34.151847 ], [ -83.819118, 34.126541 ], [ -83.659479, 34.261873 ], [ -83.607306, 34.236958 ], [ -83.581971, 34.237397 ], [ -83.547059, 34.213941 ], [ -83.56691, 34.181394 ], [ -83.567148, 34.117308 ], [ -83.463633, 34.082023 ], [ -83.486707, 34.146601 ], [ -83.368949, 34.140326 ], [ -83.359054, 34.150435 ], [ -83.350916, 34.137504 ], [ -83.315957, 34.156284 ], [ -83.296264, 34.150134 ], [ -83.303908, 34.132315 ], [ -83.278542, 34.11862 ], [ -83.357078, 34.03899 ], [ -83.258257, 33.998935 ], [ -83.237006, 34.013557 ], [ -83.212004, 34.002774 ], [ -83.12413, 34.047638 ], [ -83.100967, 34.024792 ], [ -83.091007, 34.034958 ], [ -83.059471, 34.018982 ], [ -83.090977, 33.973933 ], [ -83.11294, 33.957002 ], [ -83.129211, 33.973297 ], [ -83.15479, 33.944323 ], [ -83.156997, 33.898383 ], [ -83.140948, 33.888922 ], [ -83.161264, 33.847302 ], [ -83.217939, 33.83704 ], [ -83.217297, 33.827099 ], [ -83.28248, 33.78816 ], [ -83.284996, 33.770386 ], [ -83.118729, 33.698818 ], [ -83.049141, 33.715561 ], [ -83.01564, 33.691204 ], [ -82.996452, 33.69397 ], [ -82.963757, 33.676821 ], [ -82.951142, 33.658032 ], [ -82.980102, 33.614716 ], [ -82.987724, 33.628941 ], [ -83.00161, 33.620243 ], [ -82.989899, 33.603279 ], [ -83.010873, 33.585597 ], [ -83.040577, 33.573904 ], [ -83.11617, 33.602125 ], [ -83.117861, 33.621744 ], [ -83.101351, 33.639314 ], [ -83.126956, 33.659588 ], [ -83.227408, 33.641799 ], [ -83.223217, 33.660324 ], [ -83.186985, 33.66603 ], [ -83.237012, 33.685172 ], [ -83.289321, 33.647488 ], [ -83.287458, 33.616171 ], [ -83.267446, 33.589428 ], [ -83.286591, 33.542675 ], [ -83.348869, 33.597286 ], [ -83.370422, 33.655827 ], [ -83.434219, 33.718975 ], [ -83.448099, 33.644325 ], [ -83.571887, 33.624655 ], [ -83.52318, 33.59528 ], [ -83.558181, 33.576048 ], [ -83.55787, 33.56142 ], [ -83.61446, 33.54858 ], [ -83.64938, 33.52435 ], [ -83.653403, 33.507946 ], [ -83.682196, 33.52622 ], [ -83.678421, 33.483643 ], [ -83.706512, 33.501766 ], [ -83.706474, 33.527691 ], [ -83.756589, 33.565397 ], [ -83.7877, 33.535696 ], [ -83.802386, 33.566538 ], [ -83.831122, 33.549115 ], [ -83.85125, 33.596306 ], [ -83.862941, 33.596228 ] ] ] } },
{ "type": "Feature", "properties": { "district_id": 13, "voting_age_pop": 528621, "lib_votes": 0, "grn_votes": 0, "con_votes": 0, "ref_votes": 0, "total_pop": 704110, "dem_votes_sum": 111793, "rep_votes_sum": 155034, "lib_votes_sum": 0, "grn_votes_sum": 0, "con_votes_sum": 0, "ref_votes_sum": 0, "minority_pop_sum": 211797, "dem_pct": 0.41897184317928843, "rep_pct": 0.58102815682071152, "lib_pct": 0.0, "grn_pct": 0.0, "con_pct": 0.0, "ref_pct": 0.0, "minority_pct": 0.30080101120563546, "compactness": 0.25010376881198576 }, "geometry": { "type": "Polygon", "coordinates": [ [ [ -81.964201, 30.816438 ], [ -81.962257, 30.796682 ], [ -81.979025, 30.776608 ], [ -82.001944, 30.819732 ], [ -82.033645, 30.810292 ], [ -82.043087, 30.821618 ], [ -82.071105, 30.820757 ], [ -82.073583, 30.849246 ], [ -82.127759, 30.857859 ], [ -82.132074, 30.784847 ], [ -82.420442, 30.795229 ], [ -82.415603, 31.01359 ], [ -82.342466, 31.013429 ], [ -82.357618, 31.031205 ], [ -82.404182, 31.030335 ], [ -82.431436, 31.058366 ], [ -82.466365, 31.070502 ], [ -82.473424, 31.081322 ], [ -82.459716, 31.090548 ], [ -82.4792, 31.113239 ], [ -82.460003, 31.114372 ], [ -82.443384, 31.151086 ], [ -82.383079, 31.193253 ], [ -82.383913, 31.207409 ], [ -82.399247, 31.20433 ], [ -82.383589, 31.21367 ], [ -82.425075, 31.211646 ], [ -82.427523, 31.245303 ], [ -82.400107, 31.261111 ], [ -82.357887, 31.264023 ], [ -82.322939, 31.238492 ], [ -82.245471, 31.303349 ], [ -82.27091, 31.339402 ], [ -82.30517, 31.348354 ], [ -82.320562, 31.368205 ], [ -82.352154, 31.370517 ], [ -82.358451, 31.355168 ], [ -82.381299, 31.375842 ], [ -82.389398, 31.360983 ], [ -82.416987, 31.378856 ], [ -82.402519, 31.400006 ], [ -82.417246, 31.417119 ], [ -82.401794, 31.417278 ], [ -82.401512, 31.430292 ], [ -82.356705, 31.430636 ], [ -82.367777, 31.456308 ], [ -82.41554, 31.48764 ], [ -82.442754, 31.533499 ], [ -82.441448, 31.558749 ], [ -82.367041, 31.630212 ], [ -82.431855, 31.658139 ], [ -82.398357, 31.703312 ], [ -82.415192, 31.708017 ], [ -82.410845, 31.735014 ], [ -82.453921, 31.735997 ], [ -82.469195, 31.753615 ], [ -82.447445, 31.761396 ], [ -82.450969, 31.813246 ], [ -82.36296, 31.783293 ], [ -82.35271, 31.791015 ], [ -82.367666, 31.80158 ], [ -82.362973, 31.811853 ], [ -82.310469, 31.809101 ], [ -82.282151, 31.850228 ], [ -82.356407, 31.853737 ], [ -82.353018, 31.843969 ], [ -82.376095, 31.844057 ], [ -82.380115, 31.830101 ], [ -82.41077, 31.868647 ], [ -82.431464, 31.870397 ], [ -82.431531, 31.966182 ], [ -82.483131, 31.968961 ], [ -82.462797, 32.095605 ], [ -82.396941, 32.128239 ], [ -82.370856, 32.107632 ], [ -82.342827, 32.149242 ], [ -82.300168, 32.148876 ], [ -82.287389, 32.135503 ], [ -82.263716, 32.150444 ], [ -82.196477, 32.120756 ], [ -82.195317, 32.140929 ], [ -82.168469, 32.122978 ], [ -82.156112, 32.130167 ], [ -82.142751, 32.110512 ], [ -82.120929, 32.117482 ], [ -82.120424, 32.14119 ], [ -82.095242, 32.143043 ], [ -82.014181, 32.228403 ], [ -82.025339, 32.278883 ], [ -81.953732, 32.266819 ], [ -81.892725, 32.274783 ], [ -81.842009, 32.241065 ], [ -81.81628, 32.23747 ], [ -81.780858, 32.15289 ], [ -81.668187, 32.179471 ], [ -81.592634, 32.103462 ], [ -81.435456, 32.097921 ], [ -81.384727, 32.079517 ], [ -81.391844, 32.100517 ], [ -81.406977, 32.102165 ], [ -81.408136, 32.12874 ], [ -81.462466, 32.142797 ], [ -81.51813, 32.21409 ], [ -81.433044, 32.245303 ], [ -81.465575, 32.328884 ], [ -81.487857, 32.333908 ], [ -81.508455, 32.37063 ], [ -81.48508, 32.385353 ], [ -81.458249, 32.381121 ], [ -81.383976, 32.402175 ], [ -81.346818, 32.351143 ], [ -81.318814, 32.366238 ], [ -81.311711, 32.353209 ], [ -81.257694, 32.335579 ], [ -81.179517, 32.378349 ], [ -81.154963, 32.350247 ], [ -81.159729, 32.340244 ], [ -81.143857, 32.351543 ], [ -81.129121, 32.340893 ], [ -81.138013, 32.32824 ], [ -81.119628, 32.286778 ], [ -81.156607, 32.243284 ], [ -81.143634, 32.229266 ], [ -81.152064, 32.222042 ], [ -81.114032, 32.195701 ], [ -81.111132, 32.172703 ], [ -81.129756, 32.165839 ], [ -81.112236, 32.150804 ], [ -81.113343, 32.1132 ], [ -81.050317, 32.085324 ], [ -81.002318, 32.100056 ], [ -80.918003, 32.037579 ], [ -80.751429, 32.033468 ], [ -80.780693, 32.01137 ], [ -80.796272, 31.953459 ], [ -80.855339, 31.910809 ], [ -80.928589, 31.816982 ], [ -80.970726, 31.798353 ], [ -81.013812, 31.728643 ], [ -81.056623, 31.714875 ], [ -81.049789, 31.688633 ], [ -81.066635, 31.657328 ], [ -81.087067, 31.529158 ], [ -81.190758, 31.399876 ], [ -81.171089, 31.370323 ], [ -81.186119, 31.326796 ], [ -81.187675, 31.246258 ], [ -81.234337, 31.170258 ], [ -81.296417, 31.15188 ], [ -81.290199, 31.093494 ], [ -81.313637, 31.067852 ], [ -81.345306, 31.059362 ], [ -81.353416, 31.037121 ], [ -81.310709, 30.997329 ], [ -81.304832, 30.970774 ], [ -81.345207, 30.931503 ], [ -81.362682, 30.845926 ], [ -81.400482, 30.766426 ], [ -81.359146, 30.744314 ], [ -81.347015, 30.712444 ], [ -81.451241, 30.709484 ], [ -81.488464, 30.726309 ], [ -81.532295, 30.724091 ], [ -81.538391, 30.708656 ], [ -81.548377, 30.718279 ], [ -81.596176, 30.718666 ], [ -81.601882, 30.729586 ], [ -81.609588, 30.715881 ], [ -81.624366, 30.73634 ], [ -81.652153, 30.72887 ], [ -81.662323, 30.754177 ], [ -81.683096, 30.748492 ], [ -81.672494, 30.73879 ], [ -81.72013, 30.744719 ], [ -81.76172, 30.775698 ], [ -81.78263, 30.761454 ], [ -81.793075, 30.787251 ], [ -81.868515, 30.792906 ], [ -81.901245, 30.82988 ], [ -81.909111, 30.81568 ], [ -81.938834, 30.829849 ], [ -81.964201, 30.816438 ] ], [ [ -82.388569, 31.209474 ], [ -82.387798, 31.209114 ], [ -82.387792, 31.209485 ], [ -82.388569, 31.209474 ] ] ] } }
]
}
