{
"type": "FeatureCollection",
"name": "georgia_optimized_districts_headcount",
"crs": { "type": "name", "properties": { "name": "urn:ogc:def:crs:OGC:1.3:CRS84" } },
"features": [
{ "type": "Feature", "properties": { "district_id": 0, "voting_age_pop": 518204, "lib_votes": 0, "grn_votes": 0, "con_votes": 0, "ref_votes": 0, "total_pop": 693002, "dem_votes_sum": 84848, "rep_votes_sum": 196341, "lib_votes_sum": 0, "grn_votes_sum": 0, "con_votes_sum": 0, "ref_votes_sum": 0, "minority_pop_sum": 84650, "dem_pct": 0.30174722339778581, "rep_pct": 0.69825277660221419, "lib_pct": 0.0, "grn_pct": 0.0, "con_pct": 0.0, "ref_pct": 0.0, "minority_pct": 0.12214971962562879, "compactness": 0.15582211719021172 }, "geometry": { "type": "Polygon", "coordinates": [ [ [ -83.721336, 33.907745 ], [ -83.778515, 33.886202 ], [ -83.763601, 33.874166 ], [ -83.772978, 33.86542 ], [ -83.806364, 33.855913 ], [ -83.869007, 33.874159 ], [ -83.843184, 33.894775 ], [ -83.881269, 33.907512 ], [ -83.926926, 33.962403 ], [ -83.942082, 33.949595 ], [ -83.967355, 33.954588 ], [ -83.960005, 33.966133 ], [ -83.978314, 33.980557 ], [ -83.928075, 33.981966 ], [ -83.929948, 34.00195 ], [ -83.910508, 34.013401 ], [ -83.909555, 34.034906 ], [ -83.947449, 34.063817 ], [ -83.940168, 34.109782 ], [ -83.914631, 34.115107 ], [ -83.957258, 34.12658 ], [ -83.973567, 34.104071 ], [ -84.001949, 34.122572 ], [ -84.027616, 34.104975 ], [ -84.012785, 34.080166 ], [ -84.058593, 34.045955 ], [ -84.064682, 34.05756 ], [ -84.038004, 34.081707 ], [ -84.056863, 34.080295 ], [ -84.032148, 34.10347 ], [ -84.080143, 34.099012 ], [ -84.076896, 34.118744 ], [ -84.09483, 34.132058 ], [ -84.062246, 34.168446 ], [ -84.102375, 34.215934 ], [ -84.08979, 34.229698 ], [ -84.104598, 34.235328 ], [ -84.079681, 34.271667 ], [ -84.070236, 34.260158 ], [ -84.043457, 34.283016 ], [ -83.949836, 34.312305 ], [ -83.932625, 34.284927 ], [ -83.883801, 34.301581 ], [ -83.864285, 34.295613 ], [ -83.877392, 34.279996 ], [ -83.838102, 34.272514 ], [ -83.844603, 34.259643 ], [ -83.829666, 34.249746 ], [ -83.817591, 34.269305 ], [ -83.799651, 34.268868 ], [ -83.800371, 34.283517 ], [ -83.825121, 34.297553 ], [ -83.805706, 34.307383 ], [ -83.792249, 34.349933 ], [ -83.7675, 34.371988 ], [ -83.737228, 34.377477 ], [ -83.717551, 34.410736 ], [ -83.734368, 34.412677 ], [ -83.764704, 34.449127 ], [ -83.802756, 34.456584 ], [ -83.800807, 34.477873 ], [ -83.825696, 34.46874 ], [ -83.84693, 34.490364 ], [ -83.832831, 34.532307 ], [ -83.864449, 34.550593 ], [ -83.864456, 34.615581 ], [ -83.877418, 34.62866 ], [ -83.856506, 34.722191 ], [ -83.823416, 34.731171 ], [ -83.730438, 34.673039 ], [ -83.667559, 34.676586 ], [ -83.666357, 34.660143 ], [ -83.645447, 34.668804 ], [ -83.623296, 34.732194 ], [ -83.628295, 34.763394 ], [ -83.681696, 34.800293 ], [ -83.652227, 34.822232 ], [ -83.661672, 34.848157 ], [ -83.645091, 34.891392 ], [ -83.626589, 34.910092 ], [ -83.597094, 34.913682 ], [ -83.60159, 34.938342 ], [ -83.546883, 34.946492 ], [ -83.549381, 34.992492 ], [ -83.108614, 35.000659 ], [ -83.098244, 34.990822 ], [ -83.121979, 34.964757 ], [ -83.11412, 34.950184 ], [ -83.127624, 34.949829 ], [ -83.111755, 34.934963 ], [ -83.127312, 34.938633 ], [ -83.141518, 34.924515 ], [ -83.156891, 34.930767 ], [ -83.15699, 34.915123 ], [ -83.168607, 34.919355 ], [ -83.205261, 34.880165 ], [ -83.214027, 34.888569 ], [ -83.220131, 34.878036 ], [ -83.242996, 34.877537 ], [ -83.234703, 34.870743 ], [ -83.248092, 34.865577 ], [ -83.248927, 34.845141 ], [ -83.267196, 34.848469 ], [ -83.270882, 34.818588 ], [ -83.305618, 34.816517 ], [ -83.300842, 34.804344 ], [ -83.324142, 34.789246 ], [ -83.318748, 34.757626 ], [ -83.353325, 34.728691 ], [ -83.353622, 34.697792 ], [ -83.255281, 34.637696 ], [ -83.23258, 34.611597 ], [ -83.159677, 34.603298 ], [ -83.170978, 34.598098 ], [ -83.158677, 34.578999 ], [ -83.034565, 34.483571 ], [ -82.995901, 34.472204 ], [ -82.964241, 34.484571 ], [ -82.887398, 34.480959 ], [ -82.858837, 34.45522 ], [ -82.834457, 34.365221 ], [ -82.79447, 34.340379 ], [ -82.782128, 34.298278 ], [ -82.746811, 34.266588 ], [ -82.731695, 34.177807 ], [ -82.83065, 34.223411 ], [ -82.862199, 34.170258 ], [ -82.861715, 34.145178 ], [ -82.839622, 34.142254 ], [ -82.81106, 34.11506 ], [ -82.819272, 34.0976 ], [ -82.873098, 34.08709 ], [ -82.890899, 34.063207 ], [ -82.914003, 34.100168 ], [ -82.880409, 34.121102 ], [ -82.866961, 34.148702 ], [ -82.961216, 34.211599 ], [ -82.997955, 34.220548 ], [ -82.989193, 34.173106 ], [ -83.03104, 34.113309 ], [ -83.067779, 34.154934 ], [ -83.143485, 34.163734 ], [ -83.163067, 34.139349 ], [ -83.161681, 34.11025 ], [ -83.130885, 34.107508 ], [ -83.168542, 34.06551 ], [ -83.127523, 34.045952 ], [ -83.212004, 34.002774 ], [ -83.237006, 34.013557 ], [ -83.268992, 34.000604 ], [ -83.265735, 33.963792 ], [ -83.277595, 33.946472 ], [ -83.243254, 33.900532 ], [ -83.31411, 33.904304 ], [ -83.337159, 33.927828 ], [ -83.3897, 33.879315 ], [ -83.413338, 33.885498 ], [ -83.422062, 33.870129 ], [ -83.450488, 33.912007 ], [ -83.481309, 33.889008 ], [ -83.485592, 33.898047 ], [ -83.50182, 33.893022 ], [ -83.522954, 33.902535 ], [ -83.52004, 33.918502 ], [ -83.550789, 33.916389 ], [ -83.570786, 33.947936 ], [ -83.612972, 33.924919 ], [ -83.66391, 33.959424 ], [ -83.735258, 33.933222 ], [ -83.750837, 33.938934 ], [ -83.739106, 33.913462 ], [ -83.721336, 33.907745 ] ] ] } },
{ "type": "Feature", "properties": { "district_id": 1, "voting_age_pop": 514835, "lib_votes": 0, "grn_votes": 0, "con_votes": 0, "ref_votes": 0, "total_pop": 704986, "dem_votes_sum": 152622, "rep_votes_sum": 173749, "lib_votes_sum": 0, "grn_votes_sum": 0, "con_votes_sum": 0, "ref_votes_sum": 0, "minority_pop_sum": 81906, "dem_pct": 0.46763346008070572, "rep_pct": 0.53236653991929428, "lib_pct": 0.0, "grn_pct": 0.0, "con_pct": 0.0, "ref_pct": 0.0, "minority_pct": 0.11618103054528743, "compactness": 0.16529365503999874 }, "geometry": { "type": "MultiPolygon", "coordinates": [ [ [ [ -84.361789, 33.910303 ], [ -84.382741, 33.855816 ], [ -84.413656, 33.878369 ], [ -84.443087, 33.879216 ], [ -84.442139, 33.900953 ], [ -84.464656, 33.906538 ], [ -84.461379, 33.938958 ], [ -84.497319, 33.952023 ], [ -84.49067, 33.965177 ], [ -84.502503, 33.966575 ], [ -84.509789, 33.965159 ], [ -84.513805, 33.962524 ], [ -84.498565, 33.976181 ], [ -84.484874, 33.976501 ], [ -84.488024, 34.007908 ], [ -84.510512, 34.017782 ], [ -84.509469, 34.039566 ], [ -84.477114, 34.041542 ], [ -84.460529, 34.074198 ], [ -84.418927, 34.073298 ], [ -84.418428, 34.109043 ], [ -84.387527, 34.119724 ], [ -84.329873, 34.111124 ], [ -84.340005, 34.078414 ], [ -84.293632, 34.070815 ], [ -84.283266, 34.055441 ], [ -84.26358, 34.085217 ], [ -84.279081, 34.099296 ], [ -84.264443, 34.098027 ], [ -84.260451, 34.109529 ], [ -84.270529, 34.1217 ], [ -84.258773, 34.127257 ], [ -84.2587, 34.201359 ], [ -84.229393, 34.171344 ], [ -84.203964, 34.196876 ], [ -84.193138, 34.179981 ], [ -84.166419, 34.188205 ], [ -84.15039, 34.180171 ], [ -84.135617, 34.192488 ], [ -84.152328, 34.189807 ], [ -84.156945, 34.216919 ], [ -84.137054, 34.222071 ], [ -84.153999, 34.225601 ], [ -84.120349, 34.233509 ], [ -84.104042, 34.226113 ], [ -84.125283, 34.19897 ], [ -84.121864, 34.192543 ], [ -84.118758, 34.193009 ], [ -84.117179, 34.192563 ], [ -84.117177, 34.193799 ], [ -84.116593, 34.194762 ], [ -84.115988, 34.19477 ], [ -84.11529, 34.19327 ], [ -84.114401, 34.194064 ], [ -84.113159, 34.194062 ], [ -84.108517, 34.192029 ], [ -84.108265, 34.19236 ], [ -84.109859, 34.193127 ], [ -84.109849, 34.193737 ], [ -84.100723, 34.199626 ], [ -84.10218, 34.20251 ], [ -84.096, 34.201641 ], [ -84.100219, 34.194614 ], [ -84.108495, 34.191947 ], [ -84.121817, 34.192416 ], [ -84.121658, 34.186958 ], [ -84.097007, 34.193737 ], [ -84.091888, 34.201301 ], [ -84.062246, 34.168446 ], [ -84.094805, 34.132223 ], [ -84.076896, 34.118744 ], [ -84.083563, 34.102761 ], [ -84.032148, 34.10347 ], [ -84.064682, 34.05756 ], [ -84.048254, 34.029894 ], [ -84.084042, 33.987432 ], [ -84.060561, 33.960497 ], [ -84.07949, 33.962469 ], [ -84.089056, 33.936472 ], [ -84.129928, 33.952163 ], [ -84.147444, 33.945127 ], [ -84.159404, 33.95845 ], [ -84.196486, 33.949024 ], [ -84.208457, 33.961024 ], [ -84.231703, 33.949023 ], [ -84.249618, 33.961675 ], [ -84.259424, 33.933183 ], [ -84.271066, 33.942506 ], [ -84.304987, 33.919832 ], [ -84.361789, 33.910303 ] ], [ [ -84.341438, 34.089486 ], [ -84.339538, 34.088458 ], [ -84.339535, 34.089998 ], [ -84.341438, 34.089486 ] ], [ [ -84.128869, 34.224811 ], [ -84.127899, 34.227443 ], [ -84.12944, 34.225086 ], [ -84.128869, 34.224811 ] ], [ [ -84.128614, 34.230471 ], [ -84.124476, 34.228379 ], [ -84.1261, 34.231559 ], [ -84.128614, 34.230471 ] ] ], [ [ [ -84.498229, 33.955336 ], [ -84.497201, 33.959092 ], [ -84.497422, 33.95531 ], [ -84.498229, 33.955336 ] ] ], [ [ [ -84.507099, 33.95196 ], [ -84.51394, 33.96197 ], [ -84.50078, 33.965023 ], [ -84.507099, 33.95196 ] ] ] ] } },
{ "type": "Feature", "properties": { "district_id": 2, "voting_age_pop": 495442, "lib_votes": 0, "grn_votes": 0, "con_votes": 0, "ref_votes": 0, "total_pop": 659560, "dem_votes_sum": 47813, "rep_votes_sum": 206992, "lib_votes_sum": 0, "grn_votes_sum": 0, "con_votes_sum": 0, "ref_votes_sum": 0, "minority_pop_sum": 18747, "dem_pct": 0.18764545436706501, "rep_pct": 0.81235454563293497, "lib_pct": 0.0, "grn_pct": 0.0, "con_pct": 0.0, "ref_pct": 0.0, "minority_pct": 0.028423494450846017, "compactness": 0.19186178982426053 }, "geometry": { "type": "MultiPolygon", "coordinates": [ [ [ [ -85.483265, 34.392963 ], [ -85.605165, 34.984678 ], [ -83.549381, 34.992492 ], [ -83.546883, 34.946492 ], [ -83.60159, 34.938342 ], [ -83.597094, 34.913682 ], [ -83.626589, 34.910092 ], [ -83.645091, 34.891392 ], [ -83.661672, 34.848157 ], [ -83.652227, 34.822232 ], [ -83.681696, 34.800293 ], [ -83.628295, 34.763394 ], [ -83.623296, 34.732194 ], [ -83.645447, 34.668804 ], [ -83.666357, 34.660143 ], [ -83.667559, 34.676586 ], [ -83.730438, 34.673039 ], [ -83.823664, 34.731189 ], [ -83.856506, 34.722191 ], [ -83.872507, 34.683092 ], [ -83.864449, 34.550593 ], [ -83.832831, 34.532307 ], [ -83.846656, 34.489793 ], [ -83.825696, 34.46874 ], [ -83.800807, 34.477873 ], [ -83.802756, 34.456584 ], [ -83.764704, 34.449127 ], [ -83.734368, 34.412677 ], [ -83.717551, 34.410736 ], [ -83.737228, 34.377477 ], [ -83.7675, 34.371988 ], [ -83.792249, 34.349933 ], [ -83.805706, 34.307383 ], [ -83.825121, 34.297553 ], [ -83.800371, 34.283517 ], [ -83.799651, 34.268868 ], [ -83.817591, 34.269305 ], [ -83.829666, 34.249746 ], [ -83.844603, 34.259643 ], [ -83.838102, 34.272514 ], [ -83.877392, 34.279996 ], [ -83.864285, 34.295613 ], [ -83.883801, 34.301581 ], [ -83.932625, 34.284927 ], [ -83.949836, 34.312305 ], [ -84.043457, 34.283016 ], [ -84.070236, 34.260158 ], [ -84.079681, 34.271667 ], [ -84.104598, 34.235328 ], [ -84.08979, 34.229698 ], [ -84.102375, 34.215934 ], [ -84.091888, 34.201301 ], [ -84.097007, 34.193737 ], [ -84.121658, 34.186958 ], [ -84.121817, 34.192416 ], [ -84.108495, 34.191947 ], [ -84.100219, 34.194614 ], [ -84.095993, 34.201763 ], [ -84.108517, 34.192029 ], [ -84.125283, 34.19897 ], [ -84.104042, 34.226113 ], [ -84.120349, 34.233509 ], [ -84.153549, 34.225929 ], [ -84.137054, 34.222071 ], [ -84.156945, 34.216919 ], [ -84.157045, 34.195924 ], [ -84.135617, 34.192488 ], [ -84.153495, 34.17974 ], [ -84.194725, 34.23941 ], [ -84.258689, 34.237094 ], [ -84.258529, 34.295047 ], [ -84.324992, 34.257875 ], [ -84.385762, 34.241469 ], [ -84.410793, 34.240689 ], [ -84.43504, 34.27014 ], [ -84.428564, 34.257996 ], [ -84.496338, 34.23993 ], [ -84.497063, 34.226012 ], [ -84.504428, 34.243887 ], [ -84.520991, 34.225828 ], [ -84.539481, 34.238068 ], [ -84.552842, 34.228847 ], [ -84.560957, 34.245876 ], [ -84.58475, 34.241807 ], [ -84.580143, 34.252778 ], [ -84.595454, 34.263364 ], [ -84.555499, 34.285239 ], [ -84.549831, 34.319489 ], [ -84.581709, 34.346577 ], [ -84.632466, 34.341546 ], [ -84.654038, 34.355176 ], [ -84.644532, 34.462989 ], [ -84.657442, 34.518448 ], [ -84.692553, 34.517182 ], [ -84.728628, 34.533612 ], [ -84.764631, 34.51873 ], [ -84.779125, 34.551916 ], [ -84.823827, 34.550964 ], [ -84.854183, 34.576297 ], [ -84.890327, 34.560656 ], [ -84.868442, 34.543472 ], [ -84.888917, 34.53284 ], [ -84.855845, 34.50686 ], [ -84.884749, 34.499987 ], [ -84.901246, 34.456675 ], [ -84.914627, 34.467778 ], [ -84.915927, 34.455603 ], [ -84.919093, 34.457278 ], [ -84.918629, 34.468227 ], [ -84.914905, 34.468363 ], [ -84.925563, 34.468144 ], [ -84.920664, 34.42975 ], [ -84.926918, 34.449662 ], [ -84.931946, 34.442573 ], [ -84.947366, 34.451988 ], [ -84.941841, 34.463853 ], [ -84.935718, 34.449722 ], [ -84.926138, 34.456033 ], [ -84.951119, 34.481313 ], [ -84.948404, 34.457304 ], [ -85.000727, 34.462508 ], [ -85.031224, 34.453317 ], [ -85.031621, 34.475064 ], [ -84.997253, 34.466742 ], [ -84.9955, 34.476632 ], [ -85.013482, 34.505774 ], [ -85.070698, 34.524374 ], [ -85.069159, 34.587184 ], [ -85.107748, 34.587483 ], [ -85.141049, 34.525685 ], [ -85.166454, 34.517511 ], [ -85.177073, 34.490638 ], [ -85.192035, 34.505237 ], [ -85.184998, 34.518688 ], [ -85.215301, 34.50657 ], [ -85.261517, 34.528418 ], [ -85.330028, 34.422147 ], [ -85.34046, 34.417291 ], [ -85.353782, 34.433768 ], [ -85.372437, 34.427213 ], [ -85.37889, 34.437647 ], [ -85.390514, 34.421597 ], [ -85.406662, 34.437807 ], [ -85.425239, 34.41059 ], [ -85.449226, 34.417881 ], [ -85.483265, 34.392963 ] ], [ [ -84.933789, 34.475127 ], [ -84.933091, 34.474662 ], [ -84.93309, 34.475107 ], [ -84.933789, 34.475127 ] ], [ [ -84.925569, 34.456918 ], [ -84.925912, 34.456636 ], [ -84.925563, 34.456636 ], [ -84.925569, 34.456918 ] ], [ [ -84.915826, 34.457553 ], [ -84.916634, 34.459248 ], [ -84.916659, 34.457551 ], [ -84.915826, 34.457553 ] ], [ [ -84.933732, 34.46926 ], [ -84.931456, 34.471802 ], [ -84.933743, 34.471506 ], [ -84.933732, 34.46926 ] ] ], [ [ [ -84.951647, 34.451937 ], [ -84.951255, 34.441674 ], [ -84.96236, 34.440821 ], [ -84.962216, 34.44853 ], [ -84.951647, 34.451937 ] ] ], [ [ [ -84.947538, 34.453799 ], [ -84.947909, 34.453172 ], [ -84.94785, 34.453815 ], [ -84.947538, 34.453799 ] ] ], [ [ [ -84.949849, 34.453949 ], [ -84.948304, 34.454678 ], [ -84.948254, 34.453693 ], [ -84.949849, 34.453949 ] ] ], [ [ [ -84.934994, 34.455941 ], [ -84.935419, 34.45799 ], [ -84.934481, 34.459031 ], [ -84.934994, 34.455941 ] ] ], [ [ [ -84.934486, 34.430032 ], [ -84.932095, 34.441918 ], [ -84.931816, 34.429772 ], [ -84.934486, 34.430032 ] ] ], [ [ [ -84.917695, 34.432176 ], [ -84.914684, 34.441692 ], [ -84.915673, 34.430753 ], [ -84.917695, 34.432176 ] ] ], [ [ [ -84.917521, 34.445902 ], [ -84.919599, 34.442458 ], [ -84.919499, 34.445908 ], [ -84.917521, 34.445902 ] ] ], [ [ [ -84.913029, 34.465756 ], [ -84.911969, 34.46416 ], [ -84.912862, 34.463533 ], [ -84.913029, 34.465756 ] ] ], [ [ [ -84.128869, 34.224811 ], [ -84.127899, 34.227443 ], [ -84.126228, 34.226234 ], [ -84.128869, 34.224811 ] ] ], [ [ [ -84.126803, 34.228627 ], [ -84.125019, 34.231447 ], [ -84.125131, 34.227388 ], [ -84.126803, 34.228627 ] ] ] ] } },
{ "type": "Feature", "properties": { "district_id": 3, "voting_age_pop": 509652, "lib_votes": 0, "grn_votes": 0, "con_votes": 0, "ref_votes": 0, "total_pop": 685790, "dem_votes_sum": 109968, "rep_votes_sum": 168105, "lib_votes_sum": 0, "grn_votes_sum": 0, "con_votes_sum": 0, "ref_votes_sum": 0, "minority_pop_sum": 212041, "dem_pct": 0.39546450032905028, "rep_pct": 0.60453549967094966, "lib_pct": 0.0, "grn_pct": 0.0, "con_pct": 0.0, "ref_pct": 0.0, "minority_pct": 0.30919231834818239, "compactness": 0.17100409506511588 }, "geometry": { "type": "Polygon", "coordinates": [ [ [ -84.973818, 32.379873 ], [ -84.98841, 32.385216 ], [ -84.96873, 32.391457 ], [ -84.980954, 32.406064 ], [ -84.96303, 32.424244 ], [ -84.99533, 32.453243 ], [ -85.001532, 32.514741 ], [ -85.067535, 32.579546 ], [ -85.090886, 32.625135 ], [ -85.083118, 32.636161 ], [ -85.104532, 32.641011 ], [ -85.088483, 32.657758 ], [ -85.117037, 32.692033 ], [ -85.113329, 32.735751 ], [ -85.142987, 32.759934 ], [ -85.122326, 32.774383 ], [ -85.168048, 32.811841 ], [ -85.156289, 32.850524 ], [ -85.1844, 32.861317 ], [ -85.26817, 33.295223 ], [ -85.254123, 33.27803 ], [ -85.220793, 33.281551 ], [ -85.183324, 33.311642 ], [ -85.172638, 33.344332 ], [ -85.138833, 33.318917 ], [ -85.11588, 33.320891 ], [ -85.102046, 33.2982 ], [ -85.079118, 33.304226 ], [ -85.062323, 33.359553 ], [ -85.043354, 33.366126 ], [ -85.059737, 33.376904 ], [ -85.033418, 33.38921 ], [ -85.013199, 33.429828 ], [ -84.985154, 33.442691 ], [ -84.986211, 33.456465 ], [ -84.961372, 33.460436 ], [ -84.992569, 33.46015 ], [ -84.995394, 33.469535 ], [ -84.965089, 33.486646 ], [ -84.967456, 33.513323 ], [ -84.940914, 33.529491 ], [ -84.950182, 33.545611 ], [ -84.908445, 33.549883 ], [ -84.913065, 33.558314 ], [ -84.886858, 33.573423 ], [ -84.905788, 33.573378 ], [ -84.903607, 33.638831 ], [ -84.885221, 33.625776 ], [ -84.862627, 33.645664 ], [ -84.821051, 33.653605 ], [ -84.781269, 33.610632 ], [ -84.808284, 33.578896 ], [ -84.784814, 33.563631 ], [ -84.741907, 33.567033 ], [ -84.745027, 33.54504 ], [ -84.729028, 33.532747 ], [ -84.720955, 33.548375 ], [ -84.673729, 33.540314 ], [ -84.681082, 33.522347 ], [ -84.699748, 33.527939 ], [ -84.721003, 33.510895 ], [ -84.699835, 33.511369 ], [ -84.699747, 33.519964 ], [ -84.654859, 33.5114 ], [ -84.671374, 33.506068 ], [ -84.700439, 33.450207 ], [ -84.691835, 33.437587 ], [ -84.657102, 33.447955 ], [ -84.630649, 33.415929 ], [ -84.619476, 33.418331 ], [ -84.618126, 33.442428 ], [ -84.557924, 33.445915 ], [ -84.559622, 33.416358 ], [ -84.582181, 33.395623 ], [ -84.54323, 33.367817 ], [ -84.531055, 33.382686 ], [ -84.49508, 33.313874 ], [ -84.507523, 33.278568 ], [ -84.497527, 33.257422 ], [ -84.432907, 33.2565 ], [ -84.419098, 33.293552 ], [ -84.384079, 33.319468 ], [ -84.388118, 33.352465 ], [ -84.3544, 33.352514 ], [ -84.353824, 33.397291 ], [ -84.282878, 33.386846 ], [ -84.250522, 33.419034 ], [ -84.246173, 33.395888 ], [ -84.215579, 33.406006 ], [ -84.212457, 33.39402 ], [ -84.219385, 33.377607 ], [ -84.247123, 33.370914 ], [ -84.247269, 33.335813 ], [ -84.150581, 33.335639 ], [ -84.150909, 33.312982 ], [ -84.134704, 33.307628 ], [ -84.164852, 33.288094 ], [ -84.189793, 33.292712 ], [ -84.190519, 33.245216 ], [ -84.135277, 33.23137 ], [ -84.123152, 33.242748 ], [ -84.123767, 33.202824 ], [ -83.841127, 33.196061 ], [ -83.822261, 33.180238 ], [ -83.813919, 33.147633 ], [ -83.826162, 33.106047 ], [ -83.859538, 33.070728 ], [ -83.853469, 32.997874 ], [ -83.747301, 32.930892 ], [ -83.791989, 32.907677 ], [ -83.687921, 32.815437 ], [ -83.725869, 32.809738 ], [ -83.710398, 32.765312 ], [ -83.752776, 32.799301 ], [ -83.793596, 32.790267 ], [ -83.778506, 32.771842 ], [ -83.793389, 32.755802 ], [ -83.775158, 32.754502 ], [ -83.777355, 32.734569 ], [ -83.765901, 32.731273 ], [ -83.776874, 32.718809 ], [ -83.810211, 32.729591 ], [ -83.850634, 32.770142 ], [ -83.857083, 32.793959 ], [ -83.89185, 32.81908 ], [ -83.891922, 32.848351 ], [ -83.968421, 32.84886 ], [ -83.968309, 32.857136 ], [ -83.978409, 32.848936 ], [ -84.124275, 32.849562 ], [ -84.12488, 32.819615 ], [ -84.341997, 32.768765 ], [ -84.316147, 32.755536 ], [ -84.301015, 32.76115 ], [ -84.288749, 32.736151 ], [ -84.33794, 32.720647 ], [ -84.338884, 32.679043 ], [ -84.364243, 32.679364 ], [ -84.374617, 32.637355 ], [ -84.408378, 32.610503 ], [ -84.408866, 32.561923 ], [ -84.444353, 32.562083 ], [ -84.453154, 32.534336 ], [ -84.433542, 32.518694 ], [ -84.433619, 32.493243 ], [ -84.407808, 32.485267 ], [ -84.408578, 32.443949 ], [ -84.392117, 32.435347 ], [ -84.392316, 32.414046 ], [ -84.381817, 32.428047 ], [ -84.362416, 32.428047 ], [ -84.353116, 32.38505 ], [ -84.343714, 32.397751 ], [ -84.323315, 32.39785 ], [ -84.323815, 32.37245 ], [ -84.254613, 32.372053 ], [ -84.255912, 32.296156 ], [ -84.219211, 32.295057 ], [ -84.220144, 32.23115 ], [ -84.181657, 32.229703 ], [ -84.183569, 32.158493 ], [ -84.430215, 32.166257 ], [ -84.431214, 32.134058 ], [ -84.527117, 32.134556 ], [ -84.545692, 32.175232 ], [ -84.56469, 32.175136 ], [ -84.564316, 32.189847 ], [ -84.600523, 32.190736 ], [ -84.620621, 32.233055 ], [ -84.649319, 32.232953 ], [ -84.63112, 32.184054 ], [ -84.65162, 32.160154 ], [ -84.643557, 32.037005 ], [ -84.654119, 32.028458 ], [ -84.655173, 31.984355 ], [ -84.644805, 31.984316 ], [ -84.655189, 31.977063 ], [ -84.645131, 31.969719 ], [ -84.65582, 31.920308 ], [ -84.685706, 31.928983 ], [ -84.685518, 31.920314 ], [ -84.74362, 31.921507 ], [ -84.743803, 31.95664 ], [ -84.774646, 31.962509 ], [ -84.77997, 32.015134 ], [ -84.7512, 32.012859 ], [ -84.742302, 32.052394 ], [ -84.720583, 32.06752 ], [ -84.729721, 32.095931 ], [ -84.768933, 32.110872 ], [ -84.798942, 32.098124 ], [ -84.840566, 32.102016 ], [ -84.874964, 32.142336 ], [ -84.907617, 32.149771 ], [ -84.901981, 32.161412 ], [ -84.942072, 32.217951 ], [ -84.913627, 32.241251 ], [ -84.924427, 32.250149 ], [ -84.888519, 32.260869 ], [ -84.934648, 32.298916 ], [ -85.005351, 32.32504 ], [ -85.004582, 32.345196 ], [ -84.973818, 32.379873 ] ], [ [ -84.363216, 32.397649 ], [ -84.372716, 32.38935 ], [ -84.362916, 32.389449 ], [ -84.363216, 32.397649 ] ] ] } },
{ "type": "Feature", "properties": { "district_id": 4, "voting_age_pop": 527406, "lib_votes": 0, "grn_votes": 0, "con_votes": 0, "ref_votes": 0, "total_pop": 705059, "dem_votes_sum": 103315, "rep_votes_sum": 147007, "lib_votes_sum": 0, "grn_votes_sum": 0, "con_votes_sum": 0, "ref_votes_sum": 0, "minority_pop_sum": 278942, "dem_pct": 0.41272840581331244, "rep_pct": 0.58727159418668751, "lib_pct": 0.0, "grn_pct": 0.0, "con_pct": 0.0, "ref_pct": 0.0, "minority_pct": 0.39562930194494361, "compactness": 0.26628985449440612 }, "geometry": { "type": "MultiPolygon", "coordinates": [ [ [ [ -83.136614, 30.623967 ], [ -84.864693, 30.711542 ], [ -84.896122, 30.750591 ], [ -84.913522, 30.752291 ], [ -84.937424, 30.820889 ], [ -84.925665, 30.842685 ], [ -84.934424, 30.883588 ], [ -84.983127, 30.934786 ], [ -84.982527, 30.965586 ], [ -85.005734, 30.975908 ], [ -84.999428, 31.013844 ], [ -85.035615, 31.108192 ], [ -85.076628, 31.156927 ], [ -85.100207, 31.16549 ], [ -85.107516, 31.186451 ], [ -85.096763, 31.225651 ], [ -85.114601, 31.277333 ], [ -85.089774, 31.295026 ], [ -85.092327, 31.364049 ], [ -85.041361, 31.542495 ], [ -85.05796, 31.57084 ], [ -85.058169, 31.620227 ], [ -85.086229, 31.638567 ], [ -85.079129, 31.654766 ], [ -85.12553, 31.694965 ], [ -85.11893, 31.732664 ], [ -85.12553, 31.767863 ], [ -85.141831, 31.781263 ], [ -85.131231, 31.815262 ], [ -85.140731, 31.857461 ], [ -85.134131, 31.89216 ], [ -85.11203, 31.89476 ], [ -85.113131, 31.911859 ], [ -85.07893, 31.940159 ], [ -85.08673, 31.959158 ], [ -85.067829, 31.967358 ], [ -85.048825, 32.021701 ], [ -85.05883, 32.046956 ], [ -85.044761, 32.085836 ], [ -85.061907, 32.132863 ], [ -85.011267, 32.180493 ], [ -84.963728, 32.195852 ], [ -84.975228, 32.216251 ], [ -84.942072, 32.217951 ], [ -84.901981, 32.161412 ], [ -84.907617, 32.149771 ], [ -84.874964, 32.142336 ], [ -84.840566, 32.102016 ], [ -84.798942, 32.098124 ], [ -84.768933, 32.110872 ], [ -84.729721, 32.095931 ], [ -84.720583, 32.06752 ], [ -84.742302, 32.052394 ], [ -84.7512, 32.012859 ], [ -84.77997, 32.015134 ], [ -84.774646, 31.962509 ], [ -84.743803, 31.95664 ], [ -84.74362, 31.921507 ], [ -84.685518, 31.920314 ], [ -84.685706, 31.928983 ], [ -84.65582, 31.920308 ], [ -84.645131, 31.969719 ], [ -84.655189, 31.977063 ], [ -84.644805, 31.984316 ], [ -84.655173, 31.984355 ], [ -84.654119, 32.028458 ], [ -84.643557, 32.037005 ], [ -84.65162, 32.160154 ], [ -84.63112, 32.184054 ], [ -84.649319, 32.232953 ], [ -84.620621, 32.233055 ], [ -84.600523, 32.190736 ], [ -84.564316, 32.189847 ], [ -84.56469, 32.175136 ], [ -84.545692, 32.175232 ], [ -84.527117, 32.134556 ], [ -84.431214, 32.134058 ], [ -84.430215, 32.166257 ], [ -84.183569, 32.158493 ], [ -84.181657, 32.229703 ], [ -84.220144, 32.23115 ], [ -84.219211, 32.295057 ], [ -84.255912, 32.296156 ], [ -84.254313, 32.395572 ], [ -84.197912, 32.400852 ], [ -84.122347, 32.505921 ], [ -84.05331, 32.522021 ], [ -84.020795, 32.497264 ], [ -84.015308, 32.460572 ], [ -83.978985, 32.472949 ], [ -83.956108, 32.462707 ], [ -84.019535, 32.417009 ], [ -84.015242, 32.383124 ], [ -83.996742, 32.372135 ], [ -84.015097, 32.3104 ], [ -83.994446, 32.31505 ], [ -84.005323, 32.293325 ], [ -83.92487, 32.300227 ], [ -83.924481, 32.341599 ], [ -83.882405, 32.346096 ], [ -83.877865, 32.325705 ], [ -83.847286, 32.33797 ], [ -83.848379, 32.29097 ], [ -83.828472, 32.28984 ], [ -83.809834, 32.263238 ], [ -83.814231, 32.228955 ], [ -83.778687, 32.211534 ], [ -83.747594, 32.212831 ], [ -83.7499, 32.196869 ], [ -83.71418, 32.226519 ], [ -83.700706, 32.216213 ], [ -83.715126, 32.216234 ], [ -83.713582, 32.205544 ], [ -83.692843, 32.186135 ], [ -83.713122, 32.123413 ], [ -83.76084, 32.123098 ], [ -83.773852, 32.136541 ], [ -83.808941, 32.13152 ], [ -83.831323, 32.114649 ], [ -83.849606, 32.129053 ], [ -83.862321, 32.117261 ], [ -83.897524, 32.129806 ], [ -83.917963, 32.115425 ], [ -83.919207, 32.059187 ], [ -83.949465, 32.052577 ], [ -83.955806, 32.074315 ], [ -83.977411, 32.058742 ], [ -83.97989, 32.043979 ], [ -83.968411, 32.046055 ], [ -83.961278, 32.030595 ], [ -83.609663, 32.027938 ], [ -83.608547, 32.118405 ], [ -83.55102, 32.118139 ], [ -83.55083, 32.126165 ], [ -83.435657, 32.117244 ], [ -83.413091, 32.13326 ], [ -83.361113, 32.124092 ], [ -83.35887, 32.105947 ], [ -83.324559, 32.103985 ], [ -83.317539, 32.085534 ], [ -83.305863, 32.090092 ], [ -83.294796, 32.078446 ], [ -83.308496, 32.049171 ], [ -83.296439, 32.038522 ], [ -83.200452, 32.092036 ], [ -83.209566, 32.063369 ], [ -83.185937, 32.042859 ], [ -83.187314, 32.02283 ], [ -83.158481, 32.041874 ], [ -83.14064, 32.026158 ], [ -83.126852, 32.037649 ], [ -83.135209, 32.021569 ], [ -83.112527, 32.015605 ], [ -83.037645, 32.067133 ], [ -83.016784, 32.059704 ], [ -83.207583, 31.895912 ], [ -83.192476, 31.875073 ], [ -83.181191, 31.879202 ], [ -83.177469, 31.847857 ], [ -83.134605, 31.824115 ], [ -83.138659, 31.814446 ], [ -83.111557, 31.809195 ], [ -83.105892, 31.81908 ], [ -83.027966, 31.778291 ], [ -82.995698, 31.780983 ], [ -82.998794, 31.660467 ], [ -83.01342, 31.660801 ], [ -83.014174, 31.635715 ], [ -83.058807, 31.611212 ], [ -83.064965, 31.552821 ], [ -83.11166, 31.478229 ], [ -83.151087, 31.461552 ], [ -83.136033, 31.431151 ], [ -83.140686, 31.401941 ], [ -83.116341, 31.388655 ], [ -83.099709, 31.353949 ], [ -83.059567, 31.329857 ], [ -83.059011, 31.304228 ], [ -83.033468, 31.275041 ], [ -83.052192, 31.225468 ], [ -83.035106, 31.140242 ], [ -83.046191, 31.12018 ], [ -83.058599, 31.122515 ], [ -83.064906, 31.089718 ], [ -83.039397, 31.056808 ], [ -83.048054, 31.024937 ], [ -83.02098, 31.005323 ], [ -83.043189, 30.944994 ], [ -83.02037, 30.904337 ], [ -83.019419, 30.849453 ], [ -83.088082, 30.848658 ], [ -83.104365, 30.803703 ], [ -83.131508, 30.794191 ], [ -83.136614, 30.623967 ] ] ], [ [ [ -84.05331, 32.522021 ], [ -84.003363, 32.529927 ], [ -84.000687, 32.521015 ], [ -84.05331, 32.522021 ] ] ] ] } },
{ "type": "Feature", "properties": { "district_id": 5, "voting_age_pop": 486274, "lib_votes": 0, "grn_votes": 0, "con_votes": 0, "ref_votes": 0, "total_pop": 673248, "dem_votes_sum": 83362, "rep_votes_sum": 219081, "lib_votes_sum": 0, "grn_votes_sum": 0, "con_votes_sum": 0, "ref_votes_sum": 0, "minority_pop_sum": 67197, "dem_pct": 0.2756287961698568, "rep_pct": 0.7243712038301432, "lib_pct": 0.0, "grn_pct": 0.0, "con_pct": 0.0, "ref_pct": 0.0, "minority_pct": 0.099810173962640816, "compactness": 0.15679193739872602 }, "geometry": { "type": "MultiPolygon", "coordinates": [ [ [ [ -85.074749, 34.021419 ], [ -85.093059, 33.986578 ], [ -85.15469, 33.951527 ], [ -85.189612, 33.954201 ], [ -85.167023, 34.001918 ], [ -85.207647, 34.018093 ], [ -85.232721, 33.995342 ], [ -85.22619, 33.986189 ], [ -85.248745, 33.978187 ], [ -85.302392, 34.015039 ], [ -85.361297, 34.022897 ], [ -85.406798, 34.002574 ], [ -85.484369, 34.392938 ], [ -85.449226, 34.417881 ], [ -85.425239, 34.41059 ], [ -85.406662, 34.437807 ], [ -85.390514, 34.421597 ], [ -85.37889, 34.437647 ], [ -85.372437, 34.427213 ], [ -85.353782, 34.433768 ], [ -85.34046, 34.417291 ], [ -85.330028, 34.422147 ], [ -85.261517, 34.528418 ], [ -85.215301, 34.50657 ], [ -85.184998, 34.518688 ], [ -85.192035, 34.505237 ], [ -85.177073, 34.490638 ], [ -85.166454, 34.517511 ], [ -85.141049, 34.525685 ], [ -85.107748, 34.587483 ], [ -85.069159, 34.587184 ], [ -85.070698, 34.524374 ], [ -85.013482, 34.505774 ], [ -84.9955, 34.476632 ], [ -84.997253, 34.466742 ], [ -85.031621, 34.475064 ], [ -85.031224, 34.453317 ], [ -85.000727, 34.462508 ], [ -84.948404, 34.457304 ], [ -84.958819, 34.47884 ], [ -84.948188, 34.480682 ], [ -84.926138, 34.456033 ], [ -84.935718, 34.449722 ], [ -84.941841, 34.463853 ], [ -84.947366, 34.451988 ], [ -84.931946, 34.442573 ], [ -84.926918, 34.449662 ], [ -84.927631, 34.429905 ], [ -84.92066, 34.429821 ], [ -84.925563, 34.468144 ], [ -84.917988, 34.470732 ], [ -84.914905, 34.468363 ], [ -84.918629, 34.468227 ], [ -84.919093, 34.457278 ], [ -84.915927, 34.455603 ], [ -84.914627, 34.467778 ], [ -84.901246, 34.456675 ], [ -84.884749, 34.499987 ], [ -84.855845, 34.50686 ], [ -84.88911, 34.533308 ], [ -84.868683, 34.541095 ], [ -84.890241, 34.558616 ], [ -84.874026, 34.574249 ], [ -84.850954, 34.57538 ], [ -84.819954, 34.549987 ], [ -84.779125, 34.551916 ], [ -84.764631, 34.51873 ], [ -84.728628, 34.533612 ], [ -84.692553, 34.517182 ], [ -84.657695, 34.518669 ], [ -84.644532, 34.462989 ], [ -84.654038, 34.355176 ], [ -84.632466, 34.341546 ], [ -84.581709, 34.346577 ], [ -84.549831, 34.319489 ], [ -84.555499, 34.285239 ], [ -84.595454, 34.263364 ], [ -84.580143, 34.252778 ], [ -84.584627, 34.241753 ], [ -84.56138, 34.246011 ], [ -84.552842, 34.228847 ], [ -84.539481, 34.238068 ], [ -84.52147, 34.225753 ], [ -84.504428, 34.243887 ], [ -84.497063, 34.226012 ], [ -84.496338, 34.23993 ], [ -84.428564, 34.257996 ], [ -84.434699, 34.270142 ], [ -84.410793, 34.240689 ], [ -84.386157, 34.241394 ], [ -84.324992, 34.257875 ], [ -84.258529, 34.295047 ], [ -84.258689, 34.237094 ], [ -84.194725, 34.23941 ], [ -84.16333, 34.204528 ], [ -84.172821, 34.198822 ], [ -84.161552, 34.188205 ], [ -84.193138, 34.179981 ], [ -84.204383, 34.196807 ], [ -84.229393, 34.171344 ], [ -84.2587, 34.201359 ], [ -84.258773, 34.127257 ], [ -84.270529, 34.1217 ], [ -84.260451, 34.109529 ], [ -84.264443, 34.098027 ], [ -84.279081, 34.099296 ], [ -84.26358, 34.085217 ], [ -84.283266, 34.055441 ], [ -84.293632, 34.070815 ], [ -84.340005, 34.078414 ], [ -84.329873, 34.111124 ], [ -84.387107, 34.119744 ], [ -84.418428, 34.109043 ], [ -84.418927, 34.073298 ], [ -84.460529, 34.074198 ], [ -84.477114, 34.041542 ], [ -84.527325, 34.032192 ], [ -84.541916, 34.051482 ], [ -84.527327, 34.049285 ], [ -84.521992, 34.075399 ], [ -84.571683, 34.076299 ], [ -84.580609, 34.056556 ], [ -84.592774, 34.060679 ], [ -84.588432, 34.076599 ], [ -84.623486, 34.081433 ], [ -84.593893, 34.053826 ], [ -84.605212, 34.044567 ], [ -84.616306, 34.053201 ], [ -84.616803, 33.977701 ], [ -84.628743, 33.991964 ], [ -84.644125, 33.97857 ], [ -84.639327, 33.96764 ], [ -84.663715, 33.966121 ], [ -84.661633, 33.95244 ], [ -84.703044, 33.940434 ], [ -84.708026, 33.958752 ], [ -84.725785, 33.959335 ], [ -84.723534, 33.934863 ], [ -84.778785, 33.909215 ], [ -84.824642, 33.909058 ], [ -84.834859, 33.895169 ], [ -84.855242, 33.906127 ], [ -84.889422, 33.893272 ], [ -84.894037, 33.875265 ], [ -84.926355, 33.890023 ], [ -84.916655, 33.933548 ], [ -84.901967, 33.932703 ], [ -84.906868, 33.955523 ], [ -84.939939, 33.983704 ], [ -84.966329, 33.981015 ], [ -84.948108, 34.025175 ], [ -85.009564, 34.037173 ], [ -85.074749, 34.021419 ] ], [ [ -84.934995, 34.439199 ], [ -84.931816, 34.429772 ], [ -84.932095, 34.441918 ], [ -84.934995, 34.439199 ] ], [ [ -84.96236, 34.440821 ], [ -84.956386, 34.454133 ], [ -84.962216, 34.44853 ], [ -84.96236, 34.440821 ] ], [ [ -84.937781, 34.456944 ], [ -84.934994, 34.455941 ], [ -84.934481, 34.459031 ], [ -84.937781, 34.456944 ] ], [ [ -84.915673, 34.430753 ], [ -84.914684, 34.441692 ], [ -84.917263, 34.441849 ], [ -84.915673, 34.430753 ] ], [ [ -84.948304, 34.454678 ], [ -84.949849, 34.453949 ], [ -84.948254, 34.453693 ], [ -84.948304, 34.454678 ] ], [ [ -84.947538, 34.453799 ], [ -84.947909, 34.453172 ], [ -84.947704, 34.453092 ], [ -84.947538, 34.453799 ] ], [ [ -84.919599, 34.442458 ], [ -84.917521, 34.445902 ], [ -84.919499, 34.445908 ], [ -84.919599, 34.442458 ] ], [ [ -84.912979, 34.465093 ], [ -84.912862, 34.463533 ], [ -84.911969, 34.46416 ], [ -84.912979, 34.465093 ] ] ], [ [ [ -84.925569, 34.456918 ], [ -84.925912, 34.456636 ], [ -84.925918, 34.456912 ], [ -84.925569, 34.456918 ] ] ], [ [ [ -84.915826, 34.457553 ], [ -84.916634, 34.459248 ], [ -84.915792, 34.459294 ], [ -84.915826, 34.457553 ] ] ], [ [ [ -84.93141, 34.469304 ], [ -84.933743, 34.471506 ], [ -84.931456, 34.471802 ], [ -84.93141, 34.469304 ] ] ], [ [ [ -84.933091, 34.474662 ], [ -84.933789, 34.475127 ], [ -84.93309, 34.475107 ], [ -84.933091, 34.474662 ] ] ], [ [ [ -84.341438, 34.089486 ], [ -84.339538, 34.088458 ], [ -84.341272, 34.086704 ], [ -84.341438, 34.089486 ] ] ] ] } },
{ "type": "Feature", "properties": { "district_id": 6, "voting_age_pop": 517179, "lib_votes": 0, "grn_votes": 0, "con_votes": 0, "ref_votes": 0, "total_pop": 665582, "dem_votes_sum": 196923, "rep_votes_sum": 94058, "lib_votes_sum": 0, "grn_votes_sum": 0, "con_votes_sum": 0, "ref_votes_sum": 0, "minority_pop_sum": 224957, "dem_pct": 0.67675552699317143, "rep_pct": 0.32324447300682863, "lib_pct": 0.0, "grn_pct": 0.0, "con_pct": 0.0, "ref_pct": 0.0, "minority_pct": 0.33798540224945989, "compactness": 0.071759484075696808 }, "geometry": { "type": "Polygon", "coordinates": [ [ [ -84.624525, 33.833484 ], [ -84.657163, 33.859688 ], [ -84.673576, 33.845068 ], [ -84.676384, 33.88548 ], [ -84.663715, 33.966121 ], [ -84.639327, 33.96764 ], [ -84.644125, 33.97857 ], [ -84.628743, 33.991964 ], [ -84.616803, 33.977701 ], [ -84.616306, 34.053201 ], [ -84.605212, 34.044567 ], [ -84.593893, 34.053826 ], [ -84.623486, 34.081433 ], [ -84.588432, 34.076599 ], [ -84.592774, 34.060679 ], [ -84.580609, 34.056556 ], [ -84.571683, 34.076299 ], [ -84.521992, 34.075399 ], [ -84.540173, 34.035719 ], [ -84.509469, 34.039566 ], [ -84.510512, 34.017782 ], [ -84.486251, 34.004001 ], [ -84.485981, 33.973084 ], [ -84.498371, 33.976267 ], [ -84.513805, 33.962524 ], [ -84.509789, 33.965159 ], [ -84.502503, 33.966575 ], [ -84.49067, 33.965177 ], [ -84.497319, 33.952023 ], [ -84.461379, 33.938958 ], [ -84.464656, 33.906538 ], [ -84.442139, 33.900953 ], [ -84.443087, 33.879216 ], [ -84.413656, 33.878369 ], [ -84.382649, 33.855806 ], [ -84.379787, 33.878149 ], [ -84.348495, 33.8823 ], [ -84.348223, 33.854272 ], [ -84.325501, 33.876525 ], [ -84.326495, 33.861643 ], [ -84.309451, 33.865356 ], [ -84.313176, 33.840573 ], [ -84.289407, 33.85677 ], [ -84.270291, 33.854797 ], [ -84.274518, 33.833981 ], [ -84.311886, 33.837503 ], [ -84.302814, 33.822429 ], [ -84.27396, 33.826313 ], [ -84.287118, 33.815087 ], [ -84.275429, 33.805391 ], [ -84.26062, 33.81122 ], [ -84.257672, 33.799438 ], [ -84.299793, 33.791506 ], [ -84.295992, 33.753638 ], [ -84.320562, 33.7394 ], [ -84.300277, 33.719102 ], [ -84.290623, 33.751205 ], [ -84.269475, 33.738238 ], [ -84.230871, 33.737228 ], [ -84.243235, 33.714914 ], [ -84.218477, 33.706974 ], [ -84.250589, 33.687183 ], [ -84.23681, 33.66391 ], [ -84.223576, 33.665121 ], [ -84.238261, 33.628975 ], [ -84.224701, 33.60668 ], [ -84.253564, 33.600534 ], [ -84.281273, 33.647411 ], [ -84.323638, 33.647241 ], [ -84.301954, 33.66049 ], [ -84.30795, 33.679612 ], [ -84.329743, 33.68172 ], [ -84.349808, 33.663842 ], [ -84.356178, 33.689415 ], [ -84.392217, 33.699343 ], [ -84.393399, 33.719463 ], [ -84.361264, 33.731251 ], [ -84.363763, 33.75325 ], [ -84.358361, 33.754203 ], [ -84.355531, 33.755326 ], [ -84.353391, 33.756786 ], [ -84.362629, 33.757919 ], [ -84.32989, 33.773474 ], [ -84.348325, 33.782605 ], [ -84.348506, 33.825117 ], [ -84.395029, 33.797344 ], [ -84.450727, 33.827004 ], [ -84.480134, 33.817319 ], [ -84.490038, 33.82577 ], [ -84.495126, 33.808542 ], [ -84.512063, 33.798745 ], [ -84.515799, 33.803576 ], [ -84.497628, 33.823472 ], [ -84.510379, 33.827739 ], [ -84.549692, 33.826786 ], [ -84.561694, 33.814315 ], [ -84.576304, 33.818411 ], [ -84.58537, 33.847181 ], [ -84.624525, 33.833484 ] ], [ [ -84.509415, 33.807173 ], [ -84.508183, 33.806845 ], [ -84.50829, 33.807999 ], [ -84.509415, 33.807173 ] ], [ [ -84.499199, 33.95812 ], [ -84.49701, 33.957919 ], [ -84.497201, 33.959092 ], [ -84.499199, 33.95812 ] ], [ [ -84.500182, 33.964369 ], [ -84.51394, 33.96197 ], [ -84.514364, 33.952739 ], [ -84.507099, 33.95196 ], [ -84.500182, 33.964369 ] ] ] } },
{ "type": "Feature", "properties": { "district_id": 7, "voting_age_pop": 525125, "lib_votes": 0, "grn_votes": 0, "con_votes": 0, "ref_votes": 0, "total_pop": 721972, "dem_votes_sum": 207744, "rep_votes_sum": 109689, "lib_votes_sum": 0, "grn_votes_sum": 0, "con_votes_sum": 0, "ref_votes_sum": 0, "minority_pop_sum": 383443, "dem_pct": 0.65444991541522146, "rep_pct": 0.34555008458477854, "lib_pct": 0.0, "grn_pct": 0.0, "con_pct": 0.0, "ref_pct": 0.0, "minority_pct": 0.53110508440770554, "compactness": 0.23016751997252402 }, "geometry": { "type": "Polygon", "coordinates": [ [ [ -84.233558, 33.616872 ], [ -84.223552, 33.665033 ], [ -84.23681, 33.66391 ], [ -84.250589, 33.687183 ], [ -84.218477, 33.706974 ], [ -84.243235, 33.714914 ], [ -84.230871, 33.737228 ], [ -84.269475, 33.738238 ], [ -84.290623, 33.751205 ], [ -84.300277, 33.719102 ], [ -84.320562, 33.7394 ], [ -84.295992, 33.753638 ], [ -84.299793, 33.791506 ], [ -84.257672, 33.799438 ], [ -84.247274, 33.846411 ], [ -84.200483, 33.855902 ], [ -84.181561, 33.848347 ], [ -84.188867, 33.832919 ], [ -84.171202, 33.821788 ], [ -84.12614, 33.822915 ], [ -84.075914, 33.777507 ], [ -84.026413, 33.753108 ], [ -83.982033, 33.786054 ], [ -83.915623, 33.744702 ], [ -83.906981, 33.766924 ], [ -83.832917, 33.798175 ], [ -83.860612, 33.87395 ], [ -83.788867, 33.85617 ], [ -83.763601, 33.874166 ], [ -83.778515, 33.886202 ], [ -83.743867, 33.905792 ], [ -83.723312, 33.900216 ], [ -83.750837, 33.938934 ], [ -83.735258, 33.933222 ], [ -83.66391, 33.959424 ], [ -83.612972, 33.924919 ], [ -83.570786, 33.947936 ], [ -83.550789, 33.916389 ], [ -83.52004, 33.918502 ], [ -83.55832, 33.840674 ], [ -83.475319, 33.798489 ], [ -83.44532, 33.722599 ], [ -83.394913, 33.690514 ], [ -83.359482, 33.626442 ], [ -83.398208, 33.622617 ], [ -83.41608, 33.59952 ], [ -83.43875, 33.600439 ], [ -83.417403, 33.585076 ], [ -83.446723, 33.58602 ], [ -83.462219, 33.571941 ], [ -83.47556, 33.579784 ], [ -83.46213, 33.58912 ], [ -83.478618, 33.61051 ], [ -83.462002, 33.641582 ], [ -83.541206, 33.623461 ], [ -83.567469, 33.627658 ], [ -83.54944, 33.61921 ], [ -83.55421, 33.60626 ], [ -83.52318, 33.59528 ], [ -83.558181, 33.576048 ], [ -83.55787, 33.56142 ], [ -83.61398, 33.54885 ], [ -83.65386, 33.51753 ], [ -83.533736, 33.434472 ], [ -83.545876, 33.171944 ], [ -83.816048, 33.131816 ], [ -83.822261, 33.180238 ], [ -83.84287, 33.196873 ], [ -84.123767, 33.202824 ], [ -84.123152, 33.242748 ], [ -84.135277, 33.23137 ], [ -84.190519, 33.245216 ], [ -84.189793, 33.292712 ], [ -84.164852, 33.288094 ], [ -84.134827, 33.30791 ], [ -84.150909, 33.312982 ], [ -84.150581, 33.335639 ], [ -84.247269, 33.335813 ], [ -84.247183, 33.370742 ], [ -84.219385, 33.377607 ], [ -84.215579, 33.406006 ], [ -84.181459, 33.427519 ], [ -84.198506, 33.446099 ], [ -84.198087, 33.451381 ], [ -84.171038, 33.442434 ], [ -84.155802, 33.45461 ], [ -84.173736, 33.471023 ], [ -84.212972, 33.469854 ], [ -84.217041, 33.481965 ], [ -84.144193, 33.49121 ], [ -84.138606, 33.541498 ], [ -84.170572, 33.557064 ], [ -84.162071, 33.580845 ], [ -84.189393, 33.576929 ], [ -84.191166, 33.590512 ], [ -84.233558, 33.616872 ] ] ] } },
{ "type": "Feature", "properties": { "district_id": 8, "voting_age_pop": 513890, "lib_votes": 0, "grn_votes": 0, "con_votes": 0, "ref_votes": 0, "total_pop": 710031, "dem_votes_sum": 153322, "rep_votes_sum": 122654, "lib_votes_sum": 0, "grn_votes_sum": 0, "con_votes_sum": 0, "ref_votes_sum": 0, "minority_pop_sum": 163508, "dem_pct": 0.55556280256254165, "rep_pct": 0.44443719743745835, "lib_pct": 0.0, "grn_pct": 0.0, "con_pct": 0.0, "ref_pct": 0.0, "minority_pct": 0.23028290314084879, "compactness": 0.18435640351923172 }, "geometry": { "type": "Polygon", "coordinates": [ [ [ -84.25172, 33.815777 ], [ -84.275429, 33.805391 ], [ -84.287118, 33.815087 ], [ -84.273825, 33.826201 ], [ -84.302814, 33.822429 ], [ -84.311886, 33.837503 ], [ -84.274518, 33.833981 ], [ -84.270291, 33.854797 ], [ -84.289407, 33.85677 ], [ -84.313176, 33.840573 ], [ -84.309451, 33.865356 ], [ -84.326495, 33.861643 ], [ -84.325501, 33.876525 ], [ -84.348223, 33.854272 ], [ -84.348425, 33.882265 ], [ -84.379787, 33.878149 ], [ -84.361789, 33.910303 ], [ -84.304987, 33.919832 ], [ -84.271066, 33.942506 ], [ -84.259424, 33.933183 ], [ -84.249618, 33.961675 ], [ -84.231703, 33.949023 ], [ -84.208457, 33.961024 ], [ -84.196486, 33.949024 ], [ -84.159404, 33.95845 ], [ -84.147444, 33.945127 ], [ -84.129928, 33.952163 ], [ -84.089056, 33.936472 ], [ -84.07949, 33.962469 ], [ -84.060561, 33.960497 ], [ -84.084042, 33.987432 ], [ -84.048254, 34.029894 ], [ -84.058593, 34.045955 ], [ -84.012706, 34.080333 ], [ -84.025796, 34.108111 ], [ -84.001949, 34.122572 ], [ -83.973567, 34.104071 ], [ -83.949858, 34.127642 ], [ -83.914631, 34.115107 ], [ -83.940168, 34.109782 ], [ -83.947177, 34.078343 ], [ -83.947449, 34.063817 ], [ -83.907699, 34.031939 ], [ -83.911162, 34.01215 ], [ -83.929948, 34.00195 ], [ -83.922897, 33.986307 ], [ -83.978216, 33.978373 ], [ -83.960005, 33.966133 ], [ -83.964685, 33.951767 ], [ -83.942082, 33.949595 ], [ -83.926926, 33.962403 ], [ -83.881269, 33.907512 ], [ -83.843184, 33.894775 ], [ -83.869007, 33.874159 ], [ -83.832917, 33.798175 ], [ -83.906981, 33.766924 ], [ -83.915623, 33.744702 ], [ -83.982033, 33.786054 ], [ -84.023713, 33.752808 ], [ -84.040313, 33.757708 ], [ -84.12614, 33.822915 ], [ -84.171202, 33.821788 ], [ -84.188867, 33.832919 ], [ -84.181561, 33.848347 ], [ -84.199987, 33.85589 ], [ -84.247274, 33.846411 ], [ -84.25172, 33.815777 ] ] ] } },
{ "type": "Feature", "properties": { "district_id": 9, "voting_age_pop": 499271, "lib_votes": 0, "grn_votes": 0, "con_votes": 0, "ref_votes": 0, "total_pop": 694145, "dem_votes_sum": 225195, "rep_votes_sum": 65360, "lib_votes_sum": 0, "grn_votes_sum": 0, "con_votes_sum": 0, "ref_votes_sum": 0, "minority_pop_sum": 440645, "dem_pct": 0.77505119512656817, "rep_pct": 0.22494880487343188, "lib_pct": 0.0, "grn_pct": 0.0, "con_pct": 0.0, "ref_pct": 0.0, "minority_pct": 0.6348025268495775, "compactness": 0.19070768127086574 }, "geometry": { "type": "Polygon", "coordinates": [ [ [ -84.565758, 33.387349 ], [ -84.576551, 33.383074 ], [ -84.583097, 33.398905 ], [ -84.559622, 33.416358 ], [ -84.557924, 33.445915 ], [ -84.618126, 33.442428 ], [ -84.619476, 33.418331 ], [ -84.630649, 33.415929 ], [ -84.657102, 33.447955 ], [ -84.691835, 33.437587 ], [ -84.700439, 33.450207 ], [ -84.671374, 33.506068 ], [ -84.654859, 33.5114 ], [ -84.699747, 33.519964 ], [ -84.699835, 33.511369 ], [ -84.720975, 33.511653 ], [ -84.699748, 33.527939 ], [ -84.681082, 33.522347 ], [ -84.673729, 33.540314 ], [ -84.720955, 33.548375 ], [ -84.729028, 33.532747 ], [ -84.745027, 33.54504 ], [ -84.741907, 33.567033 ], [ -84.784814, 33.563631 ], [ -84.807398, 33.583087 ], [ -84.752735, 33.63021 ], [ -84.737715, 33.623611 ], [ -84.725234, 33.63921 ], [ -84.677133, 33.655409 ], [ -84.692856, 33.676079 ], [ -84.678716, 33.689119 ], [ -84.686517, 33.701167 ], [ -84.665312, 33.711904 ], [ -84.642588, 33.694551 ], [ -84.599711, 33.687956 ], [ -84.596459, 33.673691 ], [ -84.569085, 33.678224 ], [ -84.52593, 33.657026 ], [ -84.54786, 33.693755 ], [ -84.536725, 33.726057 ], [ -84.550962, 33.720361 ], [ -84.550927, 33.728433 ], [ -84.5357, 33.734724 ], [ -84.514211, 33.725092 ], [ -84.515478, 33.74659 ], [ -84.445072, 33.764413 ], [ -84.446092, 33.750575 ], [ -84.416923, 33.727961 ], [ -84.429585, 33.697541 ], [ -84.404652, 33.69712 ], [ -84.398695, 33.685866 ], [ -84.369904, 33.696899 ], [ -84.35257, 33.686218 ], [ -84.349808, 33.663842 ], [ -84.329743, 33.68172 ], [ -84.30795, 33.679612 ], [ -84.301954, 33.66049 ], [ -84.323638, 33.647241 ], [ -84.281273, 33.647411 ], [ -84.253564, 33.600534 ], [ -84.211302, 33.605512 ], [ -84.189393, 33.576929 ], [ -84.162071, 33.580845 ], [ -84.170572, 33.557064 ], [ -84.138606, 33.541498 ], [ -84.144193, 33.49121 ], [ -84.217041, 33.481965 ], [ -84.212972, 33.469854 ], [ -84.173736, 33.471023 ], [ -84.155802, 33.45461 ], [ -84.171038, 33.442434 ], [ -84.198087, 33.451381 ], [ -84.181459, 33.427519 ], [ -84.222297, 33.402421 ], [ -84.246173, 33.395888 ], [ -84.250522, 33.419034 ], [ -84.261281, 33.419316 ], [ -84.282878, 33.386846 ], [ -84.353824, 33.397291 ], [ -84.3544, 33.352514 ], [ -84.388118, 33.352465 ], [ -84.384079, 33.319468 ], [ -84.419098, 33.293552 ], [ -84.432907, 33.2565 ], [ -84.500521, 33.259428 ], [ -84.507523, 33.278568 ], [ -84.49389, 33.308835 ], [ -84.506401, 33.337834 ], [ -84.533515, 33.38651 ], [ -84.538606, 33.367277 ], [ -84.565758, 33.387349 ] ] ] } },
{ "type": "Feature", "properties": { "district_id": 10, "voting_age_pop": 539043, "lib_votes": 0, "grn_votes": 0, "con_votes": 0, "ref_votes": 0, "total_pop": 715915, "dem_votes_sum": 129000, "rep_votes_sum": 168948, "lib_votes_sum": 0, "grn_votes_sum": 0, "con_votes_sum": 0, "ref_votes_sum": 0, "minority_pop_sum": 251618, "dem_pct": 0.43296145636151273, "rep_pct": 0.56703854363848727, "lib_pct": 0.0, "grn_pct": 0.0, "con_pct": 0.0, "ref_pct": 0.0, "minority_pct": 0.35146351172974444, "compactness": 0.16120795727492804 }, "geometry": { "type": "Polygon", "coordinates": [ [ [ -82.962079, 32.963214 ], [ -83.053539, 32.980565 ], [ -83.077922, 32.946235 ], [ -83.125147, 32.983466 ], [ -83.123144, 33.001531 ], [ -83.146702, 33.008764 ], [ -83.155351, 32.99859 ], [ -83.206577, 33.040411 ], [ -83.198653, 33.067495 ], [ -83.215973, 33.078535 ], [ -83.213395, 33.106722 ], [ -83.199169, 33.133487 ], [ -83.186412, 33.137168 ], [ -83.186984, 33.142566 ], [ -83.212065, 33.146213 ], [ -83.261874, 33.189017 ], [ -83.318201, 33.183527 ], [ -83.318223, 33.169563 ], [ -83.330618, 33.167491 ], [ -83.354409, 33.17977 ], [ -83.374252, 33.171967 ], [ -83.388081, 33.185589 ], [ -83.545876, 33.171944 ], [ -83.533736, 33.434472 ], [ -83.6539, 33.51732 ], [ -83.61398, 33.54885 ], [ -83.55787, 33.56142 ], [ -83.558181, 33.576048 ], [ -83.52318, 33.59528 ], [ -83.55421, 33.60626 ], [ -83.54944, 33.61921 ], [ -83.571887, 33.624655 ], [ -83.567469, 33.627658 ], [ -83.541206, 33.623461 ], [ -83.462002, 33.641582 ], [ -83.478618, 33.61051 ], [ -83.46213, 33.58912 ], [ -83.47556, 33.579784 ], [ -83.462219, 33.571941 ], [ -83.446723, 33.58602 ], [ -83.417403, 33.585076 ], [ -83.43875, 33.600439 ], [ -83.41608, 33.59952 ], [ -83.398208, 33.622617 ], [ -83.35952, 33.626266 ], [ -83.394913, 33.690514 ], [ -83.44532, 33.722599 ], [ -83.475319, 33.798489 ], [ -83.55832, 33.840674 ], [ -83.522954, 33.902535 ], [ -83.481309, 33.889008 ], [ -83.450488, 33.912007 ], [ -83.422062, 33.870129 ], [ -83.413338, 33.885498 ], [ -83.3897, 33.879315 ], [ -83.337159, 33.927828 ], [ -83.31411, 33.904304 ], [ -83.243254, 33.900532 ], [ -83.277595, 33.946472 ], [ -83.265735, 33.963792 ], [ -83.268992, 34.000604 ], [ -83.237006, 34.013557 ], [ -83.212004, 34.002774 ], [ -83.127523, 34.045952 ], [ -83.168542, 34.06551 ], [ -83.130885, 34.107508 ], [ -83.161681, 34.11025 ], [ -83.154045, 34.155063 ], [ -83.137734, 34.165772 ], [ -83.067779, 34.154934 ], [ -83.03104, 34.113309 ], [ -82.989193, 34.173106 ], [ -82.997955, 34.220548 ], [ -82.961216, 34.211599 ], [ -82.866961, 34.148702 ], [ -82.880409, 34.121102 ], [ -82.914003, 34.100168 ], [ -82.889859, 34.063509 ], [ -82.873098, 34.08709 ], [ -82.819272, 34.0976 ], [ -82.81106, 34.11506 ], [ -82.863191, 34.154777 ], [ -82.82542, 34.224087 ], [ -82.741002, 34.185146 ], [ -82.715333, 34.148203 ], [ -82.675219, 34.129779 ], [ -82.641311, 34.091551 ], [ -82.641488, 34.068894 ], [ -82.594459, 34.029304 ], [ -82.556765, 33.945324 ], [ -82.524515, 33.94336 ], [ -82.455105, 33.88165 ], [ -82.346933, 33.834298 ], [ -82.300213, 33.800627 ], [ -82.298286, 33.783518 ], [ -82.248165, 33.753363 ], [ -82.234572, 33.700217 ], [ -82.199898, 33.6617 ], [ -82.186155, 33.620881 ], [ -82.138028, 33.592236 ], [ -82.10784, 33.596277 ], [ -82.046335, 33.56383 ], [ -82.001338, 33.520135 ], [ -81.985938, 33.486536 ], [ -81.926336, 33.462937 ], [ -81.913126, 33.438333 ], [ -81.93243, 33.425706 ], [ -81.909693, 33.411979 ], [ -81.945181, 33.407531 ], [ -81.924837, 33.37414 ], [ -81.946337, 33.37064 ], [ -81.939737, 33.344941 ], [ -81.909137, 33.346641 ], [ -81.913737, 33.320042 ], [ -81.901384, 33.335774 ], [ -81.880737, 33.302243 ], [ -81.867936, 33.314043 ], [ -81.863929, 33.302036 ], [ -81.847336, 33.306843 ], [ -81.863236, 33.288844 ], [ -81.828336, 33.263045 ], [ -81.847336, 33.266345 ], [ -81.839636, 33.255245 ], [ -81.851137, 33.252545 ], [ -81.853137, 33.250745 ], [ -81.852076, 33.247288 ], [ -81.805238, 33.211441 ], [ -81.768935, 33.217447 ], [ -81.756835, 33.197947 ], [ -81.772435, 33.180449 ], [ -81.752135, 33.14855 ], [ -81.704634, 33.11645 ], [ -81.642333, 33.093152 ], [ -81.611657, 33.094259 ], [ -81.612072, 33.080019 ], [ -81.60132, 33.087049 ], [ -81.602212, 33.073473 ], [ -81.57288, 33.05418 ], [ -81.563372, 33.060156 ], [ -81.561948, 33.045844 ], [ -81.529124, 33.04081 ], [ -81.51069, 33.010315 ], [ -81.491954, 33.009093 ], [ -81.49983, 32.963816 ], [ -81.511347, 32.966721 ], [ -81.502427, 32.935353 ], [ -81.483198, 32.921802 ], [ -81.480812, 32.898614 ], [ -81.464433, 32.898603 ], [ -81.479445, 32.881082 ], [ -81.452883, 32.872964 ], [ -81.460722, 32.846038 ], [ -81.426475, 32.840773 ], [ -81.428235, 32.818584 ], [ -81.417984, 32.818196 ], [ -81.431235, 32.784141 ], [ -81.414456, 32.778149 ], [ -81.43194, 32.768911 ], [ -81.412093, 32.763866 ], [ -81.419698, 32.749167 ], [ -81.404932, 32.745559 ], [ -81.427517, 32.701895 ], [ -81.409012, 32.696551 ], [ -81.397154, 32.661378 ], [ -81.407193, 32.660519 ], [ -81.393033, 32.651542 ], [ -81.41866, 32.629392 ], [ -81.366782, 32.576915 ], [ -81.28058, 32.55603 ], [ -81.279655, 32.536338 ], [ -81.233794, 32.51831 ], [ -81.233111, 32.498069 ], [ -81.187347, 32.464463 ], [ -81.205774, 32.450474 ], [ -81.205433, 32.423406 ], [ -81.178283, 32.392986 ], [ -81.159995, 32.340476 ], [ -81.143857, 32.351543 ], [ -81.129356, 32.341468 ], [ -81.138013, 32.32824 ], [ -81.122086, 32.304495 ], [ -81.123224, 32.275458 ], [ -81.142058, 32.271634 ], [ -81.156537, 32.244248 ], [ -81.14446, 32.226292 ], [ -81.20446, 32.243544 ], [ -81.23433, 32.289973 ], [ -81.264202, 32.278422 ], [ -81.327187, 32.325197 ], [ -81.381466, 32.334722 ], [ -81.392647, 32.330318 ], [ -81.38925, 32.284543 ], [ -81.345189, 32.246581 ], [ -81.385088, 32.199925 ], [ -81.380372, 32.174664 ], [ -81.395962, 32.165132 ], [ -81.406966, 32.127803 ], [ -81.462466, 32.142797 ], [ -81.510457, 32.196323 ], [ -81.516499, 32.234643 ], [ -81.527475, 32.229861 ], [ -81.570901, 32.266922 ], [ -81.62178, 32.268877 ], [ -81.621406, 32.306168 ], [ -81.64307, 32.305079 ], [ -81.683623, 32.292664 ], [ -81.648659, 32.260841 ], [ -81.707545, 32.2502 ], [ -81.730735, 32.199039 ], [ -81.730262, 32.164861 ], [ -81.781644, 32.152439 ], [ -81.756806, 32.104781 ], [ -81.718658, 32.089351 ], [ -81.761735, 32.0479 ], [ -81.888938, 32.050398 ], [ -81.980041, 32.081502 ], [ -81.9958, 32.149794 ], [ -82.053715, 32.146057 ], [ -82.07548, 32.17007 ], [ -82.09588, 32.14256 ], [ -82.120424, 32.14119 ], [ -82.120929, 32.117482 ], [ -82.142751, 32.110512 ], [ -82.156112, 32.130167 ], [ -82.168469, 32.122978 ], [ -82.195317, 32.140929 ], [ -82.181912, 32.166125 ], [ -82.206152, 32.219997 ], [ -82.178853, 32.225064 ], [ -82.170292, 32.247562 ], [ -82.148202, 32.233601 ], [ -82.138025, 32.254654 ], [ -82.087078, 32.243837 ], [ -82.071818, 32.268437 ], [ -82.026534, 32.275502 ], [ -82.237846, 32.323417 ], [ -82.238217, 32.344617 ], [ -82.254572, 32.351498 ], [ -82.187944, 32.433571 ], [ -82.183496, 32.460132 ], [ -82.21337, 32.50535 ], [ -82.222286, 32.51109 ], [ -82.218594, 32.482146 ], [ -82.255606, 32.503785 ], [ -82.303612, 32.500133 ], [ -82.298083, 32.419615 ], [ -82.313547, 32.391444 ], [ -82.397519, 32.451667 ], [ -82.49055, 32.496502 ], [ -82.647733, 32.512507 ], [ -82.602955, 32.521467 ], [ -82.602563, 32.509473 ], [ -82.597855, 32.532866 ], [ -82.564358, 32.532449 ], [ -82.591186, 32.557691 ], [ -82.594439, 32.579158 ], [ -82.512002, 32.625163 ], [ -82.517717, 32.633677 ], [ -82.498921, 32.642733 ], [ -82.492924, 32.634046 ], [ -82.463854, 32.647236 ], [ -82.490315, 32.662035 ], [ -82.499431, 32.68634 ], [ -82.452751, 32.71926 ], [ -82.434149, 32.762258 ], [ -82.473251, 32.777558 ], [ -82.521052, 32.822356 ], [ -82.578871, 32.816226 ], [ -82.591094, 32.828992 ], [ -82.582314, 32.84749 ], [ -82.606381, 32.835341 ], [ -82.623932, 32.847333 ], [ -82.643017, 32.834007 ], [ -82.693224, 32.876103 ], [ -82.684024, 32.893132 ], [ -82.704343, 32.913744 ], [ -82.697, 32.918704 ], [ -82.756814, 32.945956 ], [ -82.806405, 32.938508 ], [ -82.795537, 32.961717 ], [ -82.843023, 32.961948 ], [ -82.884763, 32.927625 ], [ -82.962079, 32.963214 ] ] ] } },
{ "type": "Feature", "properties": { "district_id": 11, "voting_age_pop": 543852, "lib_votes": 0, "grn_votes": 0, "con_votes": 0, "ref_votes": 0, "total_pop": 724176, "dem_votes_sum": 107476, "rep_votes_sum": 159297, "lib_votes_sum": 0, "grn_votes_sum": 0, "con_votes_sum": 0, "ref_votes_sum": 0, "minority_pop_sum": 251510, "dem_pct": 0.40287435385140175, "rep_pct": 0.5971256461485982, "lib_pct": 0.0, "grn_pct": 0.0, "con_pct": 0.0, "ref_pct": 0.0, "minority_pct": 0.34730507500939001, "compactness": 0.10933497988911882 }, "geometry": { "type": "MultiPolygon", "coordinates": [ [ [ [ -83.955147, 32.030571 ], [ -83.97989, 32.043979 ], [ -83.977411, 32.058742 ], [ -83.955806, 32.074315 ], [ -83.949465, 32.052577 ], [ -83.919207, 32.059187 ], [ -83.917963, 32.115425 ], [ -83.897524, 32.129806 ], [ -83.862321, 32.117261 ], [ -83.849606, 32.129053 ], [ -83.831323, 32.114649 ], [ -83.808941, 32.13152 ], [ -83.773852, 32.136541 ], [ -83.76084, 32.123098 ], [ -83.713122, 32.123413 ], [ -83.712705, 32.150427 ], [ -83.70377, 32.143859 ], [ -83.693266, 32.166767 ], [ -83.692951, 32.186456 ], [ -83.714591, 32.20827 ], [ -83.702069, 32.221383 ], [ -83.721737, 32.22365 ], [ -83.7499, 32.196869 ], [ -83.747594, 32.212831 ], [ -83.807445, 32.222546 ], [ -83.807115, 32.24387 ], [ -83.820784, 32.244692 ], [ -83.816002, 32.273881 ], [ -83.829539, 32.290487 ], [ -83.848379, 32.29097 ], [ -83.847286, 32.33797 ], [ -83.877865, 32.325705 ], [ -83.882405, 32.346096 ], [ -83.924481, 32.341599 ], [ -83.92487, 32.300227 ], [ -84.005323, 32.293325 ], [ -83.994446, 32.31505 ], [ -84.015097, 32.3104 ], [ -83.996742, 32.372135 ], [ -84.015242, 32.383124 ], [ -84.019535, 32.417009 ], [ -83.956108, 32.462707 ], [ -83.978985, 32.472949 ], [ -84.015308, 32.460572 ], [ -84.020795, 32.497264 ], [ -84.05331, 32.522021 ], [ -84.122347, 32.505921 ], [ -84.197912, 32.400852 ], [ -84.2484, 32.400639 ], [ -84.254613, 32.372053 ], [ -84.323815, 32.37245 ], [ -84.323315, 32.39785 ], [ -84.343714, 32.397751 ], [ -84.343515, 32.38495 ], [ -84.363216, 32.397649 ], [ -84.362416, 32.428047 ], [ -84.381817, 32.428047 ], [ -84.392316, 32.414046 ], [ -84.392117, 32.435347 ], [ -84.408578, 32.443949 ], [ -84.407808, 32.485267 ], [ -84.433619, 32.493243 ], [ -84.433542, 32.518694 ], [ -84.453232, 32.542374 ], [ -84.44365, 32.542223 ], [ -84.444353, 32.562083 ], [ -84.408866, 32.561923 ], [ -84.408378, 32.610503 ], [ -84.374617, 32.637355 ], [ -84.364243, 32.679364 ], [ -84.338884, 32.679043 ], [ -84.33794, 32.720647 ], [ -84.288749, 32.736151 ], [ -84.301015, 32.76115 ], [ -84.316147, 32.755536 ], [ -84.341997, 32.768765 ], [ -84.12488, 32.819615 ], [ -84.124275, 32.849562 ], [ -83.978409, 32.848936 ], [ -83.968309, 32.857136 ], [ -83.968421, 32.84886 ], [ -83.891922, 32.848351 ], [ -83.891728, 32.818861 ], [ -83.857083, 32.793959 ], [ -83.82466, 32.74203 ], [ -83.785923, 32.720433 ], [ -83.766046, 32.726058 ], [ -83.774855, 32.754201 ], [ -83.793728, 32.756684 ], [ -83.778506, 32.771842 ], [ -83.793596, 32.790267 ], [ -83.782099, 32.798481 ], [ -83.745753, 32.796828 ], [ -83.710398, 32.765312 ], [ -83.725869, 32.809738 ], [ -83.688293, 32.816502 ], [ -83.791989, 32.907677 ], [ -83.747301, 32.930892 ], [ -83.853469, 32.997874 ], [ -83.859538, 33.070728 ], [ -83.826162, 33.106047 ], [ -83.823799, 33.132526 ], [ -83.436844, 33.185837 ], [ -83.418067, 33.177306 ], [ -83.388081, 33.185589 ], [ -83.374252, 33.171967 ], [ -83.354409, 33.17977 ], [ -83.330618, 33.167491 ], [ -83.318223, 33.169563 ], [ -83.318201, 33.183527 ], [ -83.261874, 33.189017 ], [ -83.212474, 33.146467 ], [ -83.186156, 33.140582 ], [ -83.213395, 33.106722 ], [ -83.215973, 33.078535 ], [ -83.198357, 33.065797 ], [ -83.206577, 33.040411 ], [ -83.153026, 32.99702 ], [ -83.147416, 33.008666 ], [ -83.122813, 33.001294 ], [ -83.125147, 32.983466 ], [ -83.094356, 32.96827 ], [ -83.087874, 32.951017 ], [ -83.070703, 32.947095 ], [ -83.068232, 32.974366 ], [ -83.052628, 32.980626 ], [ -82.991667, 32.961219 ], [ -82.956359, 32.96326 ], [ -82.884763, 32.927625 ], [ -82.843299, 32.961807 ], [ -82.815049, 32.967382 ], [ -82.794601, 32.960884 ], [ -82.806405, 32.938508 ], [ -82.756814, 32.945956 ], [ -82.697, 32.918704 ], [ -82.704343, 32.913744 ], [ -82.684024, 32.893132 ], [ -82.693224, 32.876103 ], [ -82.643017, 32.834007 ], [ -82.623932, 32.847333 ], [ -82.606381, 32.835341 ], [ -82.582314, 32.84749 ], [ -82.591094, 32.828992 ], [ -82.578871, 32.816226 ], [ -82.521052, 32.822356 ], [ -82.473251, 32.777558 ], [ -82.434149, 32.762258 ], [ -82.452751, 32.71926 ], [ -82.499431, 32.68634 ], [ -82.490315, 32.662035 ], [ -82.463854, 32.647236 ], [ -82.517717, 32.633677 ], [ -82.512002, 32.625163 ], [ -82.594439, 32.579158 ], [ -82.591186, 32.557691 ], [ -82.564358, 32.532449 ], [ -82.597855, 32.532866 ], [ -82.602563, 32.509473 ], [ -82.602955, 32.521467 ], [ -82.647733, 32.512507 ], [ -82.49055, 32.496502 ], [ -82.397519, 32.451667 ], [ -82.313547, 32.391444 ], [ -82.298083, 32.419615 ], [ -82.303612, 32.500133 ], [ -82.255606, 32.503785 ], [ -82.218594, 32.482146 ], [ -82.215784, 32.507221 ], [ -82.183496, 32.460132 ], [ -82.187944, 32.433571 ], [ -82.254572, 32.351498 ], [ -82.238217, 32.344617 ], [ -82.237846, 32.323417 ], [ -82.026534, 32.275502 ], [ -82.071818, 32.268437 ], [ -82.087078, 32.243837 ], [ -82.138025, 32.254654 ], [ -82.148202, 32.233601 ], [ -82.170292, 32.247562 ], [ -82.178853, 32.225064 ], [ -82.206152, 32.219997 ], [ -82.181912, 32.166125 ], [ -82.195317, 32.140929 ], [ -82.168469, 32.122978 ], [ -82.156112, 32.130167 ], [ -82.142751, 32.110512 ], [ -82.120929, 32.117482 ], [ -82.120424, 32.14119 ], [ -82.09588, 32.14256 ], [ -82.07548, 32.17007 ], [ -82.053715, 32.146057 ], [ -81.9958, 32.149794 ], [ -81.97979, 32.081412 ], [ -82.085397, 32.067722 ], [ -82.070159, 32.026124 ], [ -82.137894, 31.984696 ], [ -82.13225, 31.965222 ], [ -82.183546, 31.969769 ], [ -82.220426, 31.950671 ], [ -82.225042, 31.913074 ], [ -82.191344, 31.900499 ], [ -82.145143, 31.8981 ], [ -82.134243, 31.908 ], [ -82.134843, 31.891 ], [ -82.117442, 31.886601 ], [ -82.113286, 31.901041 ], [ -82.107842, 31.883701 ], [ -82.109625, 31.870308 ], [ -82.116413, 31.866346 ], [ -82.11161, 31.873328 ], [ -82.135018, 31.884862 ], [ -82.138536, 31.870099 ], [ -82.199167, 31.834772 ], [ -82.199459, 31.810978 ], [ -82.233245, 31.790535 ], [ -82.234784, 31.761919 ], [ -82.267272, 31.772887 ], [ -82.267266, 31.752087 ], [ -82.249558, 31.743891 ], [ -82.254372, 31.692162 ], [ -82.222997, 31.645623 ], [ -82.178088, 31.633063 ], [ -82.178443, 31.590677 ], [ -82.208435, 31.591827 ], [ -82.199596, 31.50617 ], [ -82.239254, 31.530569 ], [ -82.269661, 31.492643 ], [ -82.300422, 31.493175 ], [ -82.300621, 31.467812 ], [ -82.315025, 31.467936 ], [ -82.330493, 31.442058 ], [ -82.357004, 31.430087 ], [ -82.31983, 31.377107 ], [ -82.289666, 31.370554 ], [ -82.315641, 31.361014 ], [ -82.352154, 31.370517 ], [ -82.357072, 31.35506 ], [ -82.381299, 31.375842 ], [ -82.387324, 31.29639 ], [ -82.40242, 31.318364 ], [ -82.431334, 31.3177 ], [ -82.449585, 31.300194 ], [ -82.535744, 31.31947 ], [ -82.629622, 31.274726 ], [ -82.628975, 31.36393 ], [ -82.761694, 31.364303 ], [ -82.769007, 31.336041 ], [ -82.789088, 31.327335 ], [ -82.773347, 31.309704 ], [ -82.802213, 31.289059 ], [ -82.798207, 31.270371 ], [ -82.764294, 31.262944 ], [ -82.774649, 31.240085 ], [ -82.789874, 31.242957 ], [ -82.784361, 31.183269 ], [ -82.671669, 31.183739 ], [ -82.592071, 31.018487 ], [ -82.55059, 31.000856 ], [ -82.520124, 30.963132 ], [ -82.490558, 30.963166 ], [ -82.495476, 30.819553 ], [ -82.435852, 30.820068 ], [ -82.435242, 30.729149 ], [ -82.420128, 30.729198 ], [ -82.41999, 30.716637 ], [ -82.435112, 30.716566 ], [ -82.430862, 30.612848 ], [ -82.418793, 30.613132 ], [ -82.418914, 30.581767 ], [ -83.136614, 30.623967 ], [ -83.131508, 30.794191 ], [ -83.104365, 30.803703 ], [ -83.088082, 30.848658 ], [ -83.019419, 30.849453 ], [ -83.02037, 30.904337 ], [ -83.043189, 30.944994 ], [ -83.02098, 31.005323 ], [ -83.048054, 31.024937 ], [ -83.039397, 31.056808 ], [ -83.064906, 31.089718 ], [ -83.058599, 31.122515 ], [ -83.046191, 31.12018 ], [ -83.035106, 31.140242 ], [ -83.052192, 31.225468 ], [ -83.033468, 31.275041 ], [ -83.059011, 31.304228 ], [ -83.059567, 31.329857 ], [ -83.099709, 31.353949 ], [ -83.116341, 31.388655 ], [ -83.140686, 31.401941 ], [ -83.136033, 31.431151 ], [ -83.151087, 31.461552 ], [ -83.11166, 31.478229 ], [ -83.064965, 31.552821 ], [ -83.058807, 31.611212 ], [ -83.014174, 31.635715 ], [ -83.01342, 31.660801 ], [ -82.998794, 31.660467 ], [ -82.995698, 31.780983 ], [ -83.027966, 31.778291 ], [ -83.105892, 31.81908 ], [ -83.111557, 31.809195 ], [ -83.138659, 31.814446 ], [ -83.134605, 31.824115 ], [ -83.177469, 31.847857 ], [ -83.181191, 31.879202 ], [ -83.192476, 31.875073 ], [ -83.207583, 31.895912 ], [ -83.016784, 32.059704 ], [ -83.037645, 32.067133 ], [ -83.112527, 32.015605 ], [ -83.135209, 32.021569 ], [ -83.126852, 32.037649 ], [ -83.14064, 32.026158 ], [ -83.158481, 32.041874 ], [ -83.187314, 32.02283 ], [ -83.185937, 32.042859 ], [ -83.209566, 32.063369 ], [ -83.200452, 32.092036 ], [ -83.296439, 32.038522 ], [ -83.308496, 32.049171 ], [ -83.294796, 32.078446 ], [ -83.305863, 32.090092 ], [ -83.317539, 32.085534 ], [ -83.324559, 32.103985 ], [ -83.35887, 32.105947 ], [ -83.361113, 32.124092 ], [ -83.413091, 32.13326 ], [ -83.435657, 32.117244 ], [ -83.55083, 32.126165 ], [ -83.55102, 32.118139 ], [ -83.608547, 32.118405 ], [ -83.609663, 32.027938 ], [ -83.955147, 32.030571 ] ], [ [ -84.051524, 32.52205 ], [ -84.007258, 32.522967 ], [ -84.000559, 32.521544 ], [ -84.003363, 32.529927 ], [ -84.052952, 32.530602 ], [ -84.051524, 32.52205 ] ] ], [ [ [ -84.372716, 32.38935 ], [ -84.363216, 32.397649 ], [ -84.362916, 32.389449 ], [ -84.372716, 32.38935 ] ] ] ] } },
{ "type": "Feature", "properties": { "district_id": 12, "voting_age_pop": 504947, "lib_votes": 0, "grn_votes": 0, "con_votes": 0, "ref_votes": 0, "total_pop": 667545, "dem_votes_sum": 168543, "rep_votes_sum": 113305, "lib_votes_sum": 0, "grn_votes_sum": 0, "con_votes_sum": 0, "ref_votes_sum": 0, "minority_pop_sum": 250078, "dem_pct": 0.59799253498339533, "rep_pct": 0.40200746501660467, "lib_pct": 0.0, "grn_pct": 0.0, "con_pct": 0.0, "ref_pct": 0.0, "minority_pct": 0.37462343362619749, "compactness": 0.18070241247258628 }, "geometry": { "type": "MultiPolygon", "coordinates": [ [ [ [ -84.993077, 33.462072 ], [ -84.960577, 33.463245 ], [ -84.986211, 33.456465 ], [ -84.985154, 33.442691 ], [ -85.013199, 33.429828 ], [ -85.033418, 33.38921 ], [ -85.059737, 33.376904 ], [ -85.043354, 33.366126 ], [ -85.062323, 33.359553 ], [ -85.079118, 33.304226 ], [ -85.102046, 33.2982 ], [ -85.11588, 33.320891 ], [ -85.138833, 33.318917 ], [ -85.172638, 33.344332 ], [ -85.204304, 33.292617 ], [ -85.229818, 33.278139 ], [ -85.258292, 33.281354 ], [ -85.406798, 34.002574 ], [ -85.382642, 34.018108 ], [ -85.301314, 34.014778 ], [ -85.281382, 33.993354 ], [ -85.266421, 33.999555 ], [ -85.252117, 33.978014 ], [ -85.22619, 33.986189 ], [ -85.22017, 34.016743 ], [ -85.186046, 34.013011 ], [ -85.166595, 33.999453 ], [ -85.189612, 33.954201 ], [ -85.15469, 33.951527 ], [ -85.093059, 33.986578 ], [ -85.074749, 34.021419 ], [ -85.009564, 34.037173 ], [ -84.948108, 34.025175 ], [ -84.966329, 33.981015 ], [ -84.939939, 33.983704 ], [ -84.906868, 33.955523 ], [ -84.901967, 33.932703 ], [ -84.916655, 33.933548 ], [ -84.926355, 33.890023 ], [ -84.894037, 33.875265 ], [ -84.889422, 33.893272 ], [ -84.855242, 33.906127 ], [ -84.834859, 33.895169 ], [ -84.824642, 33.909058 ], [ -84.778785, 33.909215 ], [ -84.723534, 33.934863 ], [ -84.725785, 33.959335 ], [ -84.708026, 33.958752 ], [ -84.703044, 33.940434 ], [ -84.661633, 33.95244 ], [ -84.673576, 33.845068 ], [ -84.658549, 33.859668 ], [ -84.624173, 33.833408 ], [ -84.58537, 33.847181 ], [ -84.576304, 33.818411 ], [ -84.561694, 33.814315 ], [ -84.549692, 33.826786 ], [ -84.510379, 33.827739 ], [ -84.497628, 33.823472 ], [ -84.515799, 33.803576 ], [ -84.512063, 33.798745 ], [ -84.490038, 33.82577 ], [ -84.480134, 33.817319 ], [ -84.450727, 33.827004 ], [ -84.395029, 33.797344 ], [ -84.348506, 33.825117 ], [ -84.348325, 33.782605 ], [ -84.32989, 33.773474 ], [ -84.362629, 33.757919 ], [ -84.353391, 33.756786 ], [ -84.363242, 33.728711 ], [ -84.393399, 33.719463 ], [ -84.385106, 33.702106 ], [ -84.397988, 33.685947 ], [ -84.404652, 33.69712 ], [ -84.429585, 33.697541 ], [ -84.416923, 33.727961 ], [ -84.446092, 33.750575 ], [ -84.443779, 33.763687 ], [ -84.458585, 33.764808 ], [ -84.463133, 33.75523 ], [ -84.515478, 33.74659 ], [ -84.514211, 33.725092 ], [ -84.5357, 33.734724 ], [ -84.550927, 33.728433 ], [ -84.550962, 33.720361 ], [ -84.536725, 33.726057 ], [ -84.54786, 33.693755 ], [ -84.52593, 33.657026 ], [ -84.569085, 33.678224 ], [ -84.596459, 33.673691 ], [ -84.599711, 33.687956 ], [ -84.643066, 33.694728 ], [ -84.664539, 33.712016 ], [ -84.686517, 33.701167 ], [ -84.678716, 33.689119 ], [ -84.692856, 33.676079 ], [ -84.677133, 33.655409 ], [ -84.725234, 33.63921 ], [ -84.737715, 33.623611 ], [ -84.752735, 33.63021 ], [ -84.783292, 33.603572 ], [ -84.817037, 33.653209 ], [ -84.862627, 33.645664 ], [ -84.885221, 33.625776 ], [ -84.903607, 33.638831 ], [ -84.905788, 33.573378 ], [ -84.886858, 33.573423 ], [ -84.924166, 33.543247 ], [ -84.948013, 33.548544 ], [ -84.940914, 33.529491 ], [ -84.967456, 33.513323 ], [ -84.965089, 33.486646 ], [ -84.982114, 33.484397 ], [ -84.993077, 33.462072 ] ] ], [ [ [ -84.508183, 33.806845 ], [ -84.509415, 33.807173 ], [ -84.50829, 33.807999 ], [ -84.508183, 33.806845 ] ] ] ] } },
{ "type": "Feature", "properties": { "district_id": 13, "voting_age_pop": 500981, "lib_votes": 0, "grn_votes": 0, "con_votes": 0, "ref_votes": 0, "total_pop": 666642, "dem_votes_sum": 107534, "rep_votes_sum": 144928, "lib_votes_sum": 0, "grn_votes_sum": 0, "con_votes_sum": 0, "ref_votes_sum": 0, "minority_pop_sum": 201558, "dem_pct": 0.42594132978428439, "rep_pct": 0.57405867021571566, "lib_pct": 0.0, "grn_pct": 0.0, "con_pct": 0.0, "ref_pct": 0.0, "minority_pct": 0.30234818688291465, "compactness": 0.22067428783456233 }, "geometry": { "type": "Polygon", "coordinates": [ [ [ -82.040001, 30.436661 ], [ -82.042139, 30.365409 ], [ -82.066184, 30.355757 ], [ -82.105241, 30.368896 ], [ -82.170197, 30.358972 ], [ -82.206764, 30.406878 ], [ -82.201301, 30.485273 ], [ -82.240403, 30.53777 ], [ -82.214677, 30.568556 ], [ -82.418914, 30.581767 ], [ -82.418793, 30.613132 ], [ -82.430862, 30.612848 ], [ -82.435112, 30.716566 ], [ -82.41999, 30.716637 ], [ -82.420128, 30.729198 ], [ -82.435242, 30.729149 ], [ -82.435852, 30.820068 ], [ -82.495476, 30.819553 ], [ -82.490558, 30.963166 ], [ -82.520124, 30.963132 ], [ -82.55059, 31.000856 ], [ -82.592071, 31.018487 ], [ -82.671669, 31.183739 ], [ -82.784361, 31.183269 ], [ -82.789874, 31.242957 ], [ -82.774649, 31.240085 ], [ -82.764294, 31.262944 ], [ -82.798962, 31.271148 ], [ -82.802213, 31.289059 ], [ -82.7731, 31.310423 ], [ -82.789088, 31.327335 ], [ -82.769007, 31.336041 ], [ -82.761694, 31.364303 ], [ -82.628975, 31.36393 ], [ -82.629622, 31.274726 ], [ -82.535744, 31.31947 ], [ -82.449585, 31.300194 ], [ -82.431334, 31.3177 ], [ -82.40242, 31.318364 ], [ -82.387324, 31.29639 ], [ -82.381299, 31.375842 ], [ -82.357072, 31.35506 ], [ -82.352154, 31.370517 ], [ -82.315641, 31.361014 ], [ -82.289666, 31.370554 ], [ -82.31983, 31.377107 ], [ -82.357004, 31.430087 ], [ -82.330493, 31.442058 ], [ -82.315025, 31.467936 ], [ -82.300621, 31.467812 ], [ -82.300422, 31.493175 ], [ -82.269661, 31.492643 ], [ -82.239254, 31.530569 ], [ -82.197989, 31.512288 ], [ -82.213034, 31.556812 ], [ -82.208435, 31.591827 ], [ -82.178443, 31.590677 ], [ -82.178088, 31.633063 ], [ -82.222997, 31.645623 ], [ -82.254372, 31.692162 ], [ -82.249558, 31.743891 ], [ -82.267266, 31.752087 ], [ -82.267272, 31.772887 ], [ -82.234784, 31.761919 ], [ -82.233245, 31.790535 ], [ -82.199459, 31.810978 ], [ -82.199167, 31.834772 ], [ -82.138536, 31.870099 ], [ -82.132402, 31.882712 ], [ -82.134046, 31.882778 ], [ -82.135355, 31.884285 ], [ -82.135018, 31.884862 ], [ -82.11161, 31.873328 ], [ -82.116413, 31.866346 ], [ -82.109625, 31.870308 ], [ -82.107842, 31.883701 ], [ -82.113286, 31.901041 ], [ -82.117442, 31.886601 ], [ -82.134843, 31.891 ], [ -82.134243, 31.908 ], [ -82.145143, 31.8981 ], [ -82.191344, 31.900499 ], [ -82.225042, 31.913074 ], [ -82.217587, 31.955786 ], [ -82.183546, 31.969769 ], [ -82.13225, 31.965222 ], [ -82.137894, 31.984696 ], [ -82.070159, 32.026124 ], [ -82.085397, 32.067722 ], [ -81.97979, 32.081412 ], [ -81.888938, 32.050398 ], [ -81.761735, 32.0479 ], [ -81.718658, 32.089351 ], [ -81.756806, 32.104781 ], [ -81.781712, 32.152268 ], [ -81.730262, 32.164861 ], [ -81.730735, 32.199039 ], [ -81.707545, 32.2502 ], [ -81.64934, 32.259285 ], [ -81.683623, 32.292664 ], [ -81.667946, 32.301631 ], [ -81.621406, 32.306168 ], [ -81.62178, 32.268877 ], [ -81.549708, 32.2565 ], [ -81.527702, 32.230012 ], [ -81.514685, 32.232659 ], [ -81.510457, 32.196323 ], [ -81.462466, 32.142797 ], [ -81.406646, 32.127876 ], [ -81.395962, 32.165132 ], [ -81.380372, 32.174664 ], [ -81.385088, 32.199925 ], [ -81.345189, 32.246581 ], [ -81.38925, 32.284543 ], [ -81.392647, 32.330318 ], [ -81.328661, 32.325839 ], [ -81.264202, 32.278422 ], [ -81.23433, 32.289973 ], [ -81.195751, 32.237419 ], [ -81.144763, 32.226474 ], [ -81.152064, 32.222042 ], [ -81.114032, 32.195701 ], [ -81.111132, 32.172703 ], [ -81.129756, 32.165839 ], [ -81.112236, 32.150804 ], [ -81.111131, 32.112011 ], [ -81.050317, 32.085324 ], [ -81.002318, 32.100056 ], [ -80.918003, 32.037579 ], [ -80.751429, 32.033468 ], [ -80.780693, 32.01137 ], [ -80.796272, 31.953459 ], [ -80.855339, 31.910809 ], [ -80.928589, 31.816982 ], [ -80.970726, 31.798353 ], [ -81.013812, 31.728643 ], [ -81.056623, 31.714875 ], [ -81.049789, 31.688633 ], [ -81.066635, 31.657328 ], [ -81.087067, 31.529158 ], [ -81.190758, 31.399876 ], [ -81.171089, 31.370323 ], [ -81.186119, 31.326796 ], [ -81.187675, 31.246258 ], [ -81.234337, 31.170258 ], [ -81.296417, 31.15188 ], [ -81.290199, 31.093494 ], [ -81.313637, 31.067852 ], [ -81.345306, 31.059362 ], [ -81.353416, 31.037121 ], [ -81.310709, 30.997329 ], [ -81.304832, 30.970774 ], [ -81.345207, 30.931503 ], [ -81.362682, 30.845926 ], [ -81.400482, 30.766426 ], [ -81.359146, 30.744314 ], [ -81.347015, 30.712444 ], [ -81.451241, 30.709484 ], [ -81.488464, 30.726309 ], [ -81.532295, 30.724091 ], [ -81.538391, 30.708656 ], [ -81.548377, 30.718279 ], [ -81.596176, 30.718666 ], [ -81.601882, 30.729586 ], [ -81.60987, 30.715933 ], [ -81.624366, 30.73634 ], [ -81.652153, 30.72887 ], [ -81.662323, 30.754177 ], [ -81.683096, 30.748492 ], [ -81.672494, 30.73879 ], [ -81.72013, 30.744719 ], [ -81.76172, 30.775698 ], [ -81.78263, 30.761454 ], [ -81.793075, 30.787251 ], [ -81.868515, 30.792906 ], [ -81.901245, 30.82988 ], [ -81.909111, 30.81568 ], [ -81.949638, 30.827845 ], [ -81.97364, 30.778719 ], [ -82.007674, 30.793037 ], [ -82.02288, 30.787706 ], [ -82.011603, 30.761878 ], [ -82.036773, 30.754434 ], [ -82.045608, 30.727552 ], [ -82.035927, 30.706205 ], [ -82.049023, 30.655295 ], [ -82.005401, 30.563698 ], [ -82.01905, 30.533012 ], [ -82.016906, 30.475111 ], [ -82.040001, 30.436661 ] ] ] } }
]
}
