{
"type": "FeatureCollection",
"name": "georgia_optimized_districts_race",
"crs": { "type": "name", "properties": { "name": "urn:ogc:def:crs:OGC:1.3:CRS84" } },
"features": [
{ "type": "Feature", "properties": { "district_id": 0, "voting_age_pop": 523215, "lib_votes": 0, "grn_votes": 0, "con_votes": 0, "ref_votes": 0, "total_pop": 699405, "dem_votes_sum": 123654, "rep_votes_sum": 160631, "lib_votes_sum": 0, "grn_votes_sum": 0, "con_votes_sum": 0, "ref_votes_sum": 0, "minority_pop_sum": 243750, "dem_pct": 0.43496491197214066, "rep_pct": 0.5650350880278594, "lib_pct": 0.0, "grn_pct": 0.0, "con_pct": 0.0, "ref_pct": 0.0, "minority_pct": 0.34851051965599333, "compactness": 0.12045762092986828 }, "geometry": { "type": "Polygon", "coordinates": [ [ [ -82.463713, 32.089736 ], [ -82.470176, 32.048016 ], [ -82.500745, 32.052313 ], [ -82.495501, 32.068901 ], [ -82.534319, 32.088449 ], [ -82.525981, 32.126314 ], [ -82.545293, 32.142583 ], [ -82.564708, 32.131413 ], [ -82.548371, 32.104294 ], [ -82.602165, 32.076271 ], [ -82.622627, 32.081629 ], [ -82.611221, 32.106464 ], [ -82.630416, 32.131667 ], [ -82.612869, 32.16164 ], [ -82.626548, 32.169463 ], [ -82.625526, 32.206794 ], [ -82.649154, 32.245544 ], [ -82.636634, 32.269142 ], [ -82.651542, 32.286476 ], [ -82.644073, 32.290965 ], [ -82.644697, 32.295436 ], [ -82.668346, 32.30429 ], [ -82.673001, 32.29363 ], [ -82.707551, 32.298065 ], [ -82.748732, 32.32915 ], [ -82.697617, 32.407173 ], [ -82.693958, 32.454146 ], [ -82.64858, 32.467238 ], [ -82.635546, 32.496059 ], [ -82.657148, 32.507083 ], [ -82.647733, 32.512507 ], [ -82.690992, 32.528543 ], [ -82.770756, 32.521087 ], [ -82.784865, 32.547984 ], [ -82.82645, 32.559727 ], [ -82.830705, 32.57609 ], [ -82.851335, 32.581128 ], [ -82.875282, 32.569986 ], [ -82.89038, 32.588088 ], [ -82.886861, 32.61055 ], [ -82.907834, 32.607284 ], [ -82.921588, 32.626458 ], [ -82.941061, 32.700189 ], [ -82.957066, 32.708318 ], [ -82.946966, 32.759358 ], [ -82.802456, 32.809756 ], [ -82.775017, 32.794491 ], [ -82.768568, 32.769077 ], [ -82.680757, 32.79676 ], [ -82.666957, 32.782859 ], [ -82.574424, 32.815676 ], [ -82.591045, 32.828635 ], [ -82.582038, 32.847304 ], [ -82.606381, 32.835341 ], [ -82.623932, 32.847333 ], [ -82.638563, 32.831752 ], [ -82.68398, 32.862096 ], [ -82.693316, 32.889763 ], [ -82.769277, 32.880268 ], [ -82.809397, 32.854368 ], [ -82.907475, 32.875247 ], [ -82.924838, 32.88622 ], [ -82.884763, 32.927625 ], [ -82.956359, 32.96326 ], [ -83.049625, 32.977983 ], [ -83.067891, 33.024557 ], [ -83.044844, 33.060654 ], [ -83.052197, 33.080682 ], [ -83.00874, 33.080849 ], [ -82.970138, 33.10928 ], [ -82.900998, 33.128537 ], [ -82.855046, 33.196427 ], [ -82.827612, 33.206369 ], [ -82.842058, 33.20722 ], [ -82.860112, 33.233156 ], [ -82.857694, 33.257249 ], [ -82.880936, 33.270287 ], [ -82.880228, 33.286386 ], [ -82.795682, 33.324016 ], [ -82.797419, 33.356104 ], [ -82.821803, 33.373925 ], [ -82.822645, 33.425905 ], [ -82.846405, 33.435907 ], [ -82.866605, 33.466599 ], [ -82.815315, 33.521137 ], [ -82.747339, 33.51171 ], [ -82.704228, 33.589212 ], [ -82.679975, 33.599792 ], [ -82.692266, 33.619996 ], [ -82.717099, 33.606955 ], [ -82.744215, 33.614708 ], [ -82.726808, 33.650562 ], [ -82.752001, 33.70013 ], [ -82.729742, 33.698055 ], [ -82.726174, 33.732769 ], [ -82.82001, 33.727735 ], [ -82.831426, 33.7217 ], [ -82.815078, 33.689338 ], [ -82.853541, 33.672757 ], [ -82.905093, 33.698313 ], [ -82.894444, 33.734418 ], [ -82.884928, 33.722413 ], [ -82.865531, 33.726021 ], [ -82.865822, 33.745572 ], [ -82.827968, 33.75788 ], [ -82.811967, 33.776087 ], [ -82.882433, 33.788383 ], [ -82.858989, 33.864456 ], [ -82.874086, 33.880047 ], [ -82.904344, 33.880993 ], [ -82.848636, 33.939933 ], [ -82.793778, 33.948669 ], [ -82.780658, 33.964747 ], [ -82.823002, 33.985045 ], [ -82.815319, 33.99202 ], [ -82.843308, 34.021492 ], [ -82.830413, 34.059687 ], [ -82.842896, 34.082174 ], [ -82.831147, 34.09258 ], [ -82.803403, 34.088037 ], [ -82.78849, 34.054058 ], [ -82.776845, 34.051654 ], [ -82.770628, 34.064758 ], [ -82.693085, 34.013706 ], [ -82.674894, 34.059622 ], [ -82.684953, 34.065417 ], [ -82.650742, 34.080238 ], [ -82.594459, 34.029304 ], [ -82.556765, 33.945324 ], [ -82.51295, 33.936969 ], [ -82.455105, 33.88165 ], [ -82.402197, 33.864656 ], [ -82.301457, 33.801864 ], [ -82.298286, 33.783518 ], [ -82.247472, 33.752591 ], [ -82.234572, 33.700217 ], [ -82.199898, 33.6617 ], [ -82.186155, 33.620881 ], [ -82.138028, 33.592236 ], [ -82.10784, 33.596277 ], [ -82.046335, 33.56383 ], [ -82.001338, 33.520135 ], [ -81.985938, 33.486536 ], [ -81.926336, 33.462937 ], [ -81.913126, 33.438333 ], [ -81.93243, 33.425706 ], [ -81.909693, 33.411979 ], [ -81.945181, 33.407531 ], [ -81.924837, 33.37414 ], [ -81.946337, 33.37064 ], [ -81.939737, 33.344941 ], [ -81.909137, 33.346641 ], [ -81.913737, 33.320042 ], [ -81.901384, 33.335774 ], [ -81.880737, 33.302243 ], [ -81.867936, 33.314043 ], [ -81.863929, 33.302036 ], [ -81.847336, 33.306843 ], [ -81.863236, 33.288844 ], [ -81.828336, 33.263045 ], [ -81.846836, 33.266645 ], [ -81.839636, 33.255245 ], [ -81.852822, 33.248542 ], [ -81.805238, 33.211441 ], [ -81.768935, 33.217447 ], [ -81.756835, 33.197947 ], [ -81.772435, 33.181249 ], [ -81.762735, 33.158848 ], [ -81.704634, 33.11645 ], [ -81.642333, 33.093152 ], [ -81.611657, 33.094259 ], [ -81.612072, 33.080019 ], [ -81.60132, 33.087049 ], [ -81.602212, 33.073473 ], [ -81.57288, 33.05418 ], [ -81.563372, 33.060156 ], [ -81.561948, 33.045844 ], [ -81.529124, 33.04081 ], [ -81.51069, 33.010315 ], [ -81.491954, 33.009093 ], [ -81.49983, 32.963816 ], [ -81.511347, 32.966721 ], [ -81.502427, 32.935353 ], [ -81.483198, 32.921802 ], [ -81.480812, 32.898614 ], [ -81.464433, 32.898603 ], [ -81.479445, 32.881082 ], [ -81.452883, 32.872964 ], [ -81.460722, 32.846038 ], [ -81.426475, 32.840773 ], [ -81.428235, 32.818584 ], [ -81.417984, 32.818196 ], [ -81.431235, 32.784141 ], [ -81.414456, 32.778149 ], [ -81.43194, 32.768911 ], [ -81.412093, 32.763866 ], [ -81.419698, 32.749167 ], [ -81.404932, 32.745559 ], [ -81.427517, 32.701895 ], [ -81.409012, 32.696551 ], [ -81.397154, 32.661378 ], [ -81.407193, 32.660519 ], [ -81.393033, 32.651542 ], [ -81.418116, 32.628349 ], [ -81.366782, 32.576915 ], [ -81.357749, 32.582119 ], [ -81.322806, 32.559662 ], [ -81.297652, 32.562931 ], [ -81.296691, 32.553393 ], [ -81.290626, 32.562534 ], [ -81.271923, 32.529984 ], [ -81.23342, 32.517963 ], [ -81.233111, 32.498069 ], [ -81.186984, 32.463816 ], [ -81.208498, 32.436289 ], [ -81.178283, 32.392986 ], [ -81.174004, 32.362993 ], [ -81.155075, 32.350437 ], [ -81.159236, 32.339962 ], [ -81.143857, 32.351543 ], [ -81.129356, 32.341468 ], [ -81.138013, 32.32824 ], [ -81.122086, 32.304495 ], [ -81.123224, 32.275458 ], [ -81.142058, 32.271634 ], [ -81.156607, 32.243284 ], [ -81.143634, 32.229266 ], [ -81.152064, 32.222042 ], [ -81.114032, 32.195701 ], [ -81.120439, 32.1787 ], [ -81.110234, 32.174503 ], [ -81.129515, 32.167054 ], [ -81.121116, 32.154504 ], [ -81.144187, 32.149945 ], [ -81.136785, 32.128102 ], [ -81.165418, 32.105227 ], [ -81.131087, 32.081529 ], [ -81.134635, 32.07209 ], [ -81.17751, 32.067852 ], [ -81.180288, 32.047597 ], [ -81.155553, 32.050584 ], [ -81.148171, 32.031894 ], [ -81.19979, 32.000754 ], [ -81.182871, 31.983736 ], [ -81.242535, 31.978165 ], [ -81.311058, 31.929434 ], [ -81.31124, 31.912143 ], [ -81.261231, 31.900123 ], [ -81.261953, 31.881079 ], [ -81.300878, 31.850628 ], [ -81.304811, 31.828364 ], [ -81.336795, 31.864084 ], [ -81.312188, 31.950106 ], [ -81.33207, 31.961869 ], [ -81.337586, 31.952371 ], [ -81.42488, 31.938158 ], [ -81.463844, 31.950014 ], [ -81.476112, 31.974302 ], [ -81.485481, 31.963642 ], [ -81.564544, 31.959593 ], [ -81.593429, 31.97135 ], [ -81.604339, 32.010834 ], [ -81.64373, 32.053711 ], [ -81.672981, 32.063941 ], [ -81.692855, 32.088417 ], [ -81.756934, 32.104917 ], [ -81.777423, 32.132167 ], [ -81.781308, 32.176499 ], [ -81.806699, 32.205132 ], [ -81.795513, 32.239369 ], [ -81.814142, 32.299885 ], [ -81.859386, 32.339585 ], [ -81.863189, 32.413531 ], [ -81.816136, 32.436283 ], [ -81.799754, 32.416269 ], [ -81.783594, 32.446996 ], [ -81.701876, 32.437105 ], [ -81.713943, 32.45263 ], [ -81.702718, 32.464663 ], [ -81.711782, 32.485127 ], [ -81.755237, 32.474263 ], [ -81.796723, 32.519306 ], [ -81.809905, 32.509562 ], [ -81.854706, 32.52508 ], [ -81.877858, 32.563035 ], [ -81.896842, 32.549093 ], [ -81.943379, 32.62202 ], [ -82.001505, 32.606878 ], [ -82.030233, 32.53877 ], [ -82.079842, 32.560063 ], [ -82.148338, 32.520429 ], [ -82.183495, 32.460141 ], [ -82.222286, 32.51109 ], [ -82.218594, 32.482146 ], [ -82.255606, 32.503785 ], [ -82.303612, 32.500133 ], [ -82.300879, 32.525937 ], [ -82.313076, 32.540539 ], [ -82.335001, 32.511071 ], [ -82.348583, 32.543954 ], [ -82.376006, 32.50264 ], [ -82.401967, 32.506338 ], [ -82.405413, 32.516834 ], [ -82.429503, 32.505916 ], [ -82.411859, 32.459058 ], [ -82.38194, 32.440596 ], [ -82.410175, 32.355578 ], [ -82.358787, 32.318646 ], [ -82.354546, 32.292194 ], [ -82.302764, 32.293673 ], [ -82.303357, 32.282535 ], [ -82.331886, 32.248841 ], [ -82.327292, 32.225471 ], [ -82.3489, 32.209547 ], [ -82.346948, 32.186242 ], [ -82.331554, 32.183088 ], [ -82.370856, 32.107632 ], [ -82.396941, 32.128239 ], [ -82.463713, 32.089736 ] ] ] } },
{ "type": "Feature", "properties": { "district_id": 1, "voting_age_pop": 499766, "lib_votes": 0, "grn_votes": 0, "con_votes": 0, "ref_votes": 0, "total_pop": 695710, "dem_votes_sum": 135573, "rep_votes_sum": 144205, "lib_votes_sum": 0, "grn_votes_sum": 0, "con_votes_sum": 0, "ref_votes_sum": 0, "minority_pop_sum": 164012, "dem_pct": 0.48457348326172894, "rep_pct": 0.51542651673827111, "lib_pct": 0.0, "grn_pct": 0.0, "con_pct": 0.0, "ref_pct": 0.0, "minority_pct": 0.23574765347630477, "compactness": 0.13879934641088809 }, "geometry": { "type": "Polygon", "coordinates": [ [ [ -84.128359, 33.82309 ], [ -84.169479, 33.820917 ], [ -84.188867, 33.832919 ], [ -84.181561, 33.848347 ], [ -84.200865, 33.849085 ], [ -84.17313, 33.858115 ], [ -84.203519, 33.873003 ], [ -84.209978, 33.895952 ], [ -84.160646, 33.912396 ], [ -84.204749, 33.945128 ], [ -84.208457, 33.961024 ], [ -84.231703, 33.949023 ], [ -84.220349, 33.935538 ], [ -84.259011, 33.91882 ], [ -84.263525, 33.927005 ], [ -84.248525, 33.939218 ], [ -84.254775, 33.957486 ], [ -84.23496, 33.95021 ], [ -84.202101, 33.997161 ], [ -84.175162, 33.988272 ], [ -84.098687, 34.027089 ], [ -84.07401, 34.001354 ], [ -84.084042, 33.987432 ], [ -84.06903, 33.967327 ], [ -84.038099, 33.958874 ], [ -83.985409, 33.979195 ], [ -83.989544, 34.000994 ], [ -83.965621, 34.007163 ], [ -83.955643, 34.036559 ], [ -83.931837, 34.027384 ], [ -83.942712, 34.005155 ], [ -83.867878, 34.015465 ], [ -83.824235, 33.964167 ], [ -83.771521, 33.972383 ], [ -83.720123, 33.958604 ], [ -83.712329, 33.982435 ], [ -83.690745, 33.984672 ], [ -83.683193, 33.99238 ], [ -83.696119, 33.9982 ], [ -83.722845, 33.984079 ], [ -83.723197, 34.007396 ], [ -83.725911, 33.994524 ], [ -83.738134, 33.996269 ], [ -83.765053, 34.022137 ], [ -83.791455, 34.020035 ], [ -83.796179, 34.03263 ], [ -83.786749, 34.043569 ], [ -83.803803, 34.060999 ], [ -83.765134, 34.065292 ], [ -83.817682, 34.127493 ], [ -83.755644, 34.180189 ], [ -83.723441, 34.14256 ], [ -83.675267, 34.142838 ], [ -83.684815, 34.125404 ], [ -83.652072, 34.103278 ], [ -83.669098, 34.074341 ], [ -83.643778, 34.049283 ], [ -83.600538, 34.0353 ], [ -83.573961, 34.039405 ], [ -83.53543, 34.015598 ], [ -83.526219, 34.038643 ], [ -83.499718, 34.038514 ], [ -83.486735, 34.013843 ], [ -83.474619, 34.029022 ], [ -83.429288, 34.036471 ], [ -83.422029, 34.016886 ], [ -83.484201, 33.992762 ], [ -83.503484, 33.998956 ], [ -83.489491, 33.969621 ], [ -83.456389, 33.965332 ], [ -83.465842, 33.926055 ], [ -83.421933, 33.927055 ], [ -83.376712, 33.890433 ], [ -83.356443, 33.910906 ], [ -83.365862, 33.927389 ], [ -83.327624, 33.941525 ], [ -83.310934, 33.932338 ], [ -83.311612, 33.914368 ], [ -83.316078, 33.90527 ], [ -83.33823, 33.910542 ], [ -83.334421, 33.897764 ], [ -83.31208, 33.884447 ], [ -83.306608, 33.851852 ], [ -83.275933, 33.847977 ], [ -83.306619, 33.811444 ], [ -83.292358, 33.810349 ], [ -83.280823, 33.783176 ], [ -83.29145, 33.734315 ], [ -83.36767, 33.710272 ], [ -83.421579, 33.807955 ], [ -83.470657, 33.784167 ], [ -83.434219, 33.718975 ], [ -83.448099, 33.644325 ], [ -83.549708, 33.622666 ], [ -83.639195, 33.649296 ], [ -83.618844, 33.674944 ], [ -83.649401, 33.712947 ], [ -83.704263, 33.68545 ], [ -83.720586, 33.697322 ], [ -83.751717, 33.69064 ], [ -83.743517, 33.70986 ], [ -83.754119, 33.743456 ], [ -83.778445, 33.729658 ], [ -83.832917, 33.798175 ], [ -83.907568, 33.766513 ], [ -83.932191, 33.709325 ], [ -83.953799, 33.731755 ], [ -83.984721, 33.73402 ], [ -84.075914, 33.777507 ], [ -84.128359, 33.82309 ] ] ] } },
{ "type": "Feature", "properties": { "district_id": 2, "voting_age_pop": 541198, "lib_votes": 0, "grn_votes": 0, "con_votes": 0, "ref_votes": 0, "total_pop": 721863, "dem_votes_sum": 249388, "rep_votes_sum": 71550, "lib_votes_sum": 0, "grn_votes_sum": 0, "con_votes_sum": 0, "ref_votes_sum": 0, "minority_pop_sum": 425426, "dem_pct": 0.77705974362649488, "rep_pct": 0.22294025637350517, "lib_pct": 0.0, "grn_pct": 0.0, "con_pct": 0.0, "ref_pct": 0.0, "minority_pct": 0.58934451551056088, "compactness": 0.12566121259897739 }, "geometry": { "type": "Polygon", "coordinates": [ [ [ -84.387339, 33.518071 ], [ -84.375106, 33.539319 ], [ -84.384933, 33.579047 ], [ -84.349456, 33.578564 ], [ -84.338242, 33.597901 ], [ -84.365179, 33.647812 ], [ -84.350224, 33.647908 ], [ -84.349511, 33.709266 ], [ -84.369081, 33.70343 ], [ -84.366857, 33.693235 ], [ -84.389355, 33.696797 ], [ -84.393515, 33.708753 ], [ -84.449596, 33.702321 ], [ -84.453517, 33.714782 ], [ -84.486251, 33.6949 ], [ -84.499049, 33.698294 ], [ -84.50113, 33.719108 ], [ -84.472284, 33.720009 ], [ -84.465629, 33.738907 ], [ -84.440437, 33.744006 ], [ -84.417268, 33.782687 ], [ -84.408236, 33.774651 ], [ -84.377066, 33.81138 ], [ -84.349206, 33.764957 ], [ -84.33004, 33.773519 ], [ -84.312223, 33.751705 ], [ -84.267689, 33.754844 ], [ -84.251991, 33.737934 ], [ -84.188632, 33.730286 ], [ -84.169089, 33.738845 ], [ -84.167016, 33.722949 ], [ -84.145816, 33.717554 ], [ -84.153094, 33.684782 ], [ -84.084437, 33.674973 ], [ -84.115791, 33.614666 ], [ -84.15447, 33.645748 ], [ -84.161589, 33.63775 ], [ -84.184143, 33.646157 ], [ -84.1281, 33.562453 ], [ -84.108521, 33.566769 ], [ -84.065723, 33.54947 ], [ -84.0487, 33.539051 ], [ -84.054453, 33.526024 ], [ -84.010681, 33.563312 ], [ -84.003278, 33.554875 ], [ -84.007248, 33.567115 ], [ -83.997787, 33.561784 ], [ -83.965618, 33.578596 ], [ -83.9673, 33.561036 ], [ -83.92189, 33.556491 ], [ -83.947284, 33.544761 ], [ -83.952121, 33.526052 ], [ -83.882906, 33.502563 ], [ -83.886802, 33.41163 ], [ -83.874804, 33.409027 ], [ -83.877637, 33.38367 ], [ -83.863058, 33.368278 ], [ -83.831024, 33.393462 ], [ -83.845207, 33.414721 ], [ -83.82816, 33.415033 ], [ -83.824922, 33.437263 ], [ -83.803995, 33.451932 ], [ -83.804516, 33.496727 ], [ -83.764067, 33.569148 ], [ -83.703506, 33.524212 ], [ -83.704743, 33.488518 ], [ -83.753513, 33.467069 ], [ -83.757572, 33.442217 ], [ -83.735525, 33.416486 ], [ -83.763054, 33.409382 ], [ -83.79733, 33.363396 ], [ -83.754337, 33.344484 ], [ -83.79, 33.317067 ], [ -83.885355, 33.286336 ], [ -83.937982, 33.289127 ], [ -83.926143, 33.306035 ], [ -83.958456, 33.314786 ], [ -83.980166, 33.304629 ], [ -83.974169, 33.294133 ], [ -84.017184, 33.290957 ], [ -84.095162, 33.261428 ], [ -84.102585, 33.272301 ], [ -84.088991, 33.285646 ], [ -84.150909, 33.312982 ], [ -84.150581, 33.335639 ], [ -84.247269, 33.335813 ], [ -84.247163, 33.370831 ], [ -84.219385, 33.377607 ], [ -84.215118, 33.405468 ], [ -84.246173, 33.395888 ], [ -84.253764, 33.441706 ], [ -84.294677, 33.435668 ], [ -84.29431, 33.458082 ], [ -84.329832, 33.448 ], [ -84.384772, 33.458713 ], [ -84.387313, 33.476788 ], [ -84.420428, 33.493992 ], [ -84.427384, 33.516941 ], [ -84.415154, 33.546509 ], [ -84.401418, 33.518268 ], [ -84.387339, 33.518071 ] ] ] } },
{ "type": "Feature", "properties": { "district_id": 3, "voting_age_pop": 509140, "lib_votes": 0, "grn_votes": 0, "con_votes": 0, "ref_votes": 0, "total_pop": 691021, "dem_votes_sum": 54817, "rep_votes_sum": 204482, "lib_votes_sum": 0, "grn_votes_sum": 0, "con_votes_sum": 0, "ref_votes_sum": 0, "minority_pop_sum": 43508, "dem_pct": 0.21140459469569878, "rep_pct": 0.78859540530430117, "lib_pct": 0.0, "grn_pct": 0.0, "con_pct": 0.0, "ref_pct": 0.0, "minority_pct": 0.062961907091101429, "compactness": 0.22785936021305289 }, "geometry": { "type": "Polygon", "coordinates": [ [ [ -85.182337, 34.011554 ], [ -85.22017, 34.016743 ], [ -85.23276, 34.06577 ], [ -85.28383, 34.051169 ], [ -85.29335, 34.011975 ], [ -85.361297, 34.022897 ], [ -85.406798, 34.002574 ], [ -85.605165, 34.984678 ], [ -84.810477, 34.987605 ], [ -84.842705, 34.918126 ], [ -84.824111, 34.901747 ], [ -84.833369, 34.896829 ], [ -84.819875, 34.865981 ], [ -84.84432, 34.853114 ], [ -84.889212, 34.867894 ], [ -84.931477, 34.837649 ], [ -84.913886, 34.832662 ], [ -84.926068, 34.827859 ], [ -84.896407, 34.779282 ], [ -84.804008, 34.78287 ], [ -84.815533, 34.764695 ], [ -84.792416, 34.7631 ], [ -84.779407, 34.714063 ], [ -84.787575, 34.687426 ], [ -84.774956, 34.686921 ], [ -84.757653, 34.636857 ], [ -84.802198, 34.60839 ], [ -84.779654, 34.608322 ], [ -84.773852, 34.591159 ], [ -84.800618, 34.549767 ], [ -84.824907, 34.55135 ], [ -84.826074, 34.563257 ], [ -84.846657, 34.563028 ], [ -84.853538, 34.576201 ], [ -84.889378, 34.563006 ], [ -84.868442, 34.543472 ], [ -84.888917, 34.53284 ], [ -84.855961, 34.50773 ], [ -84.879039, 34.497253 ], [ -84.795875, 34.486011 ], [ -84.791668, 34.523635 ], [ -84.762008, 34.518332 ], [ -84.744389, 34.533021 ], [ -84.657695, 34.518669 ], [ -84.644532, 34.462989 ], [ -84.654038, 34.355176 ], [ -84.63327, 34.341643 ], [ -84.580115, 34.345912 ], [ -84.576849, 34.357577 ], [ -84.553285, 34.337552 ], [ -84.530363, 34.381026 ], [ -84.424523, 34.387994 ], [ -84.400774, 34.373266 ], [ -84.257586, 34.380992 ], [ -84.258075, 34.335156 ], [ -84.056426, 34.333923 ], [ -84.093704, 34.252006 ], [ -84.114326, 34.262481 ], [ -84.139335, 34.256114 ], [ -84.138717, 34.265541 ], [ -84.153007, 34.261054 ], [ -84.16526, 34.272911 ], [ -84.194801, 34.260723 ], [ -84.194725, 34.23941 ], [ -84.258689, 34.237094 ], [ -84.258529, 34.295047 ], [ -84.293269, 34.282468 ], [ -84.332422, 34.248374 ], [ -84.327262, 34.227692 ], [ -84.303723, 34.22238 ], [ -84.306646, 34.195062 ], [ -84.354094, 34.175025 ], [ -84.361332, 34.137024 ], [ -84.454713, 34.203284 ], [ -84.482472, 34.187357 ], [ -84.478847, 34.172854 ], [ -84.500304, 34.17331 ], [ -84.474899, 34.135028 ], [ -84.451115, 34.143235 ], [ -84.462732, 34.125415 ], [ -84.503143, 34.121259 ], [ -84.560486, 34.15852 ], [ -84.585933, 34.128705 ], [ -84.595845, 34.152423 ], [ -84.626026, 34.155916 ], [ -84.609555, 34.095411 ], [ -84.658477, 34.096442 ], [ -84.659234, 34.077999 ], [ -84.737836, 34.079399 ], [ -84.738438, 34.057396 ], [ -84.7649, 34.049814 ], [ -84.783448, 34.024299 ], [ -84.779189, 34.004825 ], [ -84.817885, 34.031225 ], [ -84.812435, 34.014538 ], [ -84.835098, 34.006259 ], [ -85.009564, 34.037173 ], [ -85.074749, 34.021419 ], [ -85.093059, 33.986578 ], [ -85.155178, 33.951509 ], [ -85.189612, 33.954201 ], [ -85.167246, 33.992775 ], [ -85.182337, 34.011554 ] ] ] } },
{ "type": "Feature", "properties": { "district_id": 4, "voting_age_pop": 532804, "lib_votes": 0, "grn_votes": 0, "con_votes": 0, "ref_votes": 0, "total_pop": 704745, "dem_votes_sum": 117495, "rep_votes_sum": 158300, "lib_votes_sum": 0, "grn_votes_sum": 0, "con_votes_sum": 0, "ref_votes_sum": 0, "minority_pop_sum": 262551, "dem_pct": 0.4260229518301637, "rep_pct": 0.5739770481698363, "lib_pct": 0.0, "grn_pct": 0.0, "con_pct": 0.0, "ref_pct": 0.0, "minority_pct": 0.37254751718706769, "compactness": 0.12707035061992164 }, "geometry": { "type": "Polygon", "coordinates": [ [ [ -83.612642, 31.804128 ], [ -83.827843, 31.810095 ], [ -83.845481, 31.831555 ], [ -83.85532, 31.819863 ], [ -83.85549, 31.837181 ], [ -83.938075, 31.845559 ], [ -83.926524, 31.863292 ], [ -83.925025, 31.948208 ], [ -83.961469, 32.035884 ], [ -83.980391, 32.044908 ], [ -83.987161, 32.071634 ], [ -83.974784, 32.091952 ], [ -83.997905, 32.101301 ], [ -84.033411, 32.153216 ], [ -84.029385, 32.182662 ], [ -83.96174, 32.250681 ], [ -83.897747, 32.280667 ], [ -83.895143, 32.292074 ], [ -83.848379, 32.29097 ], [ -83.85654, 32.382399 ], [ -83.837041, 32.382195 ], [ -83.836719, 32.414665 ], [ -83.846676, 32.468514 ], [ -83.900503, 32.496982 ], [ -83.922832, 32.497428 ], [ -83.931122, 32.483745 ], [ -83.923363, 32.511355 ], [ -83.971115, 32.505927 ], [ -83.987287, 32.514336 ], [ -84.034109, 32.497449 ], [ -84.034326, 32.513478 ], [ -84.053629, 32.513305 ], [ -84.05331, 32.522021 ], [ -84.111226, 32.514124 ], [ -84.133599, 32.490195 ], [ -84.13312, 32.5064 ], [ -84.16821, 32.506605 ], [ -84.166308, 32.531321 ], [ -84.210593, 32.531903 ], [ -84.226684, 32.54573 ], [ -84.220408, 32.555917 ], [ -84.251896, 32.559775 ], [ -84.242443, 32.543272 ], [ -84.267206, 32.552645 ], [ -84.263897, 32.565199 ], [ -84.22371, 32.566049 ], [ -84.18851, 32.599654 ], [ -84.244711, 32.61721 ], [ -84.228453, 32.636913 ], [ -84.25371, 32.640811 ], [ -84.264948, 32.692594 ], [ -84.289894, 32.688223 ], [ -84.291864, 32.699908 ], [ -84.338752, 32.684863 ], [ -84.33794, 32.720647 ], [ -84.288749, 32.736151 ], [ -84.286246, 32.747626 ], [ -84.262706, 32.739306 ], [ -84.255463, 32.722448 ], [ -84.237061, 32.738653 ], [ -84.236303, 32.721043 ], [ -84.219376, 32.720294 ], [ -84.202628, 32.690018 ], [ -84.149328, 32.801206 ], [ -84.124332, 32.800935 ], [ -84.122385, 32.993505 ], [ -84.102401, 33.036026 ], [ -84.105424, 33.046399 ], [ -84.12914, 33.035415 ], [ -84.145705, 33.044066 ], [ -84.141439, 33.054234 ], [ -84.10974, 33.052518 ], [ -84.106195, 33.071964 ], [ -84.141882, 33.062744 ], [ -84.156059, 33.074619 ], [ -84.118345, 33.099093 ], [ -84.096944, 33.090534 ], [ -84.094668, 33.112875 ], [ -84.074705, 33.126286 ], [ -84.0417, 33.12933 ], [ -84.040922, 33.165197 ], [ -84.041498, 33.202629 ], [ -84.123767, 33.202824 ], [ -84.122623, 33.252668 ], [ -84.102585, 33.272301 ], [ -84.095162, 33.261428 ], [ -84.068527, 33.264476 ], [ -84.017471, 33.290868 ], [ -83.974169, 33.294133 ], [ -83.980166, 33.304629 ], [ -83.958768, 33.314723 ], [ -83.926143, 33.306035 ], [ -83.937982, 33.289127 ], [ -83.884728, 33.286368 ], [ -83.770235, 33.331332 ], [ -83.755597, 33.346423 ], [ -83.79733, 33.363396 ], [ -83.763054, 33.409382 ], [ -83.735525, 33.416486 ], [ -83.757572, 33.442217 ], [ -83.753513, 33.467069 ], [ -83.704743, 33.488518 ], [ -83.703506, 33.524212 ], [ -83.736055, 33.559972 ], [ -83.710673, 33.576934 ], [ -83.679591, 33.574017 ], [ -83.687386, 33.588559 ], [ -83.639195, 33.649296 ], [ -83.549708, 33.622666 ], [ -83.448099, 33.644325 ], [ -83.434219, 33.718975 ], [ -83.470657, 33.784167 ], [ -83.421579, 33.807955 ], [ -83.36767, 33.710272 ], [ -83.291543, 33.734285 ], [ -83.297226, 33.696441 ], [ -83.282966, 33.661683 ], [ -83.236022, 33.685168 ], [ -83.186985, 33.66603 ], [ -83.223217, 33.660324 ], [ -83.227408, 33.641799 ], [ -83.126444, 33.659445 ], [ -83.101351, 33.639314 ], [ -83.117861, 33.621744 ], [ -83.11617, 33.602125 ], [ -83.040577, 33.573904 ], [ -83.010873, 33.585597 ], [ -82.986035, 33.520356 ], [ -82.985588, 33.489841 ], [ -83.012853, 33.469178 ], [ -82.999076, 33.459611 ], [ -83.010554, 33.43501 ], [ -82.980644, 33.389397 ], [ -82.984821, 33.361153 ], [ -82.950062, 33.375027 ], [ -82.898081, 33.341451 ], [ -82.799467, 33.33117 ], [ -82.795682, 33.324016 ], [ -82.880228, 33.286386 ], [ -82.880936, 33.270287 ], [ -82.857694, 33.257249 ], [ -82.851214, 33.22017 ], [ -82.841267, 33.206773 ], [ -82.826616, 33.208629 ], [ -82.855046, 33.196427 ], [ -82.888866, 33.138603 ], [ -82.949928, 33.107753 ], [ -82.970138, 33.10928 ], [ -83.00874, 33.080849 ], [ -83.052197, 33.080682 ], [ -83.044844, 33.060654 ], [ -83.067909, 33.024842 ], [ -83.052628, 32.980626 ], [ -82.991667, 32.961219 ], [ -82.956359, 32.96326 ], [ -82.884763, 32.927625 ], [ -82.924838, 32.88622 ], [ -82.907475, 32.875247 ], [ -82.809397, 32.854368 ], [ -82.769277, 32.880268 ], [ -82.693316, 32.889763 ], [ -82.68398, 32.862096 ], [ -82.638563, 32.831752 ], [ -82.623932, 32.847333 ], [ -82.606381, 32.835341 ], [ -82.582314, 32.84749 ], [ -82.591045, 32.828635 ], [ -82.574424, 32.815676 ], [ -82.666957, 32.782859 ], [ -82.680757, 32.79676 ], [ -82.768568, 32.769077 ], [ -82.775017, 32.794491 ], [ -82.802456, 32.809756 ], [ -82.946966, 32.759358 ], [ -82.956851, 32.707352 ], [ -82.941061, 32.700189 ], [ -82.921588, 32.626458 ], [ -82.907834, 32.607284 ], [ -82.886861, 32.61055 ], [ -82.89038, 32.588088 ], [ -82.875282, 32.569986 ], [ -82.851335, 32.581128 ], [ -82.830705, 32.57609 ], [ -82.82645, 32.559727 ], [ -82.784865, 32.547984 ], [ -82.770756, 32.521087 ], [ -82.690992, 32.528543 ], [ -82.647733, 32.512507 ], [ -82.657148, 32.507083 ], [ -82.635546, 32.496059 ], [ -82.64858, 32.467238 ], [ -82.693958, 32.454146 ], [ -82.697617, 32.407173 ], [ -82.748732, 32.32915 ], [ -82.707551, 32.298065 ], [ -82.673001, 32.29363 ], [ -82.668346, 32.30429 ], [ -82.644697, 32.295436 ], [ -82.651542, 32.286476 ], [ -82.636634, 32.269142 ], [ -82.649154, 32.245544 ], [ -82.625526, 32.206794 ], [ -82.626548, 32.169463 ], [ -82.612869, 32.16164 ], [ -82.630416, 32.131667 ], [ -82.611221, 32.106464 ], [ -82.622627, 32.081629 ], [ -82.602165, 32.076271 ], [ -82.548371, 32.104294 ], [ -82.564708, 32.131413 ], [ -82.545293, 32.142583 ], [ -82.525981, 32.126314 ], [ -82.534319, 32.088449 ], [ -82.495501, 32.068901 ], [ -82.500745, 32.052313 ], [ -82.470176, 32.048016 ], [ -82.462797, 32.095605 ], [ -82.396941, 32.128239 ], [ -82.370856, 32.107632 ], [ -82.307997, 31.935067 ], [ -82.377149, 31.941693 ], [ -82.371549, 31.953493 ], [ -82.383151, 31.959458 ], [ -82.387138, 31.948184 ], [ -82.400842, 31.960286 ], [ -82.406345, 31.949288 ], [ -82.431531, 31.966182 ], [ -82.431362, 31.837993 ], [ -82.520251, 31.838388 ], [ -82.523122, 31.790805 ], [ -82.565577, 31.800344 ], [ -82.610763, 31.793719 ], [ -82.619956, 31.816419 ], [ -82.608185, 31.848283 ], [ -82.617804, 31.848504 ], [ -82.602841, 31.864252 ], [ -82.653508, 31.864426 ], [ -82.655065, 31.849373 ], [ -82.686237, 31.85984 ], [ -82.686553, 31.881225 ], [ -82.716357, 31.871892 ], [ -82.706062, 31.898482 ], [ -82.67686, 31.910282 ], [ -82.682361, 31.920482 ], [ -82.645582, 31.920239 ], [ -82.695178, 31.956883 ], [ -82.729112, 32.006878 ], [ -82.752571, 32.00838 ], [ -82.811393, 31.954188 ], [ -82.837635, 31.975544 ], [ -82.877464, 31.933756 ], [ -82.928432, 31.926273 ], [ -82.987446, 31.976951 ], [ -82.940336, 32.001906 ], [ -82.980374, 32.00799 ], [ -82.992973, 32.023584 ], [ -82.980183, 32.028565 ], [ -82.987694, 32.034986 ], [ -82.916537, 32.051665 ], [ -82.920993, 32.060184 ], [ -82.888042, 32.080784 ], [ -82.901958, 32.110304 ], [ -82.940242, 32.124892 ], [ -82.927865, 32.135274 ], [ -82.934566, 32.153274 ], [ -82.955466, 32.135274 ], [ -82.942066, 32.124074 ], [ -82.999471, 32.074765 ], [ -83.061201, 32.089998 ], [ -83.057007, 32.139066 ], [ -83.037998, 32.159087 ], [ -83.073294, 32.176277 ], [ -83.092925, 32.148229 ], [ -83.131002, 32.144101 ], [ -83.124482, 32.132644 ], [ -83.167223, 32.0963 ], [ -83.153385, 32.084621 ], [ -83.18078, 32.063682 ], [ -83.158342, 32.039465 ], [ -83.185764, 32.02263 ], [ -83.185937, 32.042859 ], [ -83.209566, 32.063369 ], [ -83.200452, 32.092036 ], [ -83.296439, 32.038522 ], [ -83.308565, 32.049768 ], [ -83.294864, 32.078761 ], [ -83.310334, 32.092429 ], [ -83.317994, 32.085903 ], [ -83.324559, 32.103985 ], [ -83.35887, 32.105947 ], [ -83.361113, 32.124092 ], [ -83.413091, 32.13326 ], [ -83.435657, 32.117244 ], [ -83.55083, 32.126165 ], [ -83.55102, 32.118139 ], [ -83.608547, 32.118405 ], [ -83.612642, 31.804128 ] ], [ [ -84.051524, 32.52205 ], [ -84.007258, 32.522967 ], [ -84.000559, 32.521544 ], [ -84.003363, 32.529927 ], [ -84.052952, 32.530602 ], [ -84.051524, 32.52205 ] ] ] } },
{ "type": "Feature", "properties": { "district_id": 5, "voting_age_pop": 513816, "lib_votes": 0, "grn_votes": 0, "con_votes": 0, "ref_votes": 0, "total_pop": 688264, "dem_votes_sum": 97013, "rep_votes_sum": 147404, "lib_votes_sum": 0, "grn_votes_sum": 0, "con_votes_sum": 0, "ref_votes_sum": 0, "minority_pop_sum": 257608, "dem_pct": 0.39691592646992641, "rep_pct": 0.60308407353007365, "lib_pct": 0.0, "grn_pct": 0.0, "con_pct": 0.0, "ref_pct": 0.0, "minority_pct": 0.37428661095161159, "compactness": 0.29795831337929923 }, "geometry": { "type": "Polygon", "coordinates": [ [ [ -83.256221, 30.631238 ], [ -84.864693, 30.711542 ], [ -84.896122, 30.750591 ], [ -84.914022, 30.752991 ], [ -84.937424, 30.820889 ], [ -84.925665, 30.842685 ], [ -84.934424, 30.883588 ], [ -84.983127, 30.934786 ], [ -84.982527, 30.965586 ], [ -85.005734, 30.975908 ], [ -84.999428, 31.013844 ], [ -85.035615, 31.108192 ], [ -85.076628, 31.156927 ], [ -85.100207, 31.16549 ], [ -85.107676, 31.187436 ], [ -85.096763, 31.225651 ], [ -85.114601, 31.277333 ], [ -85.089774, 31.295026 ], [ -85.092327, 31.364049 ], [ -85.041361, 31.542495 ], [ -85.05796, 31.57084 ], [ -85.058169, 31.620227 ], [ -85.086229, 31.638567 ], [ -85.079129, 31.654766 ], [ -85.12553, 31.694965 ], [ -85.11893, 31.732664 ], [ -85.12553, 31.767863 ], [ -85.141831, 31.781263 ], [ -85.131231, 31.815262 ], [ -85.141831, 31.839861 ], [ -85.134131, 31.89216 ], [ -85.11203, 31.89476 ], [ -85.113131, 31.911859 ], [ -85.07893, 31.940159 ], [ -85.08673, 31.959158 ], [ -85.067829, 31.967358 ], [ -85.06823, 31.991857 ], [ -85.042029, 31.975658 ], [ -85.001128, 31.983857 ], [ -85.001228, 31.975957 ], [ -84.9537, 31.974781 ], [ -84.973701, 31.959299 ], [ -84.950051, 31.94214 ], [ -84.973912, 31.893142 ], [ -84.969638, 31.821587 ], [ -85.017889, 31.778732 ], [ -84.95864, 31.777854 ], [ -84.958864, 31.734606 ], [ -84.910833, 31.731378 ], [ -84.893826, 31.745174 ], [ -84.874161, 31.735719 ], [ -84.806876, 31.76668 ], [ -84.785051, 31.814734 ], [ -84.780507, 31.854481 ], [ -84.798486, 31.922799 ], [ -84.45331, 31.919224 ], [ -84.438699, 31.98015 ], [ -84.424319, 31.970424 ], [ -84.378789, 31.994712 ], [ -84.308231, 32.009884 ], [ -84.196775, 32.014505 ], [ -84.159896, 32.030458 ], [ -84.175088, 32.041659 ], [ -84.164325, 32.118326 ], [ -84.129442, 32.113287 ], [ -84.069942, 32.14125 ], [ -84.029033, 32.142263 ], [ -84.009041, 32.130882 ], [ -83.997239, 32.100642 ], [ -83.974784, 32.091952 ], [ -83.987161, 32.071634 ], [ -83.980391, 32.044908 ], [ -83.961469, 32.035884 ], [ -83.925025, 31.948208 ], [ -83.919184, 31.921761 ], [ -83.937622, 31.844921 ], [ -83.85549, 31.837181 ], [ -83.85532, 31.819863 ], [ -83.845481, 31.831555 ], [ -83.807491, 31.804082 ], [ -83.612642, 31.804128 ], [ -83.608547, 32.118405 ], [ -83.55102, 32.118139 ], [ -83.55083, 32.126165 ], [ -83.435657, 32.117244 ], [ -83.413091, 32.13326 ], [ -83.361113, 32.124092 ], [ -83.35887, 32.105947 ], [ -83.324559, 32.103985 ], [ -83.317994, 32.085903 ], [ -83.310334, 32.092429 ], [ -83.294864, 32.078761 ], [ -83.308565, 32.049768 ], [ -83.296439, 32.038522 ], [ -83.200452, 32.092036 ], [ -83.209566, 32.063369 ], [ -83.185937, 32.042859 ], [ -83.185764, 32.02263 ], [ -83.158342, 32.039465 ], [ -83.18078, 32.063682 ], [ -83.153385, 32.084621 ], [ -83.167223, 32.0963 ], [ -83.124482, 32.132644 ], [ -83.131002, 32.144101 ], [ -83.092925, 32.148229 ], [ -83.073294, 32.176277 ], [ -83.037998, 32.159087 ], [ -83.057007, 32.139066 ], [ -83.061201, 32.089998 ], [ -82.999471, 32.074765 ], [ -82.942066, 32.124074 ], [ -82.955466, 32.135274 ], [ -82.934566, 32.153274 ], [ -82.927865, 32.135274 ], [ -82.940242, 32.124892 ], [ -82.901958, 32.110304 ], [ -82.888042, 32.080784 ], [ -82.920993, 32.060184 ], [ -82.916537, 32.051665 ], [ -82.987694, 32.034986 ], [ -82.980183, 32.028565 ], [ -82.992973, 32.023584 ], [ -82.980374, 32.00799 ], [ -82.940336, 32.001906 ], [ -82.987446, 31.976951 ], [ -82.92812, 31.926055 ], [ -82.877464, 31.933756 ], [ -82.837635, 31.975544 ], [ -82.811393, 31.954188 ], [ -82.752571, 32.00838 ], [ -82.729112, 32.006878 ], [ -82.695178, 31.956883 ], [ -82.645582, 31.920239 ], [ -82.682361, 31.920482 ], [ -82.67606, 31.911482 ], [ -82.715362, 31.889082 ], [ -82.715291, 31.870689 ], [ -82.686553, 31.881225 ], [ -82.686237, 31.85984 ], [ -82.655065, 31.849373 ], [ -82.653508, 31.864426 ], [ -82.602841, 31.864252 ], [ -82.617804, 31.848504 ], [ -82.608185, 31.848283 ], [ -82.619956, 31.816419 ], [ -82.610763, 31.793719 ], [ -82.565577, 31.800344 ], [ -82.520523, 31.79153 ], [ -82.520158, 31.74919 ], [ -82.550691, 31.749112 ], [ -82.550714, 31.736334 ], [ -82.520567, 31.736201 ], [ -82.521393, 31.672512 ], [ -82.559915, 31.671378 ], [ -82.527898, 31.619061 ], [ -82.4928, 31.593626 ], [ -82.513976, 31.583556 ], [ -82.500308, 31.566774 ], [ -82.536662, 31.562883 ], [ -82.536201, 31.544718 ], [ -82.596522, 31.532002 ], [ -82.597509, 31.469293 ], [ -82.628181, 31.469351 ], [ -82.628975, 31.36393 ], [ -82.761694, 31.364303 ], [ -82.769007, 31.336041 ], [ -82.789088, 31.327335 ], [ -82.773347, 31.309704 ], [ -82.802213, 31.289059 ], [ -82.798207, 31.270371 ], [ -82.764294, 31.262944 ], [ -82.774649, 31.240085 ], [ -82.789874, 31.242957 ], [ -82.784361, 31.183269 ], [ -82.971247, 31.183988 ], [ -82.971336, 30.869392 ], [ -83.006577, 30.85947 ], [ -83.013962, 30.844709 ], [ -83.088082, 30.848658 ], [ -83.088099, 30.831193 ], [ -83.228289, 30.825922 ], [ -83.27381, 30.751077 ], [ -83.235246, 30.678041 ], [ -83.256221, 30.631238 ] ] ] } },
{ "type": "Feature", "properties": { "district_id": 6, "voting_age_pop": 530499, "lib_votes": 0, "grn_votes": 0, "con_votes": 0, "ref_votes": 0, "total_pop": 712387, "dem_votes_sum": 119017, "rep_votes_sum": 169010, "lib_votes_sum": 0, "grn_votes_sum": 0, "con_votes_sum": 0, "ref_votes_sum": 0, "minority_pop_sum": 232220, "dem_pct": 0.41321473334097153, "rep_pct": 0.58678526665902853, "lib_pct": 0.0, "grn_pct": 0.0, "con_pct": 0.0, "ref_pct": 0.0, "minority_pct": 0.3259745054303349, "compactness": 0.16805537809513829 }, "geometry": { "type": "MultiPolygon", "coordinates": [ [ [ [ -85.01652, 31.780301 ], [ -84.969638, 31.821587 ], [ -84.973912, 31.893142 ], [ -84.950051, 31.94214 ], [ -84.973701, 31.959299 ], [ -84.9537, 31.974781 ], [ -85.001228, 31.975957 ], [ -85.001128, 31.983857 ], [ -85.042029, 31.975658 ], [ -85.06823, 31.991857 ], [ -85.048825, 32.021701 ], [ -85.05883, 32.046956 ], [ -85.044761, 32.085836 ], [ -85.06206, 32.132486 ], [ -85.011267, 32.180493 ], [ -84.963728, 32.195852 ], [ -84.980229, 32.207751 ], [ -84.973328, 32.21765 ], [ -84.928227, 32.219851 ], [ -84.912727, 32.24335 ], [ -84.924427, 32.250149 ], [ -84.888246, 32.25967 ], [ -84.934648, 32.298916 ], [ -85.006402, 32.326757 ], [ -85.004582, 32.345196 ], [ -84.972154, 32.376914 ], [ -84.98841, 32.385216 ], [ -84.96873, 32.391457 ], [ -84.980954, 32.406064 ], [ -84.96303, 32.424244 ], [ -84.99533, 32.453243 ], [ -85.0071, 32.523868 ], [ -85.067535, 32.579546 ], [ -85.090886, 32.625135 ], [ -85.083118, 32.636161 ], [ -85.104532, 32.641011 ], [ -85.088483, 32.657758 ], [ -85.117037, 32.692033 ], [ -85.113329, 32.735751 ], [ -85.142987, 32.759934 ], [ -85.122326, 32.774383 ], [ -85.1684, 32.812756 ], [ -85.153388, 32.844865 ], [ -85.184888, 32.863355 ], [ -85.322536, 33.574166 ], [ -85.224367, 33.585077 ], [ -85.23116, 33.560575 ], [ -85.213736, 33.563835 ], [ -85.222163, 33.52808 ], [ -85.209027, 33.523969 ], [ -85.181829, 33.54092 ], [ -85.159717, 33.534796 ], [ -85.162528, 33.554813 ], [ -85.144909, 33.568564 ], [ -85.117145, 33.567879 ], [ -85.116038, 33.556416 ], [ -85.107963, 33.567023 ], [ -85.107761, 33.552185 ], [ -85.086047, 33.557316 ], [ -85.083848, 33.539794 ], [ -85.048247, 33.568537 ], [ -85.040287, 33.541117 ], [ -85.028934, 33.550282 ], [ -85.038287, 33.570549 ], [ -85.017914, 33.565842 ], [ -85.016842, 33.572646 ], [ -85.016307, 33.574057 ], [ -85.01439, 33.57709 ], [ -85.042774, 33.574546 ], [ -85.035465, 33.596333 ], [ -85.022938, 33.590934 ], [ -85.023089, 33.616044 ], [ -85.023148, 33.604223 ], [ -85.043188, 33.598519 ], [ -85.042793, 33.612093 ], [ -85.053819, 33.604782 ], [ -85.064214, 33.616656 ], [ -85.044404, 33.636761 ], [ -84.96846, 33.611495 ], [ -84.951802, 33.639689 ], [ -84.934048, 33.639572 ], [ -84.929337, 33.622961 ], [ -84.908361, 33.64448 ], [ -84.905788, 33.573378 ], [ -84.808934, 33.574085 ], [ -84.8326, 33.547061 ], [ -84.815869, 33.520249 ], [ -84.849311, 33.513184 ], [ -84.85529, 33.495947 ], [ -84.902467, 33.475848 ], [ -84.929805, 33.443046 ], [ -84.88133, 33.424429 ], [ -84.879657, 33.396881 ], [ -84.859237, 33.391922 ], [ -84.85306, 33.411524 ], [ -84.81843, 33.386194 ], [ -84.832844, 33.364888 ], [ -84.856025, 33.378658 ], [ -84.893513, 33.337172 ], [ -84.866004, 33.319516 ], [ -84.842088, 33.342973 ], [ -84.843782, 33.333501 ], [ -84.796931, 33.339878 ], [ -84.700001, 33.282024 ], [ -84.672809, 33.340933 ], [ -84.703891, 33.354295 ], [ -84.671619, 33.381348 ], [ -84.661922, 33.36018 ], [ -84.642903, 33.360042 ], [ -84.651656, 33.386229 ], [ -84.590948, 33.397379 ], [ -84.585271, 33.409602 ], [ -84.607124, 33.437697 ], [ -84.588718, 33.446233 ], [ -84.585722, 33.478733 ], [ -84.55756, 33.465893 ], [ -84.536467, 33.489195 ], [ -84.480924, 33.485027 ], [ -84.45701, 33.501233 ], [ -84.433299, 33.487493 ], [ -84.4469, 33.468317 ], [ -84.422414, 33.456 ], [ -84.397705, 33.485881 ], [ -84.37005, 33.453034 ], [ -84.321013, 33.448222 ], [ -84.29431, 33.458082 ], [ -84.294677, 33.435668 ], [ -84.253764, 33.441706 ], [ -84.246173, 33.395888 ], [ -84.215579, 33.406006 ], [ -84.212457, 33.39402 ], [ -84.219385, 33.377607 ], [ -84.247123, 33.370914 ], [ -84.247269, 33.335813 ], [ -84.150581, 33.335639 ], [ -84.150909, 33.312982 ], [ -84.088991, 33.285646 ], [ -84.122623, 33.252668 ], [ -84.123767, 33.202824 ], [ -84.041498, 33.202629 ], [ -84.041355, 33.129603 ], [ -84.074705, 33.126286 ], [ -84.094668, 33.112875 ], [ -84.096944, 33.090534 ], [ -84.118345, 33.099093 ], [ -84.156059, 33.074619 ], [ -84.141882, 33.062744 ], [ -84.106195, 33.071964 ], [ -84.10974, 33.052518 ], [ -84.141439, 33.054234 ], [ -84.145705, 33.044066 ], [ -84.12914, 33.035415 ], [ -84.105424, 33.046399 ], [ -84.102401, 33.036026 ], [ -84.122385, 32.993505 ], [ -84.124332, 32.800935 ], [ -84.149328, 32.801206 ], [ -84.202628, 32.690018 ], [ -84.219376, 32.720294 ], [ -84.236303, 32.721043 ], [ -84.23297, 32.736378 ], [ -84.255463, 32.722448 ], [ -84.262706, 32.739306 ], [ -84.286246, 32.747626 ], [ -84.288749, 32.736151 ], [ -84.33794, 32.720647 ], [ -84.338752, 32.684863 ], [ -84.291864, 32.699908 ], [ -84.289894, 32.688223 ], [ -84.264948, 32.692594 ], [ -84.25371, 32.640811 ], [ -84.228453, 32.636913 ], [ -84.244711, 32.61721 ], [ -84.18851, 32.599654 ], [ -84.22371, 32.566049 ], [ -84.263897, 32.565199 ], [ -84.267206, 32.552645 ], [ -84.242443, 32.543272 ], [ -84.251896, 32.559775 ], [ -84.220408, 32.555917 ], [ -84.226684, 32.54573 ], [ -84.210593, 32.531903 ], [ -84.166308, 32.531321 ], [ -84.16821, 32.506605 ], [ -84.13312, 32.5064 ], [ -84.133599, 32.490195 ], [ -84.111226, 32.514124 ], [ -84.07216, 32.521904 ], [ -84.034326, 32.513478 ], [ -84.034109, 32.497449 ], [ -83.987287, 32.514336 ], [ -83.971115, 32.505927 ], [ -83.923363, 32.511355 ], [ -83.931122, 32.483745 ], [ -83.922832, 32.497428 ], [ -83.900503, 32.496982 ], [ -83.849377, 32.472872 ], [ -83.837041, 32.382195 ], [ -83.85654, 32.382399 ], [ -83.848379, 32.29097 ], [ -83.895143, 32.292074 ], [ -83.89762, 32.280746 ], [ -83.965121, 32.248005 ], [ -84.029465, 32.182547 ], [ -84.033411, 32.153216 ], [ -84.021927, 32.139626 ], [ -84.069942, 32.14125 ], [ -84.129442, 32.113287 ], [ -84.165719, 32.117154 ], [ -84.175088, 32.041659 ], [ -84.159896, 32.030458 ], [ -84.217845, 32.007002 ], [ -84.308231, 32.009884 ], [ -84.378789, 31.994712 ], [ -84.424267, 31.970433 ], [ -84.438699, 31.98015 ], [ -84.45331, 31.919224 ], [ -84.798486, 31.922799 ], [ -84.780507, 31.854481 ], [ -84.785051, 31.814734 ], [ -84.806876, 31.76668 ], [ -84.873001, 31.735968 ], [ -84.894155, 31.745169 ], [ -84.910833, 31.731378 ], [ -84.958864, 31.734606 ], [ -84.95864, 31.777854 ], [ -85.01652, 31.780301 ] ], [ [ -85.054041, 33.560742 ], [ -85.048894, 33.557792 ], [ -85.049027, 33.562903 ], [ -85.054041, 33.560742 ] ], [ [ -85.089218, 33.55295 ], [ -85.086268, 33.54996 ], [ -85.086733, 33.553797 ], [ -85.089218, 33.55295 ] ], [ [ -85.01493, 33.574921 ], [ -85.014965, 33.575748 ], [ -85.015649, 33.574879 ], [ -85.01493, 33.574921 ] ] ], [ [ [ -85.074679, 33.549723 ], [ -85.077787, 33.550179 ], [ -85.074671, 33.550153 ], [ -85.074679, 33.549723 ] ] ], [ [ [ -85.041108, 33.591572 ], [ -85.03835, 33.589282 ], [ -85.038365, 33.588048 ], [ -85.041108, 33.591572 ] ] ], [ [ [ -85.039877, 33.593552 ], [ -85.038998, 33.594107 ], [ -85.039319, 33.593377 ], [ -85.039877, 33.593552 ] ] ], [ [ [ -85.035447, 33.599191 ], [ -85.036171, 33.599417 ], [ -85.034017, 33.599434 ], [ -85.035447, 33.599191 ] ] ], [ [ [ -84.05331, 32.522021 ], [ -84.003363, 32.529927 ], [ -84.000687, 32.521015 ], [ -84.05331, 32.522021 ] ] ] ] } },
{ "type": "Feature", "properties": { "district_id": 7, "voting_age_pop": 515458, "lib_votes": 0, "grn_votes": 0, "con_votes": 0, "ref_votes": 0, "total_pop": 684621, "dem_votes_sum": 102387, "rep_votes_sum": 148615, "lib_votes_sum": 0, "grn_votes_sum": 0, "con_votes_sum": 0, "ref_votes_sum": 0, "minority_pop_sum": 207532, "dem_pct": 0.40791308435789358, "rep_pct": 0.59208691564210647, "lib_pct": 0.0, "grn_pct": 0.0, "con_pct": 0.0, "ref_pct": 0.0, "minority_pct": 0.3031341428323116, "compactness": 0.20515061421180109 }, "geometry": { "type": "Polygon", "coordinates": [ [ [ -82.214677, 30.568556 ], [ -83.256221, 30.631238 ], [ -83.235221, 30.677817 ], [ -83.27381, 30.751077 ], [ -83.267747, 30.770003 ], [ -83.228289, 30.825922 ], [ -83.088099, 30.831193 ], [ -83.088082, 30.848658 ], [ -83.013962, 30.844709 ], [ -83.006577, 30.85947 ], [ -82.971336, 30.869392 ], [ -82.971247, 31.183988 ], [ -82.784361, 31.183269 ], [ -82.789874, 31.242957 ], [ -82.774649, 31.240085 ], [ -82.764294, 31.262944 ], [ -82.798962, 31.271148 ], [ -82.802213, 31.289059 ], [ -82.7731, 31.310423 ], [ -82.789088, 31.327335 ], [ -82.769007, 31.336041 ], [ -82.761694, 31.364303 ], [ -82.628975, 31.36393 ], [ -82.628181, 31.469351 ], [ -82.597509, 31.469293 ], [ -82.596522, 31.532002 ], [ -82.536201, 31.544718 ], [ -82.536662, 31.562883 ], [ -82.500308, 31.566774 ], [ -82.513976, 31.583556 ], [ -82.4928, 31.593626 ], [ -82.527898, 31.619061 ], [ -82.559915, 31.671378 ], [ -82.521393, 31.672512 ], [ -82.520567, 31.736201 ], [ -82.550714, 31.736334 ], [ -82.550691, 31.749112 ], [ -82.520158, 31.74919 ], [ -82.520251, 31.838388 ], [ -82.431362, 31.837993 ], [ -82.431531, 31.966182 ], [ -82.407245, 31.949488 ], [ -82.400842, 31.960286 ], [ -82.387138, 31.948184 ], [ -82.385483, 31.960217 ], [ -82.371549, 31.953493 ], [ -82.377149, 31.941693 ], [ -82.308282, 31.933846 ], [ -82.322787, 32.000977 ], [ -82.346535, 32.020339 ], [ -82.370913, 32.109181 ], [ -82.331554, 32.183088 ], [ -82.346948, 32.186242 ], [ -82.3489, 32.209547 ], [ -82.327292, 32.225471 ], [ -82.331886, 32.248841 ], [ -82.302764, 32.293673 ], [ -82.354546, 32.292194 ], [ -82.358787, 32.318646 ], [ -82.410175, 32.355578 ], [ -82.38194, 32.440596 ], [ -82.411859, 32.459058 ], [ -82.429503, 32.505916 ], [ -82.405413, 32.516834 ], [ -82.401967, 32.506338 ], [ -82.376006, 32.50264 ], [ -82.348583, 32.543954 ], [ -82.335001, 32.511071 ], [ -82.313076, 32.540539 ], [ -82.303612, 32.500133 ], [ -82.255606, 32.503785 ], [ -82.218594, 32.482146 ], [ -82.222286, 32.51109 ], [ -82.183495, 32.460141 ], [ -82.148338, 32.520429 ], [ -82.079842, 32.560063 ], [ -82.030233, 32.53877 ], [ -82.001505, 32.606878 ], [ -81.943379, 32.62202 ], [ -81.896842, 32.549093 ], [ -81.877858, 32.563035 ], [ -81.854706, 32.52508 ], [ -81.809905, 32.509562 ], [ -81.793778, 32.517944 ], [ -81.754311, 32.473937 ], [ -81.711782, 32.485127 ], [ -81.701876, 32.437105 ], [ -81.783594, 32.446996 ], [ -81.799754, 32.416269 ], [ -81.816136, 32.436283 ], [ -81.863189, 32.413531 ], [ -81.859386, 32.339585 ], [ -81.814142, 32.299885 ], [ -81.795513, 32.239369 ], [ -81.806699, 32.205132 ], [ -81.781308, 32.176499 ], [ -81.77729, 32.131939 ], [ -81.756599, 32.104649 ], [ -81.692855, 32.088417 ], [ -81.672981, 32.063941 ], [ -81.64373, 32.053711 ], [ -81.604339, 32.010834 ], [ -81.593429, 31.97135 ], [ -81.564544, 31.959593 ], [ -81.485481, 31.963642 ], [ -81.476112, 31.974302 ], [ -81.463844, 31.950014 ], [ -81.42488, 31.938158 ], [ -81.337586, 31.952371 ], [ -81.33207, 31.961869 ], [ -81.312188, 31.950106 ], [ -81.336795, 31.864084 ], [ -81.304811, 31.828364 ], [ -81.300878, 31.850628 ], [ -81.261953, 31.881079 ], [ -81.261231, 31.900123 ], [ -81.31124, 31.912143 ], [ -81.311058, 31.929434 ], [ -81.242535, 31.978165 ], [ -81.182871, 31.983736 ], [ -81.19979, 32.000754 ], [ -81.148171, 32.031894 ], [ -81.155553, 32.050584 ], [ -81.180288, 32.047597 ], [ -81.17751, 32.067852 ], [ -81.134635, 32.07209 ], [ -81.131087, 32.081529 ], [ -81.165418, 32.105227 ], [ -81.136785, 32.128102 ], [ -81.136972, 32.154542 ], [ -81.112236, 32.150804 ], [ -81.111131, 32.112011 ], [ -81.050317, 32.085324 ], [ -81.002318, 32.100056 ], [ -80.918003, 32.037579 ], [ -80.751429, 32.033468 ], [ -80.780693, 32.01137 ], [ -80.796272, 31.953459 ], [ -80.855339, 31.910809 ], [ -80.928589, 31.816982 ], [ -80.970726, 31.798353 ], [ -81.013812, 31.728643 ], [ -81.056623, 31.714875 ], [ -81.049789, 31.688633 ], [ -81.066635, 31.657328 ], [ -81.087067, 31.529158 ], [ -81.190758, 31.399876 ], [ -81.171089, 31.370323 ], [ -81.186119, 31.326796 ], [ -81.187675, 31.246258 ], [ -81.234337, 31.170258 ], [ -81.296417, 31.15188 ], [ -81.290199, 31.093494 ], [ -81.313637, 31.067852 ], [ -81.345306, 31.059362 ], [ -81.353416, 31.037121 ], [ -81.310709, 30.997329 ], [ -81.304832, 30.970774 ], [ -81.345207, 30.931503 ], [ -81.362682, 30.845926 ], [ -81.400482, 30.766426 ], [ -81.359146, 30.744314 ], [ -81.347015, 30.712444 ], [ -81.451241, 30.709484 ], [ -81.488464, 30.726309 ], [ -81.532295, 30.724091 ], [ -81.538391, 30.708656 ], [ -81.548377, 30.718279 ], [ -81.596176, 30.718666 ], [ -81.601882, 30.729586 ], [ -81.60987, 30.715933 ], [ -81.624366, 30.73634 ], [ -81.652153, 30.72887 ], [ -81.662323, 30.754177 ], [ -81.683096, 30.748492 ], [ -81.672494, 30.73879 ], [ -81.72013, 30.744719 ], [ -81.76172, 30.775698 ], [ -81.78263, 30.761454 ], [ -81.793075, 30.787251 ], [ -81.868515, 30.792906 ], [ -81.901245, 30.82988 ], [ -81.909111, 30.81568 ], [ -81.949806, 30.827764 ], [ -81.97364, 30.778719 ], [ -82.007674, 30.793037 ], [ -82.02288, 30.787706 ], [ -82.011603, 30.761878 ], [ -82.036773, 30.754434 ], [ -82.045527, 30.727881 ], [ -82.035927, 30.706205 ], [ -82.049023, 30.655295 ], [ -82.005401, 30.563574 ], [ -82.01905, 30.533012 ], [ -82.016906, 30.475111 ], [ -82.043762, 30.414869 ], [ -82.037157, 30.372033 ], [ -82.066184, 30.355757 ], [ -82.105241, 30.368896 ], [ -82.161777, 30.357111 ], [ -82.192786, 30.379065 ], [ -82.21086, 30.425379 ], [ -82.20124, 30.485114 ], [ -82.240403, 30.53777 ], [ -82.214677, 30.568556 ] ] ] } },
{ "type": "Feature", "properties": { "district_id": 8, "voting_age_pop": 555394, "lib_votes": 0, "grn_votes": 0, "con_votes": 0, "ref_votes": 0, "total_pop": 723726, "dem_votes_sum": 73245, "rep_votes_sum": 213606, "lib_votes_sum": 0, "grn_votes_sum": 0, "con_votes_sum": 0, "ref_votes_sum": 0, "minority_pop_sum": 67199, "dem_pct": 0.25534162335149607, "rep_pct": 0.74465837664850387, "lib_pct": 0.0, "grn_pct": 0.0, "con_pct": 0.0, "ref_pct": 0.0, "minority_pct": 0.092851438251492974, "compactness": 0.15969379140138845 }, "geometry": { "type": "Polygon", "coordinates": [ [ [ -84.654038, 34.355176 ], [ -84.644532, 34.462989 ], [ -84.66798, 34.523557 ], [ -84.692553, 34.517182 ], [ -84.728628, 34.533612 ], [ -84.762008, 34.518332 ], [ -84.791411, 34.523716 ], [ -84.796378, 34.485929 ], [ -84.881019, 34.499048 ], [ -84.855937, 34.507571 ], [ -84.888917, 34.53284 ], [ -84.868442, 34.543472 ], [ -84.889378, 34.563006 ], [ -84.853538, 34.576201 ], [ -84.846657, 34.563028 ], [ -84.826074, 34.563257 ], [ -84.824907, 34.55135 ], [ -84.800618, 34.549767 ], [ -84.773852, 34.591159 ], [ -84.779654, 34.608322 ], [ -84.802198, 34.60839 ], [ -84.757653, 34.636857 ], [ -84.774956, 34.686921 ], [ -84.787575, 34.687426 ], [ -84.779407, 34.714063 ], [ -84.792416, 34.7631 ], [ -84.815533, 34.764695 ], [ -84.804008, 34.78287 ], [ -84.896407, 34.779282 ], [ -84.926068, 34.827859 ], [ -84.913886, 34.832662 ], [ -84.931477, 34.837649 ], [ -84.889212, 34.867894 ], [ -84.84432, 34.853114 ], [ -84.819875, 34.865981 ], [ -84.833369, 34.896829 ], [ -84.824111, 34.901747 ], [ -84.842705, 34.918126 ], [ -84.810523, 34.987592 ], [ -83.619985, 34.986592 ], [ -83.108614, 35.000659 ], [ -83.098244, 34.990822 ], [ -83.121979, 34.964757 ], [ -83.11412, 34.950184 ], [ -83.127624, 34.949829 ], [ -83.111755, 34.934963 ], [ -83.127312, 34.938633 ], [ -83.141518, 34.924515 ], [ -83.156891, 34.930767 ], [ -83.15699, 34.915123 ], [ -83.168607, 34.919355 ], [ -83.205261, 34.880165 ], [ -83.214027, 34.888569 ], [ -83.220131, 34.878036 ], [ -83.242996, 34.877537 ], [ -83.234703, 34.870743 ], [ -83.248092, 34.865577 ], [ -83.248927, 34.845141 ], [ -83.267196, 34.848469 ], [ -83.270882, 34.818588 ], [ -83.305618, 34.816517 ], [ -83.300842, 34.804344 ], [ -83.324142, 34.789246 ], [ -83.318748, 34.757626 ], [ -83.353325, 34.728691 ], [ -83.353897, 34.698612 ], [ -83.340527, 34.680736 ], [ -83.253881, 34.636696 ], [ -83.23258, 34.611597 ], [ -83.159677, 34.603298 ], [ -83.170978, 34.598098 ], [ -83.158677, 34.578999 ], [ -83.034565, 34.483571 ], [ -82.995901, 34.472204 ], [ -82.964241, 34.484571 ], [ -82.887398, 34.480959 ], [ -82.858837, 34.45522 ], [ -82.834457, 34.365221 ], [ -82.79447, 34.340379 ], [ -82.782128, 34.298278 ], [ -82.746811, 34.266588 ], [ -82.741875, 34.210209 ], [ -82.717459, 34.150546 ], [ -82.676985, 34.131425 ], [ -82.641014, 34.090908 ], [ -82.645469, 34.076833 ], [ -82.684953, 34.065417 ], [ -82.674894, 34.059622 ], [ -82.693085, 34.013706 ], [ -82.770628, 34.064758 ], [ -82.776845, 34.051654 ], [ -82.78849, 34.054058 ], [ -82.803403, 34.088037 ], [ -82.836899, 34.090151 ], [ -82.83042, 34.05946 ], [ -82.843308, 34.021492 ], [ -82.815319, 33.99202 ], [ -82.823002, 33.985045 ], [ -82.780658, 33.964747 ], [ -82.793778, 33.948669 ], [ -82.848636, 33.939933 ], [ -82.904344, 33.880993 ], [ -82.874086, 33.880047 ], [ -82.858989, 33.864456 ], [ -82.882433, 33.788383 ], [ -82.811967, 33.776087 ], [ -82.827968, 33.75788 ], [ -82.865822, 33.745572 ], [ -82.865531, 33.726021 ], [ -82.884928, 33.722413 ], [ -82.894444, 33.734418 ], [ -82.905093, 33.698313 ], [ -82.853541, 33.672757 ], [ -82.815078, 33.689338 ], [ -82.831426, 33.7217 ], [ -82.82001, 33.727735 ], [ -82.726174, 33.732769 ], [ -82.729742, 33.698055 ], [ -82.752001, 33.70013 ], [ -82.726808, 33.650562 ], [ -82.744215, 33.614708 ], [ -82.717099, 33.606955 ], [ -82.692266, 33.619996 ], [ -82.679975, 33.599792 ], [ -82.704228, 33.589212 ], [ -82.747339, 33.51171 ], [ -82.815315, 33.521137 ], [ -82.866605, 33.466599 ], [ -82.846405, 33.435907 ], [ -82.822645, 33.425905 ], [ -82.82803, 33.392992 ], [ -82.813913, 33.364914 ], [ -82.799951, 33.361927 ], [ -82.799467, 33.33117 ], [ -82.898081, 33.341451 ], [ -82.950062, 33.375027 ], [ -82.984821, 33.361153 ], [ -82.980644, 33.389397 ], [ -83.010554, 33.43501 ], [ -82.999076, 33.459611 ], [ -83.012853, 33.469178 ], [ -82.985588, 33.489841 ], [ -82.986035, 33.520356 ], [ -83.010873, 33.585597 ], [ -83.040577, 33.573904 ], [ -83.11617, 33.602125 ], [ -83.117861, 33.621744 ], [ -83.101351, 33.639314 ], [ -83.126444, 33.659445 ], [ -83.227408, 33.641799 ], [ -83.223217, 33.660324 ], [ -83.187855, 33.664467 ], [ -83.196321, 33.675361 ], [ -83.237012, 33.685172 ], [ -83.282966, 33.661683 ], [ -83.289242, 33.670991 ], [ -83.297432, 33.738827 ], [ -83.280777, 33.782932 ], [ -83.292358, 33.810349 ], [ -83.306619, 33.811444 ], [ -83.275933, 33.847977 ], [ -83.306608, 33.851852 ], [ -83.31208, 33.884447 ], [ -83.338611, 33.907995 ], [ -83.316078, 33.90527 ], [ -83.310934, 33.932338 ], [ -83.334173, 33.943568 ], [ -83.35052, 33.935076 ], [ -83.34274, 33.929225 ], [ -83.359431, 33.932048 ], [ -83.356443, 33.910906 ], [ -83.376712, 33.890433 ], [ -83.421933, 33.927055 ], [ -83.465842, 33.926055 ], [ -83.456389, 33.965332 ], [ -83.489491, 33.969621 ], [ -83.501732, 33.990494 ], [ -83.503484, 33.998956 ], [ -83.484201, 33.992762 ], [ -83.422029, 34.016886 ], [ -83.425132, 34.032552 ], [ -83.474619, 34.029022 ], [ -83.486735, 34.013843 ], [ -83.499718, 34.038514 ], [ -83.526219, 34.038643 ], [ -83.53543, 34.015598 ], [ -83.573961, 34.039405 ], [ -83.600538, 34.0353 ], [ -83.643778, 34.049283 ], [ -83.669098, 34.074341 ], [ -83.652072, 34.103278 ], [ -83.684815, 34.125404 ], [ -83.675267, 34.142838 ], [ -83.7349, 34.148869 ], [ -83.755644, 34.180189 ], [ -83.730398, 34.203477 ], [ -83.759285, 34.206925 ], [ -83.800275, 34.268148 ], [ -83.817591, 34.269305 ], [ -83.8583, 34.229978 ], [ -83.860806, 34.245989 ], [ -83.875867, 34.238126 ], [ -83.891973, 34.252586 ], [ -83.885377, 34.266493 ], [ -83.909784, 34.266632 ], [ -83.949821, 34.239837 ], [ -83.954025, 34.264549 ], [ -83.978431, 34.25024 ], [ -84.036338, 34.246086 ], [ -84.079681, 34.271667 ], [ -84.056635, 34.334402 ], [ -84.258075, 34.335156 ], [ -84.257586, 34.380992 ], [ -84.400774, 34.373266 ], [ -84.424523, 34.387994 ], [ -84.530363, 34.381026 ], [ -84.553285, 34.337552 ], [ -84.576849, 34.357577 ], [ -84.580115, 34.345912 ], [ -84.632466, 34.341546 ], [ -84.654038, 34.355176 ] ] ] } },
{ "type": "Feature", "properties": { "district_id": 9, "voting_age_pop": 503435, "lib_votes": 0, "grn_votes": 0, "con_votes": 0, "ref_votes": 0, "total_pop": 690577, "dem_votes_sum": 128362, "rep_votes_sum": 159277, "lib_votes_sum": 0, "grn_votes_sum": 0, "con_votes_sum": 0, "ref_votes_sum": 0, "minority_pop_sum": 173123, "dem_pct": 0.44626076436088291, "rep_pct": 0.55373923563911709, "lib_pct": 0.0, "grn_pct": 0.0, "con_pct": 0.0, "ref_pct": 0.0, "minority_pct": 0.25069326085288102, "compactness": 0.11105506658699285 }, "geometry": { "type": "MultiPolygon", "coordinates": [ [ [ [ -85.088144, 33.55141 ], [ -85.089218, 33.55295 ], [ -85.086733, 33.553797 ], [ -85.086268, 33.54996 ], [ -85.088144, 33.55141 ] ] ], [ [ [ -85.078077, 33.549354 ], [ -85.079549, 33.553507 ], [ -85.081024, 33.546315 ], [ -85.07043, 33.540709 ], [ -85.091138, 33.545305 ], [ -85.083619, 33.550427 ], [ -85.086047, 33.557316 ], [ -85.113209, 33.554882 ], [ -85.107902, 33.559205 ], [ -85.107963, 33.567023 ], [ -85.116038, 33.556416 ], [ -85.117145, 33.567879 ], [ -85.144909, 33.568564 ], [ -85.162528, 33.554813 ], [ -85.159717, 33.534796 ], [ -85.181829, 33.54092 ], [ -85.209027, 33.523969 ], [ -85.222163, 33.52808 ], [ -85.213736, 33.563835 ], [ -85.23116, 33.560575 ], [ -85.224367, 33.585077 ], [ -85.322536, 33.574166 ], [ -85.406798, 34.002574 ], [ -85.361297, 34.022897 ], [ -85.29335, 34.011975 ], [ -85.28383, 34.051169 ], [ -85.23276, 34.06577 ], [ -85.22017, 34.016743 ], [ -85.167574, 34.003839 ], [ -85.189612, 33.954201 ], [ -85.15469, 33.951527 ], [ -85.093059, 33.986578 ], [ -85.074749, 34.021419 ], [ -85.009564, 34.037173 ], [ -84.835098, 34.006259 ], [ -84.812435, 34.014538 ], [ -84.817885, 34.031225 ], [ -84.779189, 34.004825 ], [ -84.783448, 34.024299 ], [ -84.7649, 34.049814 ], [ -84.738438, 34.057396 ], [ -84.737836, 34.079399 ], [ -84.692812, 34.078626 ], [ -84.702835, 34.066449 ], [ -84.667766, 34.064004 ], [ -84.662218, 34.048914 ], [ -84.643252, 34.077799 ], [ -84.624461, 34.077458 ], [ -84.586076, 34.049139 ], [ -84.581681, 34.050091 ], [ -84.574799, 34.053294 ], [ -84.559543, 34.062188 ], [ -84.556182, 34.052127 ], [ -84.536343, 34.056571 ], [ -84.540173, 34.035719 ], [ -84.527697, 34.032788 ], [ -84.537905, 34.008986 ], [ -84.524314, 34.000584 ], [ -84.555908, 34.00109 ], [ -84.545527, 33.982549 ], [ -84.566616, 33.975447 ], [ -84.535463, 33.964842 ], [ -84.54795, 33.963588 ], [ -84.544487, 33.955262 ], [ -84.552449, 33.955404 ], [ -84.550396, 33.947259 ], [ -84.555487, 33.947301 ], [ -84.551281, 33.944382 ], [ -84.555961, 33.936116 ], [ -84.555446, 33.932858 ], [ -84.542729, 33.937852 ], [ -84.518924, 33.896915 ], [ -84.469807, 33.893778 ], [ -84.476866, 33.88009 ], [ -84.463573, 33.871446 ], [ -84.47087, 33.858499 ], [ -84.493584, 33.867154 ], [ -84.496377, 33.854076 ], [ -84.510157, 33.855363 ], [ -84.495906, 33.84004 ], [ -84.507359, 33.839047 ], [ -84.512774, 33.854859 ], [ -84.521623, 33.842906 ], [ -84.558387, 33.851827 ], [ -84.582621, 33.84461 ], [ -84.576039, 33.820428 ], [ -84.604972, 33.825108 ], [ -84.609632, 33.823331 ], [ -84.617684, 33.81709 ], [ -84.611604, 33.821737 ], [ -84.607696, 33.821123 ], [ -84.608812, 33.811943 ], [ -84.623929, 33.812364 ], [ -84.619988, 33.801547 ], [ -84.572025, 33.81089 ], [ -84.533546, 33.779122 ], [ -84.538033, 33.771104 ], [ -84.605037, 33.717306 ], [ -84.649854, 33.738835 ], [ -84.685576, 33.718793 ], [ -84.690336, 33.7577 ], [ -84.705482, 33.753875 ], [ -84.71741, 33.766316 ], [ -84.739188, 33.755102 ], [ -84.723858, 33.777808 ], [ -84.730974, 33.788568 ], [ -84.825604, 33.778822 ], [ -84.81513, 33.751359 ], [ -84.826695, 33.748374 ], [ -84.819373, 33.729039 ], [ -84.832885, 33.71885 ], [ -84.911039, 33.724632 ], [ -84.901739, 33.730625 ], [ -84.909641, 33.759999 ], [ -84.948183, 33.742589 ], [ -84.969171, 33.74605 ], [ -84.937176, 33.713884 ], [ -84.948594, 33.709357 ], [ -84.951063, 33.685798 ], [ -84.938696, 33.681946 ], [ -84.930467, 33.695654 ], [ -84.939607, 33.709964 ], [ -84.922462, 33.704921 ], [ -84.901527, 33.714199 ], [ -84.902998, 33.649194 ], [ -84.936314, 33.656524 ], [ -84.96846, 33.611495 ], [ -85.044075, 33.636967 ], [ -85.064214, 33.616656 ], [ -85.053819, 33.604782 ], [ -85.042793, 33.612093 ], [ -85.043188, 33.598519 ], [ -85.023148, 33.604223 ], [ -85.023089, 33.616044 ], [ -85.022938, 33.590934 ], [ -85.035465, 33.596333 ], [ -85.042774, 33.574546 ], [ -85.017445, 33.579926 ], [ -85.017914, 33.565842 ], [ -85.038287, 33.570549 ], [ -85.028934, 33.550282 ], [ -85.040287, 33.541117 ], [ -85.048247, 33.568537 ], [ -85.063904, 33.553615 ], [ -85.067826, 33.55578 ], [ -85.073774, 33.547351 ], [ -85.078077, 33.549354 ] ], [ [ -84.497185, 33.856642 ], [ -84.498638, 33.857161 ], [ -84.49872, 33.856707 ], [ -84.497185, 33.856642 ] ], [ [ -84.631562, 33.80498 ], [ -84.62384, 33.809393 ], [ -84.632413, 33.8064 ], [ -84.631562, 33.80498 ] ], [ [ -85.077642, 33.549338 ], [ -85.074671, 33.550153 ], [ -85.077787, 33.550179 ], [ -85.077642, 33.549338 ] ], [ [ -85.041108, 33.591572 ], [ -85.038365, 33.588048 ], [ -85.038356, 33.591552 ], [ -85.041108, 33.591572 ] ], [ [ -85.035447, 33.599191 ], [ -85.036171, 33.599417 ], [ -85.035927, 33.59697 ], [ -85.035447, 33.599191 ] ], [ [ -85.038998, 33.594107 ], [ -85.039705, 33.594605 ], [ -85.039319, 33.593377 ], [ -85.038998, 33.594107 ] ], [ [ -84.62132, 33.814847 ], [ -84.62087, 33.815653 ], [ -84.622353, 33.814735 ], [ -84.62132, 33.814847 ] ], [ [ -84.486232, 33.882421 ], [ -84.480967, 33.879798 ], [ -84.484789, 33.88331 ], [ -84.486232, 33.882421 ] ], [ [ -84.511113, 33.890016 ], [ -84.510103, 33.894401 ], [ -84.514447, 33.89259 ], [ -84.519152, 33.892988 ], [ -84.511113, 33.890016 ] ], [ [ -84.505455, 33.887515 ], [ -84.501942, 33.884211 ], [ -84.501868, 33.887516 ], [ -84.505455, 33.887515 ] ], [ [ -84.520827, 33.897353 ], [ -84.519626, 33.896829 ], [ -84.520065, 33.897607 ], [ -84.520827, 33.897353 ] ], [ [ -84.519745, 33.894465 ], [ -84.513992, 33.893625 ], [ -84.513947, 33.894453 ], [ -84.519745, 33.894465 ] ], [ [ -84.560401, 33.923582 ], [ -84.557816, 33.920608 ], [ -84.556848, 33.923511 ], [ -84.560401, 33.923582 ] ], [ [ -84.555425, 33.932229 ], [ -84.556793, 33.923895 ], [ -84.554976, 33.925178 ], [ -84.554329, 33.926981 ], [ -84.555425, 33.932229 ] ], [ [ -84.567344, 33.976346 ], [ -84.567019, 33.976996 ], [ -84.567704, 33.97679 ], [ -84.567344, 33.976346 ] ] ], [ [ [ -85.054196, 33.557048 ], [ -85.049027, 33.562903 ], [ -85.049739, 33.55683 ], [ -85.054196, 33.557048 ] ] ], [ [ [ -85.014467, 33.576672 ], [ -85.01493, 33.574921 ], [ -85.015649, 33.574879 ], [ -85.014467, 33.576672 ] ] ], [ [ [ -84.926845, 33.70898 ], [ -84.918158, 33.710257 ], [ -84.918147, 33.709048 ], [ -84.926845, 33.70898 ] ] ], [ [ [ -84.666804, 34.078112 ], [ -84.670081, 34.075563 ], [ -84.670371, 34.078165 ], [ -84.666804, 34.078112 ] ] ], [ [ [ -84.662621, 34.078049 ], [ -84.663675, 34.077079 ], [ -84.663676, 34.078065 ], [ -84.662621, 34.078049 ] ] ], [ [ [ -84.689856, 34.077526 ], [ -84.692812, 34.078626 ], [ -84.689822, 34.078582 ], [ -84.689856, 34.077526 ] ] ], [ [ [ -84.657151, 34.073417 ], [ -84.659715, 34.0744 ], [ -84.655726, 34.074457 ], [ -84.657151, 34.073417 ] ] ], [ [ [ -84.658558, 34.075698 ], [ -84.661656, 34.078035 ], [ -84.657583, 34.077964 ], [ -84.658558, 34.075698 ] ] ], [ [ [ -84.585816, 34.04935 ], [ -84.587725, 34.05504 ], [ -84.584108, 34.049624 ], [ -84.585816, 34.04935 ] ] ], [ [ [ -84.511529, 33.891243 ], [ -84.511115, 33.890655 ], [ -84.5115, 33.890658 ], [ -84.511529, 33.891243 ] ] ], [ [ [ -84.542298, 33.991533 ], [ -84.538833, 33.991534 ], [ -84.54312, 33.991594 ], [ -84.542298, 33.991533 ] ] ], [ [ [ -84.547076, 33.993272 ], [ -84.550277, 33.992395 ], [ -84.549518, 33.993636 ], [ -84.547076, 33.993272 ] ] ] ] } },
{ "type": "Feature", "properties": { "district_id": 10, "voting_age_pop": 510235, "lib_votes": 0, "grn_votes": 0, "con_votes": 0, "ref_votes": 0, "total_pop": 668922, "dem_votes_sum": 146294, "rep_votes_sum": 164301, "lib_votes_sum": 0, "grn_votes_sum": 0, "con_votes_sum": 0, "ref_votes_sum": 0, "minority_pop_sum": 90091, "dem_pct": 0.47101208969880393, "rep_pct": 0.52898791030119607, "lib_pct": 0.0, "grn_pct": 0.0, "con_pct": 0.0, "ref_pct": 0.0, "minority_pct": 0.13468087460122405, "compactness": 0.097607092636495071 }, "geometry": { "type": "MultiPolygon", "coordinates": [ [ [ [ -84.511113, 33.890016 ], [ -84.51757, 33.891229 ], [ -84.519152, 33.892988 ], [ -84.514447, 33.89259 ], [ -84.510103, 33.894401 ], [ -84.51026, 33.890645 ], [ -84.511113, 33.890016 ] ], [ [ -84.511115, 33.890655 ], [ -84.511529, 33.891243 ], [ -84.5115, 33.890658 ], [ -84.511115, 33.890655 ] ] ], [ [ [ -84.513992, 33.893625 ], [ -84.519745, 33.894465 ], [ -84.513947, 33.894453 ], [ -84.513992, 33.893625 ] ] ], [ [ [ -84.520827, 33.897353 ], [ -84.519626, 33.896829 ], [ -84.520589, 33.89674 ], [ -84.520827, 33.897353 ] ] ], [ [ [ -84.490476, 33.901271 ], [ -84.496559, 33.891614 ], [ -84.518924, 33.896915 ], [ -84.542729, 33.937852 ], [ -84.555446, 33.932858 ], [ -84.54795, 33.963588 ], [ -84.535463, 33.964842 ], [ -84.563109, 33.969725 ], [ -84.566616, 33.975447 ], [ -84.545527, 33.982549 ], [ -84.555908, 34.00109 ], [ -84.524314, 34.000584 ], [ -84.537905, 34.008986 ], [ -84.527697, 34.032788 ], [ -84.540173, 34.035719 ], [ -84.536343, 34.056571 ], [ -84.556182, 34.052127 ], [ -84.559543, 34.062188 ], [ -84.574799, 34.053294 ], [ -84.581681, 34.050091 ], [ -84.586076, 34.049139 ], [ -84.624461, 34.077458 ], [ -84.649612, 34.075635 ], [ -84.662218, 34.048914 ], [ -84.667766, 34.064004 ], [ -84.693031, 34.058328 ], [ -84.702935, 34.066626 ], [ -84.693125, 34.078595 ], [ -84.658558, 34.075698 ], [ -84.658477, 34.096442 ], [ -84.609555, 34.095411 ], [ -84.626026, 34.155916 ], [ -84.596366, 34.152757 ], [ -84.578411, 34.128554 ], [ -84.560486, 34.15852 ], [ -84.502656, 34.121222 ], [ -84.462732, 34.125415 ], [ -84.450007, 34.138784 ], [ -84.474899, 34.135028 ], [ -84.500304, 34.17331 ], [ -84.415697, 34.169228 ], [ -84.430688, 34.135791 ], [ -84.421566, 34.121847 ], [ -84.387843, 34.117857 ], [ -84.378025, 34.102931 ], [ -84.396584, 34.103717 ], [ -84.396584, 34.09662 ], [ -84.3732, 34.099162 ], [ -84.387993, 34.078096 ], [ -84.370184, 34.094767 ], [ -84.343801, 34.088934 ], [ -84.340005, 34.078414 ], [ -84.293632, 34.070815 ], [ -84.276595, 34.039412 ], [ -84.315716, 34.033812 ], [ -84.324414, 34.02175 ], [ -84.280699, 34.014475 ], [ -84.273556, 33.988986 ], [ -84.303574, 34.009347 ], [ -84.323209, 33.987497 ], [ -84.280372, 33.977706 ], [ -84.295041, 33.965047 ], [ -84.242477, 33.969706 ], [ -84.254775, 33.957486 ], [ -84.248525, 33.939218 ], [ -84.264876, 33.930865 ], [ -84.251093, 33.905733 ], [ -84.263801, 33.905858 ], [ -84.261124, 33.914937 ], [ -84.293244, 33.876629 ], [ -84.325501, 33.876525 ], [ -84.321252, 33.849629 ], [ -84.336561, 33.836636 ], [ -84.358102, 33.841563 ], [ -84.352805, 33.82561 ], [ -84.420618, 33.822065 ], [ -84.456492, 33.871299 ], [ -84.47087, 33.858499 ], [ -84.469807, 33.893778 ], [ -84.490476, 33.901271 ] ], [ [ -84.54312, 33.991594 ], [ -84.539023, 33.987719 ], [ -84.538833, 33.991534 ], [ -84.54312, 33.991594 ] ], [ [ -84.550277, 33.992395 ], [ -84.547076, 33.993272 ], [ -84.549518, 33.993636 ], [ -84.550277, 33.992395 ] ], [ [ -84.590518, 34.053255 ], [ -84.587419, 34.054776 ], [ -84.591573, 34.055562 ], [ -84.590518, 34.053255 ] ], [ [ -84.659715, 34.0744 ], [ -84.659141, 34.070968 ], [ -84.655726, 34.074457 ], [ -84.659715, 34.0744 ] ] ], [ [ [ -84.557816, 33.920608 ], [ -84.560401, 33.923582 ], [ -84.556848, 33.923511 ], [ -84.557816, 33.920608 ] ] ], [ [ [ -84.556793, 33.923895 ], [ -84.556655, 33.932094 ], [ -84.555425, 33.932229 ], [ -84.556793, 33.923895 ] ] ], [ [ [ -84.567019, 33.976996 ], [ -84.567344, 33.976346 ], [ -84.567704, 33.97679 ], [ -84.567019, 33.976996 ] ] ], [ [ [ -84.486232, 33.882421 ], [ -84.482242, 33.88132 ], [ -84.481126, 33.878094 ], [ -84.486232, 33.882421 ] ] ], [ [ [ -84.505495, 33.884464 ], [ -84.501868, 33.887516 ], [ -84.501942, 33.884211 ], [ -84.505495, 33.884464 ] ] ] ] } },
{ "type": "Feature", "properties": { "district_id": 11, "voting_age_pop": 520610, "lib_votes": 0, "grn_votes": 0, "con_votes": 0, "ref_votes": 0, "total_pop": 689053, "dem_votes_sum": 212187, "rep_votes_sum": 75556, "lib_votes_sum": 0, "grn_votes_sum": 0, "con_votes_sum": 0, "ref_votes_sum": 0, "minority_pop_sum": 292831, "dem_pct": 0.73741846022318525, "rep_pct": 0.26258153977681475, "lib_pct": 0.0, "grn_pct": 0.0, "con_pct": 0.0, "ref_pct": 0.0, "minority_pct": 0.42497601780995076, "compactness": 0.11955675646500563 }, "geometry": { "type": "Polygon", "coordinates": [ [ [ -84.312223, 33.751705 ], [ -84.333129, 33.774149 ], [ -84.349206, 33.764957 ], [ -84.377066, 33.81138 ], [ -84.399147, 33.781512 ], [ -84.426079, 33.772007 ], [ -84.462695, 33.817154 ], [ -84.459829, 33.853204 ], [ -84.430795, 33.84887 ], [ -84.420325, 33.821951 ], [ -84.35616, 33.824069 ], [ -84.358102, 33.841563 ], [ -84.336561, 33.836636 ], [ -84.321252, 33.849629 ], [ -84.325501, 33.876525 ], [ -84.293244, 33.876629 ], [ -84.261124, 33.914937 ], [ -84.263801, 33.905858 ], [ -84.251093, 33.905733 ], [ -84.259011, 33.91882 ], [ -84.220349, 33.935538 ], [ -84.231703, 33.949023 ], [ -84.208457, 33.961024 ], [ -84.204749, 33.945128 ], [ -84.160646, 33.912396 ], [ -84.210076, 33.89568 ], [ -84.203519, 33.873003 ], [ -84.17313, 33.858115 ], [ -84.200374, 33.855438 ], [ -84.181561, 33.848347 ], [ -84.188867, 33.832919 ], [ -84.16813, 33.820596 ], [ -84.12614, 33.822915 ], [ -84.040313, 33.757708 ], [ -83.953799, 33.731755 ], [ -83.932191, 33.709325 ], [ -83.907568, 33.766513 ], [ -83.832917, 33.798175 ], [ -83.778445, 33.729658 ], [ -83.754119, 33.743456 ], [ -83.743517, 33.70986 ], [ -83.751717, 33.69064 ], [ -83.720586, 33.697322 ], [ -83.704263, 33.68545 ], [ -83.649862, 33.713027 ], [ -83.618844, 33.674944 ], [ -83.687386, 33.588559 ], [ -83.679591, 33.574017 ], [ -83.715297, 33.575471 ], [ -83.738796, 33.552575 ], [ -83.764067, 33.569148 ], [ -83.782786, 33.546356 ], [ -83.804545, 33.49664 ], [ -83.803995, 33.451932 ], [ -83.824922, 33.437263 ], [ -83.82816, 33.415033 ], [ -83.845207, 33.414721 ], [ -83.831024, 33.393462 ], [ -83.863058, 33.368278 ], [ -83.877637, 33.38367 ], [ -83.874804, 33.409027 ], [ -83.886802, 33.41163 ], [ -83.882906, 33.502563 ], [ -83.952121, 33.526052 ], [ -83.947284, 33.544761 ], [ -83.92189, 33.556491 ], [ -83.9673, 33.561036 ], [ -83.965618, 33.578596 ], [ -83.997787, 33.561784 ], [ -84.007248, 33.567115 ], [ -84.003278, 33.554875 ], [ -84.010681, 33.563312 ], [ -84.054453, 33.526024 ], [ -84.0487, 33.539051 ], [ -84.065723, 33.54947 ], [ -84.108521, 33.566769 ], [ -84.1281, 33.562453 ], [ -84.184143, 33.646157 ], [ -84.161589, 33.63775 ], [ -84.15447, 33.645748 ], [ -84.115791, 33.614666 ], [ -84.084437, 33.674973 ], [ -84.153094, 33.684782 ], [ -84.145816, 33.717554 ], [ -84.167016, 33.722949 ], [ -84.169089, 33.738845 ], [ -84.188632, 33.730286 ], [ -84.251991, 33.737934 ], [ -84.267689, 33.754844 ], [ -84.312223, 33.751705 ] ] ] } },
{ "type": "Feature", "properties": { "district_id": 12, "voting_age_pop": 475793, "lib_votes": 0, "grn_votes": 0, "con_votes": 0, "ref_votes": 0, "total_pop": 658402, "dem_votes_sum": 202737, "rep_votes_sum": 76161, "lib_votes_sum": 0, "grn_votes_sum": 0, "con_votes_sum": 0, "ref_votes_sum": 0, "minority_pop_sum": 390300, "dem_pct": 0.72692167028806232, "rep_pct": 0.27307832971193768, "lib_pct": 0.0, "grn_pct": 0.0, "con_pct": 0.0, "ref_pct": 0.0, "minority_pct": 0.59279892831431258, "compactness": 0.10861045881496659 }, "geometry": { "type": "MultiPolygon", "coordinates": [ [ [ [ -84.700001, 33.282024 ], [ -84.796931, 33.339878 ], [ -84.844218, 33.333573 ], [ -84.841275, 33.343165 ], [ -84.866004, 33.319516 ], [ -84.893513, 33.337172 ], [ -84.856025, 33.378658 ], [ -84.832844, 33.364888 ], [ -84.81843, 33.386194 ], [ -84.85306, 33.411524 ], [ -84.859237, 33.391922 ], [ -84.879657, 33.396881 ], [ -84.88133, 33.424429 ], [ -84.929805, 33.443046 ], [ -84.902467, 33.475848 ], [ -84.85529, 33.495947 ], [ -84.849311, 33.513184 ], [ -84.815869, 33.520249 ], [ -84.8326, 33.547061 ], [ -84.808934, 33.574085 ], [ -84.905788, 33.573378 ], [ -84.903197, 33.643625 ], [ -84.929337, 33.622961 ], [ -84.945659, 33.639686 ], [ -84.931728, 33.658647 ], [ -84.902998, 33.649194 ], [ -84.901527, 33.714199 ], [ -84.922462, 33.704921 ], [ -84.939607, 33.709964 ], [ -84.930467, 33.695654 ], [ -84.938696, 33.681946 ], [ -84.951063, 33.685798 ], [ -84.938299, 33.717411 ], [ -84.972366, 33.744479 ], [ -84.948183, 33.742589 ], [ -84.909641, 33.759999 ], [ -84.901739, 33.730625 ], [ -84.911039, 33.724632 ], [ -84.832885, 33.71885 ], [ -84.819373, 33.729039 ], [ -84.826695, 33.748374 ], [ -84.81513, 33.751359 ], [ -84.825604, 33.778822 ], [ -84.730974, 33.788568 ], [ -84.723858, 33.777808 ], [ -84.739188, 33.755102 ], [ -84.71741, 33.766316 ], [ -84.705482, 33.753875 ], [ -84.690336, 33.7577 ], [ -84.685576, 33.718793 ], [ -84.649854, 33.738835 ], [ -84.605037, 33.717306 ], [ -84.533546, 33.779122 ], [ -84.572025, 33.81089 ], [ -84.619988, 33.801547 ], [ -84.623784, 33.812727 ], [ -84.608812, 33.811943 ], [ -84.607696, 33.821123 ], [ -84.617684, 33.81709 ], [ -84.604548, 33.825177 ], [ -84.576039, 33.820428 ], [ -84.582621, 33.84461 ], [ -84.558387, 33.851827 ], [ -84.521623, 33.842906 ], [ -84.512774, 33.854859 ], [ -84.507359, 33.839047 ], [ -84.496068, 33.840005 ], [ -84.510756, 33.852908 ], [ -84.505865, 33.859153 ], [ -84.503806, 33.850141 ], [ -84.496225, 33.854239 ], [ -84.493584, 33.867154 ], [ -84.465699, 33.857311 ], [ -84.456492, 33.871299 ], [ -84.463104, 33.818272 ], [ -84.424391, 33.7635 ], [ -84.446599, 33.739165 ], [ -84.465629, 33.738907 ], [ -84.472284, 33.720009 ], [ -84.50113, 33.719108 ], [ -84.499049, 33.698294 ], [ -84.474854, 33.697765 ], [ -84.451978, 33.714757 ], [ -84.449596, 33.702321 ], [ -84.393515, 33.708753 ], [ -84.389355, 33.696797 ], [ -84.361989, 33.693138 ], [ -84.369081, 33.70343 ], [ -84.349511, 33.709266 ], [ -84.350224, 33.647908 ], [ -84.365179, 33.647812 ], [ -84.338242, 33.597901 ], [ -84.349456, 33.578564 ], [ -84.384933, 33.579047 ], [ -84.38003, 33.51797 ], [ -84.401418, 33.518268 ], [ -84.415154, 33.546509 ], [ -84.427384, 33.516941 ], [ -84.420428, 33.493992 ], [ -84.397705, 33.485881 ], [ -84.422414, 33.456 ], [ -84.4469, 33.468317 ], [ -84.433299, 33.487493 ], [ -84.452117, 33.490239 ], [ -84.453747, 33.500979 ], [ -84.480924, 33.485027 ], [ -84.536467, 33.489195 ], [ -84.55756, 33.465893 ], [ -84.585722, 33.478733 ], [ -84.588718, 33.446233 ], [ -84.607124, 33.437697 ], [ -84.585271, 33.409602 ], [ -84.590948, 33.397379 ], [ -84.651656, 33.386229 ], [ -84.642903, 33.360042 ], [ -84.661922, 33.36018 ], [ -84.671619, 33.381348 ], [ -84.703891, 33.354295 ], [ -84.672809, 33.340933 ], [ -84.700001, 33.282024 ] ], [ [ -84.926845, 33.70898 ], [ -84.918158, 33.710257 ], [ -84.926855, 33.710434 ], [ -84.926845, 33.70898 ] ] ], [ [ [ -84.62384, 33.809393 ], [ -84.631562, 33.80498 ], [ -84.632413, 33.8064 ], [ -84.62384, 33.809393 ] ] ], [ [ [ -84.622059, 33.815445 ], [ -84.62132, 33.814847 ], [ -84.622353, 33.814735 ], [ -84.622059, 33.815445 ] ] ], [ [ [ -84.498231, 33.856704 ], [ -84.497801, 33.857142 ], [ -84.497185, 33.856642 ], [ -84.498231, 33.856704 ] ] ] ] } },
{ "type": "Feature", "properties": { "district_id": 13, "voting_age_pop": 464738, "lib_votes": 0, "grn_votes": 0, "con_votes": 0, "ref_votes": 0, "total_pop": 658957, "dem_votes_sum": 115496, "rep_votes_sum": 196416, "lib_votes_sum": 0, "grn_votes_sum": 0, "con_votes_sum": 0, "ref_votes_sum": 0, "minority_pop_sum": 60649, "dem_pct": 0.37028392623560491, "rep_pct": 0.62971607376439509, "lib_pct": 0.0, "grn_pct": 0.0, "con_pct": 0.0, "ref_pct": 0.0, "minority_pct": 0.092037871970401711, "compactness": 0.1452347035118951 }, "geometry": { "type": "Polygon", "coordinates": [ [ [ -84.242477, 33.969706 ], [ -84.295041, 33.965047 ], [ -84.280372, 33.977706 ], [ -84.323209, 33.987497 ], [ -84.303574, 34.009347 ], [ -84.273268, 33.989494 ], [ -84.280699, 34.014475 ], [ -84.324414, 34.02175 ], [ -84.301773, 34.038881 ], [ -84.276817, 34.036243 ], [ -84.293632, 34.070815 ], [ -84.367564, 34.095227 ], [ -84.377579, 34.07971 ], [ -84.387993, 34.078096 ], [ -84.3732, 34.099162 ], [ -84.396584, 34.09662 ], [ -84.378025, 34.102931 ], [ -84.387843, 34.117857 ], [ -84.421566, 34.121847 ], [ -84.430688, 34.135791 ], [ -84.415697, 34.169228 ], [ -84.464725, 34.169605 ], [ -84.482472, 34.187357 ], [ -84.454713, 34.203284 ], [ -84.361332, 34.137024 ], [ -84.354094, 34.175025 ], [ -84.303955, 34.200858 ], [ -84.303723, 34.22238 ], [ -84.327262, 34.227692 ], [ -84.329724, 34.256514 ], [ -84.287081, 34.286234 ], [ -84.258529, 34.295047 ], [ -84.258689, 34.237094 ], [ -84.194725, 34.23941 ], [ -84.194801, 34.260723 ], [ -84.16526, 34.272911 ], [ -84.153007, 34.261054 ], [ -84.138717, 34.265541 ], [ -84.139335, 34.256114 ], [ -84.113929, 34.262439 ], [ -84.100204, 34.250976 ], [ -84.079681, 34.271667 ], [ -84.036048, 34.246055 ], [ -83.978431, 34.25024 ], [ -83.954025, 34.264549 ], [ -83.949821, 34.239837 ], [ -83.909784, 34.266632 ], [ -83.885377, 34.266493 ], [ -83.891973, 34.252586 ], [ -83.875867, 34.238126 ], [ -83.860806, 34.245989 ], [ -83.8583, 34.229978 ], [ -83.817591, 34.269305 ], [ -83.800275, 34.268148 ], [ -83.759285, 34.206925 ], [ -83.730797, 34.204177 ], [ -83.817682, 34.127493 ], [ -83.765134, 34.065292 ], [ -83.803803, 34.060999 ], [ -83.786749, 34.043569 ], [ -83.791455, 34.020035 ], [ -83.765053, 34.022137 ], [ -83.736375, 33.995814 ], [ -83.723197, 34.007396 ], [ -83.722845, 33.984079 ], [ -83.703693, 33.997824 ], [ -83.683193, 33.99238 ], [ -83.712329, 33.982435 ], [ -83.720123, 33.958604 ], [ -83.771521, 33.972383 ], [ -83.83152, 33.965944 ], [ -83.867878, 34.015465 ], [ -83.942712, 34.005155 ], [ -83.931837, 34.027384 ], [ -83.955643, 34.036559 ], [ -83.965621, 34.007163 ], [ -83.989544, 34.000994 ], [ -83.985409, 33.979195 ], [ -84.037123, 33.959052 ], [ -84.06903, 33.967327 ], [ -84.084042, 33.987432 ], [ -84.07401, 34.001354 ], [ -84.098687, 34.027089 ], [ -84.175162, 33.988272 ], [ -84.202426, 33.996978 ], [ -84.23496, 33.95021 ], [ -84.242477, 33.969706 ] ] ] } }
]
}
