{
"type": "FeatureCollection",
"name": "georgia_optimized_districts_all",
"crs": { "type": "name", "properties": { "name": "urn:ogc:def:crs:OGC:1.3:CRS84" } },
"features": [
{ "type": "Feature", "properties": { "opt_all": 1, "population": 766324.0, "voting_age_pop": 591631.0, "dem_votes": 107178.0, "rep_votes": 144235.0, "minority_pop": 238644.0, "dem_pct": 0.426302537885351, "rep_pct": 0.57369746171689706 }, "geometry": { "type": "Polygon", "coordinates": [ [ [ -82.201240000001775, 30.485114000003396 ], [ -82.230324000001502, 30.517482000003 ], [ -82.240403000002175, 30.5377700000031 ], [ -82.214677000001402, 30.568556000003465 ], [ -82.418914000001735, 30.581767000003406 ], [ -82.430862000002151, 30.612848000003275 ], [ -82.428902000001656, 30.690317000003429 ], [ -82.435112000001737, 30.71656600000334 ], [ -82.435852000001319, 30.820068000002927 ], [ -82.492204000001593, 30.83256400000333 ], [ -82.490558000002309, 30.963166000003277 ], [ -82.534262000002144, 30.980700000003417 ], [ -82.55033900000204, 31.000404000002639 ], [ -82.593766000001722, 31.021691000003297 ], [ -82.636762000002037, 31.110800000003213 ], [ -82.666473000002156, 31.172923000003301 ], [ -82.671669000001401, 31.183739000003278 ], [ -82.701050000001558, 31.223217000003245 ], [ -82.699206000002107, 31.27810400000272 ], [ -82.663584000001421, 31.287913000002977 ], [ -82.629622000001504, 31.274726000003408 ], [ -82.628975000001674, 31.36393000000264 ], [ -82.628181000001931, 31.469351000002924 ], [ -82.597509000001892, 31.469293000003489 ], [ -82.596283000002018, 31.557899000003147 ], [ -82.628185000002105, 31.565930000003227 ], [ -82.627342000001647, 31.672672000003441 ], [ -82.631851000001433, 31.672662000003029 ], [ -82.814029000002066, 31.671419000003151 ], [ -82.83663300000228, 31.671398000002693 ], [ -82.83672100000166, 31.761826000003165 ], [ -82.836366000002243, 31.81615400000285 ], [ -82.807392000001769, 31.823618000002735 ], [ -82.791845000001302, 31.847107000002769 ], [ -82.75719200000232, 31.857031000002969 ], [ -82.716462000001371, 31.886182000002925 ], [ -82.676260000001463, 31.913182000003211 ], [ -82.645659000001842, 31.918883000003049 ], [ -82.608390000002032, 31.932004000003431 ], [ -82.543655000002261, 31.958914000002849 ], [ -82.517077000002146, 31.957914000003111 ], [ -82.483131000001762, 31.968961000003013 ], [ -82.431531000001939, 31.966182000002952 ], [ -82.372420000001568, 31.941456000002649 ], [ -82.315355000002285, 31.946375000003066 ], [ -82.293344000001653, 31.94084000000348 ], [ -82.225042000001679, 31.913074000002677 ], [ -82.22042600000205, 31.950671000003155 ], [ -82.204421000001417, 32.076735000002699 ], [ -82.196477000002034, 32.120756000003496 ], [ -82.195317000001637, 32.140929000003368 ], [ -82.182727000001364, 32.160442000002959 ], [ -82.206505000001954, 32.21836700000285 ], [ -82.229457000001347, 32.283897000003385 ], [ -82.232788000001534, 32.318838000002685 ], [ -82.029829000001584, 32.279753000002884 ], [ -82.025339000001949, 32.278883000003489 ], [ -81.969069000001895, 32.268783000003047 ], [ -81.892725000002201, 32.274783000002742 ], [ -81.804700000001276, 32.220039000003204 ], [ -81.780850000001436, 32.175126000003182 ], [ -81.780858000001558, 32.152890000003389 ], [ -81.730262000001574, 32.164861000002809 ], [ -81.608304000001596, 32.194291000002856 ], [ -81.506809000002178, 32.222189000003162 ], [ -81.43583000000136, 32.241289000003334 ], [ -81.401931000001269, 32.150184000002731 ], [ -81.391698000001711, 32.095886000003397 ], [ -81.327992000001586, 32.141731000003546 ], [ -81.294355000001431, 32.166057000003171 ], [ -81.28469900000222, 32.173049000003502 ], [ -81.277395000002201, 32.178406000003413 ], [ -81.249250000001325, 32.198648000003011 ], [ -81.195679000001945, 32.237468000003304 ], [ -81.151243000002083, 32.227947000003418 ], [ -81.144572000002213, 32.226128000003214 ], [ -81.123149000002158, 32.201320000002859 ], [ -81.121116000001521, 32.154504000002788 ], [ -81.117225000001454, 32.117604000003425 ], [ -81.087105000001571, 32.103182000003059 ], [ -81.039687000001734, 32.084487000002994 ], [ -81.020024000001371, 32.094327000002792 ], [ -80.954031000001365, 32.070290000003467 ], [ -80.925085000002042, 32.041939000003175 ], [ -80.889244000001298, 32.037380000003246 ], [ -80.850238000002165, 32.041420000002667 ], [ -80.815577000001468, 32.029918000003448 ], [ -80.78296000000168, 31.995954000002737 ], [ -80.789841000001502, 31.964390000003284 ], [ -80.865288000001797, 31.894417000002967 ], [ -80.942450000001415, 31.806831000003157 ], [ -80.970726000001619, 31.798353000002805 ], [ -80.997200000001328, 31.748503000003023 ], [ -81.051521000001216, 31.705198000002692 ], [ -81.069633000001843, 31.642405000002796 ], [ -81.087997000001465, 31.52731700000351 ], [ -81.095383000002229, 31.52098100000277 ], [ -81.125435000001843, 31.477541000002784 ], [ -81.143845000002059, 31.471521000003357 ], [ -81.166939000001648, 31.423445000002744 ], [ -81.190758000001921, 31.399876000002752 ], [ -81.17254600000183, 31.376831000003168 ], [ -81.18371600000215, 31.294283000003311 ], [ -81.187675000002145, 31.246258000002676 ], [ -81.234337000001219, 31.170258000002999 ], [ -81.296417000002123, 31.151880000002659 ], [ -81.288567000001564, 31.125500000002667 ], [ -81.28840800000134, 31.124912000002855 ], [ -81.287460000001204, 31.099213000002703 ], [ -81.32250200000199, 31.063795000002763 ], [ -81.345306000001571, 31.059362000002668 ], [ -81.344498000001863, 31.01811000000292 ], [ -81.306435000001443, 30.990644000003535 ], [ -81.317535000001769, 30.948500000002841 ], [ -81.345207000001338, 30.93150300000346 ], [ -81.350204000001767, 30.889109000003099 ], [ -81.37480900000142, 30.817377000003329 ], [ -81.400482000001873, 30.76642600000293 ], [ -81.367416000002152, 30.752514000002748 ], [ -81.347015000001363, 30.712444000002893 ], [ -81.464013000001515, 30.71098300000309 ], [ -81.498614000001467, 30.724718000003495 ], [ -81.548905000002009, 30.718303000003235 ], [ -81.606025000001779, 30.726728000003096 ], [ -81.654268000001494, 30.744351000003167 ], [ -81.718109000001746, 30.744806000003472 ], [ -81.772049000001459, 30.772053000003208 ], [ -81.793968000002224, 30.787239000002948 ], [ -81.881858000002126, 30.799961000002963 ], [ -81.904855000001632, 30.828340000003141 ], [ -81.962947000001591, 30.818850000002907 ], [ -81.97902500000194, 30.776608000003204 ], [ -82.039795000001448, 30.747297000002877 ], [ -82.035927000001848, 30.706205000003106 ], [ -82.045906000001281, 30.651888000003357 ], [ -82.016494000001614, 30.60251200000263 ], [ -82.005810000001802, 30.565358000002711 ], [ -82.018554000001572, 30.528992000003459 ], [ -82.016906000001882, 30.475111000002915 ], [ -82.043315000002153, 30.412361000002935 ], [ -82.037218000001744, 30.371848000003261 ], [ -82.065598000002183, 30.358114000002761 ], [ -82.105018000001706, 30.368817000003204 ], [ -82.170197000001977, 30.358972000003352 ], [ -82.192596000002098, 30.378831000003498 ], [ -82.210733000001511, 30.425640000002996 ], [ -82.201240000001775, 30.485114000003396 ] ] ] } },
{ "type": "Feature", "properties": { "opt_all": 2, "population": 767427.0, "voting_age_pop": 589629.0, "dem_votes": 114423.0, "rep_votes": 151482.0, "minority_pop": 272844.0, "dem_pct": 0.43031533802285954, "rep_pct": 0.56968466160106623 }, "geometry": { "type": "Polygon", "coordinates": [ [ [ -85.140731000002418, 31.857461000002967 ], [ -85.065929000001475, 31.971158000002887 ], [ -85.068230000001506, 31.991857000003208 ], [ -85.055075000001608, 32.010714000002572 ], [ -85.058830000002388, 32.046656000002748 ], [ -85.045063000001946, 32.088063000003274 ], [ -85.062060000001708, 32.132486000002892 ], [ -85.009224000002092, 32.18164600000339 ], [ -84.963728000001581, 32.195852000003036 ], [ -84.973328000001658, 32.217650000003331 ], [ -84.923027000001952, 32.230851000002787 ], [ -84.905227000002242, 32.25014900000275 ], [ -84.888519000002191, 32.260869000002657 ], [ -84.957465000001832, 32.307422000003342 ], [ -85.00279100000175, 32.322428000003192 ], [ -85.004582000002472, 32.345196000003405 ], [ -84.971962000002264, 32.377698000003136 ], [ -84.967031000001938, 32.435343000002575 ], [ -84.993530000002096, 32.450743000003008 ], [ -84.995310000001936, 32.47739300000277 ], [ -84.994895000001563, 32.483089000003162 ], [ -84.999341000001664, 32.507261000002643 ], [ -85.023645000001409, 32.542955000003204 ], [ -85.067199000001665, 32.57930600000288 ], [ -85.080784000001756, 32.608072000002622 ], [ -85.085436000002076, 32.630235000003005 ], [ -85.088483000002242, 32.657758000003085 ], [ -85.112337000002356, 32.683234000002848 ], [ -85.12123800000164, 32.720332000002884 ], [ -85.142980000002041, 32.761654000002665 ], [ -85.122189000001953, 32.773353000003368 ], [ -85.16563500000224, 32.808222000003333 ], [ -85.154855000001902, 32.839689000002963 ], [ -85.184131000001841, 32.87052500000312 ], [ -85.196005000002174, 32.926336000002934 ], [ -85.202482000002036, 32.958865000003328 ], [ -85.236518000001809, 33.129559000003397 ], [ -85.117448000001787, 33.168656000003359 ], [ -85.11138200000174, 33.178472000003275 ], [ -85.088036000001779, 33.171701000003203 ], [ -85.04076800000179, 33.188302000002928 ], [ -84.939015000001973, 33.224693000002802 ], [ -84.932260000002117, 33.224623000002872 ], [ -84.86213500000224, 33.223858000003339 ], [ -84.862359000002172, 33.19117300000331 ], [ -84.85236000000242, 33.223590000003263 ], [ -84.82473300000224, 33.223472000003085 ], [ -84.79527800000163, 33.223346000002941 ], [ -84.635725000001486, 33.222440000002869 ], [ -84.621777000002211, 33.222149000003078 ], [ -84.502352000002077, 33.221055000002998 ], [ -84.496783000001415, 33.183866000003164 ], [ -84.451336000001817, 33.208889000002991 ], [ -84.393630000002034, 33.20027100000317 ], [ -84.352267000001888, 33.189542000003215 ], [ -84.325591000001879, 33.189349000003411 ], [ -84.29788700000239, 33.189282000002812 ], [ -84.268340000002155, 33.189234000002998 ], [ -84.248185000002081, 33.189019000003093 ], [ -84.247981000002241, 33.114187000002893 ], [ -84.248133000001928, 33.075488000002785 ], [ -84.193356000001785, 33.05821400000255 ], [ -84.15531000000226, 33.076426000003195 ], [ -84.094668000001747, 33.11287500000288 ], [ -84.124760000001729, 33.150453000003438 ], [ -84.143813000001828, 33.150596000003226 ], [ -84.120439000002065, 33.175640000002566 ], [ -84.123856000002178, 33.190632000002587 ], [ -84.123767000001948, 33.202824000002913 ], [ -84.041498000002051, 33.202629000002887 ], [ -83.993412000001413, 33.202416000003247 ], [ -83.921490000001654, 33.201778000003081 ], [ -83.842870000001611, 33.196873000003144 ], [ -83.822261000001632, 33.180238000002866 ], [ -83.816048000002155, 33.131816000003077 ], [ -83.816845000001891, 33.126463000002772 ], [ -83.773917000002243, 33.079360000003241 ], [ -83.747004000002377, 33.063373000003018 ], [ -83.723093000001867, 33.026628000003335 ], [ -83.723453000002237, 32.997238000002973 ], [ -83.710685000001433, 32.952792000002596 ], [ -83.745617000002184, 32.933496000002968 ], [ -83.777958000001519, 32.914227000003315 ], [ -83.791204000002068, 32.906614000002946 ], [ -83.852553000001421, 32.871282000002701 ], [ -83.863831000001909, 32.864683000002707 ], [ -83.872752000001768, 32.859489000003158 ], [ -83.891922000001472, 32.848351000002928 ], [ -83.892050000002399, 32.819558000003262 ], [ -83.865120000002179, 32.799674000003094 ], [ -83.809161000001737, 32.731231000002794 ], [ -83.776874000001655, 32.718809000003262 ], [ -83.737495000001587, 32.694135000003321 ], [ -83.701152000001386, 32.692169000003162 ], [ -83.70102900000154, 32.692159000002661 ], [ -83.61931500000199, 32.664046000002749 ], [ -83.597656000002132, 32.664338000002644 ], [ -83.563125000002103, 32.659813000002984 ], [ -83.542949000001826, 32.625791000002799 ], [ -83.535053000002137, 32.586568000002885 ], [ -83.548147000001407, 32.571922000003354 ], [ -83.536547000001889, 32.542648000002849 ], [ -83.517935000001557, 32.498908000003254 ], [ -83.492180000002307, 32.486763000002561 ], [ -83.497923000001677, 32.452198000003399 ], [ -83.282274000002076, 32.55732500000294 ], [ -83.22653600000173, 32.584201000003063 ], [ -83.179528000001483, 32.49787800000275 ], [ -83.159589000002001, 32.4610560000026 ], [ -83.138991000001994, 32.423069000003174 ], [ -83.173252000001924, 32.452533000002902 ], [ -83.22438900000229, 32.409321000003132 ], [ -83.238405000002189, 32.39762700000265 ], [ -83.301037000001443, 32.345056000003197 ], [ -83.283958000002258, 32.324311000003391 ], [ -83.346528000001868, 32.272489000002885 ], [ -83.373931000002329, 32.249741000003432 ], [ -83.291106000002358, 32.178825000003293 ], [ -83.294318000002164, 32.17620900000319 ], [ -83.324805000002186, 32.15036700000266 ], [ -83.304685000001655, 32.13320000000261 ], [ -83.337313000001458, 32.105885000002793 ], [ -83.305720000002225, 32.089914000002956 ], [ -83.294495000002186, 32.038777000002831 ], [ -83.279208000001745, 31.99672800000263 ], [ -83.289724000001584, 31.983046000003139 ], [ -83.261534000001546, 31.952076000003473 ], [ -83.219053000002205, 31.92635000000336 ], [ -83.205739000001316, 31.900325000003029 ], [ -83.177469000001679, 31.847857000003444 ], [ -83.212879000001877, 31.844628000002732 ], [ -83.398783000002254, 31.846407000003303 ], [ -83.44395700000166, 31.84700800000325 ], [ -83.480176000002345, 31.847312000003075 ], [ -83.612256000001864, 31.854089000002919 ], [ -83.611895000001709, 31.899372000003066 ], [ -83.609663000001433, 32.027938000003239 ], [ -83.696762000001655, 32.028551000003262 ], [ -83.840505000002366, 32.030191000002574 ], [ -83.961278000001357, 32.030595000003132 ], [ -83.92490200000212, 31.947725000002578 ], [ -83.922494000001535, 31.9096530000031 ], [ -84.08471900000238, 31.91400700000279 ], [ -84.19113500000141, 31.914909000002655 ], [ -84.33814300000202, 31.916190000003127 ], [ -84.338245000001564, 31.873591000003405 ], [ -84.305387000001872, 31.868804000003198 ], [ -84.263771000001768, 31.831903000002683 ], [ -84.260489000001698, 31.79089800000272 ], [ -84.286839000001777, 31.769266000002951 ], [ -84.287022000001372, 31.758096000003327 ], [ -84.30520400000205, 31.691058000002872 ], [ -84.296205000001464, 31.677267000002889 ], [ -84.297801000001442, 31.621951000003236 ], [ -84.450398000002323, 31.621868000002753 ], [ -84.546854000001971, 31.6211990000029 ], [ -84.586501000001888, 31.621159000003349 ], [ -84.647228000001689, 31.64361700000325 ], [ -84.68093700000189, 31.620027000002558 ], [ -84.701394000001812, 31.619877000002635 ], [ -84.817843000002114, 31.619771000003414 ], [ -84.831051000001537, 31.619582000002666 ], [ -84.941804000002236, 31.618669000002644 ], [ -84.94246400000165, 31.637462000003104 ], [ -84.930998000001779, 31.672309000003285 ], [ -84.949784000002253, 31.679914000002913 ], [ -84.958864000002066, 31.734606000003129 ], [ -84.958637000001929, 31.777554000002837 ], [ -84.958640000002319, 31.77785400000263 ], [ -85.017889000002413, 31.778732000003409 ], [ -85.141130000002207, 31.780463000002619 ], [ -85.131231000001861, 31.81526200000285 ], [ -85.140731000002418, 31.857461000002967 ] ] ] } },
{ "type": "Feature", "properties": { "opt_all": 3, "population": 764009.0, "voting_age_pop": 585629.0, "dem_votes": 133183.0, "rep_votes": 161448.0, "minority_pop": 260371.0, "dem_pct": 0.45203322106226662, "rep_pct": 0.54796677859832577 }, "geometry": { "type": "Polygon", "coordinates": [ [ [ -85.322536000002103, 33.574166000003324 ], [ -85.338230000001573, 33.653117000002943 ], [ -85.289742000002434, 33.652087000002581 ], [ -85.248548000001463, 33.665846000003015 ], [ -85.235598000001801, 33.669908000002962 ], [ -85.172156000002431, 33.68974500000278 ], [ -85.106786000002145, 33.694611000002894 ], [ -85.052654000001581, 33.714669000003298 ], [ -85.050889000001817, 33.714632000003235 ], [ -85.05080800000168, 33.718304000002732 ], [ -85.049919000001594, 33.755525000003054 ], [ -85.049591000002025, 33.779960000002546 ], [ -85.037926000002258, 33.811942000002702 ], [ -84.97213800000219, 33.799780000002642 ], [ -84.901688000002125, 33.780703000002866 ], [ -84.869410000001992, 33.774983000003189 ], [ -84.825604000001562, 33.778822000002741 ], [ -84.793599000002345, 33.783241000002789 ], [ -84.767494000002216, 33.786895000003213 ], [ -84.75039300000212, 33.787725000002673 ], [ -84.730974000001666, 33.788568000003373 ], [ -84.724139000002296, 33.806170000002986 ], [ -84.693982000001981, 33.805706000002985 ], [ -84.671073000002181, 33.805496000003224 ], [ -84.667733000002229, 33.805423000002605 ], [ -84.656862000001354, 33.805406000003408 ], [ -84.652615000001546, 33.805206000002606 ], [ -84.652071000001484, 33.805206000002549 ], [ -84.6286440000016, 33.804849000003117 ], [ -84.624047000001951, 33.804753000003352 ], [ -84.6201110000017, 33.801498000002965 ], [ -84.617620000002006, 33.817121000003318 ], [ -84.621909000001381, 33.833399000002849 ], [ -84.609612000002059, 33.843553000003112 ], [ -84.585409000002088, 33.847239000002567 ], [ -84.582621000001964, 33.844610000002874 ], [ -84.559151000002359, 33.849050000002656 ], [ -84.549560000002117, 33.847608000003241 ], [ -84.558924000002293, 33.85424500000299 ], [ -84.559833000002413, 33.856894000003045 ], [ -84.544271000001487, 33.863203000003153 ], [ -84.536570000002342, 33.876776000002536 ], [ -84.545905000001412, 33.891139000002902 ], [ -84.541475000002265, 33.902007000003188 ], [ -84.524310000001691, 33.902572000002905 ], [ -84.50338200000138, 33.89484500000259 ], [ -84.496724000001549, 33.897695000002791 ], [ -84.481470000002375, 33.896998000002945 ], [ -84.481771000001558, 33.896810000002539 ], [ -84.470535000001803, 33.892424000002933 ], [ -84.473435000002226, 33.880257000003425 ], [ -84.486419000002385, 33.88219300000317 ], [ -84.48674900000178, 33.881984000003143 ], [ -84.483607000001584, 33.877948000003144 ], [ -84.47352600000184, 33.879434000002874 ], [ -84.470870000001852, 33.858499000003349 ], [ -84.453909000001559, 33.867640000002865 ], [ -84.454367000002392, 33.858764000003433 ], [ -84.455493000001766, 33.826808000002956 ], [ -84.45587600000178, 33.825770000003182 ], [ -84.457881000001564, 33.824578000003122 ], [ -84.463293000001443, 33.827113000003202 ], [ -84.480134000002224, 33.817319000002726 ], [ -84.488964000002269, 33.81282000000251 ], [ -84.495126000002259, 33.808542000003158 ], [ -84.497319000001553, 33.806322000002709 ], [ -84.503586000002414, 33.79871200000327 ], [ -84.50791100000184, 33.795532000002929 ], [ -84.52176100000186, 33.787185000002559 ], [ -84.50862600000147, 33.781802000003161 ], [ -84.515509000001899, 33.772746000003316 ], [ -84.517606000001621, 33.762514000002788 ], [ -84.524815000001425, 33.762581000003259 ], [ -84.535008000001852, 33.757839000002704 ], [ -84.537138000002031, 33.75013800000287 ], [ -84.539849000001766, 33.747591000002572 ], [ -84.551624000002121, 33.738438000002844 ], [ -84.584919000001676, 33.720364000003165 ], [ -84.609811000002367, 33.690490000003066 ], [ -84.630117000001903, 33.693116000003428 ], [ -84.654607000001704, 33.662858000002849 ], [ -84.66333600000182, 33.656946000002684 ], [ -84.669787000001463, 33.650332000002912 ], [ -84.671677000002219, 33.622210000002703 ], [ -84.70485600000238, 33.597823000002599 ], [ -84.667409000002365, 33.573376000002661 ], [ -84.666381000002346, 33.56215700000309 ], [ -84.665020000002301, 33.547237000003122 ], [ -84.692266000001794, 33.561397000002557 ], [ -84.693249000002396, 33.561478000002538 ], [ -84.700541000001962, 33.559273000003024 ], [ -84.73079600000213, 33.556283000003148 ], [ -84.725396000001609, 33.540408000002643 ], [ -84.721003000001758, 33.510895000002968 ], [ -84.699835000002182, 33.511369000002809 ], [ -84.680029000001511, 33.511470000003264 ], [ -84.654859000001807, 33.511400000002759 ], [ -84.632147000002163, 33.511097000003005 ], [ -84.609540000001815, 33.502511000002663 ], [ -84.570289000001537, 33.524918000003332 ], [ -84.566294000001818, 33.5260030000032 ], [ -84.556857000001628, 33.528405000003289 ], [ -84.523742000001377, 33.536481000002915 ], [ -84.483656000001773, 33.545732000002957 ], [ -84.474343000002008, 33.547776000003161 ], [ -84.458665000001645, 33.550933000002935 ], [ -84.439448000002344, 33.550720000003238 ], [ -84.427543000001634, 33.517139000003183 ], [ -84.427384000001624, 33.516941000002888 ], [ -84.397479000001368, 33.485738000003344 ], [ -84.384772000001817, 33.458713000003165 ], [ -84.383744000002054, 33.444407000002542 ], [ -84.402138000001457, 33.42527800000326 ], [ -84.393071000002266, 33.412011000002956 ], [ -84.388600000001944, 33.411968000002844 ], [ -84.389944000001449, 33.385720000002692 ], [ -84.388118000001953, 33.352465000002638 ], [ -84.354400000001903, 33.352514000003104 ], [ -84.315368000001527, 33.352519000003298 ], [ -84.249164000002125, 33.35253900000324 ], [ -84.247304000001776, 33.335970000003016 ], [ -84.216329000001423, 33.335821000002582 ], [ -84.150581000001935, 33.335639000003063 ], [ -84.134704000001364, 33.307628000003312 ], [ -84.102582000001362, 33.298191000002944 ], [ -84.088991000001357, 33.285646000002657 ], [ -84.123152000001397, 33.242748000002976 ], [ -84.123767000001948, 33.202824000002913 ], [ -84.123856000002178, 33.190632000002587 ], [ -84.120439000002065, 33.175640000002566 ], [ -84.143813000001828, 33.150596000003226 ], [ -84.124760000001729, 33.150453000003438 ], [ -84.094668000001747, 33.11287500000288 ], [ -84.15531000000226, 33.076426000003195 ], [ -84.193356000001785, 33.05821400000255 ], [ -84.248133000001928, 33.075488000002785 ], [ -84.247981000002241, 33.114187000002893 ], [ -84.248185000002081, 33.189019000003093 ], [ -84.268340000002155, 33.189234000002998 ], [ -84.29788700000239, 33.189282000002812 ], [ -84.325591000001879, 33.189349000003411 ], [ -84.352267000001888, 33.189542000003215 ], [ -84.393630000002034, 33.20027100000317 ], [ -84.451336000001817, 33.208889000002991 ], [ -84.496783000001415, 33.183866000003164 ], [ -84.502352000002077, 33.221055000002998 ], [ -84.621777000002211, 33.222149000003078 ], [ -84.635725000001486, 33.222440000002869 ], [ -84.79527800000163, 33.223346000002941 ], [ -84.82473300000224, 33.223472000003085 ], [ -84.85236000000242, 33.223590000003263 ], [ -84.862359000002172, 33.19117300000331 ], [ -84.86213500000224, 33.223858000003339 ], [ -84.932260000002117, 33.224623000002872 ], [ -84.939015000001973, 33.224693000002802 ], [ -85.04076800000179, 33.188302000002928 ], [ -85.088036000001779, 33.171701000003203 ], [ -85.11138200000174, 33.178472000003275 ], [ -85.117448000001787, 33.168656000003359 ], [ -85.236518000001809, 33.129559000003397 ], [ -85.268170000001703, 33.295223000002608 ], [ -85.293805000002308, 33.42809800000294 ], [ -85.304439000002418, 33.482884000002869 ], [ -85.322536000002103, 33.574166000003324 ] ] ] } },
{ "type": "Feature", "properties": { "opt_all": 4, "population": 762664.0, "voting_age_pop": 593207.0, "dem_votes": 245646.0, "rep_votes": 48543.0, "minority_pop": 422843.0, "dem_pct": 0.83499383021289242, "rep_pct": 0.16500616944719002 }, "geometry": { "type": "Polygon", "coordinates": [ [ [ -84.349414000001346, 33.680346000002743 ], [ -84.349413000001718, 33.692570000002675 ], [ -84.349487000002298, 33.700619000003137 ], [ -84.349511000001428, 33.709266000002636 ], [ -84.349501000002036, 33.715533000003035 ], [ -84.349438000002294, 33.722239000002745 ], [ -84.349253000001667, 33.739117000002899 ], [ -84.349241000002195, 33.740356000002564 ], [ -84.349193000002373, 33.748104000003181 ], [ -84.349180000002065, 33.75973900000325 ], [ -84.349182000002372, 33.759919000003187 ], [ -84.349206000001701, 33.764957000003221 ], [ -84.348962000001578, 33.773844000002903 ], [ -84.348697000002389, 33.781862000003372 ], [ -84.348656000001569, 33.782966000003164 ], [ -84.348427000001706, 33.789841000002681 ], [ -84.348153000001602, 33.804625000003178 ], [ -84.348415000001594, 33.817394000002743 ], [ -84.348506000001564, 33.825117000002834 ], [ -84.348483000001707, 33.825403000002815 ], [ -84.348468000001901, 33.826353000002833 ], [ -84.348165000001728, 33.84350000000336 ], [ -84.348091000002086, 33.845293000003203 ], [ -84.348384000001815, 33.852541000003221 ], [ -84.348309000002246, 33.853945000003129 ], [ -84.348304000001519, 33.854034000003168 ], [ -84.348300000001842, 33.857634000002662 ], [ -84.348089000001352, 33.882090000002563 ], [ -84.348315000002287, 33.890903000002737 ], [ -84.348331000002219, 33.892858000003336 ], [ -84.348221000002297, 33.904905000002621 ], [ -84.347913000001668, 33.915004000002668 ], [ -84.315086000001386, 33.919649000002842 ], [ -84.304987000002257, 33.919832000002764 ], [ -84.289669000002192, 33.916119000003107 ], [ -84.283259000002175, 33.927036000002595 ], [ -84.264928000002286, 33.931205000002606 ], [ -84.264876000001692, 33.930865000002775 ], [ -84.25901300000146, 33.91882400000317 ], [ -84.250087000002011, 33.910684000002831 ], [ -84.238073000001421, 33.905070000003064 ], [ -84.237113000001429, 33.904447000002946 ], [ -84.217874000001757, 33.886452000003423 ], [ -84.207699000001469, 33.877931000003208 ], [ -84.188042000001417, 33.866592000002854 ], [ -84.172558000001743, 33.858634000003121 ], [ -84.17111500000226, 33.858224000002757 ], [ -84.162364000001944, 33.87100400000331 ], [ -84.135541000001567, 33.863071000002648 ], [ -84.114439000001923, 33.856738000003268 ], [ -84.111375000001829, 33.852202000002762 ], [ -84.122197000001407, 33.84714100000307 ], [ -84.108765000001952, 33.837436000003393 ], [ -84.115953000001952, 33.822678000002831 ], [ -84.075351000001916, 33.804980000002573 ], [ -84.07378800000167, 33.824101000002656 ], [ -84.035661000001667, 33.81987900000307 ], [ -84.03148500000222, 33.826366000003162 ], [ -84.017699000002352, 33.828050000003216 ], [ -84.027982000001685, 33.804266000003402 ], [ -83.980776000002066, 33.793277000002973 ], [ -83.981537000002078, 33.786701000002793 ], [ -83.982033000001834, 33.786054000002657 ], [ -83.915623000002071, 33.744702000002739 ], [ -83.914823000001519, 33.744203000002791 ], [ -83.918235000001388, 33.721955000002723 ], [ -83.974421000001698, 33.732157000002772 ], [ -83.997764000001951, 33.692541000002805 ], [ -84.000043000001796, 33.692174000003355 ], [ -84.02245900000166, 33.703065000002802 ], [ -84.054412000002117, 33.728442000003106 ], [ -84.063110000001657, 33.714127000002804 ], [ -84.07433200000203, 33.692894000002838 ], [ -84.074480000001415, 33.692609000003181 ], [ -84.08396400000143, 33.674321000002685 ], [ -84.095681000001775, 33.652439000002545 ], [ -84.104334000001501, 33.636025000003293 ], [ -84.128490000001761, 33.63016300000313 ], [ -84.150581000002092, 33.638577000003302 ], [ -84.18414300000201, 33.646157000003107 ], [ -84.187442000002278, 33.646173000002683 ], [ -84.237624000001759, 33.630717000003287 ], [ -84.254149000001789, 33.647045000002755 ], [ -84.266882000002397, 33.647170000002802 ], [ -84.281273000001889, 33.647411000002599 ], [ -84.296622000002316, 33.647108000003094 ], [ -84.323638000001992, 33.647241000002637 ], [ -84.33633600000185, 33.647508000002709 ], [ -84.350224000001674, 33.647908000002708 ], [ -84.34979900000198, 33.664035000003274 ], [ -84.349414000001346, 33.680346000002743 ] ] ] } },
{ "type": "Feature", "properties": { "opt_all": 5, "population": 765922.0, "voting_age_pop": 615114.0, "dem_votes": 225891.0, "rep_votes": 45757.0, "minority_pop": 430124.0, "dem_pct": 0.831557750901329, "rep_pct": 0.16844224873054753 }, "geometry": { "type": "MultiPolygon", "coordinates": [ [ [ [ -84.699835000002182, 33.511369000002809 ], [ -84.721003000001758, 33.510895000002968 ], [ -84.725396000001609, 33.540408000002643 ], [ -84.73079600000213, 33.556283000003148 ], [ -84.700541000001962, 33.559273000003024 ], [ -84.693249000002396, 33.561478000002538 ], [ -84.692266000001794, 33.561397000002557 ], [ -84.665020000002301, 33.547237000003122 ], [ -84.666381000002346, 33.56215700000309 ], [ -84.667409000002365, 33.573376000002661 ], [ -84.70485600000238, 33.597823000002599 ], [ -84.671677000002219, 33.622210000002703 ], [ -84.669787000001463, 33.650332000002912 ], [ -84.66333600000182, 33.656946000002684 ], [ -84.654607000001704, 33.662858000002849 ], [ -84.630117000001903, 33.693116000003428 ], [ -84.609811000002367, 33.690490000003066 ], [ -84.584919000001676, 33.720364000003165 ], [ -84.551624000002121, 33.738438000002844 ], [ -84.539849000001766, 33.747591000002572 ], [ -84.537138000002031, 33.75013800000287 ], [ -84.535008000001852, 33.757839000002704 ], [ -84.524815000001425, 33.762581000003259 ], [ -84.517606000001621, 33.762514000002788 ], [ -84.515509000001899, 33.772746000003316 ], [ -84.50862600000147, 33.781802000003161 ], [ -84.52176100000186, 33.787185000002559 ], [ -84.50791100000184, 33.795532000002929 ], [ -84.503586000002414, 33.79871200000327 ], [ -84.497319000001553, 33.806322000002709 ], [ -84.495126000002259, 33.808542000003158 ], [ -84.488964000002269, 33.81282000000251 ], [ -84.480134000002224, 33.817319000002726 ], [ -84.463293000001443, 33.827113000003202 ], [ -84.457881000001564, 33.824578000003122 ], [ -84.45587600000178, 33.825770000003182 ], [ -84.455493000001766, 33.826808000002956 ], [ -84.454367000002392, 33.858764000003433 ], [ -84.453909000001559, 33.867640000002865 ], [ -84.470870000001852, 33.858499000003349 ], [ -84.47352600000184, 33.879434000002874 ], [ -84.483607000001584, 33.877948000003144 ], [ -84.48674900000178, 33.881984000003143 ], [ -84.486419000002385, 33.88219300000317 ], [ -84.473435000002226, 33.880257000003425 ], [ -84.470535000001803, 33.892424000002933 ], [ -84.481771000001558, 33.896810000002539 ], [ -84.481470000002375, 33.896998000002945 ], [ -84.478054000002231, 33.912230000003156 ], [ -84.477949000002184, 33.912064000003113 ], [ -84.466771000002197, 33.918032000002796 ], [ -84.442708000002128, 33.901543000002768 ], [ -84.443087000001768, 33.87921600000309 ], [ -84.413656000002433, 33.87836900000319 ], [ -84.402590000001581, 33.886758000002743 ], [ -84.387299000002017, 33.881056000002594 ], [ -84.3797870000014, 33.878149000002928 ], [ -84.37030700000237, 33.877950000002592 ], [ -84.348089000001352, 33.882090000002563 ], [ -84.348300000001842, 33.857634000002662 ], [ -84.348304000001519, 33.854034000003168 ], [ -84.348309000002246, 33.853945000003129 ], [ -84.348384000001815, 33.852541000003221 ], [ -84.348091000002086, 33.845293000003203 ], [ -84.348165000001728, 33.84350000000336 ], [ -84.348468000001901, 33.826353000002833 ], [ -84.348483000001707, 33.825403000002815 ], [ -84.348506000001564, 33.825117000002834 ], [ -84.348415000001594, 33.817394000002743 ], [ -84.348153000001602, 33.804625000003178 ], [ -84.348427000001706, 33.789841000002681 ], [ -84.348656000001569, 33.782966000003164 ], [ -84.348697000002389, 33.781862000003372 ], [ -84.348962000001578, 33.773844000002903 ], [ -84.349206000001701, 33.764957000003221 ], [ -84.349182000002372, 33.759919000003187 ], [ -84.349180000002065, 33.75973900000325 ], [ -84.349193000002373, 33.748104000003181 ], [ -84.349241000002195, 33.740356000002564 ], [ -84.349253000001667, 33.739117000002899 ], [ -84.349438000002294, 33.722239000002745 ], [ -84.349501000002036, 33.715533000003035 ], [ -84.349511000001428, 33.709266000002636 ], [ -84.349487000002298, 33.700619000003137 ], [ -84.349413000001718, 33.692570000002675 ], [ -84.349414000001346, 33.680346000002743 ], [ -84.34979900000198, 33.664035000003274 ], [ -84.350224000001674, 33.647908000002708 ], [ -84.365179000001675, 33.647812000002524 ], [ -84.397427000001628, 33.648209000002801 ], [ -84.399446000001944, 33.648309000003046 ], [ -84.419228000001539, 33.648608000002596 ], [ -84.42852700000239, 33.648709000003407 ], [ -84.452928000002046, 33.644107000002535 ], [ -84.457728000001865, 33.648477000003275 ], [ -84.458053000001598, 33.629241000003255 ], [ -84.458427000002104, 33.618770000002819 ], [ -84.458426000002206, 33.616183000003211 ], [ -84.458500000001919, 33.613799000003162 ], [ -84.458556000001863, 33.594436000003128 ], [ -84.458627000001741, 33.586456000003182 ], [ -84.458630000001691, 33.572107000003072 ], [ -84.458924000001588, 33.559759000002892 ], [ -84.458665000001645, 33.550933000002935 ], [ -84.474343000002008, 33.547776000003161 ], [ -84.483656000001773, 33.545732000002957 ], [ -84.523742000001377, 33.536481000002915 ], [ -84.556857000001628, 33.528405000003289 ], [ -84.566294000001818, 33.5260030000032 ], [ -84.570289000001537, 33.524918000003332 ], [ -84.609540000001815, 33.502511000002663 ], [ -84.632147000002163, 33.511097000003005 ], [ -84.654859000001807, 33.511400000002759 ], [ -84.680029000001511, 33.511470000003264 ], [ -84.699835000002182, 33.511369000002809 ] ] ], [ [ [ -84.618217000002318, 33.859416000002525 ], [ -84.630897000001696, 33.867705000003021 ], [ -84.610231000001548, 33.893521000003325 ], [ -84.6031960000022, 33.906243000003037 ], [ -84.596796000002271, 33.911077000003296 ], [ -84.589225000001946, 33.93161200000312 ], [ -84.586240000002405, 33.937260000003107 ], [ -84.566417000001763, 33.911943000002708 ], [ -84.556773000001712, 33.912393000002709 ], [ -84.556044000002146, 33.913010000003212 ], [ -84.557816000001978, 33.920608000002723 ], [ -84.560401000002329, 33.923582000003236 ], [ -84.555446000001453, 33.932858000003321 ], [ -84.542729000001742, 33.937852000002522 ], [ -84.498618000001457, 33.914785000003434 ], [ -84.496724000001549, 33.897695000002791 ], [ -84.50338200000138, 33.89484500000259 ], [ -84.524310000001691, 33.902572000002905 ], [ -84.541475000002265, 33.902007000003188 ], [ -84.545905000001412, 33.891139000002902 ], [ -84.536570000002342, 33.876776000002536 ], [ -84.544271000001487, 33.863203000003153 ], [ -84.559833000002413, 33.856894000003045 ], [ -84.558924000002293, 33.85424500000299 ], [ -84.549560000002117, 33.847608000003241 ], [ -84.559151000002359, 33.849050000002656 ], [ -84.582621000001964, 33.844610000002874 ], [ -84.585409000002088, 33.847239000002567 ], [ -84.609612000002059, 33.843553000003112 ], [ -84.618217000002318, 33.859416000002525 ] ] ] ] } },
{ "type": "Feature", "properties": { "opt_all": 6, "population": 768615.0, "voting_age_pop": 590681.0, "dem_votes": 129595.0, "rep_votes": 173325.0, "minority_pop": 220932.0, "dem_pct": 0.42781922605710443, "rep_pct": 0.57218077361277542 }, "geometry": { "type": "Polygon", "coordinates": [ [ [ -84.395486000002052, 33.952938000003016 ], [ -84.388655000001478, 33.958041000003263 ], [ -84.383058000002393, 33.966921000002834 ], [ -84.377969000001713, 33.973688000003349 ], [ -84.383329000001908, 33.99280400000309 ], [ -84.386440000001542, 33.992714000002664 ], [ -84.394352000002257, 34.002654000002991 ], [ -84.394448000001489, 34.002774000003321 ], [ -84.401325000002146, 34.025795000002773 ], [ -84.408386000001926, 34.037980000003287 ], [ -84.411204000001462, 34.042253000003093 ], [ -84.41903000000147, 34.061182000003171 ], [ -84.41902800000139, 34.061374000003156 ], [ -84.418927000001773, 34.073298000002886 ], [ -84.460529000001401, 34.074198000003172 ], [ -84.484781000001419, 34.07471000000271 ], [ -84.504756000001805, 34.075072000002876 ], [ -84.521992000002029, 34.075399000003287 ], [ -84.538597000001886, 34.075692000002874 ], [ -84.571683000002196, 34.076299000003097 ], [ -84.57185900000205, 34.076299000002919 ], [ -84.577161000001936, 34.088029000002734 ], [ -84.581863000001491, 34.111855000002862 ], [ -84.585578000001547, 34.119864000003197 ], [ -84.585933000001518, 34.128705000003045 ], [ -84.626026000001815, 34.155916000003046 ], [ -84.596222000001745, 34.179635000002875 ], [ -84.566542000002272, 34.195402000003213 ], [ -84.550463000001628, 34.228635000003386 ], [ -84.595454000002036, 34.263364000002895 ], [ -84.627964000001768, 34.27691100000294 ], [ -84.653312000001947, 34.264022000002704 ], [ -84.653948000002259, 34.332053000002979 ], [ -84.646130000002245, 34.346849000002685 ], [ -84.653232000002234, 34.412590000002602 ], [ -84.582830000001792, 34.412191000002551 ], [ -84.582658000001757, 34.38576800000336 ], [ -84.530363000001429, 34.381026000002997 ], [ -84.454725000002341, 34.3804700000031 ], [ -84.424525000001665, 34.387070000003298 ], [ -84.411969000001662, 34.380551000002811 ], [ -84.347459000001948, 34.380839000002808 ], [ -84.257586000001538, 34.380992000003019 ], [ -84.258075000002265, 34.335156000002797 ], [ -84.258492000002036, 34.29934200000308 ], [ -84.258529000001488, 34.295047000002903 ], [ -84.258689000001553, 34.237094000003047 ], [ -84.258861000002042, 34.201405000003298 ], [ -84.259019000002297, 34.185918000003078 ], [ -84.25888700000209, 34.14315600000333 ], [ -84.258942000002335, 34.127222000003229 ], [ -84.254092000001648, 34.104294000002696 ], [ -84.244725000001765, 34.102820000002751 ], [ -84.227465000002354, 34.097143000003328 ], [ -84.216177000001508, 34.099819000002825 ], [ -84.205969000002341, 34.090679000002758 ], [ -84.178344000001516, 34.070402000002908 ], [ -84.177650000001577, 34.069935000002609 ], [ -84.168078000001742, 34.068029000002667 ], [ -84.147736000002013, 34.057185000002647 ], [ -84.097693000001968, 34.050708000002622 ], [ -84.097736000001802, 34.050589000002965 ], [ -84.092199000002253, 34.049030000003349 ], [ -84.079076000002274, 34.04156300000303 ], [ -84.064580000002394, 34.057661000002582 ], [ -84.058478000001827, 34.046024000003008 ], [ -84.048139000001427, 34.029986000003149 ], [ -84.073977000002358, 34.001250000002685 ], [ -84.086050000002388, 34.004872000003289 ], [ -84.096735000002155, 34.016738000003066 ], [ -84.122126000001373, 34.001342000003056 ], [ -84.130910000001762, 33.987482000003432 ], [ -84.143466000002235, 34.002015000003297 ], [ -84.163314000001407, 33.976556000003193 ], [ -84.167343000002077, 33.973621000002751 ], [ -84.200449000002138, 33.952445000003308 ], [ -84.231703000001787, 33.949023000002867 ], [ -84.221384000001791, 33.937198000003271 ], [ -84.25901300000146, 33.91882400000317 ], [ -84.264876000001692, 33.930865000002775 ], [ -84.264928000002286, 33.931205000002606 ], [ -84.283259000002175, 33.927036000002595 ], [ -84.289669000002192, 33.916119000003107 ], [ -84.304987000002257, 33.919832000002764 ], [ -84.315086000001386, 33.919649000002842 ], [ -84.347913000001668, 33.915004000002668 ], [ -84.348221000002297, 33.904905000002621 ], [ -84.348331000002219, 33.892858000003336 ], [ -84.348315000002287, 33.890903000002737 ], [ -84.348089000001352, 33.882090000002563 ], [ -84.37030700000237, 33.877950000002592 ], [ -84.3797870000014, 33.878149000002928 ], [ -84.387299000002017, 33.881056000002594 ], [ -84.402590000001581, 33.886758000002743 ], [ -84.413656000002433, 33.87836900000319 ], [ -84.443087000001768, 33.87921600000309 ], [ -84.442708000002128, 33.901543000002768 ], [ -84.446480000002367, 33.911938000002898 ], [ -84.405177000001956, 33.943734000002998 ], [ -84.401272000002351, 33.947843000003068 ], [ -84.395486000002052, 33.952938000003016 ] ] ] } },
{ "type": "Feature", "properties": { "opt_all": 7, "population": 762950.0, "voting_age_pop": 562924.0, "dem_votes": 126627.0, "rep_votes": 106343.0, "minority_pop": 367019.0, "dem_pct": 0.54353350193435479, "rep_pct": 0.45646649763640534 }, "geometry": { "type": "Polygon", "coordinates": [ [ [ -84.172558000001743, 33.858634000003121 ], [ -84.188042000001417, 33.866592000002854 ], [ -84.207699000001469, 33.877931000003208 ], [ -84.217874000001757, 33.886452000003423 ], [ -84.237113000001429, 33.904447000002946 ], [ -84.238073000001421, 33.905070000003064 ], [ -84.250087000002011, 33.910684000002831 ], [ -84.25901300000146, 33.91882400000317 ], [ -84.221384000001791, 33.937198000003271 ], [ -84.231703000001787, 33.949023000002867 ], [ -84.200449000002138, 33.952445000003308 ], [ -84.167343000002077, 33.973621000002751 ], [ -84.163314000001407, 33.976556000003193 ], [ -84.143466000002235, 34.002015000003297 ], [ -84.130910000001762, 33.987482000003432 ], [ -84.122126000001373, 34.001342000003056 ], [ -84.096735000002155, 34.016738000003066 ], [ -84.086050000002388, 34.004872000003289 ], [ -84.073977000002358, 34.001250000002685 ], [ -84.048139000001427, 34.029986000003149 ], [ -84.058478000001827, 34.046024000003008 ], [ -84.064580000002394, 34.057661000002582 ], [ -84.079076000002274, 34.04156300000303 ], [ -84.092199000002253, 34.049030000003349 ], [ -84.097736000001802, 34.050589000002965 ], [ -84.097693000001968, 34.050708000002622 ], [ -84.113324000001853, 34.078285000003326 ], [ -84.109894000001617, 34.098423000002938 ], [ -84.097500000002299, 34.122931000003319 ], [ -84.093343000002051, 34.126273000003337 ], [ -84.062841000001825, 34.167873000002857 ], [ -84.020939000001803, 34.153040000002825 ], [ -83.959903000002157, 34.131247000002709 ], [ -83.950222000001446, 34.12777400000342 ], [ -83.914539000002137, 34.115074000002586 ], [ -83.9021310000022, 34.110561000003237 ], [ -83.890097000001788, 34.106179000003273 ], [ -83.919235000001549, 34.079730000002591 ], [ -83.917727000001534, 34.074951000002997 ], [ -83.886284000001609, 34.078226000003227 ], [ -83.833011000002088, 34.090426000002843 ], [ -83.845994000002207, 34.05916900000274 ], [ -83.849291000002268, 34.051218000003111 ], [ -83.864874000001976, 34.013482000002753 ], [ -83.845171000002139, 33.988269000002795 ], [ -83.824235000001337, 33.964167000003457 ], [ -83.812991000001333, 33.953139000003326 ], [ -83.799104000001691, 33.92984400000293 ], [ -83.843184000001983, 33.894775000003257 ], [ -83.855066000001969, 33.885310000002605 ], [ -83.869007000001517, 33.874159000002656 ], [ -83.89261000000208, 33.855276000002881 ], [ -83.908465000001655, 33.842845000002697 ], [ -83.916978000002103, 33.849429000003433 ], [ -83.959626000002089, 33.829210000003137 ], [ -83.985358000002307, 33.826526000002794 ], [ -84.011200000001836, 33.833544000002654 ], [ -84.012470000002025, 33.850214000003191 ], [ -84.020118000002228, 33.857601000002681 ], [ -84.036992000001447, 33.853154000003272 ], [ -84.045167000001697, 33.85057900000308 ], [ -84.060136000002359, 33.842104000002564 ], [ -84.061084000001443, 33.841683000003023 ], [ -84.083667000001896, 33.873874000002878 ], [ -84.093564000002416, 33.868186000003277 ], [ -84.09718300000219, 33.861944000002985 ], [ -84.111375000001829, 33.852202000002762 ], [ -84.114439000001923, 33.856738000003268 ], [ -84.135541000001567, 33.863071000002648 ], [ -84.162364000001944, 33.87100400000331 ], [ -84.17111500000226, 33.858224000002757 ], [ -84.172558000001743, 33.858634000003121 ] ] ] } },
{ "type": "Feature", "properties": { "opt_all": 8, "population": 766219.0, "voting_age_pop": 585588.0, "dem_votes": 92360.0, "rep_votes": 154601.0, "minority_pop": 260645.0, "dem_pct": 0.37398617580347254, "rep_pct": 0.6260138237916052 }, "geometry": { "type": "Polygon", "coordinates": [ [ [ -84.86346500000208, 30.711494000002752 ], [ -84.91112200000228, 30.751191000003139 ], [ -84.936824000001437, 30.818489000003336 ], [ -84.926824000001602, 30.846389000002912 ], [ -84.942525000001396, 30.888488000002916 ], [ -84.983527000001914, 30.93548600000317 ], [ -84.98042700000147, 30.962086000002913 ], [ -85.005952000001869, 30.977353000003255 ], [ -84.9994280000017, 31.013844000003303 ], [ -85.028564000001793, 31.075523000002608 ], [ -85.037062000001725, 31.109753000003241 ], [ -85.077801000001514, 31.157889000003049 ], [ -85.099647000002321, 31.164942000003094 ], [ -85.10696300000177, 31.202693000002544 ], [ -85.096843000001712, 31.225239000002929 ], [ -85.113261000002041, 31.264343000002867 ], [ -85.08765100000214, 31.308677000003239 ], [ -85.092167000001766, 31.36457600000276 ], [ -85.065639000001397, 31.439521000002703 ], [ -85.071621000002366, 31.46838400000318 ], [ -85.045495000001509, 31.517129000003081 ], [ -85.057960000001472, 31.570840000003106 ], [ -85.056000000001958, 31.604294000003105 ], [ -85.057916000001555, 31.61967800000312 ], [ -85.083212000001495, 31.648672000003124 ], [ -85.125930000002228, 31.696265000002885 ], [ -85.119130000002215, 31.730964000003411 ], [ -85.141130000002207, 31.780463000002619 ], [ -85.017889000002413, 31.778732000003409 ], [ -84.958640000002319, 31.77785400000263 ], [ -84.958637000001929, 31.777554000002837 ], [ -84.958864000002066, 31.734606000003129 ], [ -84.949784000002253, 31.679914000002913 ], [ -84.930998000001779, 31.672309000003285 ], [ -84.94246400000165, 31.637462000003104 ], [ -84.941804000002236, 31.618669000002644 ], [ -84.831051000001537, 31.619582000002666 ], [ -84.817843000002114, 31.619771000003414 ], [ -84.701394000001812, 31.619877000002635 ], [ -84.68093700000189, 31.620027000002558 ], [ -84.647228000001689, 31.64361700000325 ], [ -84.586501000001888, 31.621159000003349 ], [ -84.546854000001971, 31.6211990000029 ], [ -84.450398000002323, 31.621868000002753 ], [ -84.297801000001442, 31.621951000003236 ], [ -84.296205000001464, 31.677267000002889 ], [ -84.30520400000205, 31.691058000002872 ], [ -84.287022000001372, 31.758096000003327 ], [ -84.286839000001777, 31.769266000002951 ], [ -84.260489000001698, 31.79089800000272 ], [ -84.263771000001768, 31.831903000002683 ], [ -84.305387000001872, 31.868804000003198 ], [ -84.338245000001564, 31.873591000003405 ], [ -84.33814300000202, 31.916190000003127 ], [ -84.19113500000141, 31.914909000002655 ], [ -84.08471900000238, 31.91400700000279 ], [ -83.922494000001535, 31.9096530000031 ], [ -83.92490200000212, 31.947725000002578 ], [ -83.961278000001357, 32.030595000003132 ], [ -83.840505000002366, 32.030191000002574 ], [ -83.696762000001655, 32.028551000003262 ], [ -83.609663000001433, 32.027938000003239 ], [ -83.611895000001709, 31.899372000003066 ], [ -83.612256000001864, 31.854089000002919 ], [ -83.480176000002345, 31.847312000003075 ], [ -83.44395700000166, 31.84700800000325 ], [ -83.398783000002254, 31.846407000003303 ], [ -83.212879000001877, 31.844628000002732 ], [ -83.177469000001679, 31.847857000003444 ], [ -83.205739000001316, 31.900325000003029 ], [ -83.219053000002205, 31.92635000000336 ], [ -83.261534000001546, 31.952076000003473 ], [ -83.289724000001584, 31.983046000003139 ], [ -83.279208000001745, 31.99672800000263 ], [ -83.294495000002186, 32.038777000002831 ], [ -83.305720000002225, 32.089914000002956 ], [ -83.337313000001458, 32.105885000002793 ], [ -83.304685000001655, 32.13320000000261 ], [ -83.324805000002186, 32.15036700000266 ], [ -83.294318000002164, 32.17620900000319 ], [ -83.291106000002358, 32.178825000003293 ], [ -83.373931000002329, 32.249741000003432 ], [ -83.346528000001868, 32.272489000002885 ], [ -83.283958000002258, 32.324311000003391 ], [ -83.301037000001443, 32.345056000003197 ], [ -83.238405000002189, 32.39762700000265 ], [ -83.22438900000229, 32.409321000003132 ], [ -83.173252000001924, 32.452533000002902 ], [ -83.138991000001994, 32.423069000003174 ], [ -83.111429000001365, 32.372051000002976 ], [ -83.056577000001994, 32.269765000002927 ], [ -83.035991000002255, 32.230823000003099 ], [ -82.968478000001511, 32.276531000002777 ], [ -83.013388000002053, 32.369985000003382 ], [ -83.027205000001985, 32.380423000002821 ], [ -83.015573000001282, 32.405572000002977 ], [ -82.973491000001303, 32.426495000002795 ], [ -82.956959000001333, 32.45736900000297 ], [ -82.895316000001642, 32.448897000003399 ], [ -82.855431000001744, 32.452827000003033 ], [ -82.828975000001762, 32.426639000002801 ], [ -82.7956380000021, 32.393608000002665 ], [ -82.724422000001539, 32.363576000003036 ], [ -82.736884000001808, 32.322619000003208 ], [ -82.721964000002288, 32.309283000003418 ], [ -82.69406300000135, 32.294646000003361 ], [ -82.655486000001531, 32.297561000002851 ], [ -82.649104000002268, 32.311496000002847 ], [ -82.531351000001834, 32.332247000003058 ], [ -82.490047000002264, 32.339537000002771 ], [ -82.409130000001767, 32.353738000003275 ], [ -82.409118000001371, 32.353830000003242 ], [ -82.356378000001968, 32.31349400000299 ], [ -82.354546000001392, 32.292194000003178 ], [ -82.302764000001261, 32.293673000003409 ], [ -82.27984500000143, 32.294182000002692 ], [ -82.232788000001534, 32.318838000002685 ], [ -82.229457000001347, 32.283897000003385 ], [ -82.206505000001954, 32.21836700000285 ], [ -82.182727000001364, 32.160442000002959 ], [ -82.195317000001637, 32.140929000003368 ], [ -82.196477000002034, 32.120756000003496 ], [ -82.204421000001417, 32.076735000002699 ], [ -82.22042600000205, 31.950671000003155 ], [ -82.225042000001679, 31.913074000002677 ], [ -82.293344000001653, 31.94084000000348 ], [ -82.315355000002285, 31.946375000003066 ], [ -82.372420000001568, 31.941456000002649 ], [ -82.431531000001939, 31.966182000002952 ], [ -82.483131000001762, 31.968961000003013 ], [ -82.517077000002146, 31.957914000003111 ], [ -82.543655000002261, 31.958914000002849 ], [ -82.608390000002032, 31.932004000003431 ], [ -82.645659000001842, 31.918883000003049 ], [ -82.676260000001463, 31.913182000003211 ], [ -82.716462000001371, 31.886182000002925 ], [ -82.75719200000232, 31.857031000002969 ], [ -82.791845000001302, 31.847107000002769 ], [ -82.807392000001769, 31.823618000002735 ], [ -82.836366000002243, 31.81615400000285 ], [ -82.83672100000166, 31.761826000003165 ], [ -82.83663300000228, 31.671398000002693 ], [ -82.814029000002066, 31.671419000003151 ], [ -82.631851000001433, 31.672662000003029 ], [ -82.627342000001647, 31.672672000003441 ], [ -82.628185000002105, 31.565930000003227 ], [ -82.596283000002018, 31.557899000003147 ], [ -82.597509000001892, 31.469293000003489 ], [ -82.628181000001931, 31.469351000002924 ], [ -82.628975000001674, 31.36393000000264 ], [ -82.629622000001504, 31.274726000003408 ], [ -82.663584000001421, 31.287913000002977 ], [ -82.699206000002107, 31.27810400000272 ], [ -82.701050000001558, 31.223217000003245 ], [ -82.671669000001401, 31.183739000003278 ], [ -82.666473000002156, 31.172923000003301 ], [ -82.636762000002037, 31.110800000003213 ], [ -82.593766000001722, 31.021691000003297 ], [ -82.55033900000204, 31.000404000002639 ], [ -82.534262000002144, 30.980700000003417 ], [ -82.490558000002309, 30.963166000003277 ], [ -82.492204000001593, 30.83256400000333 ], [ -82.435852000001319, 30.820068000002927 ], [ -82.435112000001737, 30.71656600000334 ], [ -82.428902000001656, 30.690317000003429 ], [ -82.430862000002151, 30.612848000003275 ], [ -82.418914000001735, 30.581767000003406 ], [ -82.584007000001407, 30.591548000003296 ], [ -83.136614000002282, 30.62396700000291 ], [ -83.256221000001759, 30.631238000003357 ], [ -83.309249000001671, 30.634406000002965 ], [ -83.340852000001775, 30.636336000002835 ], [ -83.357703000002061, 30.637360000002591 ], [ -83.642242000001545, 30.652890000003097 ], [ -83.743729000002219, 30.658396000003048 ], [ -83.879891000001678, 30.665810000002612 ], [ -84.083757000002223, 30.675804000002682 ], [ -84.282559000001953, 30.685334000003081 ], [ -84.380705000002379, 30.689993000003359 ], [ -84.625211000002281, 30.700859000002996 ], [ -84.86346500000208, 30.711494000002752 ] ] ] } },
{ "type": "Feature", "properties": { "opt_all": 9, "population": 765277.0, "voting_age_pop": 580220.0, "dem_votes": 65724.0, "rep_votes": 208181.0, "minority_pop": 159615.0, "dem_pct": 0.23995180802104679, "rep_pct": 0.76004819161386317 }, "geometry": { "type": "Polygon", "coordinates": [ [ [ -84.205969000002341, 34.090679000002758 ], [ -84.216177000001508, 34.099819000002825 ], [ -84.227465000002354, 34.097143000003328 ], [ -84.244725000001765, 34.102820000002751 ], [ -84.254092000001648, 34.104294000002696 ], [ -84.258942000002335, 34.127222000003229 ], [ -84.25888700000209, 34.14315600000333 ], [ -84.259019000002297, 34.185918000003078 ], [ -84.258861000002042, 34.201405000003298 ], [ -84.258689000001553, 34.237094000003047 ], [ -84.258529000001488, 34.295047000002903 ], [ -84.258492000002036, 34.29934200000308 ], [ -84.258075000002265, 34.335156000002797 ], [ -84.257586000001538, 34.380992000003019 ], [ -84.256876000001625, 34.465640000003141 ], [ -84.319679000002395, 34.467857000002567 ], [ -84.326402000002034, 34.488576000003199 ], [ -84.345553000001615, 34.562735000002675 ], [ -84.328712000002213, 34.583623000002525 ], [ -84.287895000001626, 34.568768000002699 ], [ -84.254842000002185, 34.586896000002902 ], [ -84.196754000001675, 34.617924000002823 ], [ -84.188557000001467, 34.602692000003337 ], [ -84.158035000002144, 34.648243000003255 ], [ -84.12491400000215, 34.664419000003164 ], [ -84.036276000002331, 34.64208700000254 ], [ -84.024109000001914, 34.670753000002989 ], [ -83.994698000001463, 34.678211000002705 ], [ -83.982612000001581, 34.715890000003419 ], [ -83.939007000001766, 34.740859000002615 ], [ -83.856506000002398, 34.722191000002951 ], [ -83.841033000001474, 34.724992000002892 ], [ -83.839547000002213, 34.725592000002926 ], [ -83.825465000001373, 34.778972000003279 ], [ -83.780346000001657, 34.792905000002953 ], [ -83.742608000001738, 34.801425000003135 ], [ -83.691017000001636, 34.799270000003219 ], [ -83.681596000001633, 34.800882000003035 ], [ -83.652194000001401, 34.822993000003024 ], [ -83.587824000001532, 34.820632000002753 ], [ -83.54898800000197, 34.749451000003383 ], [ -83.520978000001293, 34.735834000002598 ], [ -83.478622000001991, 34.723949000003003 ], [ -83.425713000002105, 34.746616000002675 ], [ -83.352448000002369, 34.716125000003245 ], [ -83.338234000002331, 34.687187000002766 ], [ -83.255281000001375, 34.63769600000299 ], [ -83.227041000001975, 34.611077000003341 ], [ -83.168278000002132, 34.590998000002898 ], [ -83.10367300000155, 34.536617000002728 ], [ -83.05163800000193, 34.493702000002799 ], [ -82.995247000001655, 34.472363000002737 ], [ -82.901551000002129, 34.486764000002893 ], [ -82.864400000001638, 34.459785000003237 ], [ -82.841491000002122, 34.39912300000298 ], [ -82.815641000002202, 34.35390800000323 ], [ -82.798658000001879, 34.341777000003169 ], [ -82.773410000001533, 34.288864000003315 ], [ -82.743172000001422, 34.251598000003284 ], [ -82.731695000001594, 34.177807000002872 ], [ -82.717459000001696, 34.150546000002656 ], [ -82.675219000001789, 34.129779000002813 ], [ -82.64546900000137, 34.07683300000302 ], [ -82.59388700000207, 34.028109000003454 ], [ -82.564491000001368, 33.955733000003391 ], [ -82.512950000001666, 33.936969000003167 ], [ -82.494811000002159, 33.911712000002588 ], [ -82.426513000001407, 33.864670000002761 ], [ -82.408353000002165, 33.866320000002617 ], [ -82.353437000001918, 33.836952000002945 ], [ -82.300213000002287, 33.800627000002976 ], [ -82.299393000002127, 33.785037000002824 ], [ -82.247472000002006, 33.752591000002681 ], [ -82.23432000000227, 33.699836000003067 ], [ -82.218649000001989, 33.686299000002919 ], [ -82.276092000002066, 33.684532000003315 ], [ -82.311848000002087, 33.698082000003133 ], [ -82.338613000001303, 33.693047000002871 ], [ -82.359432000001974, 33.677398000003215 ], [ -82.411118000001949, 33.666883000003459 ], [ -82.425328000001642, 33.650629000002937 ], [ -82.431445000002043, 33.655102000002948 ], [ -82.477340000001576, 33.644161000003123 ], [ -82.479518000001548, 33.639535000002823 ], [ -82.583301000002194, 33.805780000002734 ], [ -82.617125000001565, 33.892979000003045 ], [ -82.645451000002026, 33.984195000002707 ], [ -82.682672000001446, 33.984574000003356 ], [ -82.718719000002238, 33.984776000002753 ], [ -82.779506000002158, 33.971124000003385 ], [ -82.793450000001869, 33.949840000002659 ], [ -82.84668600000137, 33.940639000003301 ], [ -82.883898000001594, 33.912229000003016 ], [ -82.904344000001402, 33.880993000003109 ], [ -82.942554000001479, 33.848781000003214 ], [ -82.987286000001717, 33.780710000003417 ], [ -82.949046000001374, 33.733333000002737 ], [ -82.995602000001668, 33.693583000003457 ], [ -83.049141000001498, 33.715561000002694 ], [ -83.118729000002105, 33.698818000002937 ], [ -83.153211000001491, 33.712328000003282 ], [ -83.280340000001459, 33.761774000002688 ], [ -83.282480000001328, 33.788160000002669 ], [ -83.306619000002058, 33.81144400000305 ], [ -83.275933000001544, 33.847977000002636 ], [ -83.243254000001983, 33.900532000002833 ], [ -83.259033000001921, 33.92401700000282 ], [ -83.278645000001433, 33.951745000003029 ], [ -83.258413000001397, 33.999098000003244 ], [ -83.319090000001736, 34.025259000002691 ], [ -83.358877000002153, 34.039958000002841 ], [ -83.360028000001748, 34.040572000003067 ], [ -83.386908000002052, 34.050126000002948 ], [ -83.357051000002315, 34.116199000003093 ], [ -83.361011000001895, 34.148355000002987 ], [ -83.402428000001919, 34.197499000002914 ], [ -83.451523000001444, 34.237749000002758 ], [ -83.482237000001419, 34.25924200000339 ], [ -83.561521000001832, 34.252712000003122 ], [ -83.605696000001629, 34.286184000003061 ], [ -83.619918000001633, 34.295380000002602 ], [ -83.659479000002264, 34.261873000002971 ], [ -83.683500000002383, 34.241549000003104 ], [ -83.729858000001627, 34.202079000002911 ], [ -83.755644000001794, 34.180189000002578 ], [ -83.773452000001384, 34.165076000003175 ], [ -83.817682000001696, 34.127493000002907 ], [ -83.833011000002088, 34.090426000002843 ], [ -83.886284000001609, 34.078226000003227 ], [ -83.917727000001534, 34.074951000002997 ], [ -83.919235000001549, 34.079730000002591 ], [ -83.890097000001788, 34.106179000003273 ], [ -83.9021310000022, 34.110561000003237 ], [ -83.914539000002137, 34.115074000002586 ], [ -83.950222000001446, 34.12777400000342 ], [ -83.959903000002157, 34.131247000002709 ], [ -84.020939000001803, 34.153040000002825 ], [ -84.062841000001825, 34.167873000002857 ], [ -84.093343000002051, 34.126273000003337 ], [ -84.097500000002299, 34.122931000003319 ], [ -84.109894000001617, 34.098423000002938 ], [ -84.113324000001853, 34.078285000003326 ], [ -84.097693000001968, 34.050708000002622 ], [ -84.147736000002013, 34.057185000002647 ], [ -84.168078000001742, 34.068029000002667 ], [ -84.177650000001577, 34.069935000002609 ], [ -84.178344000001516, 34.070402000002908 ], [ -84.205969000002341, 34.090679000002758 ] ] ] } },
{ "type": "Feature", "properties": { "opt_all": 10, "population": 768464.0, "voting_age_pop": 593196.0, "dem_votes": 122130.0, "rep_votes": 163951.0, "minority_pop": 233654.0, "dem_pct": 0.42690706463312589, "rep_pct": 0.57309293501732272 }, "geometry": { "type": "Polygon", "coordinates": [ [ [ -83.865120000002179, 32.799674000003094 ], [ -83.892050000002399, 32.819558000003262 ], [ -83.891922000001472, 32.848351000002928 ], [ -83.872752000001768, 32.859489000003158 ], [ -83.863831000001909, 32.864683000002707 ], [ -83.852553000001421, 32.871282000002701 ], [ -83.791204000002068, 32.906614000002946 ], [ -83.777958000001519, 32.914227000003315 ], [ -83.745617000002184, 32.933496000002968 ], [ -83.710685000001433, 32.952792000002596 ], [ -83.723453000002237, 32.997238000002973 ], [ -83.723093000001867, 33.026628000003335 ], [ -83.747004000002377, 33.063373000003018 ], [ -83.773917000002243, 33.079360000003241 ], [ -83.816845000001891, 33.126463000002772 ], [ -83.816048000002155, 33.131816000003077 ], [ -83.822261000001632, 33.180238000002866 ], [ -83.814103000002348, 33.242134000002672 ], [ -83.832459000002231, 33.27278100000315 ], [ -83.835901000002096, 33.306325000002744 ], [ -83.863362000002383, 33.342317000003398 ], [ -83.863058000002226, 33.368278000003222 ], [ -83.831545000001626, 33.392926000003314 ], [ -83.845207000001523, 33.414721000002992 ], [ -83.81627000000185, 33.436706000003021 ], [ -83.753556000001822, 33.467028000002799 ], [ -83.705275000002317, 33.500895000003297 ], [ -83.682196000002165, 33.526220000002681 ], [ -83.679591000002318, 33.574017000002563 ], [ -83.680896000001397, 33.596919000002806 ], [ -83.691551000001468, 33.616989000002889 ], [ -83.734353000001548, 33.645639000003115 ], [ -83.778069000001793, 33.65875000000338 ], [ -83.790705000002148, 33.666656000002803 ], [ -83.850807000002135, 33.704346000003056 ], [ -83.85134200000148, 33.704680000003101 ], [ -83.888133000001673, 33.727607000003005 ], [ -83.914823000001519, 33.744203000002791 ], [ -83.915623000002071, 33.744702000002739 ], [ -83.982033000001834, 33.786054000002657 ], [ -83.981537000002078, 33.786701000002793 ], [ -83.980776000002066, 33.793277000002973 ], [ -84.027982000001685, 33.804266000003402 ], [ -84.017699000002352, 33.828050000003216 ], [ -84.03148500000222, 33.826366000003162 ], [ -84.035661000001667, 33.81987900000307 ], [ -84.07378800000167, 33.824101000002656 ], [ -84.075351000001916, 33.804980000002573 ], [ -84.115953000001952, 33.822678000002831 ], [ -84.108765000001952, 33.837436000003393 ], [ -84.122197000001407, 33.84714100000307 ], [ -84.111375000001829, 33.852202000002762 ], [ -84.09718300000219, 33.861944000002985 ], [ -84.093564000002416, 33.868186000003277 ], [ -84.083667000001896, 33.873874000002878 ], [ -84.061084000001443, 33.841683000003023 ], [ -84.060136000002359, 33.842104000002564 ], [ -84.045167000001697, 33.85057900000308 ], [ -84.036992000001447, 33.853154000003272 ], [ -84.020118000002228, 33.857601000002681 ], [ -84.012470000002025, 33.850214000003191 ], [ -84.011200000001836, 33.833544000002654 ], [ -83.985358000002307, 33.826526000002794 ], [ -83.959626000002089, 33.829210000003137 ], [ -83.916978000002103, 33.849429000003433 ], [ -83.908465000001655, 33.842845000002697 ], [ -83.89261000000208, 33.855276000002881 ], [ -83.869007000001517, 33.874159000002656 ], [ -83.855066000001969, 33.885310000002605 ], [ -83.843184000001983, 33.894775000003257 ], [ -83.799104000001691, 33.92984400000293 ], [ -83.812991000001333, 33.953139000003326 ], [ -83.824235000001337, 33.964167000003457 ], [ -83.845171000002139, 33.988269000002795 ], [ -83.864874000001976, 34.013482000002753 ], [ -83.849291000002268, 34.051218000003111 ], [ -83.845994000002207, 34.05916900000274 ], [ -83.833011000002088, 34.090426000002843 ], [ -83.817682000001696, 34.127493000002907 ], [ -83.773452000001384, 34.165076000003175 ], [ -83.755644000001794, 34.180189000002578 ], [ -83.729858000001627, 34.202079000002911 ], [ -83.683500000002383, 34.241549000003104 ], [ -83.659479000002264, 34.261873000002971 ], [ -83.619918000001633, 34.295380000002602 ], [ -83.605696000001629, 34.286184000003061 ], [ -83.561521000001832, 34.252712000003122 ], [ -83.482237000001419, 34.25924200000339 ], [ -83.451523000001444, 34.237749000002758 ], [ -83.402428000001919, 34.197499000002914 ], [ -83.361011000001895, 34.148355000002987 ], [ -83.357051000002315, 34.116199000003093 ], [ -83.386908000002052, 34.050126000002948 ], [ -83.360028000001748, 34.040572000003067 ], [ -83.358877000002153, 34.039958000002841 ], [ -83.319090000001736, 34.025259000002691 ], [ -83.258413000001397, 33.999098000003244 ], [ -83.278645000001433, 33.951745000003029 ], [ -83.259033000001921, 33.92401700000282 ], [ -83.243254000001983, 33.900532000002833 ], [ -83.275933000001544, 33.847977000002636 ], [ -83.306619000002058, 33.81144400000305 ], [ -83.282480000001328, 33.788160000002669 ], [ -83.280340000001459, 33.761774000002688 ], [ -83.153211000001491, 33.712328000003282 ], [ -83.118729000002105, 33.698818000002937 ], [ -83.049141000001498, 33.715561000002694 ], [ -82.995602000001668, 33.693583000003457 ], [ -82.949046000001374, 33.733333000002737 ], [ -82.987286000001717, 33.780710000003417 ], [ -82.942554000001479, 33.848781000003214 ], [ -82.904344000001402, 33.880993000003109 ], [ -82.883898000001594, 33.912229000003016 ], [ -82.84668600000137, 33.940639000003301 ], [ -82.793450000001869, 33.949840000002659 ], [ -82.779506000002158, 33.971124000003385 ], [ -82.718719000002238, 33.984776000002753 ], [ -82.682672000001446, 33.984574000003356 ], [ -82.645451000002026, 33.984195000002707 ], [ -82.617125000001565, 33.892979000003045 ], [ -82.583301000002194, 33.805780000002734 ], [ -82.479518000001548, 33.639535000002823 ], [ -82.511710000001756, 33.659172000002975 ], [ -82.544281000001533, 33.638573000002864 ], [ -82.583933000001579, 33.649408000003184 ], [ -82.649705000002157, 33.608768000002691 ], [ -82.60743700000188, 33.505922000003252 ], [ -82.587747000001883, 33.457317000003357 ], [ -82.553566000002277, 33.415563000002678 ], [ -82.551901000001408, 33.408425000003 ], [ -82.53577900000225, 33.357460000002732 ], [ -82.510841000001605, 33.342080000002923 ], [ -82.449977000001368, 33.340505000003041 ], [ -82.383829000001569, 33.312106000002899 ], [ -82.429116000001315, 33.277033000003215 ], [ -82.431957000001546, 33.274830000002936 ], [ -82.517644000001525, 33.217444000002629 ], [ -82.584942000001675, 33.171453000003162 ], [ -82.584175000001565, 33.168674000003435 ], [ -82.578816000002234, 33.119840000003016 ], [ -82.661917000002063, 33.126331000002992 ], [ -82.661738000001748, 33.129438000002843 ], [ -82.73948300000167, 33.174368000002652 ], [ -82.733438000001698, 33.208123000002971 ], [ -82.748311000002346, 33.238348000002759 ], [ -82.777995000001354, 33.238428000003459 ], [ -82.826616000001934, 33.208629000002993 ], [ -82.867447000002329, 33.179785000002838 ], [ -82.901893000001891, 33.128396000003178 ], [ -82.970138000001413, 33.109280000003238 ], [ -83.008740000002319, 33.080849000002878 ], [ -83.052197000001286, 33.080682000002604 ], [ -83.100834000001285, 33.049849000002631 ], [ -83.118317000001468, 33.080247000002721 ], [ -83.110649000002084, 33.12719400000303 ], [ -83.095482000001354, 33.141095000003162 ], [ -83.150106000001458, 33.164970000003152 ], [ -83.260538000001588, 33.188533000002977 ], [ -83.274108000001775, 33.18723800000317 ], [ -83.292952000002032, 33.18987900000343 ], [ -83.331232000002018, 33.167562000003414 ], [ -83.410017000001503, 33.181388000002855 ], [ -83.429090000002262, 33.185352000002645 ], [ -83.417740000002041, 33.125136000002882 ], [ -83.380383000002027, 32.998077000003327 ], [ -83.357685000001823, 32.926141000003362 ], [ -83.406990000002295, 32.898220000003036 ], [ -83.435565000002228, 32.883881000003456 ], [ -83.513511000001856, 32.844868000002926 ], [ -83.489430000001903, 32.82406000000266 ], [ -83.516238000001479, 32.789896000003111 ], [ -83.494590000001637, 32.762990000002965 ], [ -83.444400000001593, 32.759780000003282 ], [ -83.427260000002036, 32.745020000003279 ], [ -83.416963000001829, 32.724922000002927 ], [ -83.439450000002068, 32.703120000003345 ], [ -83.434950000001805, 32.652950000003074 ], [ -83.382640000001302, 32.630715000003001 ], [ -83.416800000001999, 32.623360000002734 ], [ -83.43912000000185, 32.601010000002987 ], [ -83.453520000001518, 32.540190000003378 ], [ -83.536547000001889, 32.542648000002849 ], [ -83.548147000001407, 32.571922000003354 ], [ -83.535053000002137, 32.586568000002885 ], [ -83.542949000001826, 32.625791000002799 ], [ -83.563125000002103, 32.659813000002984 ], [ -83.597656000002132, 32.664338000002644 ], [ -83.61931500000199, 32.664046000002749 ], [ -83.70102900000154, 32.692159000002661 ], [ -83.701152000001386, 32.692169000003162 ], [ -83.737495000001587, 32.694135000003321 ], [ -83.776874000001655, 32.718809000003262 ], [ -83.809161000001737, 32.731231000002794 ], [ -83.865120000002179, 32.799674000003094 ] ] ] } },
{ "type": "Feature", "properties": { "opt_all": 11, "population": 762400.0, "voting_age_pop": 579916.0, "dem_votes": 127025.0, "rep_votes": 175500.0, "minority_pop": 218399.0, "dem_pct": 0.41988265418729603, "rep_pct": 0.58011734548215277 }, "geometry": { "type": "Polygon", "coordinates": [ [ [ -85.386581000001442, 33.901719000002942 ], [ -85.406798000002027, 34.002574000002497 ], [ -85.421852000001707, 34.080822000002613 ], [ -85.283318000001785, 34.079393000003073 ], [ -85.257624000002437, 34.100668000003189 ], [ -85.157361000002354, 34.097267000003022 ], [ -85.150331000002097, 34.083409000002696 ], [ -85.122202000002332, 34.093269000003104 ], [ -85.046871000002014, 34.096412000003077 ], [ -85.047046000002467, 34.08288100000334 ], [ -84.922742000001591, 34.082497000003187 ], [ -84.859065000001465, 34.082572000002891 ], [ -84.806881000001482, 34.082486000002746 ], [ -84.764478000002313, 34.082421000003272 ], [ -84.737836000002119, 34.079399000002681 ], [ -84.738933000002348, 34.02996200000338 ], [ -84.739036000002272, 34.016200000002819 ], [ -84.739436000001859, 33.978140000003009 ], [ -84.739437000002042, 33.977740000002555 ], [ -84.735222000001897, 33.979362000003242 ], [ -84.709316000001778, 33.99102900000296 ], [ -84.692499000001987, 33.986095000003374 ], [ -84.663059000001795, 33.989707000002639 ], [ -84.653572000001844, 33.998261000003247 ], [ -84.637229000002236, 33.99389600000265 ], [ -84.645575000001827, 34.017884000003129 ], [ -84.650023000002122, 34.029020000002738 ], [ -84.668806000002036, 34.032564000002516 ], [ -84.687630000002429, 34.032598000002686 ], [ -84.691976000001659, 34.035545000002507 ], [ -84.692523000001813, 34.060231000002709 ], [ -84.69281200000232, 34.078626000002942 ], [ -84.661309000001893, 34.078242000002916 ], [ -84.659241000001956, 34.078240000003397 ], [ -84.658833000001465, 34.095713000002803 ], [ -84.657881000001652, 34.142471000002985 ], [ -84.653744000001893, 34.227528000003119 ], [ -84.653312000001947, 34.264022000002704 ], [ -84.627964000001768, 34.27691100000294 ], [ -84.595454000002036, 34.263364000002895 ], [ -84.550463000001628, 34.228635000003386 ], [ -84.566542000002272, 34.195402000003213 ], [ -84.596222000001745, 34.179635000002875 ], [ -84.626026000001815, 34.155916000003046 ], [ -84.585933000001518, 34.128705000003045 ], [ -84.585578000001547, 34.119864000003197 ], [ -84.581863000001491, 34.111855000002862 ], [ -84.577161000001936, 34.088029000002734 ], [ -84.57185900000205, 34.076299000002919 ], [ -84.571683000002196, 34.076299000003097 ], [ -84.538597000001886, 34.075692000002874 ], [ -84.521992000002029, 34.075399000003287 ], [ -84.504756000001805, 34.075072000002876 ], [ -84.484781000001419, 34.07471000000271 ], [ -84.460529000001401, 34.074198000003172 ], [ -84.418927000001773, 34.073298000002886 ], [ -84.41902800000139, 34.061374000003156 ], [ -84.41903000000147, 34.061182000003171 ], [ -84.411204000001462, 34.042253000003093 ], [ -84.408386000001926, 34.037980000003287 ], [ -84.401325000002146, 34.025795000002773 ], [ -84.394448000001489, 34.002774000003321 ], [ -84.394352000002257, 34.002654000002991 ], [ -84.386440000001542, 33.992714000002664 ], [ -84.383329000001908, 33.99280400000309 ], [ -84.377969000001713, 33.973688000003349 ], [ -84.383058000002393, 33.966921000002834 ], [ -84.388655000001478, 33.958041000003263 ], [ -84.395486000002052, 33.952938000003016 ], [ -84.401272000002351, 33.947843000003068 ], [ -84.405177000001956, 33.943734000002998 ], [ -84.446480000002367, 33.911938000002898 ], [ -84.442708000002128, 33.901543000002768 ], [ -84.466771000002197, 33.918032000002796 ], [ -84.477949000002184, 33.912064000003113 ], [ -84.478054000002231, 33.912230000003156 ], [ -84.481470000002375, 33.896998000002945 ], [ -84.496724000001549, 33.897695000002791 ], [ -84.498618000001457, 33.914785000003434 ], [ -84.542729000001742, 33.937852000002522 ], [ -84.555446000001453, 33.932858000003321 ], [ -84.560401000002329, 33.923582000003236 ], [ -84.557816000001978, 33.920608000002723 ], [ -84.556044000002146, 33.913010000003212 ], [ -84.556773000001712, 33.912393000002709 ], [ -84.566417000001763, 33.911943000002708 ], [ -84.586240000002405, 33.937260000003107 ], [ -84.589225000001946, 33.93161200000312 ], [ -84.596796000002271, 33.911077000003296 ], [ -84.6031960000022, 33.906243000003037 ], [ -84.610231000001548, 33.893521000003325 ], [ -84.630897000001696, 33.867705000003021 ], [ -84.618217000002318, 33.859416000002525 ], [ -84.609612000002059, 33.843553000003112 ], [ -84.621909000001381, 33.833399000002849 ], [ -84.617620000002006, 33.817121000003318 ], [ -84.6201110000017, 33.801498000002965 ], [ -84.624047000001951, 33.804753000003352 ], [ -84.6286440000016, 33.804849000003117 ], [ -84.652071000001484, 33.805206000002549 ], [ -84.652615000001546, 33.805206000002606 ], [ -84.656862000001354, 33.805406000003408 ], [ -84.667733000002229, 33.805423000002605 ], [ -84.671073000002181, 33.805496000003224 ], [ -84.693982000001981, 33.805706000002985 ], [ -84.724139000002296, 33.806170000002986 ], [ -84.730974000001666, 33.788568000003373 ], [ -84.75039300000212, 33.787725000002673 ], [ -84.767494000002216, 33.786895000003213 ], [ -84.793599000002345, 33.783241000002789 ], [ -84.825604000001562, 33.778822000002741 ], [ -84.869410000001992, 33.774983000003189 ], [ -84.901688000002125, 33.780703000002866 ], [ -84.97213800000219, 33.799780000002642 ], [ -85.037926000002258, 33.811942000002702 ], [ -85.049591000002025, 33.779960000002546 ], [ -85.049919000001594, 33.755525000003054 ], [ -85.05080800000168, 33.718304000002732 ], [ -85.050889000001817, 33.714632000003235 ], [ -85.052654000001581, 33.714669000003298 ], [ -85.106786000002145, 33.694611000002894 ], [ -85.172156000002431, 33.68974500000278 ], [ -85.235598000001801, 33.669908000002962 ], [ -85.248548000001463, 33.665846000003015 ], [ -85.289742000002434, 33.652087000002581 ], [ -85.338230000001573, 33.653117000002943 ], [ -85.352615000002302, 33.7264430000033 ], [ -85.356874000001966, 33.747984000002816 ], [ -85.376433000002393, 33.850650000002858 ], [ -85.386581000001442, 33.901719000002942 ] ], [ [ -84.637088000001441, 33.993901000003085 ], [ -84.631221000001574, 33.987035000003111 ], [ -84.628743000002061, 33.991964000003165 ], [ -84.628728000002269, 33.992139000002886 ], [ -84.637088000001441, 33.993901000003085 ] ] ] } },
{ "type": "Feature", "properties": { "opt_all": 12, "population": 764956.0, "voting_age_pop": 587768.0, "dem_votes": 119930.0, "rep_votes": 148779.0, "minority_pop": 264654.0, "dem_pct": 0.44631925225938868, "rep_pct": 0.55368074736846151 }, "geometry": { "type": "Polygon", "coordinates": [ [ [ -83.179528000001483, 32.49787800000275 ], [ -83.22653600000173, 32.584201000003063 ], [ -83.282274000002076, 32.55732500000294 ], [ -83.497923000001677, 32.452198000003399 ], [ -83.492180000002307, 32.486763000002561 ], [ -83.517935000001557, 32.498908000003254 ], [ -83.536547000001889, 32.542648000002849 ], [ -83.453520000001518, 32.540190000003378 ], [ -83.43912000000185, 32.601010000002987 ], [ -83.416800000001999, 32.623360000002734 ], [ -83.382640000001302, 32.630715000003001 ], [ -83.434950000001805, 32.652950000003074 ], [ -83.439450000002068, 32.703120000003345 ], [ -83.416963000001829, 32.724922000002927 ], [ -83.427260000002036, 32.745020000003279 ], [ -83.444400000001593, 32.759780000003282 ], [ -83.494590000001637, 32.762990000002965 ], [ -83.516238000001479, 32.789896000003111 ], [ -83.489430000001903, 32.82406000000266 ], [ -83.513511000001856, 32.844868000002926 ], [ -83.435565000002228, 32.883881000003456 ], [ -83.406990000002295, 32.898220000003036 ], [ -83.357685000001823, 32.926141000003362 ], [ -83.380383000002027, 32.998077000003327 ], [ -83.417740000002041, 33.125136000002882 ], [ -83.429090000002262, 33.185352000002645 ], [ -83.410017000001503, 33.181388000002855 ], [ -83.331232000002018, 33.167562000003414 ], [ -83.292952000002032, 33.18987900000343 ], [ -83.274108000001775, 33.18723800000317 ], [ -83.260538000001588, 33.188533000002977 ], [ -83.150106000001458, 33.164970000003152 ], [ -83.095482000001354, 33.141095000003162 ], [ -83.110649000002084, 33.12719400000303 ], [ -83.118317000001468, 33.080247000002721 ], [ -83.100834000001285, 33.049849000002631 ], [ -83.052197000001286, 33.080682000002604 ], [ -83.008740000002319, 33.080849000002878 ], [ -82.970138000001413, 33.109280000003238 ], [ -82.901893000001891, 33.128396000003178 ], [ -82.867447000002329, 33.179785000002838 ], [ -82.826616000001934, 33.208629000002993 ], [ -82.777995000001354, 33.238428000003459 ], [ -82.748311000002346, 33.238348000002759 ], [ -82.733438000001698, 33.208123000002971 ], [ -82.73948300000167, 33.174368000002652 ], [ -82.661738000001748, 33.129438000002843 ], [ -82.661917000002063, 33.126331000002992 ], [ -82.578816000002234, 33.119840000003016 ], [ -82.584175000001565, 33.168674000003435 ], [ -82.584942000001675, 33.171453000003162 ], [ -82.517644000001525, 33.217444000002629 ], [ -82.431957000001546, 33.274830000002936 ], [ -82.429116000001315, 33.277033000003215 ], [ -82.383829000001569, 33.312106000002899 ], [ -82.449977000001368, 33.340505000003041 ], [ -82.510841000001605, 33.342080000002923 ], [ -82.53577900000225, 33.357460000002732 ], [ -82.551901000001408, 33.408425000003 ], [ -82.553566000002277, 33.415563000002678 ], [ -82.587747000001883, 33.457317000003357 ], [ -82.60743700000188, 33.505922000003252 ], [ -82.649705000002157, 33.608768000002691 ], [ -82.583933000001579, 33.649408000003184 ], [ -82.544281000001533, 33.638573000002864 ], [ -82.511710000001756, 33.659172000002975 ], [ -82.479518000001548, 33.639535000002823 ], [ -82.477340000001576, 33.644161000003123 ], [ -82.431445000002043, 33.655102000002948 ], [ -82.425328000001642, 33.650629000002937 ], [ -82.411118000001949, 33.666883000003459 ], [ -82.359432000001974, 33.677398000003215 ], [ -82.338613000001303, 33.693047000002871 ], [ -82.311848000002087, 33.698082000003133 ], [ -82.276092000002066, 33.684532000003315 ], [ -82.218649000001989, 33.686299000002919 ], [ -82.199803000001964, 33.661325000003437 ], [ -82.196584000001877, 33.630583000002908 ], [ -82.164094000001938, 33.611145000003411 ], [ -82.145097000002167, 33.595604000003156 ], [ -82.134953000001715, 33.591054000002927 ], [ -82.123237000002007, 33.592756000002851 ], [ -82.075921000001813, 33.578288000003475 ], [ -82.059568000001548, 33.568153000002866 ], [ -82.028238000001821, 33.544934000002989 ], [ -82.011536000002067, 33.531734000003425 ], [ -82.003538000001399, 33.521235000002676 ], [ -81.990494000001632, 33.498119000002696 ], [ -81.988789000001631, 33.489470000002882 ], [ -81.973641000001365, 33.482656000002692 ], [ -81.955276000001788, 33.475717000002838 ], [ -81.946437000001765, 33.471737000003415 ], [ -81.91312600000191, 33.438333000002658 ], [ -81.931390000001485, 33.428474000003497 ], [ -81.937958000002197, 33.34969000000266 ], [ -81.918337000002197, 33.332842000003012 ], [ -81.847736000001674, 33.307243000003012 ], [ -81.852076000001816, 33.247288000003216 ], [ -81.828247000002207, 33.229067000003447 ], [ -81.756935000001249, 33.197848000003127 ], [ -81.768235000002022, 33.167949000003496 ], [ -81.721124000001311, 33.12611200000309 ], [ -81.645433000001489, 33.094051000002679 ], [ -81.614994000001545, 33.095551000003091 ], [ -81.565501000001888, 33.047888000003489 ], [ -81.541831000002261, 33.045654000003211 ], [ -81.491899000001652, 33.006694000003399 ], [ -81.502716000002067, 32.938688000003495 ], [ -81.483198000002176, 32.921802000003233 ], [ -81.457061000002156, 32.850389000003311 ], [ -81.426475000001929, 32.840773000003097 ], [ -81.416733000002253, 32.753276000002728 ], [ -81.425142000002097, 32.70999700000327 ], [ -81.405711000001588, 32.688727000002885 ], [ -81.411411000001522, 32.617917000003118 ], [ -81.389205000001283, 32.595416000002729 ], [ -81.319121000001317, 32.55959600000304 ], [ -81.299796000002189, 32.563049000002984 ], [ -81.200408000001872, 32.468314000003424 ], [ -81.198165000001751, 32.415573000002851 ], [ -81.181075000001428, 32.378768000003028 ], [ -81.160096000001502, 32.348952000002896 ], [ -81.122631000001604, 32.306990000002791 ], [ -81.141414000001859, 32.272039000003254 ], [ -81.144572000002213, 32.226128000003214 ], [ -81.151243000002083, 32.227947000003418 ], [ -81.195679000001945, 32.237468000003304 ], [ -81.249250000001325, 32.198648000003011 ], [ -81.277395000002201, 32.178406000003413 ], [ -81.28469900000222, 32.173049000003502 ], [ -81.294355000001431, 32.166057000003171 ], [ -81.327992000001586, 32.141731000003546 ], [ -81.391698000001711, 32.095886000003397 ], [ -81.401931000001269, 32.150184000002731 ], [ -81.43583000000136, 32.241289000003334 ], [ -81.506809000002178, 32.222189000003162 ], [ -81.608304000001596, 32.194291000002856 ], [ -81.730262000001574, 32.164861000002809 ], [ -81.780858000001558, 32.152890000003389 ], [ -81.780850000001436, 32.175126000003182 ], [ -81.804700000001276, 32.220039000003204 ], [ -81.892725000002201, 32.274783000002742 ], [ -81.969069000001895, 32.268783000003047 ], [ -82.025339000001949, 32.278883000003489 ], [ -82.029829000001584, 32.279753000002884 ], [ -82.232788000001534, 32.318838000002685 ], [ -82.27984500000143, 32.294182000002692 ], [ -82.302764000001261, 32.293673000003409 ], [ -82.354546000001392, 32.292194000003178 ], [ -82.356378000001968, 32.31349400000299 ], [ -82.409118000001371, 32.353830000003242 ], [ -82.409130000001767, 32.353738000003275 ], [ -82.490047000002264, 32.339537000002771 ], [ -82.531351000001834, 32.332247000003058 ], [ -82.649104000002268, 32.311496000002847 ], [ -82.655486000001531, 32.297561000002851 ], [ -82.69406300000135, 32.294646000003361 ], [ -82.721964000002288, 32.309283000003418 ], [ -82.736884000001808, 32.322619000003208 ], [ -82.724422000001539, 32.363576000003036 ], [ -82.7956380000021, 32.393608000002665 ], [ -82.828975000001762, 32.426639000002801 ], [ -82.855431000001744, 32.452827000003033 ], [ -82.895316000001642, 32.448897000003399 ], [ -82.956959000001333, 32.45736900000297 ], [ -82.973491000001303, 32.426495000002795 ], [ -83.015573000001282, 32.405572000002977 ], [ -83.027205000001985, 32.380423000002821 ], [ -83.013388000002053, 32.369985000003382 ], [ -82.968478000001511, 32.276531000002777 ], [ -83.035991000002255, 32.230823000003099 ], [ -83.056577000001994, 32.269765000002927 ], [ -83.111429000001365, 32.372051000002976 ], [ -83.138991000001994, 32.423069000003174 ], [ -83.159589000002001, 32.4610560000026 ], [ -83.179528000001483, 32.49787800000275 ] ] ] } },
{ "type": "Feature", "properties": { "opt_all": 13, "population": 764392.0, "voting_age_pop": 572831.0, "dem_votes": 175980.0, "rep_votes": 89264.0, "minority_pop": 409803.0, "dem_pct": 0.66346458330312297, "rep_pct": 0.33653541631986572 }, "geometry": { "type": "Polygon", "coordinates": [ [ [ -84.389944000001449, 33.385720000002692 ], [ -84.388600000001944, 33.411968000002844 ], [ -84.393071000002266, 33.412011000002956 ], [ -84.402138000001457, 33.42527800000326 ], [ -84.383744000002054, 33.444407000002542 ], [ -84.384772000001817, 33.458713000003165 ], [ -84.397479000001368, 33.485738000003344 ], [ -84.427384000001624, 33.516941000002888 ], [ -84.427543000001634, 33.517139000003183 ], [ -84.439448000002344, 33.550720000003238 ], [ -84.458665000001645, 33.550933000002935 ], [ -84.458924000001588, 33.559759000002892 ], [ -84.458630000001691, 33.572107000003072 ], [ -84.458627000001741, 33.586456000003182 ], [ -84.458556000001863, 33.594436000003128 ], [ -84.458500000001919, 33.613799000003162 ], [ -84.458426000002206, 33.616183000003211 ], [ -84.458427000002104, 33.618770000002819 ], [ -84.458053000001598, 33.629241000003255 ], [ -84.457728000001865, 33.648477000003275 ], [ -84.452928000002046, 33.644107000002535 ], [ -84.42852700000239, 33.648709000003407 ], [ -84.419228000001539, 33.648608000002596 ], [ -84.399446000001944, 33.648309000003046 ], [ -84.397427000001628, 33.648209000002801 ], [ -84.365179000001675, 33.647812000002524 ], [ -84.350224000001674, 33.647908000002708 ], [ -84.33633600000185, 33.647508000002709 ], [ -84.323638000001992, 33.647241000002637 ], [ -84.296622000002316, 33.647108000003094 ], [ -84.281273000001889, 33.647411000002599 ], [ -84.266882000002397, 33.647170000002802 ], [ -84.254149000001789, 33.647045000002755 ], [ -84.237624000001759, 33.630717000003287 ], [ -84.187442000002278, 33.646173000002683 ], [ -84.18414300000201, 33.646157000003107 ], [ -84.150581000002092, 33.638577000003302 ], [ -84.128490000001761, 33.63016300000313 ], [ -84.104334000001501, 33.636025000003293 ], [ -84.095681000001775, 33.652439000002545 ], [ -84.08396400000143, 33.674321000002685 ], [ -84.074480000001415, 33.692609000003181 ], [ -84.07433200000203, 33.692894000002838 ], [ -84.063110000001657, 33.714127000002804 ], [ -84.054412000002117, 33.728442000003106 ], [ -84.02245900000166, 33.703065000002802 ], [ -84.000043000001796, 33.692174000003355 ], [ -83.997764000001951, 33.692541000002805 ], [ -83.974421000001698, 33.732157000002772 ], [ -83.918235000001388, 33.721955000002723 ], [ -83.914823000001519, 33.744203000002791 ], [ -83.888133000001673, 33.727607000003005 ], [ -83.85134200000148, 33.704680000003101 ], [ -83.850807000002135, 33.704346000003056 ], [ -83.790705000002148, 33.666656000002803 ], [ -83.778069000001793, 33.65875000000338 ], [ -83.734353000001548, 33.645639000003115 ], [ -83.691551000001468, 33.616989000002889 ], [ -83.680896000001397, 33.596919000002806 ], [ -83.679591000002318, 33.574017000002563 ], [ -83.682196000002165, 33.526220000002681 ], [ -83.705275000002317, 33.500895000003297 ], [ -83.753556000001822, 33.467028000002799 ], [ -83.81627000000185, 33.436706000003021 ], [ -83.845207000001523, 33.414721000002992 ], [ -83.831545000001626, 33.392926000003314 ], [ -83.863058000002226, 33.368278000003222 ], [ -83.863362000002383, 33.342317000003398 ], [ -83.835901000002096, 33.306325000002744 ], [ -83.832459000002231, 33.27278100000315 ], [ -83.814103000002348, 33.242134000002672 ], [ -83.822261000001632, 33.180238000002866 ], [ -83.842870000001611, 33.196873000003144 ], [ -83.921490000001654, 33.201778000003081 ], [ -83.993412000001413, 33.202416000003247 ], [ -84.041498000002051, 33.202629000002887 ], [ -84.123767000001948, 33.202824000002913 ], [ -84.123152000001397, 33.242748000002976 ], [ -84.088991000001357, 33.285646000002657 ], [ -84.102582000001362, 33.298191000002944 ], [ -84.134704000001364, 33.307628000003312 ], [ -84.150581000001935, 33.335639000003063 ], [ -84.216329000001423, 33.335821000002582 ], [ -84.247304000001776, 33.335970000003016 ], [ -84.249164000002125, 33.35253900000324 ], [ -84.315368000001527, 33.352519000003298 ], [ -84.354400000001903, 33.352514000003104 ], [ -84.388118000001953, 33.352465000002638 ], [ -84.389944000001449, 33.385720000002692 ] ] ] } },
{ "type": "Feature", "properties": { "opt_all": 14, "population": 762289.0, "voting_age_pop": 591940.0, "dem_votes": 55619.0, "rep_votes": 201172.0, "minority_pop": 118394.0, "dem_pct": 0.2165924817393941, "rep_pct": 0.78340751787118412 }, "geometry": { "type": "MultiPolygon", "coordinates": [ [ [ [ -85.484369000001649, 34.392938000003305 ], [ -85.494844000001891, 34.440435000003198 ], [ -85.506505000001496, 34.493477000003359 ], [ -85.527261000002284, 34.588683000003115 ], [ -85.5340890000016, 34.6238580000025 ], [ -85.542505000001768, 34.662441000002588 ], [ -85.574490000002385, 34.81549900000288 ], [ -85.599241000001683, 34.950133000002587 ], [ -85.605165000001833, 34.984678000002788 ], [ -85.514202000002257, 34.983498000003195 ], [ -85.365238000002094, 34.983291000003163 ], [ -85.363919000001772, 34.983375000003171 ], [ -85.342458000002182, 34.983775000002737 ], [ -85.327428000002186, 34.983976000002592 ], [ -85.265055000002263, 34.985075000002624 ], [ -85.242185000002422, 34.985521000002507 ], [ -85.2016460000021, 34.985867000002592 ], [ -85.124223000001351, 34.986504000002512 ], [ -85.064833000001769, 34.986648000002923 ], [ -84.979860000002006, 34.987647000002802 ], [ -84.886527000002175, 34.987871000002727 ], [ -84.810477000001512, 34.987605000003143 ], [ -84.621483000001987, 34.988329000002906 ], [ -84.487342000002201, 34.988183000003147 ], [ -84.382889000002095, 34.988001000003038 ], [ -84.359363000002347, 34.98826900000256 ], [ -84.268792000001909, 34.98844600000259 ], [ -84.129448000001929, 34.987514000002527 ], [ -84.091155000001578, 34.987409000003218 ], [ -83.9632700000016, 34.987336000002806 ], [ -83.936395000001667, 34.987564000002649 ], [ -83.826353000001347, 34.987341000003255 ], [ -83.619950000001396, 34.986669000003339 ], [ -83.599476000002028, 34.992170000003306 ], [ -83.54937600000153, 34.992393000002949 ], [ -83.302298000001286, 34.996216000003315 ], [ -83.110610000001358, 35.00130300000265 ], [ -83.098831000001454, 34.991955000002982 ], [ -83.127357000001396, 34.950195000002978 ], [ -83.209572000001515, 34.879856000002604 ], [ -83.246361000002068, 34.856533000002656 ], [ -83.324150000001708, 34.78747900000262 ], [ -83.326309000002269, 34.750839000003126 ], [ -83.352448000002369, 34.716125000003245 ], [ -83.425713000002105, 34.746616000002675 ], [ -83.478622000001991, 34.723949000003003 ], [ -83.520978000001293, 34.735834000002598 ], [ -83.54898800000197, 34.749451000003383 ], [ -83.587824000001532, 34.820632000002753 ], [ -83.652194000001401, 34.822993000003024 ], [ -83.681596000001633, 34.800882000003035 ], [ -83.691017000001636, 34.799270000003219 ], [ -83.742608000001738, 34.801425000003135 ], [ -83.780346000001657, 34.792905000002953 ], [ -83.825465000001373, 34.778972000003279 ], [ -83.839547000002213, 34.725592000002926 ], [ -83.841033000001474, 34.724992000002892 ], [ -83.856506000002398, 34.722191000002951 ], [ -83.939007000001766, 34.740859000002615 ], [ -83.982612000001581, 34.715890000003419 ], [ -83.994698000001463, 34.678211000002705 ], [ -84.024109000001914, 34.670753000002989 ], [ -84.036276000002331, 34.64208700000254 ], [ -84.12491400000215, 34.664419000003164 ], [ -84.158035000002144, 34.648243000003255 ], [ -84.188557000001467, 34.602692000003337 ], [ -84.196754000001675, 34.617924000002823 ], [ -84.254842000002185, 34.586896000002902 ], [ -84.287895000001626, 34.568768000002699 ], [ -84.328712000002213, 34.583623000002525 ], [ -84.345553000001615, 34.562735000002675 ], [ -84.326402000002034, 34.488576000003199 ], [ -84.319679000002395, 34.467857000002567 ], [ -84.256876000001625, 34.465640000003141 ], [ -84.257586000001538, 34.380992000003019 ], [ -84.347459000001948, 34.380839000002808 ], [ -84.411969000001662, 34.380551000002811 ], [ -84.424525000001665, 34.387070000003298 ], [ -84.454725000002341, 34.3804700000031 ], [ -84.530363000001429, 34.381026000002997 ], [ -84.582658000001757, 34.38576800000336 ], [ -84.582830000001792, 34.412191000002551 ], [ -84.653232000002234, 34.412590000002602 ], [ -84.646130000002245, 34.346849000002685 ], [ -84.653948000002259, 34.332053000002979 ], [ -84.653312000001947, 34.264022000002704 ], [ -84.653744000001893, 34.227528000003119 ], [ -84.657881000001652, 34.142471000002985 ], [ -84.658833000001465, 34.095713000002803 ], [ -84.659241000001956, 34.078240000003397 ], [ -84.661309000001893, 34.078242000002916 ], [ -84.69281200000232, 34.078626000002942 ], [ -84.692523000001813, 34.060231000002709 ], [ -84.691976000001659, 34.035545000002507 ], [ -84.687630000002429, 34.032598000002686 ], [ -84.668806000002036, 34.032564000002516 ], [ -84.650023000002122, 34.029020000002738 ], [ -84.645575000001827, 34.017884000003129 ], [ -84.637229000002236, 33.99389600000265 ], [ -84.653572000001844, 33.998261000003247 ], [ -84.663059000001795, 33.989707000002639 ], [ -84.692499000001987, 33.986095000003374 ], [ -84.709316000001778, 33.99102900000296 ], [ -84.735222000001897, 33.979362000003242 ], [ -84.739437000002042, 33.977740000002555 ], [ -84.739436000001859, 33.978140000003009 ], [ -84.739036000002272, 34.016200000002819 ], [ -84.738933000002348, 34.02996200000338 ], [ -84.737836000002119, 34.079399000002681 ], [ -84.764478000002313, 34.082421000003272 ], [ -84.806881000001482, 34.082486000002746 ], [ -84.859065000001465, 34.082572000002891 ], [ -84.922742000001591, 34.082497000003187 ], [ -85.047046000002467, 34.08288100000334 ], [ -85.046871000002014, 34.096412000003077 ], [ -85.122202000002332, 34.093269000003104 ], [ -85.150331000002097, 34.083409000002696 ], [ -85.157361000002354, 34.097267000003022 ], [ -85.257624000002437, 34.100668000003189 ], [ -85.283318000001785, 34.079393000003073 ], [ -85.421852000001707, 34.080822000002613 ], [ -85.432969000001549, 34.141876000003073 ], [ -85.444671000001421, 34.199900000002636 ], [ -85.462207000001612, 34.286386000002835 ], [ -85.474024000002203, 34.344548000003357 ], [ -85.484369000001649, 34.392938000003305 ] ] ], [ [ [ -84.628728000002269, 33.992139000002886 ], [ -84.628743000002061, 33.991964000003165 ], [ -84.631221000001574, 33.987035000003111 ], [ -84.637088000001441, 33.993901000003085 ], [ -84.628728000002269, 33.992139000002886 ] ] ] ] } }
]
}
