{
"type": "FeatureCollection",
"name": "hawaii_optimized_districts_all",
"crs": { "type": "name", "properties": { "name": "urn:ogc:def:crs:OGC:1.3:CRS84" } },
"features": [
{ "type": "Feature", "properties": { "opt_all": 1, "population": 725405.0, "voting_age_pop": 563937.0, "dem_votes": 127703.0, "rep_votes": 68728.0, "minority_pop": 454108.0, "dem_pct": 0.65011632550355269, "rep_pct": 0.34988367398736264 }, "geometry": { "type": "Polygon", "coordinates": [ [ [ -158.324252408016548, 21.615670924291209 ], [ -158.148851370566689, 21.641994936531713 ], [ -158.050149352534049, 21.739876964121304 ], [ -157.941790329276415, 21.754574971284399 ], [ -157.750929278647817, 21.516453917949995 ], [ -157.660954258167379, 21.496784915878489 ], [ -157.634656249079313, 21.404406893644701 ], [ -157.607698238350167, 21.26912986073236 ], [ -157.675782251334454, 21.213796844816535 ], [ -157.810234280295987, 21.199233836996481 ], [ -157.898661301477347, 21.249934846851847 ], [ -158.110082347290728, 21.237066836975774 ], [ -158.276246391360871, 21.449314884456086 ], [ -158.344655411274232, 21.583172915541269 ], [ -158.324252408016548, 21.615670924291209 ] ], [ [ -157.809660286245162, 21.369325879399533 ], [ -157.823560289858449, 21.385025882875041 ], [ -157.836860292484516, 21.376926880437036 ], [ -157.864160297670253, 21.354628874018054 ], [ -157.874620299717549, 21.34778887198452 ], [ -157.879758300694732, 21.343621870783309 ], [ -157.874963299569515, 21.341572870424567 ], [ -157.875705299572417, 21.337116869290931 ], [ -157.879703300336814, 21.333994868386593 ], [ -157.875477299300087, 21.330930867756376 ], [ -157.879500300037336, 21.32690386662658 ], [ -157.879381299815947, 21.321461865274618 ], [ -157.890760302021704, 21.313430862914856 ], [ -157.887360300888588, 21.30263186033228 ], [ -157.888087300916453, 21.298952859392394 ], [ -157.86951029665542, 21.293662858659687 ], [ -157.866565295976187, 21.292712858515941 ], [ -157.855000293207439, 21.286190857254908 ], [ -157.845494290884943, 21.279493855884485 ], [ -157.827163286578752, 21.271432854452495 ], [ -157.810986282310466, 21.251214849921645 ], [ -157.791470278065816, 21.252138850763352 ], [ -157.759578271777087, 21.27193485669482 ], [ -157.759699271972494, 21.276661857869399 ], [ -157.778349276097174, 21.277625857525599 ], [ -157.782608277047188, 21.278094857509227 ], [ -157.781295277505308, 21.299002862761562 ], [ -157.758108273572304, 21.331281871535232 ], [ -157.759053273799367, 21.331848871646724 ], [ -157.779161278353627, 21.335827872007172 ], [ -157.78836128074434, 21.34622687431056 ], [ -157.789076281150244, 21.353195876025932 ], [ -157.793693282628197, 21.366161879113346 ], [ -157.794213282752395, 21.366450879168557 ], [ -157.809660286245162, 21.369325879399533 ] ] ] } },
{ "type": "Feature", "properties": { "opt_all": 2, "population": 729866.0, "voting_age_pop": 591968.0, "dem_votes": 164477.0, "rep_votes": 63684.0, "minority_pop": 426173.0, "dem_pct": 0.72088130718182275, "rep_pct": 0.27911869237989023 }, "geometry": { "type": "MultiPolygon", "coordinates": [ [ [ [ -157.879381299815947, 21.321461865274618 ], [ -157.879500300037336, 21.32690386662658 ], [ -157.875477299300087, 21.330930867756376 ], [ -157.879703300336814, 21.333994868386593 ], [ -157.875705299572417, 21.337116869290931 ], [ -157.874963299569515, 21.341572870424567 ], [ -157.879758300694732, 21.343621870783309 ], [ -157.874620299717549, 21.34778887198452 ], [ -157.864160297670253, 21.354628874018054 ], [ -157.836860292484516, 21.376926880437036 ], [ -157.823560289858449, 21.385025882875041 ], [ -157.809660286245162, 21.369325879399533 ], [ -157.794213282752395, 21.366450879168557 ], [ -157.793693282628197, 21.366161879113346 ], [ -157.789076281150244, 21.353195876025932 ], [ -157.78836128074434, 21.34622687431056 ], [ -157.779161278353627, 21.335827872007172 ], [ -157.759053273799367, 21.331848871646724 ], [ -157.758108273572304, 21.331281871535232 ], [ -157.781295277505308, 21.299002862761562 ], [ -157.782608277047188, 21.278094857509227 ], [ -157.778349276097174, 21.277625857525599 ], [ -157.759699271972494, 21.276661857869399 ], [ -157.759578271777087, 21.27193485669482 ], [ -157.791470278065816, 21.252138850763352 ], [ -157.810986282310466, 21.251214849921645 ], [ -157.827163286578752, 21.271432854452495 ], [ -157.845494290884943, 21.279493855884485 ], [ -157.855000293207439, 21.286190857254908 ], [ -157.866565295976187, 21.292712858515941 ], [ -157.86951029665542, 21.293662858659687 ], [ -157.888087300916453, 21.298952859392394 ], [ -157.887360300888588, 21.30263186033228 ], [ -157.890760302021704, 21.313430862914856 ], [ -157.879381299815947, 21.321461865274618 ] ] ], [ [ [ -160.494150882070954, 21.690532869050323 ], [ -160.484929877732213, 21.63242585510072 ], [ -160.57073389514693, 21.60665984573652 ], [ -160.550314895036507, 21.712059872344735 ], [ -160.494150882070954, 21.690532869050323 ] ] ], [ [ [ -160.26578383510352, 21.746175890809411 ], [ -160.304365847793122, 21.853790915936671 ], [ -160.27995284524539, 21.920633933264838 ], [ -160.174016825237402, 21.991474954486872 ], [ -160.140421821313907, 22.073317975867234 ], [ -160.056727802985648, 22.068340977612937 ], [ -159.99721078700631, 21.992505960998791 ], [ -160.031037789349654, 21.869359929422071 ], [ -160.122020807235117, 21.824955915275385 ], [ -160.170315814228331, 21.739546892536001 ], [ -160.26578383510352, 21.746175890809411 ] ] ], [ [ [ -159.612957714908305, 22.272231043712733 ], [ -159.402925669875316, 22.290469055597239 ], [ -159.299947645453614, 22.241846047118663 ], [ -159.245784630637559, 22.166804030370045 ], [ -159.284359630094571, 21.940632972949583 ], [ -159.444004659994391, 21.817784937054306 ], [ -159.631264701805947, 21.84668393775496 ], [ -159.793606740744082, 21.939775955122514 ], [ -159.843614754014794, 21.999995968251618 ], [ -159.848129758070058, 22.076068986892995 ], [ -159.750005741765676, 22.199445020862509 ], [ -159.612957714908305, 22.272231043712733 ] ] ], [ [ [ -161.965455259863973, 23.104983160916436 ], [ -161.887581243384119, 23.110380165323768 ], [ -161.863348234774378, 23.036598148193193 ], [ -161.955177253228555, 23.009165137848289 ], [ -161.965455259863973, 23.104983160916436 ] ] ], [ [ [ -164.750006872339355, 23.536142148978303 ], [ -164.753798876641753, 23.603513165037516 ], [ -164.654089855881693, 23.607065170302111 ], [ -164.654030852140153, 23.535217152987453 ], [ -164.750006872339355, 23.536142148978303 ] ] ], [ [ [ -166.182354190804119, 23.90232117166067 ], [ -166.148178177279846, 23.785475145372558 ], [ -166.10678716634601, 23.742518137044534 ], [ -166.116788161261383, 23.611250105271065 ], [ -166.194416176146916, 23.58952709651016 ], [ -166.205422183991232, 23.69159712032647 ], [ -166.315830209497364, 23.740116126752707 ], [ -166.382204230862186, 23.878192156541058 ], [ -166.307079217904146, 23.924879171198004 ], [ -166.182354190804119, 23.90232117166067 ] ] ], [ [ [ -168.037758635122174, 24.959711331892471 ], [ -168.0506146418453, 25.025864346868001 ], [ -167.98894763063447, 25.049045355517212 ], [ -167.953692618175523, 24.964382337301242 ], [ -168.037758635122174, 24.959711331892471 ] ] ], [ [ [ -171.676636423699875, 25.810903331718844 ], [ -171.680483419224373, 25.736748314446743 ], [ -171.737499428338396, 25.706529304206729 ], [ -171.809637447837559, 25.781346317212041 ], [ -171.768128443365299, 25.833677331644477 ], [ -171.676636423699875, 25.810903331718844 ] ] ], [ [ [ -174.067382906874087, 26.059610245308232 ], [ -174.049628907785859, 26.116574259230777 ], [ -173.957924891646115, 26.135686269199947 ], [ -173.91343288036029, 26.099395263759028 ], [ -173.925976876755499, 26.019623245004578 ], [ -174.00641288996772, 25.99028523345368 ], [ -174.067382906874087, 26.059610245308232 ] ] ], [ [ [ -175.806742396564204, 28.007188568953922 ], [ -175.734937382294078, 27.999996572250915 ], [ -175.670137364922851, 27.941597563612977 ], [ -175.666501358498181, 27.87499654897421 ], [ -175.734143359676153, 27.738851513984955 ], [ -175.969607400364822, 27.693398487897841 ], [ -176.029301415870094, 27.74267949480998 ], [ -176.025025421859795, 27.82157551266198 ], [ -175.966344420130412, 27.929907540801217 ], [ -175.806742396564204, 28.007188568953922 ] ] ], [ [ [ -178.301411890863449, 28.328332464128852 ], [ -178.395619909365053, 28.34189746024742 ], [ -178.440495923457235, 28.405168470757111 ], [ -178.411804925541048, 28.483738489958 ], [ -178.315130910868504, 28.516330504115381 ], [ -178.238478891187214, 28.45614649656795 ], [ -178.233027882649253, 28.374996479259732 ], [ -178.301411890863449, 28.328332464128852 ] ] ], [ [ [ -156.868479065264097, 20.964374807081768 ], [ -156.757464037007736, 20.850766781951187 ], [ -156.795368041516838, 20.73524675195819 ], [ -156.875005057566369, 20.690960738558779 ], [ -156.994439083900858, 20.693570735695573 ], [ -157.04807409993748, 20.820540765801333 ], [ -157.110136115227021, 20.869456776162743 ], [ -157.11123211756194, 20.931225791553157 ], [ -157.035273102624245, 20.98329780683709 ], [ -156.868479065264097, 20.964374807081768 ] ] ], [ [ [ -157.321249167805405, 21.050671815031428 ], [ -157.366554179497996, 21.100951826199715 ], [ -157.305257171308, 21.252876866013821 ], [ -157.220217153483674, 21.278491875020055 ], [ -157.015063107682124, 21.261189876939369 ], [ -156.871200074944312, 21.231882873945462 ], [ -156.72208104182485, 21.226057876955338 ], [ -156.659570026520527, 21.181902867751951 ], [ -156.672591026489698, 21.095712845768887 ], [ -156.836959059520552, 20.999995816928287 ], [ -156.914540076529732, 20.997579814015037 ], [ -157.072154113270898, 21.057592824296822 ], [ -157.321249167805405, 21.050671815031428 ] ] ], [ [ [ -156.000563827215132, 19.470420458456196 ], [ -156.019400833393746, 19.539280475123416 ], [ -156.033933838225607, 19.594288488453628 ], [ -156.058859844146355, 19.609251491516059 ], [ -156.119079860681154, 19.719296517341849 ], [ -156.107244860234488, 19.790397535406026 ], [ -156.018073843468301, 19.88395456119412 ], [ -155.962431831988766, 19.9091475690016 ], [ -155.888846819332542, 20.025914600202789 ], [ -155.95772383886063, 20.167609633777207 ], [ -155.947966839615674, 20.26164765758919 ], [ -155.836787816916001, 20.321221675579761 ], [ -155.689129781952545, 20.245211660570455 ], [ -155.578772755577404, 20.180142647248733 ], [ -155.43286672225554, 20.145202642411849 ], [ -155.247901678773559, 20.059803625902862 ], [ -155.083174638702729, 19.93745459951321 ], [ -155.031624625470585, 19.874995585172272 ], [ -155.030003622713423, 19.792096564402865 ], [ -154.984511612433607, 19.784797563745517 ], [ -154.956176605471086, 19.760789558449247 ], [ -154.883212585347451, 19.62147652535041 ], [ -154.755831554281741, 19.519439502969881 ], [ -154.810315563443623, 19.41605247566309 ], [ -154.939667589142488, 19.31282944654367 ], [ -155.018512605558612, 19.277522435718119 ], [ -155.18210263973242, 19.209949414682221 ], [ -155.258019656797643, 19.222166415810463 ], [ -155.494882704649001, 19.071581372180152 ], [ -155.565604716317608, 18.934512336210755 ], [ -155.694261742624207, 18.866781316070199 ], [ -155.739975754052921, 18.916886327373149 ], [ -155.925935797385364, 19.008149345290882 ], [ -155.96333580768777, 19.081585362588704 ], [ -155.973886811761474, 19.142565377489628 ], [ -155.943217810914575, 19.344222428519853 ], [ -156.000563827215132, 19.470420458456196 ] ] ], [ [ [ -156.451094973340588, 20.968753820467033 ], [ -156.339222949784727, 21.004190832611357 ], [ -156.195300916872867, 20.971497828576915 ], [ -156.076480887623717, 20.88074680920797 ], [ -156.000004869769896, 20.852118804200401 ], [ -155.926789851301322, 20.781730788601077 ], [ -155.961462855111193, 20.660447757179902 ], [ -156.016309865712714, 20.612369743576544 ], [ -156.290476923837815, 20.536890716912744 ], [ -156.459872961843018, 20.557661717279306 ], [ -156.533460974992011, 20.462975691499476 ], [ -156.750005022325951, 20.454330683116758 ], [ -156.754149026169017, 20.544295705457724 ], [ -156.704447017211237, 20.604586721959791 ], [ -156.555093986068243, 20.657754739575871 ], [ -156.511874979078726, 20.735381760248533 ], [ -156.62500500449238, 20.749995760621097 ], [ -156.721742028860888, 20.842431780916105 ], [ -156.751946037889581, 20.913676797849519 ], [ -156.735022037240583, 21.00572482138482 ], [ -156.670429025372471, 21.076688841067003 ], [ -156.591036008369088, 21.092406847352201 ], [ -156.490732984309034, 21.035430836021909 ], [ -156.451094973340588, 20.968753820467033 ] ] ] ] } }
]
}
