{
"type": "FeatureCollection",
"name": "idaho_optimized_districts_all",
"crs": { "type": "name", "properties": { "name": "urn:ogc:def:crs:OGC:1.3:CRS84" } },
"features": [
{ "type": "Feature", "properties": { "opt_all": 1, "population": 917102.0, "voting_age_pop": 685640.0, "dem_votes": 89876.0, "rep_votes": 230464.0, "minority_pop": 136083.0, "dem_pct": 0.28056440023707174, "rep_pct": 0.71943559945075997 }, "geometry": { "type": "Polygon", "coordinates": [ [ [ -116.961535000002087, 43.9183880000013 ], [ -116.951737000001856, 44.039601000001532 ], [ -116.940196000002004, 44.095471000000835 ], [ -116.897790000001194, 44.15259000000141 ], [ -116.967259000001647, 44.194581000001172 ], [ -116.972655000001481, 44.238106000001252 ], [ -116.975985000001046, 44.242875000000851 ], [ -116.981807000002036, 44.244342000001176 ], [ -117.056510000002007, 44.230874000000803 ], [ -117.119861000002203, 44.278272000001493 ], [ -117.206217000001516, 44.281229000000771 ], [ -117.189842000001278, 44.335007000001411 ], [ -117.242675000002222, 44.396548000000841 ], [ -117.215072000002181, 44.427162000001168 ], [ -117.224104000001461, 44.483734000001206 ], [ -117.161033000001638, 44.525166000001363 ], [ -117.147934000001726, 44.562143000001335 ], [ -117.044217000001922, 44.745140000001037 ], [ -116.934700000001698, 44.783881000001514 ], [ -116.899711000001844, 44.840609000001166 ], [ -116.831990000001639, 44.933007000001481 ], [ -116.848037000001597, 45.021728000001389 ], [ -116.797329000002179, 45.060267000001424 ], [ -116.728757000001281, 45.144381000001033 ], [ -116.687177000002137, 45.267643000000646 ], [ -116.623640000001743, 45.392950000001477 ], [ -116.554830000002099, 45.462930000000959 ], [ -116.528093000001803, 45.539603000001101 ], [ -116.465256000001958, 45.618050000001283 ], [ -116.535117000001662, 45.691277000001392 ], [ -116.544041000002238, 45.746910000000966 ], [ -116.594210000001127, 45.779080000001272 ], [ -116.665268000001404, 45.782059000000885 ], [ -116.698079000001115, 45.820852000001452 ], [ -116.763402000002017, 45.816580000001331 ], [ -116.794562000002017, 45.85604900000142 ], [ -116.866544000002122, 45.916958000001017 ], [ -116.959694000001306, 46.099013000001037 ], [ -116.92135000000188, 46.16451400000107 ], [ -116.966306000001381, 46.209195000001017 ], [ -116.984804000000963, 46.293088000000793 ], [ -117.062778000001558, 46.365175000000654 ], [ -117.040527000002001, 46.398549000000671 ], [ -117.039392000001584, 46.400946000000914 ], [ -117.0348380000014, 46.415554000000817 ], [ -117.039571000002155, 46.425379000001342 ], [ -117.039748000002163, 46.434722000001386 ], [ -117.0397960000018, 46.455796000001079 ], [ -117.039694000001944, 46.541709000001156 ], [ -117.039691000001923, 46.638087000001065 ], [ -117.039835000001275, 46.679377000000663 ], [ -117.039832000001297, 46.732400000001071 ], [ -117.039676000001407, 46.801880000001233 ], [ -117.03964900000156, 46.873429000000812 ], [ -117.039636000001323, 46.967590000001159 ], [ -117.039460000001597, 47.018844000001295 ], [ -117.039752000002082, 47.1272690000011 ], [ -117.039701000001941, 47.240220000001443 ], [ -117.039808000001216, 47.366031000001207 ], [ -117.040332000002095, 47.523333000001209 ], [ -117.040955000001375, 47.621849000000552 ], [ -117.041693000001686, 47.697336000001151 ], [ -117.041829000001442, 47.735855000000967 ], [ -117.042276000001564, 47.886149000000721 ], [ -117.042054000001485, 47.921522000001431 ], [ -117.042089000001766, 47.977450000000857 ], [ -117.041122000001437, 48.122982000000569 ], [ -117.037908000001678, 48.240070000001211 ], [ -117.035227000001555, 48.411603000000973 ], [ -117.032441000001043, 48.846666000000624 ], [ -117.032345000001783, 48.999201000001257 ], [ -116.049086000002077, 49.000846000000536 ], [ -116.049084000001926, 48.812763000000949 ], [ -116.049059000001705, 48.619794000000581 ], [ -116.049058000002205, 48.502062000001125 ], [ -116.049093000000994, 48.440315000000894 ], [ -116.048982000002155, 48.356732000001081 ], [ -116.049024000001594, 48.19520300000071 ], [ -116.049060000000978, 48.088411000000754 ], [ -116.049108000001354, 47.977334000000837 ], [ -115.901401000001485, 47.843097000000597 ], [ -115.852312000001803, 47.827857000000634 ], [ -115.823774000001961, 47.75261100000133 ], [ -115.722714000001702, 47.694855000000985 ], [ -115.736379000001193, 47.655166000001067 ], [ -115.691626000001918, 47.593447000000673 ], [ -115.753598000001375, 47.552887000001064 ], [ -115.711052000001686, 47.516436000001086 ], [ -115.691209000001862, 47.457206000000973 ], [ -115.75887100000196, 47.423382000000878 ], [ -115.72111200000208, 47.425698000000658 ], [ -115.548841000001275, 47.346958000001145 ], [ -115.528509000001861, 47.29924400000089 ], [ -115.340849000001199, 47.262850000001123 ], [ -115.301226000001321, 47.193452000001194 ], [ -115.198231000001954, 47.137123000000791 ], [ -115.106065000001038, 47.048563000000769 ], [ -115.047857000001073, 46.969532000000683 ], [ -114.959317000001164, 46.932898000000961 ], [ -114.922312000001099, 46.82860200000087 ], [ -114.865779000002078, 46.814529000001251 ], [ -114.765190000001439, 46.758254000000932 ], [ -114.620787000002125, 46.707262000001521 ], [ -114.641443000001473, 46.679492000000934 ], [ -114.594634000002046, 46.633448000000705 ], [ -114.466834000002223, 46.631801000000955 ], [ -114.357919000001914, 46.668695000001563 ], [ -114.32070500000232, 46.646950000001205 ], [ -114.342985000002258, 46.518040000001363 ], [ -114.40109600000136, 46.478586000000874 ], [ -114.371952000002096, 46.442540000001216 ], [ -114.422447000001782, 46.387046000001199 ], [ -114.433434000001327, 46.305549000001577 ], [ -114.470795000002084, 46.265377000001223 ], [ -114.44523400000196, 46.167946000000931 ], [ -114.507484000002123, 46.164635000001141 ], [ -114.521304000001322, 46.126515000000872 ], [ -114.459480000002316, 46.093931000001191 ], [ -114.486099000001943, 45.998702000000854 ], [ -114.411755000001421, 45.977870000001609 ], [ -114.431396000001925, 45.936040000001597 ], [ -114.405917000001921, 45.870400000001375 ], [ -114.500349000001364, 45.849987000001413 ], [ -114.566348000001199, 45.772739000000911 ], [ -114.504182000001265, 45.721814000000926 ], [ -114.499667000001764, 45.668513000001042 ], [ -114.563987000001205, 45.637621000000955 ], [ -114.538053000001526, 45.606143000001616 ], [ -114.564999000001393, 45.557803000001407 ], [ -114.631996000002204, 45.519177000001022 ], [ -114.666223000001139, 45.471325000001606 ], [ -114.788246000002118, 45.512489000000834 ], [ -114.793207000001757, 45.436334000001466 ], [ -114.674548000001565, 45.362562000000885 ], [ -114.603940000001458, 45.295826000001362 ], [ -114.694001000001322, 45.197182000001213 ], [ -115.411796000001644, 45.196486000000874 ], [ -115.829652000001687, 45.196107000001277 ], [ -115.975787000001475, 45.195282000001292 ], [ -116.105474000001877, 45.157457000000932 ], [ -116.144386000001845, 45.107651000001368 ], [ -116.090143000002158, 45.064013000001211 ], [ -116.134981000001886, 45.000791000001321 ], [ -116.197011000001723, 44.864216000001008 ], [ -116.210167000001846, 44.779690000001438 ], [ -116.188434000001038, 44.750379000001523 ], [ -116.157602000001873, 44.70374300000136 ], [ -116.172459000001155, 44.638855000001385 ], [ -116.183571000002075, 44.583655000000753 ], [ -116.157022000001461, 44.498928000001541 ], [ -116.152334000002043, 44.432165000000758 ], [ -116.152295000001999, 44.324519000001153 ], [ -116.212910000001784, 44.324373000001103 ], [ -116.213871000001518, 44.151387000000753 ], [ -116.273069000001087, 44.151227000001597 ], [ -116.273539000002103, 44.092538000000772 ], [ -116.274031000002154, 43.83850700000135 ], [ -116.282019000002094, 43.807365000000921 ], [ -116.400288000001765, 43.807389000001351 ], [ -116.451516000002059, 43.807319000000781 ], [ -116.492790000002259, 43.807226000000917 ], [ -116.51250200000166, 43.807161000000882 ], [ -116.512643000001475, 43.7176360000012 ], [ -116.512745000002198, 43.681857000000811 ], [ -116.512745000001118, 43.681684000000935 ], [ -116.51308100000216, 43.648683000001455 ], [ -116.513123000001841, 43.634183000000931 ], [ -116.47361300000108, 43.619461000000818 ], [ -116.473530000001162, 43.597204000001497 ], [ -116.473529000001193, 43.596943000001097 ], [ -116.473535000001405, 43.575774000000862 ], [ -116.473664000001776, 43.561240000001021 ], [ -116.473486000001401, 43.502944000001186 ], [ -116.473393000001806, 43.488294000001567 ], [ -116.513364000001502, 43.459320000001391 ], [ -116.513454000001644, 43.437057000000877 ], [ -116.511897000001639, 43.290520000001052 ], [ -116.412331000002041, 43.285025000000793 ], [ -116.376059000001476, 43.231088000001463 ], [ -116.385955000001218, 43.193577000001234 ], [ -116.299945000001998, 43.119216000001295 ], [ -116.266207000001785, 43.112269000001319 ], [ -115.978714000001801, 43.113432000001225 ], [ -115.974882000001244, 43.364545000001506 ], [ -115.974881000001218, 43.365020000001252 ], [ -115.975719000001519, 43.591438000001283 ], [ -115.856700000002235, 43.601601000001374 ], [ -115.782337000002244, 43.648024000001151 ], [ -115.696456000001461, 43.66650500000123 ], [ -115.635166000001306, 43.713170000001107 ], [ -115.626449000001514, 43.740601000001327 ], [ -115.61554900000128, 43.780662000000824 ], [ -115.530066000001199, 43.815973000001087 ], [ -115.537054000001959, 43.852653000000963 ], [ -115.500374000001756, 43.889902000000909 ], [ -115.373466000001287, 43.924352000001008 ], [ -115.287226000001723, 43.935520000001354 ], [ -115.18193100000228, 44.090533000000946 ], [ -115.136209000001116, 43.983859000000876 ], [ -115.074481000001299, 43.944036000001461 ], [ -114.990777000001685, 43.949723000001619 ], [ -114.971351000001135, 43.938308000001605 ], [ -114.989258000001442, 43.858563000001702 ], [ -114.847781000001618, 43.816381000000817 ], [ -114.831565000002314, 43.791970000000994 ], [ -114.702050000001577, 43.805413000001309 ], [ -114.662311000001964, 43.660705000000959 ], [ -114.683140000001742, 43.593367000001521 ], [ -114.58674300000142, 43.558826000001666 ], [ -114.581441000001618, 43.52438600000167 ], [ -114.51919300000128, 43.493205000001552 ], [ -114.546546000002365, 43.435445000001273 ], [ -114.534519000002405, 43.342010000001125 ], [ -114.394606000001403, 43.326467000001514 ], [ -114.374962000002355, 43.199640000001345 ], [ -114.332082000001577, 43.199728000001478 ], [ -114.026398000001635, 43.200129000001205 ], [ -113.714642000002343, 43.199783000000906 ], [ -113.413867000001247, 43.199859000001403 ], [ -113.413121000001524, 42.906087000000987 ], [ -113.413138000001354, 42.849169000001275 ], [ -113.472155000001962, 42.849201000001415 ], [ -113.472177000001878, 42.669352000001638 ], [ -113.375062000001506, 42.687832000001222 ], [ -113.313811000002161, 42.635909000001824 ], [ -113.236968000002193, 42.625254000001263 ], [ -113.236841000001647, 42.67530800000155 ], [ -113.178633000001724, 42.675460000001031 ], [ -113.178877000001677, 42.762355000001477 ], [ -113.236943000001716, 42.762212000001597 ], [ -113.243720000002043, 42.848207000001437 ], [ -113.243478000001318, 43.110946000001753 ], [ -113.007712000001916, 43.110933000001381 ], [ -113.007605000002087, 43.056480000001443 ], [ -113.007760000001937, 42.863051000001391 ], [ -112.816578000001641, 42.863231000001157 ], [ -112.750562000001665, 42.951528000001048 ], [ -112.737496000001556, 42.905408000001287 ], [ -112.702152000001561, 42.935337000001518 ], [ -112.570363000001919, 42.963885000001554 ], [ -112.545153000002045, 42.9350490000012 ], [ -112.520638000001355, 42.912750000001381 ], [ -112.515470000001798, 42.907239000001063 ], [ -112.515465000002436, 42.850436000001849 ], [ -112.516775000001502, 42.794706000001263 ], [ -112.496910000002217, 42.733013000001677 ], [ -112.445024000002405, 42.69678500000132 ], [ -112.379670000001397, 42.646142000001099 ], [ -112.419825000001566, 42.503038000001283 ], [ -112.290791000001363, 42.3972780000013 ], [ -112.328868000002444, 42.347207000001028 ], [ -112.291822000001673, 42.317661000001429 ], [ -112.225191000001558, 42.350794000001663 ], [ -112.190656000002406, 42.350839000001542 ], [ -112.126194000001647, 42.285229000001806 ], [ -112.070541000001597, 42.285347000001593 ], [ -111.983916000001798, 42.256486000001686 ], [ -111.915461000001883, 42.256389000001207 ], [ -111.896728000001517, 42.256276000001456 ], [ -111.895284000001723, 42.414311000001369 ], [ -111.875636000001478, 42.416158000001523 ], [ -111.896759000002177, 42.50284700000109 ], [ -111.916298000002087, 42.524277000001625 ], [ -111.91759400000204, 42.617258000001513 ], [ -111.973373000001516, 42.715472000001043 ], [ -112.057274000002522, 42.718033000001135 ], [ -112.103516000002458, 42.698627000001665 ], [ -112.114227000002046, 42.725637000001321 ], [ -112.145089000002244, 42.790664000001279 ], [ -112.136509000001837, 42.9057850000016 ], [ -112.127424000001355, 42.944498000001211 ], [ -112.052883000001401, 42.991044000001558 ], [ -112.063023000002417, 43.022364000001843 ], [ -111.905670000002502, 43.020929000001779 ], [ -111.825599000001816, 43.020591000001616 ], [ -111.728555000002075, 43.020759000001085 ], [ -111.703889000001595, 43.020766000001785 ], [ -111.58948900000216, 43.020052000001527 ], [ -111.5027270000014, 43.020016000001007 ], [ -111.336198000001517, 43.020450000001226 ], [ -111.044072000001563, 43.019407000001515 ], [ -111.046817000001923, 42.513925000001727 ], [ -111.047242000002043, 42.213449000001773 ], [ -111.046714000001657, 42.001702000001188 ], [ -111.22171700000176, 42.001366000001632 ], [ -111.407875000001496, 42.000716000001418 ], [ -111.507806000002205, 41.999552000001948 ], [ -111.700068000001764, 41.999374000001438 ], [ -111.857030000002155, 41.998563000001283 ], [ -111.933595000001375, 41.998634000001218 ], [ -112.109444000002242, 41.997794000001107 ], [ -112.505614000001955, 42.000780000001058 ], [ -113.000041000002355, 41.998204000001152 ], [ -113.425847000001554, 41.993934000001033 ], [ -113.764716000002323, 41.989457000001153 ], [ -113.990091000001698, 41.993095000001389 ], [ -114.281799000001314, 41.994441000001515 ], [ -114.59828100000226, 41.99459400000157 ], [ -114.816425000002241, 42.001791000001717 ], [ -115.038157000001874, 41.996279000001749 ], [ -115.689393000002084, 41.996810000001666 ], [ -116.368477000001164, 41.996280000000958 ], [ -117.026200000002007, 42.00019500000132 ], [ -117.026113000001658, 42.330260000000969 ], [ -117.026231000001175, 42.83119400000146 ], [ -117.02667200000154, 43.286215000001242 ], [ -117.026661000001525, 43.372094000001454 ], [ -117.026820000001365, 43.624595000001229 ], [ -117.026538000001366, 43.680802000001208 ], [ -117.021885000002001, 43.817261000000997 ], [ -116.983827000001895, 43.8800460000014 ], [ -116.961535000002087, 43.9183880000013 ] ] ] } },
{ "type": "Feature", "properties": { "opt_all": 2, "population": 922004.0, "voting_age_pop": 690760.0, "dem_votes": 139743.0, "rep_votes": 207783.0, "minority_pop": 118851.0, "dem_pct": 0.40210804359900898, "rep_pct": 0.59789195611324275 }, "geometry": { "type": "Polygon", "coordinates": [ [ [ -116.473535000001405, 43.575774000000862 ], [ -116.473529000001193, 43.596943000001097 ], [ -116.473530000001162, 43.597204000001497 ], [ -116.47361300000108, 43.619461000000818 ], [ -116.513123000001841, 43.634183000000931 ], [ -116.51308100000216, 43.648683000001455 ], [ -116.512745000001118, 43.681684000000935 ], [ -116.512745000002198, 43.681857000000811 ], [ -116.512643000001475, 43.7176360000012 ], [ -116.51250200000166, 43.807161000000882 ], [ -116.492790000002259, 43.807226000000917 ], [ -116.451516000002059, 43.807319000000781 ], [ -116.400288000001765, 43.807389000001351 ], [ -116.282019000002094, 43.807365000000921 ], [ -116.274031000002154, 43.83850700000135 ], [ -116.273539000002103, 44.092538000000772 ], [ -116.273069000001087, 44.151227000001597 ], [ -116.213871000001518, 44.151387000000753 ], [ -116.212910000001784, 44.324373000001103 ], [ -116.152295000001999, 44.324519000001153 ], [ -116.152334000002043, 44.432165000000758 ], [ -116.157022000001461, 44.498928000001541 ], [ -116.183571000002075, 44.583655000000753 ], [ -116.172459000001155, 44.638855000001385 ], [ -116.157602000001873, 44.70374300000136 ], [ -116.188434000001038, 44.750379000001523 ], [ -116.210167000001846, 44.779690000001438 ], [ -116.197011000001723, 44.864216000001008 ], [ -116.134981000001886, 45.000791000001321 ], [ -116.090143000002158, 45.064013000001211 ], [ -116.144386000001845, 45.107651000001368 ], [ -116.105474000001877, 45.157457000000932 ], [ -115.975787000001475, 45.195282000001292 ], [ -115.829652000001687, 45.196107000001277 ], [ -115.411796000001644, 45.196486000000874 ], [ -114.694001000001322, 45.197182000001213 ], [ -114.603940000001458, 45.295826000001362 ], [ -114.674548000001565, 45.362562000000885 ], [ -114.793207000001757, 45.436334000001466 ], [ -114.788246000002118, 45.512489000000834 ], [ -114.666223000001139, 45.471325000001606 ], [ -114.631996000002204, 45.519177000001022 ], [ -114.564999000001393, 45.557803000001407 ], [ -114.526117000001435, 45.570783000001576 ], [ -114.439942000002119, 45.536983000000944 ], [ -114.34418400000142, 45.459683000001576 ], [ -114.260369000001262, 45.503449000001297 ], [ -114.194691000002095, 45.536154000001488 ], [ -114.013704000002278, 45.658292000001275 ], [ -113.988214000001477, 45.705928000001535 ], [ -113.919514000001243, 45.657859000001061 ], [ -113.806431000001439, 45.601630000001421 ], [ -113.833427000001322, 45.520536000001563 ], [ -113.772669000002281, 45.514255000001427 ], [ -113.776043000001863, 45.408477000001511 ], [ -113.734402000001836, 45.392353000000782 ], [ -113.738729000001399, 45.329741000001391 ], [ -113.692937000001919, 45.264197000001559 ], [ -113.592133000002406, 45.184779000001363 ], [ -113.588798000001759, 45.15498400000142 ], [ -113.484902000002194, 45.063405000000863 ], [ -113.452044000001635, 45.059174000001136 ], [ -113.443877000001194, 44.960014000001657 ], [ -113.496225000001516, 44.947675000001233 ], [ -113.460860000002285, 44.879103000001699 ], [ -113.357242000002245, 44.820651000001199 ], [ -113.340471000001955, 44.784682000000984 ], [ -113.247192000002073, 44.822954000000863 ], [ -113.194359000001882, 44.802150000001191 ], [ -113.101618000002219, 44.729465000001269 ], [ -113.05745200000122, 44.6183410000016 ], [ -113.088292000001559, 44.599663000001307 ], [ -113.00678800000226, 44.526208000001162 ], [ -113.001978000001785, 44.449857000001622 ], [ -112.885485000002205, 44.395545000001761 ], [ -112.813805000002077, 44.376455000000931 ], [ -112.839706000001243, 44.424021000001751 ], [ -112.785604000002238, 44.478985000001728 ], [ -112.717930000002042, 44.504273000001007 ], [ -112.660867000001403, 44.485952000001163 ], [ -112.473419000002025, 44.479359000001267 ], [ -112.387127000002167, 44.447391000001261 ], [ -112.358860000001556, 44.529053000001582 ], [ -112.309165000002338, 44.555566000000944 ], [ -112.229225000002316, 44.564089000000941 ], [ -112.183657000001745, 44.532953000000887 ], [ -112.096484000001993, 44.522992000001679 ], [ -112.032707000001395, 44.546642000001683 ], [ -111.863657000001439, 44.551244000001461 ], [ -111.801119000001435, 44.525985000001135 ], [ -111.704152000001557, 44.559648000001211 ], [ -111.61734500000216, 44.550392000001509 ], [ -111.49961500000208, 44.542009000001713 ], [ -111.525610000001478, 44.60474000000162 ], [ -111.468514000001761, 44.678733000001621 ], [ -111.489716000001565, 44.699657000001274 ], [ -111.375806000001703, 44.751038000001678 ], [ -111.337113000001366, 44.73320400000123 ], [ -111.219319000002344, 44.622521000001171 ], [ -111.130659000001273, 44.500131000001005 ], [ -111.048974000002275, 44.474072000001222 ], [ -111.049326000002367, 44.250411000001449 ], [ -111.048488000001782, 44.105939000001122 ], [ -111.047157000001761, 43.983459000001133 ], [ -111.046573000001615, 43.795479000001151 ], [ -111.046578000002398, 43.747103000001587 ], [ -111.045601000002435, 43.636564000001563 ], [ -111.045473000001678, 43.501051000001489 ], [ -111.044051000001403, 43.142816000001623 ], [ -111.044072000001563, 43.019407000001515 ], [ -111.336198000001517, 43.020450000001226 ], [ -111.5027270000014, 43.020016000001007 ], [ -111.58948900000216, 43.020052000001527 ], [ -111.703889000001595, 43.020766000001785 ], [ -111.728555000002075, 43.020759000001085 ], [ -111.825599000001816, 43.020591000001616 ], [ -111.905670000002502, 43.020929000001779 ], [ -112.063023000002417, 43.022364000001843 ], [ -112.052883000001401, 42.991044000001558 ], [ -112.127424000001355, 42.944498000001211 ], [ -112.136509000001837, 42.9057850000016 ], [ -112.145089000002244, 42.790664000001279 ], [ -112.114227000002046, 42.725637000001321 ], [ -112.103516000002458, 42.698627000001665 ], [ -112.057274000002522, 42.718033000001135 ], [ -111.973373000001516, 42.715472000001043 ], [ -111.91759400000204, 42.617258000001513 ], [ -111.916298000002087, 42.524277000001625 ], [ -111.896759000002177, 42.50284700000109 ], [ -111.875636000001478, 42.416158000001523 ], [ -111.895284000001723, 42.414311000001369 ], [ -111.896728000001517, 42.256276000001456 ], [ -111.915461000001883, 42.256389000001207 ], [ -111.983916000001798, 42.256486000001686 ], [ -112.070541000001597, 42.285347000001593 ], [ -112.126194000001647, 42.285229000001806 ], [ -112.190656000002406, 42.350839000001542 ], [ -112.225191000001558, 42.350794000001663 ], [ -112.291822000001673, 42.317661000001429 ], [ -112.328868000002444, 42.347207000001028 ], [ -112.290791000001363, 42.3972780000013 ], [ -112.419825000001566, 42.503038000001283 ], [ -112.379670000001397, 42.646142000001099 ], [ -112.445024000002405, 42.69678500000132 ], [ -112.496910000002217, 42.733013000001677 ], [ -112.516775000001502, 42.794706000001263 ], [ -112.515465000002436, 42.850436000001849 ], [ -112.515470000001798, 42.907239000001063 ], [ -112.520638000001355, 42.912750000001381 ], [ -112.545153000002045, 42.9350490000012 ], [ -112.570363000001919, 42.963885000001554 ], [ -112.702152000001561, 42.935337000001518 ], [ -112.737496000001556, 42.905408000001287 ], [ -112.750562000001665, 42.951528000001048 ], [ -112.816578000001641, 42.863231000001157 ], [ -113.007760000001937, 42.863051000001391 ], [ -113.007605000002087, 43.056480000001443 ], [ -113.007712000001916, 43.110933000001381 ], [ -113.243478000001318, 43.110946000001753 ], [ -113.243720000002043, 42.848207000001437 ], [ -113.236943000001716, 42.762212000001597 ], [ -113.178877000001677, 42.762355000001477 ], [ -113.178633000001724, 42.675460000001031 ], [ -113.236841000001647, 42.67530800000155 ], [ -113.236968000002193, 42.625254000001263 ], [ -113.313811000002161, 42.635909000001824 ], [ -113.375062000001506, 42.687832000001222 ], [ -113.472177000001878, 42.669352000001638 ], [ -113.472155000001962, 42.849201000001415 ], [ -113.413138000001354, 42.849169000001275 ], [ -113.413121000001524, 42.906087000000987 ], [ -113.413867000001247, 43.199859000001403 ], [ -113.714642000002343, 43.199783000000906 ], [ -114.026398000001635, 43.200129000001205 ], [ -114.332082000001577, 43.199728000001478 ], [ -114.374962000002355, 43.199640000001345 ], [ -114.394606000001403, 43.326467000001514 ], [ -114.534519000002405, 43.342010000001125 ], [ -114.546546000002365, 43.435445000001273 ], [ -114.51919300000128, 43.493205000001552 ], [ -114.581441000001618, 43.52438600000167 ], [ -114.58674300000142, 43.558826000001666 ], [ -114.683140000001742, 43.593367000001521 ], [ -114.662311000001964, 43.660705000000959 ], [ -114.702050000001577, 43.805413000001309 ], [ -114.831565000002314, 43.791970000000994 ], [ -114.847781000001618, 43.816381000000817 ], [ -114.989258000001442, 43.858563000001702 ], [ -114.971351000001135, 43.938308000001605 ], [ -114.990777000001685, 43.949723000001619 ], [ -115.074481000001299, 43.944036000001461 ], [ -115.136209000001116, 43.983859000000876 ], [ -115.18193100000228, 44.090533000000946 ], [ -115.287226000001723, 43.935520000001354 ], [ -115.373466000001287, 43.924352000001008 ], [ -115.500374000001756, 43.889902000000909 ], [ -115.537054000001959, 43.852653000000963 ], [ -115.530066000001199, 43.815973000001087 ], [ -115.61554900000128, 43.780662000000824 ], [ -115.626449000001514, 43.740601000001327 ], [ -115.635166000001306, 43.713170000001107 ], [ -115.696456000001461, 43.66650500000123 ], [ -115.782337000002244, 43.648024000001151 ], [ -115.856700000002235, 43.601601000001374 ], [ -115.975719000001519, 43.591438000001283 ], [ -115.974881000001218, 43.365020000001252 ], [ -115.974882000001244, 43.364545000001506 ], [ -115.978714000001801, 43.113432000001225 ], [ -116.266207000001785, 43.112269000001319 ], [ -116.299945000001998, 43.119216000001295 ], [ -116.385955000001218, 43.193577000001234 ], [ -116.376059000001476, 43.231088000001463 ], [ -116.412331000002041, 43.285025000000793 ], [ -116.511897000001639, 43.290520000001052 ], [ -116.513454000001644, 43.437057000000877 ], [ -116.513364000001502, 43.459320000001391 ], [ -116.473393000001806, 43.488294000001567 ], [ -116.473486000001401, 43.502944000001186 ], [ -116.473664000001776, 43.561240000001021 ], [ -116.473535000001405, 43.575774000000862 ] ] ] } }
]
}
