{
"type": "FeatureCollection",
"name": "idaho_enacted_districts",
"crs": { "type": "name", "properties": { "name": "urn:ogc:def:crs:OGC:1.3:CRS84" } },
"features": [
{ "type": "Feature", "properties": { "enacted_district": 1, "population": 919703.0, "voting_age_pop": 692469.0, "dem_votes": 104530.0, "rep_votes": 236144.0, "minority_pop": 119938.0, "dem_pct": 0.30683292522856664, "rep_pct": 0.6931670744778976 }, "geometry": { "type": "Polygon", "coordinates": [ [ [ -116.983827000001895, 43.8800460000014 ], [ -116.961535000002087, 43.9183880000013 ], [ -116.951737000001856, 44.039601000001532 ], [ -116.940196000002004, 44.095471000000835 ], [ -116.897790000001194, 44.15259000000141 ], [ -116.967259000001647, 44.194581000001172 ], [ -116.972655000001481, 44.238106000001252 ], [ -116.975985000001046, 44.242875000000851 ], [ -116.981807000002036, 44.244342000001176 ], [ -117.056510000002007, 44.230874000000803 ], [ -117.119861000002203, 44.278272000001493 ], [ -117.206217000001516, 44.281229000000771 ], [ -117.189842000001278, 44.335007000001411 ], [ -117.242675000002222, 44.396548000000841 ], [ -117.215072000002181, 44.427162000001168 ], [ -117.224104000001461, 44.483734000001206 ], [ -117.161033000001638, 44.525166000001363 ], [ -117.147934000001726, 44.562143000001335 ], [ -117.044217000001922, 44.745140000001037 ], [ -116.934700000001698, 44.783881000001514 ], [ -116.899711000001844, 44.840609000001166 ], [ -116.831990000001639, 44.933007000001481 ], [ -116.848037000001597, 45.021728000001389 ], [ -116.797329000002179, 45.060267000001424 ], [ -116.728757000001281, 45.144381000001033 ], [ -116.687177000002137, 45.267643000000646 ], [ -116.623640000001743, 45.392950000001477 ], [ -116.554830000002099, 45.462930000000959 ], [ -116.528093000001803, 45.539603000001101 ], [ -116.465256000001958, 45.618050000001283 ], [ -116.535117000001662, 45.691277000001392 ], [ -116.544041000002238, 45.746910000000966 ], [ -116.594210000001127, 45.779080000001272 ], [ -116.665268000001404, 45.782059000000885 ], [ -116.698079000001115, 45.820852000001452 ], [ -116.763402000002017, 45.816580000001331 ], [ -116.794562000002017, 45.85604900000142 ], [ -116.866544000002122, 45.916958000001017 ], [ -116.959694000001306, 46.099013000001037 ], [ -116.92135000000188, 46.16451400000107 ], [ -116.966306000001381, 46.209195000001017 ], [ -116.984804000000963, 46.293088000000793 ], [ -117.062778000001558, 46.365175000000654 ], [ -117.040527000002001, 46.398549000000671 ], [ -117.039392000001584, 46.400946000000914 ], [ -117.0348380000014, 46.415554000000817 ], [ -117.039571000002155, 46.425379000001342 ], [ -117.039748000002163, 46.434722000001386 ], [ -117.0397960000018, 46.455796000001079 ], [ -117.039694000001944, 46.541709000001156 ], [ -117.039691000001923, 46.638087000001065 ], [ -117.039835000001275, 46.679377000000663 ], [ -117.039832000001297, 46.732400000001071 ], [ -117.039676000001407, 46.801880000001233 ], [ -117.03964900000156, 46.873429000000812 ], [ -117.039636000001323, 46.967590000001159 ], [ -117.039460000001597, 47.018844000001295 ], [ -117.039752000002082, 47.1272690000011 ], [ -117.039701000001941, 47.240220000001443 ], [ -117.039808000001216, 47.366031000001207 ], [ -117.040332000002095, 47.523333000001209 ], [ -117.040955000001375, 47.621849000000552 ], [ -117.041693000001686, 47.697336000001151 ], [ -117.041829000001442, 47.735855000000967 ], [ -117.042276000001564, 47.886149000000721 ], [ -117.042054000001485, 47.921522000001431 ], [ -117.042089000001766, 47.977450000000857 ], [ -117.041122000001437, 48.122982000000569 ], [ -117.037908000001678, 48.240070000001211 ], [ -117.035227000001555, 48.411603000000973 ], [ -117.032441000001043, 48.846666000000624 ], [ -117.032345000001783, 48.999201000001257 ], [ -116.049086000002077, 49.000846000000536 ], [ -116.049084000001926, 48.812763000000949 ], [ -116.049059000001705, 48.619794000000581 ], [ -116.049058000002205, 48.502062000001125 ], [ -116.049093000000994, 48.440315000000894 ], [ -116.048982000002155, 48.356732000001081 ], [ -116.049024000001594, 48.19520300000071 ], [ -116.049060000000978, 48.088411000000754 ], [ -116.049108000001354, 47.977334000000837 ], [ -115.901401000001485, 47.843097000000597 ], [ -115.852312000001803, 47.827857000000634 ], [ -115.823774000001961, 47.75261100000133 ], [ -115.722714000001702, 47.694855000000985 ], [ -115.736379000001193, 47.655166000001067 ], [ -115.691626000001918, 47.593447000000673 ], [ -115.753598000001375, 47.552887000001064 ], [ -115.711052000001686, 47.516436000001086 ], [ -115.691209000001862, 47.457206000000973 ], [ -115.75887100000196, 47.423382000000878 ], [ -115.72111200000208, 47.425698000000658 ], [ -115.548841000001275, 47.346958000001145 ], [ -115.528509000001861, 47.29924400000089 ], [ -115.340849000001199, 47.262850000001123 ], [ -115.301226000001321, 47.193452000001194 ], [ -115.198231000001954, 47.137123000000791 ], [ -115.106065000001038, 47.048563000000769 ], [ -115.047857000001073, 46.969532000000683 ], [ -114.959317000001164, 46.932898000000961 ], [ -114.922312000001099, 46.82860200000087 ], [ -114.865779000002078, 46.814529000001251 ], [ -114.765190000001439, 46.758254000000932 ], [ -114.620787000002125, 46.707262000001521 ], [ -114.641443000001473, 46.679492000000934 ], [ -114.594634000002046, 46.633448000000705 ], [ -114.466834000002223, 46.631801000000955 ], [ -114.357919000001914, 46.668695000001563 ], [ -114.32070500000232, 46.646950000001205 ], [ -114.342985000002258, 46.518040000001363 ], [ -114.40109600000136, 46.478586000000874 ], [ -114.371952000002096, 46.442540000001216 ], [ -114.422447000001782, 46.387046000001199 ], [ -114.433434000001327, 46.305549000001577 ], [ -114.470795000002084, 46.265377000001223 ], [ -114.44523400000196, 46.167946000000931 ], [ -114.507484000002123, 46.164635000001141 ], [ -114.521304000001322, 46.126515000000872 ], [ -114.459480000002316, 46.093931000001191 ], [ -114.486099000001943, 45.998702000000854 ], [ -114.411755000001421, 45.977870000001609 ], [ -114.431396000001925, 45.936040000001597 ], [ -114.405917000001921, 45.870400000001375 ], [ -114.500349000001364, 45.849987000001413 ], [ -114.566348000001199, 45.772739000000911 ], [ -114.504182000001265, 45.721814000000926 ], [ -114.499667000001764, 45.668513000001042 ], [ -114.563987000001205, 45.637621000000955 ], [ -114.538053000001526, 45.606143000001616 ], [ -114.564999000001393, 45.557803000001407 ], [ -114.631996000002204, 45.519177000001022 ], [ -114.666223000001139, 45.471325000001606 ], [ -114.788246000002118, 45.512489000000834 ], [ -114.793207000001757, 45.436334000001466 ], [ -114.674548000001565, 45.362562000000885 ], [ -114.603940000001458, 45.295826000001362 ], [ -114.694001000001322, 45.197182000001213 ], [ -114.732270000002117, 45.151155000001054 ], [ -114.722527000001577, 45.041704000001282 ], [ -114.731960000002218, 44.880946000001117 ], [ -114.812407000001102, 44.808346000001563 ], [ -114.956116000001103, 44.720982000001477 ], [ -115.091922000001276, 44.766726000000759 ], [ -115.139755000001685, 44.713124000001265 ], [ -115.165605000002316, 44.650306000001422 ], [ -115.283208000001821, 44.602549000001311 ], [ -115.304994000001201, 44.579857000001482 ], [ -115.280932000001513, 44.518865000001163 ], [ -115.238271000001319, 44.510978000001366 ], [ -115.228222000001153, 44.42352100000123 ], [ -115.294614000002085, 44.339445000000978 ], [ -115.197919000001406, 44.282799000000779 ], [ -115.167684000001401, 44.202840000000947 ], [ -115.024181000001661, 44.155478000000933 ], [ -115.02052500000184, 44.098386000001113 ], [ -115.047720000001874, 44.050655000001143 ], [ -114.967343000002202, 43.982088000001006 ], [ -114.990777000001685, 43.949723000001619 ], [ -115.074481000001299, 43.944036000001461 ], [ -115.136209000001116, 43.983859000000876 ], [ -115.18193100000228, 44.090533000000946 ], [ -115.287226000001723, 43.935520000001354 ], [ -115.373466000001287, 43.924352000001008 ], [ -115.500374000001756, 43.889902000000909 ], [ -115.537054000001959, 43.852653000000963 ], [ -115.530066000001199, 43.815973000001087 ], [ -115.61554900000128, 43.780662000000824 ], [ -115.626449000001514, 43.740601000001327 ], [ -115.635166000001306, 43.713170000001107 ], [ -115.696456000001461, 43.66650500000123 ], [ -115.782337000002244, 43.648024000001151 ], [ -115.856700000002235, 43.601601000001374 ], [ -115.975719000001519, 43.591438000001283 ], [ -115.980277000002246, 43.585946000001307 ], [ -116.045262000001216, 43.634077000001625 ], [ -116.054347000001883, 43.640780000001229 ], [ -116.094167000001406, 43.670194000000819 ], [ -116.105088000001558, 43.678265000001325 ], [ -116.193538000001723, 43.743422000000798 ], [ -116.263384000001693, 43.793792000001083 ], [ -116.304469000001276, 43.73033000000077 ], [ -116.319489000001241, 43.720741000001446 ], [ -116.319816000001083, 43.719178000000937 ], [ -116.318933000001394, 43.706489000001639 ], [ -116.314021000001915, 43.682516000001002 ], [ -116.314060000001405, 43.675029000001039 ], [ -116.333717000001755, 43.68243700000086 ], [ -116.354010000001281, 43.686469000001487 ], [ -116.379097000002005, 43.689379000000748 ], [ -116.393793000001622, 43.692653000001052 ], [ -116.393650000001315, 43.677689000001251 ], [ -116.354415000002177, 43.663010000001577 ], [ -116.354328000001942, 43.648398000000995 ], [ -116.354342000001438, 43.633810000001354 ], [ -116.354525000001985, 43.619515000001179 ], [ -116.354776000002076, 43.604956000001465 ], [ -116.334357000002058, 43.604892000000802 ], [ -116.334358000001757, 43.597146000000933 ], [ -116.354680000001679, 43.596256000001269 ], [ -116.354412000002043, 43.575757000000813 ], [ -116.334403000001601, 43.575749000000883 ], [ -116.324287000001959, 43.575752000001629 ], [ -116.314149000001663, 43.575754000000849 ], [ -116.304098000002156, 43.575695000000927 ], [ -116.294261000001924, 43.575681000000777 ], [ -116.274058000002, 43.575667000000735 ], [ -116.274114000001475, 43.589965000001271 ], [ -116.2741100000014, 43.590207000001016 ], [ -116.253632000001659, 43.58040800000132 ], [ -116.244060000001298, 43.575764000000824 ], [ -116.233379000001918, 43.572179000001618 ], [ -116.223499000002121, 43.572176000000795 ], [ -116.215385000001874, 43.571433000001413 ], [ -116.183423000001397, 43.558721000001107 ], [ -116.160816000002001, 43.542023000000775 ], [ -116.13464500000164, 43.499743000001011 ], [ -115.974881000001218, 43.365020000001252 ], [ -115.974882000001244, 43.364545000001506 ], [ -115.978714000001801, 43.113432000001225 ], [ -116.266207000001785, 43.112269000001319 ], [ -116.235524000002016, 43.094504000001017 ], [ -116.201740000001678, 43.048930000001398 ], [ -116.141584000001401, 43.034124000000986 ], [ -116.090743000001282, 42.987883000001091 ], [ -115.977292000001313, 42.947154000001213 ], [ -115.917869000001801, 42.995497000001343 ], [ -115.791812000001457, 42.972348000001439 ], [ -115.751370000001685, 42.937827000001221 ], [ -115.622852000001359, 42.955698000000822 ], [ -115.441521000001842, 42.930619000001123 ], [ -115.454224000002242, 42.767936000001299 ], [ -115.089817000001602, 42.768311000001546 ], [ -115.037697000001842, 42.768414000001606 ], [ -115.037683000001977, 42.629591000001078 ], [ -115.037771000001683, 42.506211000001009 ], [ -115.037726000002166, 42.301273000001082 ], [ -115.038157000001874, 41.996279000001749 ], [ -115.689393000002084, 41.996810000001666 ], [ -116.368477000001164, 41.996280000000958 ], [ -117.026200000002007, 42.00019500000132 ], [ -117.026113000001658, 42.330260000000969 ], [ -117.026231000001175, 42.83119400000146 ], [ -117.02667200000154, 43.286215000001242 ], [ -117.026661000001525, 43.372094000001454 ], [ -117.026820000001365, 43.624595000001229 ], [ -117.026538000001366, 43.680802000001208 ], [ -117.021885000002001, 43.817261000000997 ], [ -116.983827000001895, 43.8800460000014 ] ] ] } },
{ "type": "Feature", "properties": { "enacted_district": 2, "population": 919403.0, "voting_age_pop": 683931.0, "dem_votes": 125089.0, "rep_votes": 202103.0, "minority_pop": 134996.0, "dem_pct": 0.38231069207611718, "rep_pct": 0.61768930761825191 }, "geometry": { "type": "Polygon", "coordinates": [ [ [ -116.274114000001475, 43.589965000001271 ], [ -116.274058000002, 43.575667000000735 ], [ -116.294261000001924, 43.575681000000777 ], [ -116.304098000002156, 43.575695000000927 ], [ -116.314149000001663, 43.575754000000849 ], [ -116.324287000001959, 43.575752000001629 ], [ -116.334403000001601, 43.575749000000883 ], [ -116.354412000002043, 43.575757000000813 ], [ -116.354680000001679, 43.596256000001269 ], [ -116.334358000001757, 43.597146000000933 ], [ -116.334357000002058, 43.604892000000802 ], [ -116.354776000002076, 43.604956000001465 ], [ -116.354525000001985, 43.619515000001179 ], [ -116.354342000001438, 43.633810000001354 ], [ -116.354328000001942, 43.648398000000995 ], [ -116.354415000002177, 43.663010000001577 ], [ -116.393650000001315, 43.677689000001251 ], [ -116.393793000001622, 43.692653000001052 ], [ -116.379097000002005, 43.689379000000748 ], [ -116.354010000001281, 43.686469000001487 ], [ -116.333717000001755, 43.68243700000086 ], [ -116.314060000001405, 43.675029000001039 ], [ -116.314021000001915, 43.682516000001002 ], [ -116.318933000001394, 43.706489000001639 ], [ -116.319816000001083, 43.719178000000937 ], [ -116.319489000001241, 43.720741000001446 ], [ -116.304469000001276, 43.73033000000077 ], [ -116.263384000001693, 43.793792000001083 ], [ -116.193538000001723, 43.743422000000798 ], [ -116.105088000001558, 43.678265000001325 ], [ -116.094167000001406, 43.670194000000819 ], [ -116.054347000001883, 43.640780000001229 ], [ -116.045262000001216, 43.634077000001625 ], [ -115.980277000002246, 43.585946000001307 ], [ -115.975719000001519, 43.591438000001283 ], [ -115.856700000002235, 43.601601000001374 ], [ -115.782337000002244, 43.648024000001151 ], [ -115.696456000001461, 43.66650500000123 ], [ -115.635166000001306, 43.713170000001107 ], [ -115.626449000001514, 43.740601000001327 ], [ -115.61554900000128, 43.780662000000824 ], [ -115.530066000001199, 43.815973000001087 ], [ -115.537054000001959, 43.852653000000963 ], [ -115.500374000001756, 43.889902000000909 ], [ -115.373466000001287, 43.924352000001008 ], [ -115.287226000001723, 43.935520000001354 ], [ -115.18193100000228, 44.090533000000946 ], [ -115.136209000001116, 43.983859000000876 ], [ -115.074481000001299, 43.944036000001461 ], [ -114.990777000001685, 43.949723000001619 ], [ -114.967343000002202, 43.982088000001006 ], [ -115.047720000001874, 44.050655000001143 ], [ -115.02052500000184, 44.098386000001113 ], [ -115.024181000001661, 44.155478000000933 ], [ -115.167684000001401, 44.202840000000947 ], [ -115.197919000001406, 44.282799000000779 ], [ -115.294614000002085, 44.339445000000978 ], [ -115.228222000001153, 44.42352100000123 ], [ -115.238271000001319, 44.510978000001366 ], [ -115.280932000001513, 44.518865000001163 ], [ -115.304994000001201, 44.579857000001482 ], [ -115.283208000001821, 44.602549000001311 ], [ -115.165605000002316, 44.650306000001422 ], [ -115.139755000001685, 44.713124000001265 ], [ -115.091922000001276, 44.766726000000759 ], [ -114.956116000001103, 44.720982000001477 ], [ -114.812407000001102, 44.808346000001563 ], [ -114.731960000002218, 44.880946000001117 ], [ -114.722527000001577, 45.041704000001282 ], [ -114.732270000002117, 45.151155000001054 ], [ -114.694001000001322, 45.197182000001213 ], [ -114.603940000001458, 45.295826000001362 ], [ -114.674548000001565, 45.362562000000885 ], [ -114.793207000001757, 45.436334000001466 ], [ -114.788246000002118, 45.512489000000834 ], [ -114.666223000001139, 45.471325000001606 ], [ -114.631996000002204, 45.519177000001022 ], [ -114.564999000001393, 45.557803000001407 ], [ -114.526117000001435, 45.570783000001576 ], [ -114.439942000002119, 45.536983000000944 ], [ -114.34418400000142, 45.459683000001576 ], [ -114.260369000001262, 45.503449000001297 ], [ -114.194691000002095, 45.536154000001488 ], [ -114.013704000002278, 45.658292000001275 ], [ -113.988214000001477, 45.705928000001535 ], [ -113.919514000001243, 45.657859000001061 ], [ -113.806431000001439, 45.601630000001421 ], [ -113.833427000001322, 45.520536000001563 ], [ -113.772669000002281, 45.514255000001427 ], [ -113.776043000001863, 45.408477000001511 ], [ -113.734402000001836, 45.392353000000782 ], [ -113.738729000001399, 45.329741000001391 ], [ -113.692937000001919, 45.264197000001559 ], [ -113.592133000002406, 45.184779000001363 ], [ -113.588798000001759, 45.15498400000142 ], [ -113.484902000002194, 45.063405000000863 ], [ -113.452044000001635, 45.059174000001136 ], [ -113.443877000001194, 44.960014000001657 ], [ -113.496225000001516, 44.947675000001233 ], [ -113.460860000002285, 44.879103000001699 ], [ -113.357242000002245, 44.820651000001199 ], [ -113.340471000001955, 44.784682000000984 ], [ -113.247192000002073, 44.822954000000863 ], [ -113.194359000001882, 44.802150000001191 ], [ -113.101618000002219, 44.729465000001269 ], [ -113.05745200000122, 44.6183410000016 ], [ -113.088292000001559, 44.599663000001307 ], [ -113.00678800000226, 44.526208000001162 ], [ -113.001978000001785, 44.449857000001622 ], [ -112.885485000002205, 44.395545000001761 ], [ -112.813805000002077, 44.376455000000931 ], [ -112.839706000001243, 44.424021000001751 ], [ -112.785604000002238, 44.478985000001728 ], [ -112.717930000002042, 44.504273000001007 ], [ -112.660867000001403, 44.485952000001163 ], [ -112.473419000002025, 44.479359000001267 ], [ -112.387127000002167, 44.447391000001261 ], [ -112.358860000001556, 44.529053000001582 ], [ -112.309165000002338, 44.555566000000944 ], [ -112.229225000002316, 44.564089000000941 ], [ -112.183657000001745, 44.532953000000887 ], [ -112.096484000001993, 44.522992000001679 ], [ -112.032707000001395, 44.546642000001683 ], [ -111.863657000001439, 44.551244000001461 ], [ -111.801119000001435, 44.525985000001135 ], [ -111.704152000001557, 44.559648000001211 ], [ -111.61734500000216, 44.550392000001509 ], [ -111.49961500000208, 44.542009000001713 ], [ -111.525610000001478, 44.60474000000162 ], [ -111.468514000001761, 44.678733000001621 ], [ -111.489716000001565, 44.699657000001274 ], [ -111.375806000001703, 44.751038000001678 ], [ -111.337113000001366, 44.73320400000123 ], [ -111.219319000002344, 44.622521000001171 ], [ -111.130659000001273, 44.500131000001005 ], [ -111.048974000002275, 44.474072000001222 ], [ -111.049326000002367, 44.250411000001449 ], [ -111.048488000001782, 44.105939000001122 ], [ -111.047157000001761, 43.983459000001133 ], [ -111.046573000001615, 43.795479000001151 ], [ -111.046578000002398, 43.747103000001587 ], [ -111.045601000002435, 43.636564000001563 ], [ -111.045473000001678, 43.501051000001489 ], [ -111.044051000001403, 43.142816000001623 ], [ -111.044072000001563, 43.019407000001515 ], [ -111.046817000001923, 42.513925000001727 ], [ -111.047242000002043, 42.213449000001773 ], [ -111.046714000001657, 42.001702000001188 ], [ -111.22171700000176, 42.001366000001632 ], [ -111.407875000001496, 42.000716000001418 ], [ -111.507806000002205, 41.999552000001948 ], [ -111.700068000001764, 41.999374000001438 ], [ -111.857030000002155, 41.998563000001283 ], [ -111.933595000001375, 41.998634000001218 ], [ -112.109444000002242, 41.997794000001107 ], [ -112.505614000001955, 42.000780000001058 ], [ -113.000041000002355, 41.998204000001152 ], [ -113.425847000001554, 41.993934000001033 ], [ -113.764716000002323, 41.989457000001153 ], [ -113.990091000001698, 41.993095000001389 ], [ -114.281799000001314, 41.994441000001515 ], [ -114.59828100000226, 41.99459400000157 ], [ -114.816425000002241, 42.001791000001717 ], [ -115.038157000001874, 41.996279000001749 ], [ -115.037726000002166, 42.301273000001082 ], [ -115.037771000001683, 42.506211000001009 ], [ -115.037683000001977, 42.629591000001078 ], [ -115.037697000001842, 42.768414000001606 ], [ -115.089817000001602, 42.768311000001546 ], [ -115.454224000002242, 42.767936000001299 ], [ -115.441521000001842, 42.930619000001123 ], [ -115.622852000001359, 42.955698000000822 ], [ -115.751370000001685, 42.937827000001221 ], [ -115.791812000001457, 42.972348000001439 ], [ -115.917869000001801, 42.995497000001343 ], [ -115.977292000001313, 42.947154000001213 ], [ -116.090743000001282, 42.987883000001091 ], [ -116.141584000001401, 43.034124000000986 ], [ -116.201740000001678, 43.048930000001398 ], [ -116.235524000002016, 43.094504000001017 ], [ -116.266207000001785, 43.112269000001319 ], [ -115.978714000001801, 43.113432000001225 ], [ -115.974882000001244, 43.364545000001506 ], [ -115.974881000001218, 43.365020000001252 ], [ -116.13464500000164, 43.499743000001011 ], [ -116.160816000002001, 43.542023000000775 ], [ -116.183423000001397, 43.558721000001107 ], [ -116.215385000001874, 43.571433000001413 ], [ -116.223499000002121, 43.572176000000795 ], [ -116.233379000001918, 43.572179000001618 ], [ -116.244060000001298, 43.575764000000824 ], [ -116.253632000001659, 43.58040800000132 ], [ -116.2741100000014, 43.590207000001016 ], [ -116.274114000001475, 43.589965000001271 ] ] ] } }
]
}
