{
"type": "FeatureCollection",
"name": "indiana_enacted_districts",
"crs": { "type": "name", "properties": { "name": "urn:ogc:def:crs:OGC:1.3:CRS84" } },
"features": [
{ "type": "Feature", "properties": { "enacted_district": 1, "population": 754693.0, "voting_age_pop": 581181.0, "dem_votes": 169473.0, "rep_votes": 125982.0, "minority_pop": 213830.0, "dem_pct": 0.57360004042118085, "rep_pct": 0.42639995924035812 }, "geometry": { "type": "Polygon", "coordinates": [ [ [ -87.525705000002176, 41.47028300000273 ], [ -87.525539000001757, 41.475487000002907 ], [ -87.525558000001823, 41.479038000003015 ], [ -87.52553200000213, 41.49002100000255 ], [ -87.525539000002013, 41.508544000002637 ], [ -87.5255610000019, 41.522651000002526 ], [ -87.525304000002421, 41.570277000002648 ], [ -87.525302000002341, 41.581361000002701 ], [ -87.525298000001712, 41.583072000002225 ], [ -87.52519600000231, 41.595585000002494 ], [ -87.525213000001969, 41.599257000002737 ], [ -87.525188000001577, 41.610332000003041 ], [ -87.525077000001673, 41.632986000002269 ], [ -87.524743000001493, 41.660435000002536 ], [ -87.524461000002532, 41.702680000002765 ], [ -87.524236000002475, 41.716979000002866 ], [ -87.523661000002051, 41.759907000002791 ], [ -87.221000000001737, 41.760889000002216 ], [ -86.933334000002205, 41.761035000002217 ], [ -86.824957000002399, 41.760296000002754 ], [ -86.824276000001788, 41.760298000002997 ], [ -86.816070000001403, 41.760294000002204 ], [ -86.810080000002174, 41.760283000002808 ], [ -86.751000000001696, 41.759947000002782 ], [ -86.69968100000176, 41.759791000002551 ], [ -86.700067000001894, 41.693883000002877 ], [ -86.69987500000218, 41.679518000002574 ], [ -86.699169000002243, 41.63198300000299 ], [ -86.699128000001821, 41.629894000002977 ], [ -86.69902600000178, 41.621158000002929 ], [ -86.706597000002191, 41.618021000002805 ], [ -86.712914000002513, 41.61207100000226 ], [ -86.713000000002097, 41.609288000002216 ], [ -86.713209000001569, 41.604828000002385 ], [ -86.699471000001836, 41.600916000002712 ], [ -86.699694000002069, 41.591187000002563 ], [ -86.699859000001766, 41.58414400000224 ], [ -86.700818000002485, 41.54685700000293 ], [ -86.72551300000238, 41.546930000002526 ], [ -86.726256000001669, 41.517473000002589 ], [ -86.816784000002002, 41.517629000002692 ], [ -86.894122000001715, 41.518409000002613 ], [ -86.916874000001584, 41.518704000002707 ], [ -86.929774000001458, 41.519019000002267 ], [ -86.929364000002238, 41.463209000002394 ], [ -86.930173000002256, 41.434275000002962 ], [ -86.930249000002377, 41.390588000003099 ], [ -86.930662000001576, 41.346909000002348 ], [ -86.930079000001768, 41.236798000003034 ], [ -86.968125000001706, 41.21965800000271 ], [ -87.033471000001455, 41.254136000002667 ], [ -87.044843000002345, 41.260798000002659 ], [ -87.102293000001922, 41.280961000002627 ], [ -87.122268000002066, 41.286356000002733 ], [ -87.160608000001616, 41.275951000002863 ], [ -87.198962000001458, 41.259606000002464 ], [ -87.218862000002204, 41.242027000002757 ], [ -87.275882000002056, 41.218595000002935 ], [ -87.33314300000157, 41.182857000002237 ], [ -87.342337000002146, 41.182508000002827 ], [ -87.390568000001579, 41.165181000002775 ], [ -87.429448000002424, 41.168282000002883 ], [ -87.446963000002199, 41.174354000002879 ], [ -87.52658700000184, 41.166090000002384 ], [ -87.526550000001805, 41.344694000002242 ], [ -87.526506000001774, 41.348373000002695 ], [ -87.525904000002015, 41.426184000002927 ], [ -87.525907000002405, 41.426820000002515 ], [ -87.525812000001793, 41.435585000002504 ], [ -87.525671000002419, 41.464602000002301 ], [ -87.525705000002176, 41.47028300000273 ] ] ] } },
{ "type": "Feature", "properties": { "enacted_district": 2, "population": 753393.0, "voting_age_pop": 570667.0, "dem_votes": 104396.0, "rep_votes": 166431.0, "minority_pop": 117781.0, "dem_pct": 0.38547116779882684, "rep_pct": 0.61452883183193374 }, "geometry": { "type": "Polygon", "coordinates": [ [ [ -86.815097000002112, 40.912480000002788 ], [ -86.930759000001643, 40.912418000002788 ], [ -86.930935000002009, 40.977276000003087 ], [ -86.930867000002493, 40.997915000002472 ], [ -86.930566000001747, 41.085512000003085 ], [ -86.930335000001861, 41.128875000002822 ], [ -86.93017000000242, 41.17231800000252 ], [ -86.930079000001768, 41.236798000003034 ], [ -86.930662000001576, 41.346909000002348 ], [ -86.930249000002377, 41.390588000003099 ], [ -86.930173000002256, 41.434275000002962 ], [ -86.929364000002238, 41.463209000002394 ], [ -86.929774000001458, 41.519019000002267 ], [ -86.916874000001584, 41.518704000002707 ], [ -86.894122000001715, 41.518409000002613 ], [ -86.816784000002002, 41.517629000002692 ], [ -86.726256000001669, 41.517473000002589 ], [ -86.72551300000238, 41.546930000002526 ], [ -86.700818000002485, 41.54685700000293 ], [ -86.699859000001766, 41.58414400000224 ], [ -86.699694000002069, 41.591187000002563 ], [ -86.699471000001836, 41.600916000002712 ], [ -86.713209000001569, 41.604828000002385 ], [ -86.713000000002097, 41.609288000002216 ], [ -86.712914000002513, 41.61207100000226 ], [ -86.706597000002191, 41.618021000002805 ], [ -86.69902600000178, 41.621158000002929 ], [ -86.699128000001821, 41.629894000002977 ], [ -86.699169000002243, 41.63198300000299 ], [ -86.69987500000218, 41.679518000002574 ], [ -86.700067000001894, 41.693883000002877 ], [ -86.69968100000176, 41.759791000002551 ], [ -86.641181000001552, 41.759730000003039 ], [ -86.583251000001468, 41.759526000002921 ], [ -86.524217000002224, 41.759659000002934 ], [ -86.414578000001768, 41.759717000002446 ], [ -86.350786000001662, 41.760013000002466 ], [ -86.331920000002441, 41.760199000002942 ], [ -86.323291000002072, 41.760254000002355 ], [ -86.272495000001697, 41.760402000002983 ], [ -86.255156000001648, 41.760473000002811 ], [ -86.250937000001329, 41.760539000003021 ], [ -86.231815000001532, 41.760392000002511 ], [ -86.217541000002356, 41.760430000002607 ], [ -86.18908000000178, 41.760480000003056 ], [ -86.178675000001476, 41.760466000002602 ], [ -86.15722400000142, 41.76052200000278 ], [ -86.13778700000222, 41.760549000002264 ], [ -86.125493000001455, 41.760581000003093 ], [ -86.088465000001634, 41.760638000002736 ], [ -86.06257500000234, 41.760513000002256 ], [ -86.004557000001981, 41.760242000002847 ], [ -85.974836000001375, 41.760009000002498 ], [ -85.942340000002488, 41.759848000003082 ], [ -85.888769000002327, 41.759443000002939 ], [ -85.774033000001509, 41.759090000002978 ], [ -85.659750000001779, 41.759068000002266 ], [ -85.659139000001986, 41.725910000003118 ], [ -85.658614000002174, 41.696900000002451 ], [ -85.65671800000176, 41.610538000002784 ], [ -85.654747000002374, 41.523347000003007 ], [ -85.653910000001645, 41.487853000003042 ], [ -85.65350700000171, 41.436856000002429 ], [ -85.71795500000151, 41.436378000002499 ], [ -85.749827000001815, 41.435999000002262 ], [ -85.768708000001965, 41.435745000002349 ], [ -85.76813900000235, 41.403625000003146 ], [ -85.767596000002015, 41.349552000002937 ], [ -85.766713000001516, 41.315844000002755 ], [ -85.76637300000246, 41.300314000002977 ], [ -85.765706000002226, 41.264012000002928 ], [ -85.765582000002482, 41.249919000002457 ], [ -85.765393000001907, 41.217069000002851 ], [ -85.76531800000231, 41.200693000002438 ], [ -85.765197000001706, 41.177456000002451 ], [ -85.686574000002111, 41.178376000002991 ], [ -85.686033000001402, 41.11793000000241 ], [ -85.685358000002154, 41.082953000003016 ], [ -85.685121000001402, 41.075677000002287 ], [ -85.684181000002056, 41.046716000002718 ], [ -85.683198000001852, 41.001909000002776 ], [ -85.643841000001757, 41.002305000003105 ], [ -85.643717000001772, 40.98838700000303 ], [ -85.642344000002055, 40.914738000002757 ], [ -85.64198000000188, 40.914738000002515 ], [ -85.641621000001507, 40.885283000002381 ], [ -85.641404000001643, 40.827211000002642 ], [ -85.639902000001598, 40.740506000002433 ], [ -85.638587000002346, 40.65312900000265 ], [ -85.675525000002239, 40.65281700000245 ], [ -85.690956000001805, 40.652711000002725 ], [ -85.788524000002482, 40.652238000002825 ], [ -85.86479100000237, 40.65169300000268 ], [ -85.863641000002261, 40.56552500000231 ], [ -85.938785000001459, 40.56479900000312 ], [ -86.013325000002482, 40.56412800000269 ], [ -86.089352000001355, 40.563405000002483 ], [ -86.127424000001369, 40.563098000002554 ], [ -86.16502400000185, 40.562649000003162 ], [ -86.184044000002302, 40.562459000002896 ], [ -86.242278000002301, 40.561961000002334 ], [ -86.261248000001856, 40.561882000002768 ], [ -86.259019000001587, 40.649293000002928 ], [ -86.223029000001688, 40.649375000002429 ], [ -86.223180000001818, 40.674565000002438 ], [ -86.278634000002029, 40.678409000002432 ], [ -86.278870000001675, 40.754770000002367 ], [ -86.299960000001363, 40.749125000003112 ], [ -86.299881000002273, 40.770286000002329 ], [ -86.338383000001897, 40.763641000003091 ], [ -86.352038000002011, 40.76148700000266 ], [ -86.354149000001868, 40.761092000002947 ], [ -86.354432000001495, 40.771487000002494 ], [ -86.354459000002421, 40.771865000002919 ], [ -86.366175000002002, 40.770585000002818 ], [ -86.370614000002419, 40.768771000002999 ], [ -86.383413000002022, 40.771725000002562 ], [ -86.383650000002461, 40.789380000002922 ], [ -86.354509000002068, 40.793628000003139 ], [ -86.354568000001819, 40.80826500000299 ], [ -86.354850000001647, 40.822876000002772 ], [ -86.467988000001739, 40.822601000003111 ], [ -86.58040000000149, 40.824810000003104 ], [ -86.581532000001772, 40.91092500000304 ], [ -86.583878000001391, 40.910959000002833 ], [ -86.696740000002038, 40.912230000002538 ], [ -86.699718000001624, 40.912238000002766 ], [ -86.775850000002237, 40.912460000002568 ], [ -86.815097000002112, 40.912480000002788 ] ] ] } },
{ "type": "Feature", "properties": { "enacted_district": 3, "population": 754226.0, "voting_age_pop": 563709.0, "dem_votes": 94160.0, "rep_votes": 184203.0, "minority_pop": 95169.0, "dem_pct": 0.33826334665948299, "rep_pct": 0.66173665298127382 }, "geometry": { "type": "Polygon", "coordinates": [ [ [ -85.642344000002055, 40.914738000002757 ], [ -85.643717000001772, 40.98838700000303 ], [ -85.643841000001757, 41.002305000003105 ], [ -85.683198000001852, 41.001909000002776 ], [ -85.684181000002056, 41.046716000002718 ], [ -85.685121000001402, 41.075677000002287 ], [ -85.685358000002154, 41.082953000003016 ], [ -85.686033000001402, 41.11793000000241 ], [ -85.686574000002111, 41.178376000002991 ], [ -85.765197000001706, 41.177456000002451 ], [ -85.76531800000231, 41.200693000002438 ], [ -85.765393000001907, 41.217069000002851 ], [ -85.765582000002482, 41.249919000002457 ], [ -85.765706000002226, 41.264012000002928 ], [ -85.76637300000246, 41.300314000002977 ], [ -85.766713000001516, 41.315844000002755 ], [ -85.767596000002015, 41.349552000002937 ], [ -85.76813900000235, 41.403625000003146 ], [ -85.768708000001965, 41.435745000002349 ], [ -85.749827000001815, 41.435999000002262 ], [ -85.71795500000151, 41.436378000002499 ], [ -85.65350700000171, 41.436856000002429 ], [ -85.653910000001645, 41.487853000003042 ], [ -85.654747000002374, 41.523347000003007 ], [ -85.65671800000176, 41.610538000002784 ], [ -85.658614000002174, 41.696900000002451 ], [ -85.659139000001986, 41.725910000003118 ], [ -85.659750000001779, 41.759068000002266 ], [ -85.486638000002301, 41.759266000002683 ], [ -85.368309000002057, 41.759870000002735 ], [ -85.196774000002179, 41.759644000002297 ], [ -85.083974000001916, 41.759658000002752 ], [ -84.971377000002192, 41.759548000002418 ], [ -84.860137000002439, 41.759906000002744 ], [ -84.80588500000222, 41.760171000002302 ], [ -84.805945000001714, 41.702740000002478 ], [ -84.805794000001967, 41.616439000002615 ], [ -84.804687000001636, 41.530134000002647 ], [ -84.804061000002434, 41.444789000002771 ], [ -84.803997000002411, 41.357756000002304 ], [ -84.803589000002191, 41.271273000002864 ], [ -84.803383000002356, 41.185063000002991 ], [ -84.803388000002045, 41.096867000002447 ], [ -84.803287000001362, 41.009576000003122 ], [ -84.802922000002113, 40.922568000002833 ], [ -84.802340000002218, 40.834685000002693 ], [ -84.802164000002023, 40.74717700000258 ], [ -84.80232100000147, 40.660341000002454 ], [ -84.802477000001417, 40.572213000002961 ], [ -84.803066000001309, 40.484717000002789 ], [ -84.804172000002168, 40.396996000002808 ], [ -84.803672000002365, 40.310093000002446 ], [ -84.805380000001335, 40.223775000002824 ], [ -84.805684000002117, 40.211588000002948 ], [ -84.805718000002202, 40.209842000002482 ], [ -84.805740000001563, 40.208804000002552 ], [ -84.806111000001593, 40.192592000002826 ], [ -84.80846100000204, 40.10718900000311 ], [ -84.901769000001693, 40.106529000002759 ], [ -84.90168400000141, 40.121016000002605 ], [ -84.900611000001831, 40.175122000002922 ], [ -84.949168000001748, 40.172068000002419 ], [ -84.952408000001356, 40.172094000002609 ], [ -84.977027000001868, 40.160047000003111 ], [ -84.998348000001329, 40.171905000002646 ], [ -85.110909000001669, 40.171236000002651 ], [ -85.111018000002176, 40.178591000002825 ], [ -85.165946000001696, 40.178567000002765 ], [ -85.216391000001977, 40.178550000002993 ], [ -85.216493000002316, 40.193096000002903 ], [ -85.217428000002016, 40.234931000002561 ], [ -85.217735000001781, 40.242246000002851 ], [ -85.218619000001794, 40.298847000002638 ], [ -85.218655000002059, 40.300952000002908 ], [ -85.218758000001657, 40.306706000002983 ], [ -85.218847000001517, 40.311618000002497 ], [ -85.218918000001651, 40.315594000002868 ], [ -85.21990100000157, 40.379034000003102 ], [ -85.331737000001652, 40.3782220000029 ], [ -85.331731000002222, 40.378811000002472 ], [ -85.36960700000165, 40.378561000002989 ], [ -85.44432300000166, 40.378746000002856 ], [ -85.444330000001983, 40.379140000002714 ], [ -85.445378000001313, 40.450589000002374 ], [ -85.445829000002405, 40.479302000002455 ], [ -85.447014000001957, 40.566929000002496 ], [ -85.448825000001676, 40.653607000002452 ], [ -85.562294000001472, 40.653193000002602 ], [ -85.638587000002346, 40.65312900000265 ], [ -85.639902000001598, 40.740506000002433 ], [ -85.641404000001643, 40.827211000002642 ], [ -85.641621000001507, 40.885283000002381 ], [ -85.64198000000188, 40.914738000002515 ], [ -85.642344000002055, 40.914738000002757 ] ] ] } },
{ "type": "Feature", "properties": { "enacted_district": 4, "population": 754738.0, "voting_age_pop": 577838.0, "dem_votes": 97261.0, "rep_votes": 189635.0, "minority_pop": 95808.0, "dem_pct": 0.33901134894212143, "rep_pct": 0.66098865070932022 }, "geometry": { "type": "Polygon", "coordinates": [ [ [ -87.300530000001871, 40.186056000002509 ], [ -87.338891000001524, 40.18641500000291 ], [ -87.339273000002422, 40.223173000002532 ], [ -87.357583000001455, 40.21087700000249 ], [ -87.386792000002117, 40.204326000002894 ], [ -87.396949000001783, 40.20004900000297 ], [ -87.419900000002215, 40.192258000002361 ], [ -87.427998000002432, 40.178287000003003 ], [ -87.43875500000226, 40.165694000003029 ], [ -87.408526000002524, 40.142956000002286 ], [ -87.406667000002159, 40.127508000002642 ], [ -87.49041000000183, 40.127406000002473 ], [ -87.490455000001617, 40.14842200000291 ], [ -87.531449000002084, 40.148127000002752 ], [ -87.53101800000195, 40.177193000002674 ], [ -87.53052100000194, 40.214778000002617 ], [ -87.529258000002358, 40.303595000002325 ], [ -87.528004000002085, 40.388959000002544 ], [ -87.526589000001607, 40.476876000002463 ], [ -87.526238000001925, 40.564223000002386 ], [ -87.52622500000227, 40.649778000002492 ], [ -87.526031000002419, 40.736885000002573 ], [ -87.525696000002469, 40.817250000002907 ], [ -87.525996000002237, 40.911838000002234 ], [ -87.526278000002307, 40.999758000002799 ], [ -87.526511000001591, 41.087168000002372 ], [ -87.52658700000184, 41.166090000002384 ], [ -87.446963000002199, 41.174354000002879 ], [ -87.429448000002424, 41.168282000002883 ], [ -87.390568000001579, 41.165181000002775 ], [ -87.342337000002146, 41.182508000002827 ], [ -87.33314300000157, 41.182857000002237 ], [ -87.275882000002056, 41.218595000002935 ], [ -87.218862000002204, 41.242027000002757 ], [ -87.198962000001458, 41.259606000002464 ], [ -87.160608000001616, 41.275951000002863 ], [ -87.122268000002066, 41.286356000002733 ], [ -87.102293000001922, 41.280961000002627 ], [ -87.044843000002345, 41.260798000002659 ], [ -87.033471000001455, 41.254136000002667 ], [ -86.968125000001706, 41.21965800000271 ], [ -86.930079000001768, 41.236798000003034 ], [ -86.93017000000242, 41.17231800000252 ], [ -86.930335000001861, 41.128875000002822 ], [ -86.930566000001747, 41.085512000003085 ], [ -86.930867000002493, 40.997915000002472 ], [ -86.930935000002009, 40.977276000003087 ], [ -86.930759000001643, 40.912418000002788 ], [ -86.815097000002112, 40.912480000002788 ], [ -86.775850000002237, 40.912460000002568 ], [ -86.699718000001624, 40.912238000002766 ], [ -86.696740000002038, 40.912230000002538 ], [ -86.583878000001391, 40.910959000002833 ], [ -86.581532000001772, 40.91092500000304 ], [ -86.58040000000149, 40.824810000003104 ], [ -86.467988000001739, 40.822601000003111 ], [ -86.354850000001647, 40.822876000002772 ], [ -86.354568000001819, 40.80826500000299 ], [ -86.354509000002068, 40.793628000003139 ], [ -86.383650000002461, 40.789380000002922 ], [ -86.383413000002022, 40.771725000002562 ], [ -86.370614000002419, 40.768771000002999 ], [ -86.366175000002002, 40.770585000002818 ], [ -86.354459000002421, 40.771865000002919 ], [ -86.354432000001495, 40.771487000002494 ], [ -86.354149000001868, 40.761092000002947 ], [ -86.352038000002011, 40.76148700000266 ], [ -86.338383000001897, 40.763641000003091 ], [ -86.299881000002273, 40.770286000002329 ], [ -86.299960000001363, 40.749125000003112 ], [ -86.278870000001675, 40.754770000002367 ], [ -86.278634000002029, 40.678409000002432 ], [ -86.223180000001818, 40.674565000002438 ], [ -86.223029000001688, 40.649375000002429 ], [ -86.259019000001587, 40.649293000002928 ], [ -86.261248000001856, 40.561882000002768 ], [ -86.374417000002353, 40.561361000002293 ], [ -86.375151000001452, 40.517839000002617 ], [ -86.37523800000227, 40.503357000002858 ], [ -86.375494000001837, 40.492592000002325 ], [ -86.375762000002481, 40.431851000002297 ], [ -86.356799000002482, 40.431848000003029 ], [ -86.309249000001373, 40.431712000002598 ], [ -86.242850000002335, 40.431996000002613 ], [ -86.222309000001587, 40.432047000002967 ], [ -86.22228500000206, 40.403150000002661 ], [ -86.242812000002246, 40.402914000003165 ], [ -86.242992000001848, 40.373661000002855 ], [ -86.242893000001672, 40.337481000002533 ], [ -86.242760000001866, 40.308760000002529 ], [ -86.242597000001695, 40.273671000002643 ], [ -86.242743000002207, 40.215834000002666 ], [ -86.24236500000174, 40.180778000003158 ], [ -86.241965000001429, 40.136892000002533 ], [ -86.241902000001488, 40.129621000002309 ], [ -86.241722000001985, 40.099850000003073 ], [ -86.241458000002041, 40.070819000002899 ], [ -86.24145300000238, 40.04882900000235 ], [ -86.241420000001497, 40.041545000002621 ], [ -86.241067000001664, 40.005923000002795 ], [ -86.241065000001541, 39.998773000003155 ], [ -86.24107400000139, 39.991517000003029 ], [ -86.241218000002263, 39.985351000002616 ], [ -86.241177000001684, 39.977094000002317 ], [ -86.24101700000169, 39.962574000002505 ], [ -86.24096100000213, 39.955315000003047 ], [ -86.240902000001597, 39.94075300000285 ], [ -86.240736000002101, 39.926062000002659 ], [ -86.268246000002179, 39.924916000002447 ], [ -86.27847100000146, 39.924729000002714 ], [ -86.307246000002465, 39.924394000002401 ], [ -86.321394000002286, 39.924158000002691 ], [ -86.326293000002281, 39.924029000002704 ], [ -86.326212000001789, 39.915319000002377 ], [ -86.325889000001524, 39.882329000002649 ], [ -86.326051000001357, 39.882051000002619 ], [ -86.328012000002389, 39.859269000002563 ], [ -86.327865000001367, 39.851956000002943 ], [ -86.327465000002221, 39.830795000003064 ], [ -86.327460000002276, 39.830544000002661 ], [ -86.327297000001934, 39.822722000002749 ], [ -86.327005000001407, 39.808008000002687 ], [ -86.326805000002523, 39.800646000003177 ], [ -86.326806000001625, 39.800446000003049 ], [ -86.326640000002143, 39.793307000002365 ], [ -86.326562000001843, 39.788825000002802 ], [ -86.326637000001824, 39.778645000003031 ], [ -86.326804000001914, 39.765148000002291 ], [ -86.3267860000025, 39.763774000002897 ], [ -86.326743000001528, 39.759804000003179 ], [ -86.326703000001771, 39.756317000002909 ], [ -86.32666200000169, 39.749023000003113 ], [ -86.32659500000176, 39.740436000002397 ], [ -86.326542000001481, 39.734384000002692 ], [ -86.326500000001701, 39.729442000002997 ], [ -86.326590000002057, 39.728227000003045 ], [ -86.326588000002531, 39.719838000002397 ], [ -86.326591000002168, 39.719486000002981 ], [ -86.326537000002475, 39.71275400000313 ], [ -86.326463000001382, 39.703245000002688 ], [ -86.326390000001737, 39.697787000002428 ], [ -86.32658500000214, 39.6862420000027 ], [ -86.326584000001858, 39.671795000002597 ], [ -86.326461000001459, 39.661335000002573 ], [ -86.326363000001379, 39.646768000002488 ], [ -86.326365000002212, 39.639890000002929 ], [ -86.326341000001577, 39.632177000002727 ], [ -86.316827000002334, 39.632375000002767 ], [ -86.311241000001658, 39.632528000002871 ], [ -86.3110660000021, 39.632533000002667 ], [ -86.307318000001402, 39.632614000002505 ], [ -86.249885000002266, 39.633645000002637 ], [ -86.250133000002393, 39.60404600000242 ], [ -86.250589000002137, 39.591046000003082 ], [ -86.250581000002441, 39.587716000002466 ], [ -86.250626000002001, 39.567936000003165 ], [ -86.250322000001418, 39.516687000002413 ], [ -86.251621000002459, 39.51667100000266 ], [ -86.25130800000143, 39.473907000002463 ], [ -86.251290000001688, 39.445580000002721 ], [ -86.251310000002107, 39.430595000003073 ], [ -86.251304000002264, 39.430046000002349 ], [ -86.251520000001875, 39.37959000000297 ], [ -86.251420000001943, 39.374780000003192 ], [ -86.251684000001546, 39.341672000002994 ], [ -86.276027000001818, 39.341486000002959 ], [ -86.324482000001964, 39.340955000002651 ], [ -86.362345000002065, 39.340061000002486 ], [ -86.381395000001504, 39.339752000003152 ], [ -86.465115000002484, 39.338300000002334 ], [ -86.492904000002241, 39.338643000002648 ], [ -86.574280000002219, 39.339681000003075 ], [ -86.630818000001796, 39.346948000002747 ], [ -86.630955000001521, 39.40625600000304 ], [ -86.631910000001369, 39.441086000002649 ], [ -86.632206000001602, 39.470214000002571 ], [ -86.685710000002047, 39.470063000002348 ], [ -86.706134000001555, 39.470516000002519 ], [ -86.780813000002297, 39.471463000002998 ], [ -86.850949000002501, 39.472322000002897 ], [ -86.903992000002106, 39.472639000002879 ], [ -86.939981000001524, 39.473345000002908 ], [ -87.014533000002473, 39.473572000002918 ], [ -87.014257000002488, 39.517092000002393 ], [ -87.013805000001497, 39.548431000003163 ], [ -87.013399000001826, 39.579029000002997 ], [ -87.013062000001639, 39.604787000003128 ], [ -87.011945000002243, 39.691855000002953 ], [ -87.010762000002288, 39.779496000003043 ], [ -87.010753000002467, 39.779561000002296 ], [ -87.009477000002335, 39.866705000003009 ], [ -87.09154200000242, 39.867265000002561 ], [ -87.091051000002054, 39.94565500000239 ], [ -87.091006000001499, 39.953009000003171 ], [ -87.091488000001604, 40.039011000002397 ], [ -87.092142000001459, 40.039019000002988 ], [ -87.205536000002411, 40.039356000002833 ], [ -87.205364000002433, 40.06826100000233 ], [ -87.224136000002105, 40.068213000002707 ], [ -87.223904000001482, 40.112094000002486 ], [ -87.204856000001598, 40.128007000002903 ], [ -87.205092000001983, 40.185718000003142 ], [ -87.300530000001871, 40.186056000002509 ] ] ] } },
{ "type": "Feature", "properties": { "enacted_district": 5, "population": 752846.0, "voting_age_pop": 573823.0, "dem_votes": 120980.0, "rep_votes": 190194.0, "minority_pop": 95102.0, "dem_pct": 0.38878569533804697, "rep_pct": 0.61121430434058943 }, "geometry": { "type": "Polygon", "coordinates": [ [ [ -86.185773000001447, 39.926796000002611 ], [ -86.203087000001545, 39.926625000002318 ], [ -86.222286000002441, 39.926284000002852 ], [ -86.229605000001541, 39.926166000003072 ], [ -86.240736000002101, 39.926062000002659 ], [ -86.240902000001597, 39.94075300000285 ], [ -86.24096100000213, 39.955315000003047 ], [ -86.24101700000169, 39.962574000002505 ], [ -86.241177000001684, 39.977094000002317 ], [ -86.241218000002263, 39.985351000002616 ], [ -86.24107400000139, 39.991517000003029 ], [ -86.241065000001541, 39.998773000003155 ], [ -86.241067000001664, 40.005923000002795 ], [ -86.241420000001497, 40.041545000002621 ], [ -86.24145300000238, 40.04882900000235 ], [ -86.241458000002041, 40.070819000002899 ], [ -86.241722000001985, 40.099850000003073 ], [ -86.241902000001488, 40.129621000002309 ], [ -86.241965000001429, 40.136892000002533 ], [ -86.24236500000174, 40.180778000003158 ], [ -86.242743000002207, 40.215834000002666 ], [ -86.242597000001695, 40.273671000002643 ], [ -86.242760000001866, 40.308760000002529 ], [ -86.242893000001672, 40.337481000002533 ], [ -86.242992000001848, 40.373661000002855 ], [ -86.242812000002246, 40.402914000003165 ], [ -86.22228500000206, 40.403150000002661 ], [ -86.222309000001587, 40.432047000002967 ], [ -86.242850000002335, 40.431996000002613 ], [ -86.309249000001373, 40.431712000002598 ], [ -86.356799000002482, 40.431848000003029 ], [ -86.375762000002481, 40.431851000002297 ], [ -86.375494000001837, 40.492592000002325 ], [ -86.37523800000227, 40.503357000002858 ], [ -86.375151000001452, 40.517839000002617 ], [ -86.374417000002353, 40.561361000002293 ], [ -86.261248000001856, 40.561882000002768 ], [ -86.242278000002301, 40.561961000002334 ], [ -86.184044000002302, 40.562459000002896 ], [ -86.16502400000185, 40.562649000003162 ], [ -86.127424000001369, 40.563098000002554 ], [ -86.089352000001355, 40.563405000002483 ], [ -86.013325000002482, 40.56412800000269 ], [ -85.938785000001459, 40.56479900000312 ], [ -85.863641000002261, 40.56552500000231 ], [ -85.86479100000237, 40.65169300000268 ], [ -85.788524000002482, 40.652238000002825 ], [ -85.690956000001805, 40.652711000002725 ], [ -85.675525000002239, 40.65281700000245 ], [ -85.638587000002346, 40.65312900000265 ], [ -85.562294000001472, 40.653193000002602 ], [ -85.448825000001676, 40.653607000002452 ], [ -85.447014000001957, 40.566929000002496 ], [ -85.445829000002405, 40.479302000002455 ], [ -85.445378000001313, 40.450589000002374 ], [ -85.444330000001983, 40.379140000002714 ], [ -85.44432300000166, 40.378746000002856 ], [ -85.36960700000165, 40.378561000002989 ], [ -85.331731000002222, 40.378811000002472 ], [ -85.331737000001652, 40.3782220000029 ], [ -85.21990100000157, 40.379034000003102 ], [ -85.218918000001651, 40.315594000002868 ], [ -85.218847000001517, 40.311618000002497 ], [ -85.218758000001657, 40.306706000002983 ], [ -85.218655000002059, 40.300952000002908 ], [ -85.218619000001794, 40.298847000002638 ], [ -85.217735000001781, 40.242246000002851 ], [ -85.217428000002016, 40.234931000002561 ], [ -85.216493000002316, 40.193096000002903 ], [ -85.216391000001977, 40.178550000002993 ], [ -85.215845000001607, 40.149505000002989 ], [ -85.214902000002397, 40.10606700000271 ], [ -85.21438600000198, 40.076889000002986 ], [ -85.308820000002029, 40.076685000003174 ], [ -85.328095000001341, 40.076546000002537 ], [ -85.403715000001384, 40.07647700000242 ], [ -85.442547000001753, 40.076686000002411 ], [ -85.480279000001957, 40.076893000002705 ], [ -85.499551000001631, 40.077016000002565 ], [ -85.537567000002227, 40.077019000003077 ], [ -85.576197000001969, 40.07714300000287 ], [ -85.576274000001376, 40.066269000002514 ], [ -85.576408000001834, 40.047839000002867 ], [ -85.57615200000204, 40.041010000002352 ], [ -85.576365000002028, 39.990103000002343 ], [ -85.576192000001797, 39.945756000002426 ], [ -85.634525000001759, 39.945755000002499 ], [ -85.673123000001581, 39.945540000002403 ], [ -85.69235200000162, 39.945446000002761 ], [ -85.786653000002474, 39.944677000002507 ], [ -85.805711000001793, 39.944567000003147 ], [ -85.815167000002447, 39.944334000002883 ], [ -85.824033000002274, 39.944245000002624 ], [ -85.824597000001887, 39.944241000002584 ], [ -85.827493000001326, 39.944140000002527 ], [ -85.828177000001503, 39.944140000003081 ], [ -85.837609000002047, 39.944029000002772 ], [ -85.85423300000231, 39.943725000003013 ], [ -85.862489000002, 39.943618000002715 ], [ -85.862379000002036, 39.93438400000246 ], [ -85.862377000002255, 39.934252000002509 ], [ -85.865042000001878, 39.928917000002748 ], [ -85.867065000001915, 39.928898000003166 ], [ -85.867438000002423, 39.928895000002413 ], [ -85.875286000001978, 39.928808000002363 ], [ -85.884646000001652, 39.928711000002963 ], [ -85.892036000002008, 39.928655000002998 ], [ -85.895001000002225, 39.928628000002654 ], [ -85.897530000001765, 39.928606000003015 ], [ -85.904521000002191, 39.92846700000306 ], [ -85.909441000002488, 39.92821600000299 ], [ -85.918992000001452, 39.927724000002783 ], [ -85.933151000002056, 39.927536000002462 ], [ -85.936134000001346, 39.92750900000231 ], [ -85.937587000001443, 39.927137000003185 ], [ -85.980854000002182, 39.92710800000269 ], [ -85.991485000001916, 39.927034000002585 ], [ -85.995037000002256, 39.927000000002614 ], [ -86.001659000001538, 39.927057000002428 ], [ -86.006390000001915, 39.927092000003157 ], [ -86.012555000001925, 39.927318000002387 ], [ -86.013708000002126, 39.927390000002354 ], [ -86.019260000002362, 39.927281000002509 ], [ -86.029766000002425, 39.927107000002742 ], [ -86.032979000002129, 39.927064000003149 ], [ -86.046256000002003, 39.927053000002921 ], [ -86.050659000002085, 39.92704600000318 ], [ -86.05548200000149, 39.927029000002911 ], [ -86.057865000001968, 39.927021000002654 ], [ -86.066121000001658, 39.927005000002417 ], [ -86.06959400000207, 39.926985000002546 ], [ -86.076183000001819, 39.926950000002485 ], [ -86.088705000002292, 39.926884000002552 ], [ -86.103486000002107, 39.926894000002392 ], [ -86.11216800000237, 39.926902000002933 ], [ -86.11241400000165, 39.926901000002829 ], [ -86.13636700000184, 39.92706900000266 ], [ -86.145264000002356, 39.927157000002651 ], [ -86.145883000002442, 39.927168000002943 ], [ -86.1506910000017, 39.927105000002797 ], [ -86.165066000002483, 39.926906000002802 ], [ -86.175543000002023, 39.926866000002903 ], [ -86.184029000001814, 39.9268090000024 ], [ -86.185773000001447, 39.926796000002611 ] ] ] } },
{ "type": "Feature", "properties": { "enacted_district": 6, "population": 754739.0, "voting_age_pop": 571310.0, "dem_votes": 91686.0, "rep_votes": 186613.0, "minority_pop": 91462.0, "dem_pct": 0.32945141724208443, "rep_pct": 0.67054858239858983 }, "geometry": { "type": "Polygon", "coordinates": [ [ [ -86.251310000002107, 39.430595000003073 ], [ -86.251290000001688, 39.445580000002721 ], [ -86.25130800000143, 39.473907000002463 ], [ -86.251621000002459, 39.51667100000266 ], [ -86.250322000001418, 39.516687000002413 ], [ -86.250626000002001, 39.567936000003165 ], [ -86.250581000002441, 39.587716000002466 ], [ -86.250589000002137, 39.591046000003082 ], [ -86.250133000002393, 39.60404600000242 ], [ -86.249885000002266, 39.633645000002637 ], [ -86.307318000001402, 39.632614000002505 ], [ -86.3110660000021, 39.632533000002667 ], [ -86.311241000001658, 39.632528000002871 ], [ -86.316827000002334, 39.632375000002767 ], [ -86.326341000001577, 39.632177000002727 ], [ -86.326365000002212, 39.639890000002929 ], [ -86.326363000001379, 39.646768000002488 ], [ -86.326461000001459, 39.661335000002573 ], [ -86.326584000001858, 39.671795000002597 ], [ -86.32658500000214, 39.6862420000027 ], [ -86.326390000001737, 39.697787000002428 ], [ -86.326463000001382, 39.703245000002688 ], [ -86.326537000002475, 39.71275400000313 ], [ -86.326591000002168, 39.719486000002981 ], [ -86.326588000002531, 39.719838000002397 ], [ -86.317781000002299, 39.719998000002811 ], [ -86.273996000002114, 39.720752000002321 ], [ -86.250341000001981, 39.721142000003027 ], [ -86.250342000001652, 39.720796000002395 ], [ -86.23583500000143, 39.720267000002607 ], [ -86.234550000002145, 39.720218000002319 ], [ -86.196565000002337, 39.721572000002531 ], [ -86.189519000002463, 39.721814000002574 ], [ -86.188912000001707, 39.721886000003025 ], [ -86.177488000001546, 39.722193000002683 ], [ -86.158760000001408, 39.722437000002394 ], [ -86.153954000002344, 39.722524000002963 ], [ -86.150271000002434, 39.722596000002611 ], [ -86.141939000002068, 39.72269200000305 ], [ -86.139542000002464, 39.72274700000294 ], [ -86.132886000002259, 39.722990000002731 ], [ -86.129540000001711, 39.723028000002493 ], [ -86.126558000001538, 39.72308700000287 ], [ -86.120778000002446, 39.723151000002382 ], [ -86.111265000001993, 39.723281000002515 ], [ -86.097054000002473, 39.723465000002747 ], [ -86.093385000001675, 39.723495000002899 ], [ -86.082626000002278, 39.723619000002508 ], [ -86.073432000001588, 39.723972000002995 ], [ -86.047308000001735, 39.724661000003003 ], [ -86.044743000002171, 39.724591000003045 ], [ -85.989634000002226, 39.725827000002667 ], [ -85.951699000002066, 39.726419000002906 ], [ -85.951842000002301, 39.734107000002943 ], [ -85.95181700000191, 39.740929000002509 ], [ -85.952204000001871, 39.755600000002921 ], [ -85.952312000001712, 39.771969000003089 ], [ -85.952378000002042, 39.782674000003134 ], [ -85.952379000001656, 39.782704000002603 ], [ -85.9524570000019, 39.788196000003133 ], [ -85.952582000001385, 39.797380000003081 ], [ -85.952902000002211, 39.806749000002391 ], [ -85.953123000002378, 39.82677700000292 ], [ -85.953317000002215, 39.834129000002868 ], [ -85.95348900000198, 39.841465000002394 ], [ -85.953640000001627, 39.85326600000284 ], [ -85.953683000002158, 39.856117000002818 ], [ -85.954013000002334, 39.869646000002888 ], [ -85.938067000001737, 39.869812000003108 ], [ -85.938071000001585, 39.880565000002441 ], [ -85.938077000001442, 39.887183000002814 ], [ -85.938080000001875, 39.891427000002999 ], [ -85.938079000002119, 39.898630000003124 ], [ -85.938088000001741, 39.904527000002354 ], [ -85.938099000001571, 39.913028000002662 ], [ -85.938110000001487, 39.926493000002786 ], [ -85.937587000001443, 39.927137000003185 ], [ -85.936134000001346, 39.92750900000231 ], [ -85.933151000002056, 39.927536000002462 ], [ -85.918992000001452, 39.927724000002783 ], [ -85.909441000002488, 39.92821600000299 ], [ -85.904521000002191, 39.92846700000306 ], [ -85.897530000001765, 39.928606000003015 ], [ -85.895001000002225, 39.928628000002654 ], [ -85.892036000002008, 39.928655000002998 ], [ -85.884646000001652, 39.928711000002963 ], [ -85.875286000001978, 39.928808000002363 ], [ -85.867438000002423, 39.928895000002413 ], [ -85.867065000001915, 39.928898000003166 ], [ -85.865042000001878, 39.928917000002748 ], [ -85.862377000002255, 39.934252000002509 ], [ -85.862379000002036, 39.93438400000246 ], [ -85.862489000002, 39.943618000002715 ], [ -85.85423300000231, 39.943725000003013 ], [ -85.837609000002047, 39.944029000002772 ], [ -85.828177000001503, 39.944140000003081 ], [ -85.827493000001326, 39.944140000002527 ], [ -85.824597000001887, 39.944241000002584 ], [ -85.824033000002274, 39.944245000002624 ], [ -85.815167000002447, 39.944334000002883 ], [ -85.805711000001793, 39.944567000003147 ], [ -85.786653000002474, 39.944677000002507 ], [ -85.69235200000162, 39.945446000002761 ], [ -85.673123000001581, 39.945540000002403 ], [ -85.634525000001759, 39.945755000002499 ], [ -85.576192000001797, 39.945756000002426 ], [ -85.576365000002028, 39.990103000002343 ], [ -85.57615200000204, 40.041010000002352 ], [ -85.576408000001834, 40.047839000002867 ], [ -85.576274000001376, 40.066269000002514 ], [ -85.576197000001969, 40.07714300000287 ], [ -85.537567000002227, 40.077019000003077 ], [ -85.499551000001631, 40.077016000002565 ], [ -85.480279000001957, 40.076893000002705 ], [ -85.442547000001753, 40.076686000002411 ], [ -85.403715000001384, 40.07647700000242 ], [ -85.328095000001341, 40.076546000002537 ], [ -85.308820000002029, 40.076685000003174 ], [ -85.21438600000198, 40.076889000002986 ], [ -85.214902000002397, 40.10606700000271 ], [ -85.215845000001607, 40.149505000002989 ], [ -85.216391000001977, 40.178550000002993 ], [ -85.165946000001696, 40.178567000002765 ], [ -85.111018000002176, 40.178591000002825 ], [ -85.110909000001669, 40.171236000002651 ], [ -84.998348000001329, 40.171905000002646 ], [ -84.977027000001868, 40.160047000003111 ], [ -84.952408000001356, 40.172094000002609 ], [ -84.949168000001748, 40.172068000002419 ], [ -84.900611000001831, 40.175122000002922 ], [ -84.90168400000141, 40.121016000002605 ], [ -84.901769000001693, 40.106529000002759 ], [ -84.80846100000204, 40.10718900000311 ], [ -84.810825000002069, 40.005077000002437 ], [ -84.812644000001839, 39.902206000002515 ], [ -84.813840000002457, 39.830459000002783 ], [ -84.81417800000213, 39.814159000002419 ], [ -84.814288000001625, 39.784803000002618 ], [ -84.814373000001922, 39.726620000002818 ], [ -84.814618000002056, 39.653767000002389 ], [ -84.814985000001514, 39.595678000002835 ], [ -84.815082000001794, 39.573742000002603 ], [ -84.815055000001607, 39.565151000002906 ], [ -84.815353000001394, 39.521950000002718 ], [ -84.929044000001724, 39.524406000002784 ], [ -85.022818000001763, 39.524382000002468 ], [ -85.036087000002254, 39.526213000002741 ], [ -85.129627000002046, 39.526655000003046 ], [ -85.168639000002145, 39.526301000002874 ], [ -85.241769000002364, 39.525701000003039 ], [ -85.298110000002126, 39.525476000002392 ], [ -85.29860900000179, 39.525473000003053 ], [ -85.297575000001501, 39.453275000002883 ], [ -85.404589000002304, 39.453134000002791 ], [ -85.413690000001694, 39.4531240000031 ], [ -85.507120000001407, 39.45275600000295 ], [ -85.516554000002117, 39.452646000002332 ], [ -85.629327000002149, 39.452750000002979 ], [ -85.62978000000237, 39.438576000002918 ], [ -85.629991000001553, 39.432778000002841 ], [ -85.630258000001476, 39.423694000002733 ], [ -85.630281000001858, 39.379402000003054 ], [ -85.630630000002185, 39.350205000003086 ], [ -85.684515000001809, 39.350049000002471 ], [ -85.68665900000137, 39.26141600000274 ], [ -85.687161000001794, 39.189026000002848 ], [ -85.686783000002166, 39.130859000002438 ], [ -85.77435500000189, 39.129146000002848 ], [ -85.799834000002434, 39.128897000003192 ], [ -85.800148000002409, 39.158968000003092 ], [ -85.818435000002381, 39.158422000002851 ], [ -85.841742000001418, 39.158181000002983 ], [ -85.906195000002384, 39.157384000002352 ], [ -85.909491000002163, 39.157289000002905 ], [ -85.958022000001975, 39.156018000002867 ], [ -85.958555000001553, 39.156021000002845 ], [ -85.986419000001547, 39.155903000002873 ], [ -86.080294000002354, 39.15254300000295 ], [ -86.080682000002142, 39.16833600000313 ], [ -86.080979000002387, 39.182732000003142 ], [ -86.081824000002399, 39.226288000003031 ], [ -86.082623000001718, 39.255964000002393 ], [ -86.084094000002182, 39.299638000002417 ], [ -86.085601000002427, 39.344189000002601 ], [ -86.102763000002327, 39.343845000002943 ], [ -86.123194000001661, 39.343413000002961 ], [ -86.139569000001373, 39.343063000002829 ], [ -86.144310000002335, 39.343150000003099 ], [ -86.234342000001902, 39.341927000002322 ], [ -86.251684000001546, 39.341672000002994 ], [ -86.251420000001943, 39.374780000003192 ], [ -86.251520000001875, 39.37959000000297 ], [ -86.251304000002264, 39.430046000002349 ], [ -86.251310000002107, 39.430595000003073 ] ] ] } },
{ "type": "Feature", "properties": { "enacted_district": 7, "population": 752213.0, "voting_age_pop": 576751.0, "dem_votes": 185793.0, "rep_votes": 86872.0, "minority_pop": 286485.0, "dem_pct": 0.68139658530379899, "rep_pct": 0.31860341432945061 }, "geometry": { "type": "Polygon", "coordinates": [ [ [ -86.326590000002057, 39.728227000003045 ], [ -86.326500000001701, 39.729442000002997 ], [ -86.326542000001481, 39.734384000002692 ], [ -86.32659500000176, 39.740436000002397 ], [ -86.32666200000169, 39.749023000003113 ], [ -86.326703000001771, 39.756317000002909 ], [ -86.326743000001528, 39.759804000003179 ], [ -86.3267860000025, 39.763774000002897 ], [ -86.326804000001914, 39.765148000002291 ], [ -86.326637000001824, 39.778645000003031 ], [ -86.326562000001843, 39.788825000002802 ], [ -86.326640000002143, 39.793307000002365 ], [ -86.326806000001625, 39.800446000003049 ], [ -86.326805000002523, 39.800646000003177 ], [ -86.327005000001407, 39.808008000002687 ], [ -86.327297000001934, 39.822722000002749 ], [ -86.327460000002276, 39.830544000002661 ], [ -86.327465000002221, 39.830795000003064 ], [ -86.327865000001367, 39.851956000002943 ], [ -86.328012000002389, 39.859269000002563 ], [ -86.326051000001357, 39.882051000002619 ], [ -86.325889000001524, 39.882329000002649 ], [ -86.326212000001789, 39.915319000002377 ], [ -86.326293000002281, 39.924029000002704 ], [ -86.321394000002286, 39.924158000002691 ], [ -86.307246000002465, 39.924394000002401 ], [ -86.27847100000146, 39.924729000002714 ], [ -86.268246000002179, 39.924916000002447 ], [ -86.240736000002101, 39.926062000002659 ], [ -86.229605000001541, 39.926166000003072 ], [ -86.222286000002441, 39.926284000002852 ], [ -86.203087000001545, 39.926625000002318 ], [ -86.185773000001447, 39.926796000002611 ], [ -86.184029000001814, 39.9268090000024 ], [ -86.175543000002023, 39.926866000002903 ], [ -86.165066000002483, 39.926906000002802 ], [ -86.1506910000017, 39.927105000002797 ], [ -86.145883000002442, 39.927168000002943 ], [ -86.145264000002356, 39.927157000002651 ], [ -86.13636700000184, 39.92706900000266 ], [ -86.11241400000165, 39.926901000002829 ], [ -86.11216800000237, 39.926902000002933 ], [ -86.103486000002107, 39.926894000002392 ], [ -86.088705000002292, 39.926884000002552 ], [ -86.076183000001819, 39.926950000002485 ], [ -86.06959400000207, 39.926985000002546 ], [ -86.066121000001658, 39.927005000002417 ], [ -86.057865000001968, 39.927021000002654 ], [ -86.05548200000149, 39.927029000002911 ], [ -86.050659000002085, 39.92704600000318 ], [ -86.046256000002003, 39.927053000002921 ], [ -86.032979000002129, 39.927064000003149 ], [ -86.029766000002425, 39.927107000002742 ], [ -86.019260000002362, 39.927281000002509 ], [ -86.013708000002126, 39.927390000002354 ], [ -86.012555000001925, 39.927318000002387 ], [ -86.006390000001915, 39.927092000003157 ], [ -86.001659000001538, 39.927057000002428 ], [ -85.995037000002256, 39.927000000002614 ], [ -85.991485000001916, 39.927034000002585 ], [ -85.980854000002182, 39.92710800000269 ], [ -85.937587000001443, 39.927137000003185 ], [ -85.938110000001487, 39.926493000002786 ], [ -85.938099000001571, 39.913028000002662 ], [ -85.938088000001741, 39.904527000002354 ], [ -85.938079000002119, 39.898630000003124 ], [ -85.938080000001875, 39.891427000002999 ], [ -85.938077000001442, 39.887183000002814 ], [ -85.938071000001585, 39.880565000002441 ], [ -85.938067000001737, 39.869812000003108 ], [ -85.954013000002334, 39.869646000002888 ], [ -85.953683000002158, 39.856117000002818 ], [ -85.953640000001627, 39.85326600000284 ], [ -85.95348900000198, 39.841465000002394 ], [ -85.953317000002215, 39.834129000002868 ], [ -85.953123000002378, 39.82677700000292 ], [ -85.952902000002211, 39.806749000002391 ], [ -85.952582000001385, 39.797380000003081 ], [ -85.9524570000019, 39.788196000003133 ], [ -85.952379000001656, 39.782704000002603 ], [ -85.952378000002042, 39.782674000003134 ], [ -85.952312000001712, 39.771969000003089 ], [ -85.952204000001871, 39.755600000002921 ], [ -85.95181700000191, 39.740929000002509 ], [ -85.951842000002301, 39.734107000002943 ], [ -85.951699000002066, 39.726419000002906 ], [ -85.989634000002226, 39.725827000002667 ], [ -86.044743000002171, 39.724591000003045 ], [ -86.047308000001735, 39.724661000003003 ], [ -86.073432000001588, 39.723972000002995 ], [ -86.082626000002278, 39.723619000002508 ], [ -86.093385000001675, 39.723495000002899 ], [ -86.097054000002473, 39.723465000002747 ], [ -86.111265000001993, 39.723281000002515 ], [ -86.120778000002446, 39.723151000002382 ], [ -86.126558000001538, 39.72308700000287 ], [ -86.129540000001711, 39.723028000002493 ], [ -86.132886000002259, 39.722990000002731 ], [ -86.139542000002464, 39.72274700000294 ], [ -86.141939000002068, 39.72269200000305 ], [ -86.150271000002434, 39.722596000002611 ], [ -86.153954000002344, 39.722524000002963 ], [ -86.158760000001408, 39.722437000002394 ], [ -86.177488000001546, 39.722193000002683 ], [ -86.188912000001707, 39.721886000003025 ], [ -86.189519000002463, 39.721814000002574 ], [ -86.196565000002337, 39.721572000002531 ], [ -86.234550000002145, 39.720218000002319 ], [ -86.23583500000143, 39.720267000002607 ], [ -86.250342000001652, 39.720796000002395 ], [ -86.250341000001981, 39.721142000003027 ], [ -86.273996000002114, 39.720752000002321 ], [ -86.317781000002299, 39.719998000002811 ], [ -86.326588000002531, 39.719838000002397 ], [ -86.326590000002057, 39.728227000003045 ] ] ] } },
{ "type": "Feature", "properties": { "enacted_district": 8, "population": 754079.0, "voting_age_pop": 585342.0, "dem_votes": 110017.0, "rep_votes": 188963.0, "minority_pop": 63216.0, "dem_pct": 0.36797444632819104, "rep_pct": 0.63202555333733845 }, "geometry": { "type": "Polygon", "coordinates": [ [ [ -88.035456000002483, 37.809520000002401 ], [ -88.062223000002589, 37.80058100000246 ], [ -88.090039000002221, 37.816771000002994 ], [ -88.080854000001622, 37.830902000002943 ], [ -88.0438310000021, 37.821525000002502 ], [ -88.028217000001817, 37.838585000003114 ], [ -88.059425000002449, 37.848732000003025 ], [ -88.078529000002519, 37.879118000002279 ], [ -88.094956000001645, 37.893689000003064 ], [ -88.086237000001589, 37.90571300000321 ], [ -88.055373000002021, 37.89123800000236 ], [ -88.014225000001929, 37.892206000002318 ], [ -88.036186000001777, 37.943860000002786 ], [ -88.012574000001834, 37.977062000002412 ], [ -88.025259000002123, 38.010632000002651 ], [ -88.004731000001485, 38.051045000002581 ], [ -87.967226000001972, 38.067105000002435 ], [ -87.957879000001725, 38.083791000003131 ], [ -87.960677000002008, 38.100191000003029 ], [ -88.004697000002409, 38.08396500000255 ], [ -88.013118000002279, 38.103527000002458 ], [ -87.974781000001926, 38.1105150000026 ], [ -87.969464000001594, 38.130744000002721 ], [ -87.942506000002126, 38.131280000003109 ], [ -87.916716000001756, 38.156640000003001 ], [ -87.92071200000197, 38.174032000002413 ], [ -87.940491000002481, 38.174902000002682 ], [ -87.969865000001803, 38.191786000003034 ], [ -87.982763000001796, 38.206705000002934 ], [ -87.983732000001453, 38.230354000003011 ], [ -87.960225000001913, 38.237118000003143 ], [ -87.952163000002344, 38.270512000002853 ], [ -87.937329000002265, 38.29243100000258 ], [ -87.888223000002554, 38.284917000002551 ], [ -87.878303000001907, 38.307849000002314 ], [ -87.85113000000166, 38.275120000002602 ], [ -87.83095300000214, 38.299365000002346 ], [ -87.832723000002389, 38.324853000002406 ], [ -87.808897000001991, 38.360431000003011 ], [ -87.784994000002143, 38.368011000002298 ], [ -87.759402000002183, 38.392662000002872 ], [ -87.743691000002471, 38.414387000002726 ], [ -87.730820000001515, 38.449228000002535 ], [ -87.756179000002021, 38.462538000003079 ], [ -87.74464400000241, 38.47726600000275 ], [ -87.714047000002083, 38.479880000002922 ], [ -87.685921000001997, 38.491843000002426 ], [ -87.650011000002479, 38.517728000002592 ], [ -87.670071000002238, 38.545237000002565 ], [ -87.65273800000152, 38.565039000002614 ], [ -87.621401000001484, 38.586118000002514 ], [ -87.627345000001924, 38.607237000002854 ], [ -87.597247000001445, 38.665314000002567 ], [ -87.564417000002294, 38.674944000002412 ], [ -87.53516400000251, 38.681437000002788 ], [ -87.519610000001919, 38.697198000002373 ], [ -87.5062210000021, 38.733533000002659 ], [ -87.497476000001512, 38.767647000002327 ], [ -87.495905000001883, 38.78543400000251 ], [ -87.526816000001702, 38.817369000002465 ], [ -87.525893000001886, 38.848795000003157 ], [ -87.552028000002252, 38.8603180000027 ], [ -87.536816000002105, 38.877408000002859 ], [ -87.544292000001846, 38.888953000002729 ], [ -87.522939000002509, 38.902390000002534 ], [ -87.519469000002346, 38.942981000002689 ], [ -87.513346000001903, 38.956000000002717 ], [ -87.542437000002479, 38.975587000002648 ], [ -87.573466000002483, 38.985441000002353 ], [ -87.569696000001514, 39.019413000002842 ], [ -87.580207000002233, 39.041940000002576 ], [ -87.572588000002185, 39.057286000002591 ], [ -87.596373000001535, 39.079639000002885 ], [ -87.618733000001754, 39.085010000002328 ], [ -87.618385000002476, 39.104284000002821 ], [ -87.658745000002043, 39.135997000003037 ], [ -87.637934000002517, 39.168428000002336 ], [ -87.619410000002148, 39.172089000003034 ], [ -87.619603000001831, 39.186032000003074 ], [ -87.585725000001645, 39.200396000002769 ], [ -87.574615000001671, 39.223931000002992 ], [ -87.580652000002104, 39.255237000002708 ], [ -87.604141000002087, 39.259458000002851 ], [ -87.605920000002442, 39.311076000002608 ], [ -87.590451000002389, 39.33206600000279 ], [ -87.531646000002155, 39.347888000002499 ], [ -87.531355000002009, 39.437212000003143 ], [ -87.531751000001876, 39.486444000002955 ], [ -87.531927000001929, 39.520360000003066 ], [ -87.532194000001738, 39.607306000002801 ], [ -87.532360000001745, 39.64355200000287 ], [ -87.532809000002374, 39.69446500000312 ], [ -87.532969000001444, 39.745302000002717 ], [ -87.533131000001433, 39.82333100000254 ], [ -87.533020000001429, 39.910357000002456 ], [ -87.532288000002566, 39.999984000002812 ], [ -87.531449000002084, 40.148127000002752 ], [ -87.490455000001617, 40.14842200000291 ], [ -87.49041000000183, 40.127406000002473 ], [ -87.406667000002159, 40.127508000002642 ], [ -87.408526000002524, 40.142956000002286 ], [ -87.43875500000226, 40.165694000003029 ], [ -87.427998000002432, 40.178287000003003 ], [ -87.419900000002215, 40.192258000002361 ], [ -87.396949000001783, 40.20004900000297 ], [ -87.386792000002117, 40.204326000002894 ], [ -87.357583000001455, 40.21087700000249 ], [ -87.339273000002422, 40.223173000002532 ], [ -87.338891000001524, 40.18641500000291 ], [ -87.300530000001871, 40.186056000002509 ], [ -87.205092000001983, 40.185718000003142 ], [ -87.204856000001598, 40.128007000002903 ], [ -87.223904000001482, 40.112094000002486 ], [ -87.224136000002105, 40.068213000002707 ], [ -87.205364000002433, 40.06826100000233 ], [ -87.205536000002411, 40.039356000002833 ], [ -87.092142000001459, 40.039019000002988 ], [ -87.091488000001604, 40.039011000002397 ], [ -87.091006000001499, 39.953009000003171 ], [ -87.091051000002054, 39.94565500000239 ], [ -87.09154200000242, 39.867265000002561 ], [ -87.009477000002335, 39.866705000003009 ], [ -87.010753000002467, 39.779561000002296 ], [ -87.010762000002288, 39.779496000003043 ], [ -87.011945000002243, 39.691855000002953 ], [ -87.013062000001639, 39.604787000003128 ], [ -87.013399000001826, 39.579029000002997 ], [ -87.013805000001497, 39.548431000003163 ], [ -87.014257000002488, 39.517092000002393 ], [ -87.014533000002473, 39.473572000002918 ], [ -86.939981000001524, 39.473345000002908 ], [ -86.903992000002106, 39.472639000002879 ], [ -86.850949000002501, 39.472322000002897 ], [ -86.780813000002297, 39.471463000002998 ], [ -86.706134000001555, 39.470516000002519 ], [ -86.685710000002047, 39.470063000002348 ], [ -86.632206000001602, 39.470214000002571 ], [ -86.631910000001369, 39.441086000002649 ], [ -86.630955000001521, 39.40625600000304 ], [ -86.630818000001796, 39.346948000002747 ], [ -86.658685000001498, 39.348757000002458 ], [ -86.658911000001936, 39.347252000002541 ], [ -86.685610000002342, 39.336043000002611 ], [ -86.684770000001521, 39.28148900000285 ], [ -86.684315000001817, 39.25258800000249 ], [ -86.683002000002517, 39.16574600000294 ], [ -86.682548000001859, 39.108931000002805 ], [ -86.682401000001988, 39.079846000002497 ], [ -86.682277000001633, 38.992404000002345 ], [ -86.682853000001558, 38.904697000003203 ], [ -86.683187000001567, 38.861019000003125 ], [ -86.683213000002056, 38.846912000002781 ], [ -86.683400000002067, 38.772852000002402 ], [ -86.683577000001605, 38.767394000003172 ], [ -86.683403000002244, 38.756176000002874 ], [ -86.683255000002418, 38.730049000002737 ], [ -86.683295000002431, 38.718719000002586 ], [ -86.68310200000235, 38.686561000002591 ], [ -86.590647000001653, 38.687088000002468 ], [ -86.553399000002457, 38.68744100000275 ], [ -86.516571000001406, 38.687817000002461 ], [ -86.455556000001579, 38.687522000003199 ], [ -86.401806000002168, 38.687684000002598 ], [ -86.383319000002516, 38.68784300000258 ], [ -86.308701000002515, 38.688101000002803 ], [ -86.307749000001579, 38.644462000002704 ], [ -86.307993000001403, 38.586243000002646 ], [ -86.308206000002315, 38.564394000002451 ], [ -86.308614000001384, 38.484824000002426 ], [ -86.308359000001559, 38.470382000002765 ], [ -86.308674000001389, 38.422875000002684 ], [ -86.255045000002369, 38.422685000002545 ], [ -86.245581000002403, 38.387424000003101 ], [ -86.25956000000248, 38.377217000002389 ], [ -86.273391000001681, 38.340479000002503 ], [ -86.27490800000237, 38.335807000002859 ], [ -86.276218000002487, 38.308540000002843 ], [ -86.258828000001728, 38.30543000000263 ], [ -86.256689000001941, 38.28435500000252 ], [ -86.274895000001933, 38.278443000002703 ], [ -86.276738000002339, 38.234084000003037 ], [ -86.294998000002039, 38.20369800000266 ], [ -86.329600000002443, 38.18180500000274 ], [ -86.348553000001772, 38.19568500000274 ], [ -86.375707000002421, 38.191125000002643 ], [ -86.376728000001592, 38.169743000003052 ], [ -86.36534200000176, 38.161367000002826 ], [ -86.325874000002116, 38.154029000002502 ], [ -86.327578000002475, 38.133428000002922 ], [ -86.37508300000151, 38.130638000002527 ], [ -86.396463000002413, 38.106891000002399 ], [ -86.416993000001455, 38.116741000003216 ], [ -86.432738000002303, 38.126429000002808 ], [ -86.461023000001447, 38.121097000002791 ], [ -86.465503000002059, 38.104306000003177 ], [ -86.431551000002443, 38.083736000003043 ], [ -86.433923000001556, 38.065705000002907 ], [ -86.46699800000205, 38.046638000003085 ], [ -86.497027000002319, 38.045883000002483 ], [ -86.525074000001965, 38.028941000002817 ], [ -86.524937000002467, 37.966495000002645 ], [ -86.509318000001841, 37.94229700000281 ], [ -86.510246000002269, 37.926660000002755 ], [ -86.533331000001553, 37.91725000000325 ], [ -86.586481000001811, 37.92226700000279 ], [ -86.6001730000023, 37.904400000002866 ], [ -86.597857000002008, 37.867728000002892 ], [ -86.638279000002257, 37.842690000002371 ], [ -86.662481000001762, 37.857084000002928 ], [ -86.644719000002013, 37.894991000003216 ], [ -86.650426000001673, 37.910861000002775 ], [ -86.67239700000151, 37.914774000002751 ], [ -86.703617000001515, 37.901414000002362 ], [ -86.717436000001811, 37.893504000003219 ], [ -86.733403000001616, 37.895373000003062 ], [ -86.755002000002023, 37.919149000002506 ], [ -86.765517000001608, 37.93348000000276 ], [ -86.773567000002501, 37.94737100000264 ], [ -86.774359000001425, 37.948364000002371 ], [ -86.795045000001778, 37.989279000002448 ], [ -86.805038000002369, 37.993671000003019 ], [ -86.814652000002454, 37.998708000002715 ], [ -86.860914000002069, 37.984368000002775 ], [ -86.907270000001503, 37.942999000003233 ], [ -86.920658000002476, 37.936214000002423 ], [ -86.967986000002185, 37.933009000003182 ], [ -87.018057000002216, 37.915376000002638 ], [ -87.0462120000021, 37.888613000003083 ], [ -87.043056000002338, 37.87554200000298 ], [ -87.056664000001419, 37.827531000002679 ], [ -87.069675000001496, 37.801513000003069 ], [ -87.091518000001727, 37.786760000002687 ], [ -87.129363000001533, 37.785991000002859 ], [ -87.148080000002025, 37.825051000002397 ], [ -87.161096000001621, 37.839359000003135 ], [ -87.220466000002403, 37.84906500000298 ], [ -87.268995000002093, 37.878026000003139 ], [ -87.3210130000015, 37.905969000002692 ], [ -87.337910000002111, 37.908131000002911 ], [ -87.373400000002434, 37.931963000002632 ], [ -87.391150000002483, 37.938867000002453 ], [ -87.404244000002521, 37.942916000002413 ], [ -87.410908000001768, 37.944259000002326 ], [ -87.423212000001499, 37.944356000002557 ], [ -87.451219000002268, 37.940808000002903 ], [ -87.509720000002247, 37.906028000002422 ], [ -87.548498000002425, 37.923880000003088 ], [ -87.573210000001964, 37.950227000002435 ], [ -87.575253000002434, 37.966414000002828 ], [ -87.588129000001601, 37.975299000002586 ], [ -87.600767000001667, 37.971968000002605 ], [ -87.603368000001822, 37.966931000002432 ], [ -87.610616000002139, 37.944538000002495 ], [ -87.623521000001617, 37.930747000002512 ], [ -87.618153000002451, 37.905522000002598 ], [ -87.587141000001935, 37.884858000002403 ], [ -87.583925000001472, 37.872485000002463 ], [ -87.615345000001682, 37.831882000002686 ], [ -87.670344000001535, 37.827962000002813 ], [ -87.681684000001567, 37.856273000002325 ], [ -87.666714000002258, 37.880038000002749 ], [ -87.666840000001585, 37.895763000002674 ], [ -87.684653000002271, 37.903521000002819 ], [ -87.70078600000214, 37.897420000002526 ], [ -87.759239000002012, 37.891662000002661 ], [ -87.78344700000207, 37.87778500000266 ], [ -87.815729000002463, 37.875592000002648 ], [ -87.838425000001749, 37.879907000003051 ], [ -87.875130000002144, 37.922865000002673 ], [ -87.888443000001928, 37.927194000002437 ], [ -87.894383000002335, 37.928059000002882 ], [ -87.906634000002271, 37.923238000002662 ], [ -87.937204000001827, 37.892181000002942 ], [ -87.937986000002283, 37.870287000002492 ], [ -87.909967000002283, 37.843028000003073 ], [ -87.906939000002026, 37.80759300000269 ], [ -87.93412900000223, 37.796414000002798 ], [ -87.94554300000182, 37.773931000003067 ], [ -88.001340000002372, 37.79890700000238 ], [ -88.02802000000159, 37.799197000003154 ], [ -88.035456000002483, 37.809520000002401 ] ] ] } },
{ "type": "Feature", "properties": { "enacted_district": 9, "population": 754601.0, "voting_age_pop": 591958.0, "dem_votes": 114889.0, "rep_votes": 192608.0, "minority_pop": 68076.0, "dem_pct": 0.37362640924183765, "rep_pct": 0.62637359043295593 }, "geometry": { "type": "Polygon", "coordinates": [ [ [ -86.683295000002431, 38.718719000002586 ], [ -86.683255000002418, 38.730049000002737 ], [ -86.683403000002244, 38.756176000002874 ], [ -86.683577000001605, 38.767394000003172 ], [ -86.683400000002067, 38.772852000002402 ], [ -86.683213000002056, 38.846912000002781 ], [ -86.683187000001567, 38.861019000003125 ], [ -86.682853000001558, 38.904697000003203 ], [ -86.682277000001633, 38.992404000002345 ], [ -86.682401000001988, 39.079846000002497 ], [ -86.682548000001859, 39.108931000002805 ], [ -86.683002000002517, 39.16574600000294 ], [ -86.684315000001817, 39.25258800000249 ], [ -86.684770000001521, 39.28148900000285 ], [ -86.685610000002342, 39.336043000002611 ], [ -86.658911000001936, 39.347252000002541 ], [ -86.658685000001498, 39.348757000002458 ], [ -86.630818000001796, 39.346948000002747 ], [ -86.574280000002219, 39.339681000003075 ], [ -86.492904000002241, 39.338643000002648 ], [ -86.465115000002484, 39.338300000002334 ], [ -86.381395000001504, 39.339752000003152 ], [ -86.362345000002065, 39.340061000002486 ], [ -86.324482000001964, 39.340955000002651 ], [ -86.276027000001818, 39.341486000002959 ], [ -86.251684000001546, 39.341672000002994 ], [ -86.234342000001902, 39.341927000002322 ], [ -86.144310000002335, 39.343150000003099 ], [ -86.139569000001373, 39.343063000002829 ], [ -86.123194000001661, 39.343413000002961 ], [ -86.102763000002327, 39.343845000002943 ], [ -86.085601000002427, 39.344189000002601 ], [ -86.084094000002182, 39.299638000002417 ], [ -86.082623000001718, 39.255964000002393 ], [ -86.081824000002399, 39.226288000003031 ], [ -86.080979000002387, 39.182732000003142 ], [ -86.080682000002142, 39.16833600000313 ], [ -86.080294000002354, 39.15254300000295 ], [ -85.986419000001547, 39.155903000002873 ], [ -85.958555000001553, 39.156021000002845 ], [ -85.958022000001975, 39.156018000002867 ], [ -85.909491000002163, 39.157289000002905 ], [ -85.906195000002384, 39.157384000002352 ], [ -85.841742000001418, 39.158181000002983 ], [ -85.818435000002381, 39.158422000002851 ], [ -85.800148000002409, 39.158968000003092 ], [ -85.799834000002434, 39.128897000003192 ], [ -85.77435500000189, 39.129146000002848 ], [ -85.686783000002166, 39.130859000002438 ], [ -85.687161000001794, 39.189026000002848 ], [ -85.68665900000137, 39.26141600000274 ], [ -85.684515000001809, 39.350049000002471 ], [ -85.630630000002185, 39.350205000003086 ], [ -85.630281000001858, 39.379402000003054 ], [ -85.630258000001476, 39.423694000002733 ], [ -85.629991000001553, 39.432778000002841 ], [ -85.62978000000237, 39.438576000002918 ], [ -85.629327000002149, 39.452750000002979 ], [ -85.516554000002117, 39.452646000002332 ], [ -85.507120000001407, 39.45275600000295 ], [ -85.413690000001694, 39.4531240000031 ], [ -85.404589000002304, 39.453134000002791 ], [ -85.297575000001501, 39.453275000002883 ], [ -85.29860900000179, 39.525473000003053 ], [ -85.298110000002126, 39.525476000002392 ], [ -85.241769000002364, 39.525701000003039 ], [ -85.168639000002145, 39.526301000002874 ], [ -85.129627000002046, 39.526655000003046 ], [ -85.036087000002254, 39.526213000002741 ], [ -85.022818000001763, 39.524382000002468 ], [ -84.929044000001724, 39.524406000002784 ], [ -84.815353000001394, 39.521950000002718 ], [ -84.815749000002384, 39.479450000002515 ], [ -84.817647000001571, 39.391816000002464 ], [ -84.819450000002377, 39.305153000002647 ], [ -84.819707000001586, 39.267385000002371 ], [ -84.820068000001655, 39.251137000002821 ], [ -84.820085000001924, 39.247587000002881 ], [ -84.820147000002308, 39.218710000003114 ], [ -84.819865000002238, 39.16146500000287 ], [ -84.819948000001645, 39.157954000003173 ], [ -84.820155000002416, 39.105419000002762 ], [ -84.837298000002107, 39.097165000002647 ], [ -84.867290000002413, 39.074539000003057 ], [ -84.897095000002054, 39.05679800000312 ], [ -84.88692500000171, 39.039096000002452 ], [ -84.87765000000195, 39.031189000002534 ], [ -84.838579000002326, 38.989902000002445 ], [ -84.833289000002239, 38.96001600000325 ], [ -84.850227000001937, 38.947204000002543 ], [ -84.855729000002171, 38.941173000003268 ], [ -84.877934000001773, 38.920149000002866 ], [ -84.870623000002126, 38.900906000002415 ], [ -84.814553000001339, 38.895468000002602 ], [ -84.797868000001429, 38.889640000002629 ], [ -84.78453500000208, 38.875082000003019 ], [ -84.790436000001989, 38.861246000002538 ], [ -84.830045000002386, 38.830140000003141 ], [ -84.811599000001621, 38.791960000002497 ], [ -84.827547000001786, 38.78315600000326 ], [ -84.876831000002142, 38.792484000002723 ], [ -84.887742000001339, 38.794793000002755 ], [ -84.934020000002363, 38.777281000002965 ], [ -84.993080000002379, 38.777919000002868 ], [ -85.063534000001695, 38.743831000002849 ], [ -85.10138400000217, 38.726502000003144 ], [ -85.131990000002133, 38.702916000003185 ], [ -85.17339000000139, 38.687996000002705 ], [ -85.201450000001572, 38.691038000002514 ], [ -85.226418000001402, 38.705993000002536 ], [ -85.246455000001788, 38.731746000002985 ], [ -85.295903000001687, 38.742063000003135 ], [ -85.363329000001656, 38.730478000002471 ], [ -85.374289000001681, 38.730942000002543 ], [ -85.384380000002324, 38.732688000002938 ], [ -85.408365000001794, 38.73714400000275 ], [ -85.443183000001611, 38.718924000002637 ], [ -85.455927000002262, 38.696287000003096 ], [ -85.454661000001607, 38.680716000002491 ], [ -85.438629000002024, 38.658890000003069 ], [ -85.438354000002136, 38.606063000002493 ], [ -85.427900000001358, 38.586241000003241 ], [ -85.417555000002025, 38.569487000002738 ], [ -85.415555000001575, 38.544969000002446 ], [ -85.434234000001481, 38.523264000002378 ], [ -85.467079000002457, 38.510096000002711 ], [ -85.498094000001373, 38.468802000002682 ], [ -85.541966000002233, 38.454836000003233 ], [ -85.585518000001358, 38.450246000003141 ], [ -85.618751000002263, 38.425733000003078 ], [ -85.633658000001702, 38.393168000002426 ], [ -85.647068000001582, 38.340688000003162 ], [ -85.653317000001806, 38.32710800000244 ], [ -85.659334000001877, 38.319722000002479 ], [ -85.666865000001351, 38.31177700000309 ], [ -85.675725000001592, 38.300711000002664 ], [ -85.716106000002398, 38.280024000003209 ], [ -85.732571000002153, 38.271955000002364 ], [ -85.738318000002323, 38.269019000002515 ], [ -85.751475000002273, 38.267998000002521 ], [ -85.777521000002167, 38.286339000003181 ], [ -85.792301000001885, 38.287455000003234 ], [ -85.802376000001829, 38.28470000000241 ], [ -85.811468000002009, 38.283401000002762 ], [ -85.823698000002494, 38.280181000003132 ], [ -85.837632000001847, 38.258999000003101 ], [ -85.845340000002224, 38.229936000002645 ], [ -85.87498800000175, 38.207697000002909 ], [ -85.899613000001708, 38.180416000002637 ], [ -85.909096000001981, 38.142341000003064 ], [ -85.905285000002436, 38.088936000002775 ], [ -85.907554000001568, 38.083291000002767 ], [ -85.920652000002207, 38.032306000003054 ], [ -85.942699000002264, 38.006816000002814 ], [ -85.977415000001642, 38.003382000002468 ], [ -86.030852000002255, 37.991769000002407 ], [ -86.038906000001873, 37.958990000002672 ], [ -86.05799700000199, 37.967671000002952 ], [ -86.086345000001543, 38.004901000002477 ], [ -86.133328000001882, 38.016074000002845 ], [ -86.163186000001375, 38.010064000002473 ], [ -86.196501000001845, 38.01852600000273 ], [ -86.267805000002014, 38.057148000002726 ], [ -86.272831000001986, 38.064990000002489 ], [ -86.279116000002304, 38.100938000002934 ], [ -86.271513000001505, 38.124642000002723 ], [ -86.277053000001743, 38.146033000002838 ], [ -86.295085000002231, 38.163754000002626 ], [ -86.329600000002443, 38.18180500000274 ], [ -86.294998000002039, 38.20369800000266 ], [ -86.276738000002339, 38.234084000003037 ], [ -86.274895000001933, 38.278443000002703 ], [ -86.256689000001941, 38.28435500000252 ], [ -86.258828000001728, 38.30543000000263 ], [ -86.276218000002487, 38.308540000002843 ], [ -86.27490800000237, 38.335807000002859 ], [ -86.273391000001681, 38.340479000002503 ], [ -86.25956000000248, 38.377217000002389 ], [ -86.245581000002403, 38.387424000003101 ], [ -86.255045000002369, 38.422685000002545 ], [ -86.308674000001389, 38.422875000002684 ], [ -86.308359000001559, 38.470382000002765 ], [ -86.308614000001384, 38.484824000002426 ], [ -86.308206000002315, 38.564394000002451 ], [ -86.307993000001403, 38.586243000002646 ], [ -86.307749000001579, 38.644462000002704 ], [ -86.308701000002515, 38.688101000002803 ], [ -86.383319000002516, 38.68784300000258 ], [ -86.401806000002168, 38.687684000002598 ], [ -86.455556000001579, 38.687522000003199 ], [ -86.516571000001406, 38.687817000002461 ], [ -86.553399000002457, 38.68744100000275 ], [ -86.590647000001653, 38.687088000002468 ], [ -86.68310200000235, 38.686561000002591 ], [ -86.683295000002431, 38.718719000002586 ] ] ] } }
]
}
