{
"type": "FeatureCollection",
"name": "indiana_optimized_districts_all",
"crs": { "type": "name", "properties": { "name": "urn:ogc:def:crs:OGC:1.3:CRS84" } },
"features": [
{ "type": "Feature", "properties": { "opt_all": 1, "population": 751323.0, "voting_age_pop": 578491.0, "dem_votes": 163106.0, "rep_votes": 125822.0, "minority_pop": 192821.0, "dem_pct": 0.56452126461799434, "rep_pct": 0.43547873503589862 }, "geometry": { "type": "Polygon", "coordinates": [ [ [ -87.413038000002359, 41.507636000002577 ], [ -87.418809000002014, 41.507676000002803 ], [ -87.432514000002399, 41.507701000002427 ], [ -87.442408000001478, 41.507741000002426 ], [ -87.433820000002413, 41.492520000002237 ], [ -87.446675000002017, 41.489557000002421 ], [ -87.46625000000202, 41.490737000002412 ], [ -87.466361000001754, 41.505310000002709 ], [ -87.466463000001852, 41.522996000002912 ], [ -87.471342000002181, 41.5230130000025 ], [ -87.480740000001617, 41.523087000002782 ], [ -87.480775000002438, 41.534041000002503 ], [ -87.48079300000181, 41.537624000002417 ], [ -87.471134000001925, 41.537546000002827 ], [ -87.471306000002414, 41.548447000002596 ], [ -87.480894000001953, 41.545366000002772 ], [ -87.480876000001501, 41.551874000002393 ], [ -87.471301000002441, 41.549977000002222 ], [ -87.461646000001593, 41.548967000002463 ], [ -87.46164900000251, 41.553994000002596 ], [ -87.447088000002452, 41.547634000002809 ], [ -87.453139000001585, 41.553848000002624 ], [ -87.449532000001398, 41.553435000002658 ], [ -87.451933000002356, 41.559208000002371 ], [ -87.45676600000192, 41.566081000002761 ], [ -87.456749000002148, 41.570389000002486 ], [ -87.461635000002119, 41.569681000002205 ], [ -87.461702000001438, 41.581038000002827 ], [ -87.461639000001696, 41.588339000002243 ], [ -87.461635000002445, 41.591950000002363 ], [ -87.461618000001948, 41.595612000003072 ], [ -87.461439000002571, 41.609944000002969 ], [ -87.461505000001779, 41.613955000002605 ], [ -87.469704000002039, 41.617655000002685 ], [ -87.471068000001381, 41.621221000002457 ], [ -87.479400000002371, 41.627366000002247 ], [ -87.480823000001593, 41.627344000003021 ], [ -87.490441000001425, 41.623176000002502 ], [ -87.490465000002018, 41.626814000002412 ], [ -87.49046600000149, 41.627227000002854 ], [ -87.490451000001642, 41.632244000002913 ], [ -87.490424000001966, 41.639498000002583 ], [ -87.508710000002452, 41.639248000002397 ], [ -87.517200000002262, 41.639334000002229 ], [ -87.50864400000205, 41.657158000002418 ], [ -87.508646000001832, 41.660923000002157 ], [ -87.524743000001493, 41.660435000002536 ], [ -87.524461000002532, 41.702680000002765 ], [ -87.524236000002475, 41.716979000002866 ], [ -87.523661000002051, 41.759907000002791 ], [ -87.221000000001737, 41.760889000002216 ], [ -86.933334000002205, 41.761035000002217 ], [ -86.824957000002399, 41.760296000002754 ], [ -86.824276000001788, 41.760298000002997 ], [ -86.816070000001403, 41.760294000002204 ], [ -86.810080000002174, 41.760283000002808 ], [ -86.751000000001696, 41.759947000002782 ], [ -86.69968100000176, 41.759791000002551 ], [ -86.641181000001552, 41.759730000003039 ], [ -86.583251000001468, 41.759526000002921 ], [ -86.524217000002224, 41.759659000002934 ], [ -86.414578000001768, 41.759717000002446 ], [ -86.350786000001662, 41.760013000002466 ], [ -86.331920000002441, 41.760199000002942 ], [ -86.323291000002072, 41.760254000002355 ], [ -86.272495000001697, 41.760402000002983 ], [ -86.255156000001648, 41.760473000002811 ], [ -86.250937000001329, 41.760539000003021 ], [ -86.231815000001532, 41.760392000002511 ], [ -86.217541000002356, 41.760430000002607 ], [ -86.18908000000178, 41.760480000003056 ], [ -86.178675000001476, 41.760466000002602 ], [ -86.15722400000142, 41.76052200000278 ], [ -86.13778700000222, 41.760549000002264 ], [ -86.125493000001455, 41.760581000003093 ], [ -86.088465000001634, 41.760638000002736 ], [ -86.06257500000234, 41.760513000002256 ], [ -86.06247300000247, 41.753474000002917 ], [ -86.062337000001904, 41.742584000002708 ], [ -86.0622760000021, 41.736157000002251 ], [ -86.062004000001565, 41.709930000003119 ], [ -86.061965000002417, 41.705463000002219 ], [ -86.061942000002048, 41.702771000002784 ], [ -86.061735000001832, 41.695424000002639 ], [ -86.061475000002162, 41.686629000002306 ], [ -86.061359000002511, 41.68049700000293 ], [ -86.061329000002488, 41.67860400000238 ], [ -86.061102000001583, 41.666577000002675 ], [ -86.061089000002028, 41.664127000002615 ], [ -86.061074000001753, 41.663785000002839 ], [ -86.061074000001369, 41.659248000002819 ], [ -86.060902000001434, 41.653448000003117 ], [ -86.060817000001776, 41.651558000002794 ], [ -86.061084000002054, 41.650680000003099 ], [ -86.060652000001824, 41.608400000002455 ], [ -86.060521000002026, 41.586531000002502 ], [ -86.059440000001658, 41.521465000002863 ], [ -86.059451000002497, 41.479154000002403 ], [ -86.156248000002051, 41.479224000002297 ], [ -86.185038000002152, 41.478813000002397 ], [ -86.233567000001699, 41.478858000002589 ], [ -86.281681000002166, 41.478694000002825 ], [ -86.302567000001972, 41.477081000002777 ], [ -86.32983800000143, 41.478099000002494 ], [ -86.349000000001467, 41.477817000003022 ], [ -86.425744000002013, 41.476658000002708 ], [ -86.46707000000238, 41.472754000002233 ], [ -86.467070000001996, 41.468695000002882 ], [ -86.466675000001629, 41.461940000002507 ], [ -86.466665000001953, 41.460135000002403 ], [ -86.466652000001346, 41.441213000002506 ], [ -86.466603000002081, 41.432968000002653 ], [ -86.490753000001845, 41.432910000002508 ], [ -86.524711000002114, 41.432886000002782 ], [ -86.582297000001759, 41.432741000002729 ], [ -86.642542000001754, 41.432639000002574 ], [ -86.670798000002463, 41.413873000002255 ], [ -86.700630000002306, 41.401982000003024 ], [ -86.711754000002315, 41.375345000002461 ], [ -86.728638000001567, 41.346090000002519 ], [ -86.740250000002362, 41.321460000002638 ], [ -86.783473000001607, 41.285465000002702 ], [ -86.81465200000217, 41.273501000002504 ], [ -86.870155000001461, 41.264622000003016 ], [ -86.920543000001459, 41.245028000003053 ], [ -86.930079000001768, 41.236798000003034 ], [ -86.968125000001706, 41.21965800000271 ], [ -87.033471000001455, 41.254136000002667 ], [ -87.044843000002345, 41.260798000002659 ], [ -87.102293000001922, 41.280961000002627 ], [ -87.122268000002066, 41.286356000002733 ], [ -87.160608000001616, 41.275951000002863 ], [ -87.198962000001458, 41.259606000002464 ], [ -87.218862000002204, 41.242027000002757 ], [ -87.220266000002169, 41.333327000002932 ], [ -87.220269000001437, 41.334294000002913 ], [ -87.219762000001523, 41.347322000002599 ], [ -87.219659000002125, 41.383676000002346 ], [ -87.219652000002512, 41.384830000002246 ], [ -87.219693000002465, 41.390991000002906 ], [ -87.219750000001468, 41.394585000002877 ], [ -87.219746000001408, 41.415442000002557 ], [ -87.219602000001871, 41.420171000002611 ], [ -87.219625000001699, 41.434595000002943 ], [ -87.219715000001429, 41.449175000002292 ], [ -87.219953000001553, 41.470702000002241 ], [ -87.220024000002141, 41.485139000002562 ], [ -87.220194000001854, 41.507054000002654 ], [ -87.220633000001868, 41.521614000002877 ], [ -87.22074800000135, 41.525250000002288 ], [ -87.220756000001472, 41.525512000002614 ], [ -87.221053000002129, 41.536113000002537 ], [ -87.221355000002049, 41.547180000002797 ], [ -87.221404000002394, 41.550636000002257 ], [ -87.240706000001694, 41.550706000002776 ], [ -87.240647000001687, 41.547063000002339 ], [ -87.247876000001483, 41.547086000002622 ], [ -87.252712000001949, 41.536045000002957 ], [ -87.259749000002117, 41.538481000002612 ], [ -87.264600000001863, 41.540989000002298 ], [ -87.269497000002175, 41.543300000002759 ], [ -87.275875000001946, 41.536432000002385 ], [ -87.279397000002561, 41.534240000002583 ], [ -87.306964000001855, 41.523860000002685 ], [ -87.306956000001776, 41.522003000002968 ], [ -87.316653000002233, 41.522050000002949 ], [ -87.316735000001557, 41.522050000002238 ], [ -87.324953000001585, 41.522117000002339 ], [ -87.336219000001776, 41.522280000002795 ], [ -87.336166000002123, 41.516050000002686 ], [ -87.336171000001812, 41.514614000002588 ], [ -87.316621000002343, 41.507319000002639 ], [ -87.316559000001362, 41.497254000002251 ], [ -87.336004000001381, 41.500217000002216 ], [ -87.344093000001848, 41.501450000002919 ], [ -87.364678000001689, 41.504610000002955 ], [ -87.362707000002544, 41.507942000002224 ], [ -87.393775000002407, 41.511585000002462 ], [ -87.393774000001784, 41.51144700000301 ], [ -87.393738000001449, 41.507629000002268 ], [ -87.413038000002359, 41.507636000002577 ] ] ] } },
{ "type": "Feature", "properties": { "opt_all": 2, "population": 751226.0, "voting_age_pop": 565325.0, "dem_votes": 109778.0, "rep_votes": 159778.0, "minority_pop": 135991.0, "dem_pct": 0.40725489308074947, "rep_pct": 0.59274510654827006 }, "geometry": { "type": "Polygon", "coordinates": [ [ [ -87.526278000002307, 40.999758000002799 ], [ -87.526511000001591, 41.087168000002372 ], [ -87.52658700000184, 41.166090000002384 ], [ -87.526550000001805, 41.344694000002242 ], [ -87.526506000001774, 41.348373000002695 ], [ -87.525904000002015, 41.426184000002927 ], [ -87.525907000002405, 41.426820000002515 ], [ -87.525812000001793, 41.435585000002504 ], [ -87.525671000002419, 41.464602000002301 ], [ -87.525705000002176, 41.47028300000273 ], [ -87.525539000001757, 41.475487000002907 ], [ -87.525558000001823, 41.479038000003015 ], [ -87.52553200000213, 41.49002100000255 ], [ -87.525539000002013, 41.508544000002637 ], [ -87.5255610000019, 41.522651000002526 ], [ -87.525304000002421, 41.570277000002648 ], [ -87.525302000002341, 41.581361000002701 ], [ -87.525298000001712, 41.583072000002225 ], [ -87.52519600000231, 41.595585000002494 ], [ -87.525213000001969, 41.599257000002737 ], [ -87.525188000001577, 41.610332000003041 ], [ -87.525077000001673, 41.632986000002269 ], [ -87.524743000001493, 41.660435000002536 ], [ -87.508646000001832, 41.660923000002157 ], [ -87.50864400000205, 41.657158000002418 ], [ -87.517200000002262, 41.639334000002229 ], [ -87.508710000002452, 41.639248000002397 ], [ -87.490424000001966, 41.639498000002583 ], [ -87.490451000001642, 41.632244000002913 ], [ -87.49046600000149, 41.627227000002854 ], [ -87.490465000002018, 41.626814000002412 ], [ -87.490441000001425, 41.623176000002502 ], [ -87.480823000001593, 41.627344000003021 ], [ -87.479400000002371, 41.627366000002247 ], [ -87.471068000001381, 41.621221000002457 ], [ -87.469704000002039, 41.617655000002685 ], [ -87.461505000001779, 41.613955000002605 ], [ -87.461439000002571, 41.609944000002969 ], [ -87.461618000001948, 41.595612000003072 ], [ -87.461635000002445, 41.591950000002363 ], [ -87.461639000001696, 41.588339000002243 ], [ -87.461702000001438, 41.581038000002827 ], [ -87.461635000002119, 41.569681000002205 ], [ -87.456749000002148, 41.570389000002486 ], [ -87.45676600000192, 41.566081000002761 ], [ -87.451933000002356, 41.559208000002371 ], [ -87.449532000001398, 41.553435000002658 ], [ -87.453139000001585, 41.553848000002624 ], [ -87.447088000002452, 41.547634000002809 ], [ -87.46164900000251, 41.553994000002596 ], [ -87.461646000001593, 41.548967000002463 ], [ -87.471301000002441, 41.549977000002222 ], [ -87.480876000001501, 41.551874000002393 ], [ -87.480894000001953, 41.545366000002772 ], [ -87.471306000002414, 41.548447000002596 ], [ -87.471134000001925, 41.537546000002827 ], [ -87.48079300000181, 41.537624000002417 ], [ -87.480775000002438, 41.534041000002503 ], [ -87.480740000001617, 41.523087000002782 ], [ -87.471342000002181, 41.5230130000025 ], [ -87.466463000001852, 41.522996000002912 ], [ -87.466361000001754, 41.505310000002709 ], [ -87.46625000000202, 41.490737000002412 ], [ -87.446675000002017, 41.489557000002421 ], [ -87.433820000002413, 41.492520000002237 ], [ -87.442408000001478, 41.507741000002426 ], [ -87.432514000002399, 41.507701000002427 ], [ -87.418809000002014, 41.507676000002803 ], [ -87.413038000002359, 41.507636000002577 ], [ -87.393738000001449, 41.507629000002268 ], [ -87.393774000001784, 41.51144700000301 ], [ -87.393775000002407, 41.511585000002462 ], [ -87.362707000002544, 41.507942000002224 ], [ -87.364678000001689, 41.504610000002955 ], [ -87.344093000001848, 41.501450000002919 ], [ -87.336004000001381, 41.500217000002216 ], [ -87.316559000001362, 41.497254000002251 ], [ -87.316621000002343, 41.507319000002639 ], [ -87.336171000001812, 41.514614000002588 ], [ -87.336166000002123, 41.516050000002686 ], [ -87.336219000001776, 41.522280000002795 ], [ -87.324953000001585, 41.522117000002339 ], [ -87.316735000001557, 41.522050000002238 ], [ -87.316653000002233, 41.522050000002949 ], [ -87.306956000001776, 41.522003000002968 ], [ -87.306964000001855, 41.523860000002685 ], [ -87.279397000002561, 41.534240000002583 ], [ -87.275875000001946, 41.536432000002385 ], [ -87.269497000002175, 41.543300000002759 ], [ -87.264600000001863, 41.540989000002298 ], [ -87.259749000002117, 41.538481000002612 ], [ -87.252712000001949, 41.536045000002957 ], [ -87.247876000001483, 41.547086000002622 ], [ -87.240647000001687, 41.547063000002339 ], [ -87.240706000001694, 41.550706000002776 ], [ -87.221404000002394, 41.550636000002257 ], [ -87.221355000002049, 41.547180000002797 ], [ -87.221053000002129, 41.536113000002537 ], [ -87.220756000001472, 41.525512000002614 ], [ -87.22074800000135, 41.525250000002288 ], [ -87.220633000001868, 41.521614000002877 ], [ -87.220194000001854, 41.507054000002654 ], [ -87.220024000002141, 41.485139000002562 ], [ -87.219953000001553, 41.470702000002241 ], [ -87.219715000001429, 41.449175000002292 ], [ -87.219625000001699, 41.434595000002943 ], [ -87.219602000001871, 41.420171000002611 ], [ -87.219746000001408, 41.415442000002557 ], [ -87.219750000001468, 41.394585000002877 ], [ -87.219693000002465, 41.390991000002906 ], [ -87.219652000002512, 41.384830000002246 ], [ -87.219659000002125, 41.383676000002346 ], [ -87.219762000001523, 41.347322000002599 ], [ -87.220269000001437, 41.334294000002913 ], [ -87.220266000002169, 41.333327000002932 ], [ -87.218862000002204, 41.242027000002757 ], [ -87.198962000001458, 41.259606000002464 ], [ -87.160608000001616, 41.275951000002863 ], [ -87.122268000002066, 41.286356000002733 ], [ -87.102293000001922, 41.280961000002627 ], [ -87.044843000002345, 41.260798000002659 ], [ -87.033471000001455, 41.254136000002667 ], [ -86.968125000001706, 41.21965800000271 ], [ -86.930079000001768, 41.236798000003034 ], [ -86.920543000001459, 41.245028000003053 ], [ -86.870155000001461, 41.264622000003016 ], [ -86.81465200000217, 41.273501000002504 ], [ -86.783473000001607, 41.285465000002702 ], [ -86.740250000002362, 41.321460000002638 ], [ -86.728638000001567, 41.346090000002519 ], [ -86.711754000002315, 41.375345000002461 ], [ -86.700630000002306, 41.401982000003024 ], [ -86.670798000002463, 41.413873000002255 ], [ -86.642542000001754, 41.432639000002574 ], [ -86.582297000001759, 41.432741000002729 ], [ -86.524711000002114, 41.432886000002782 ], [ -86.490753000001845, 41.432910000002508 ], [ -86.466603000002081, 41.432968000002653 ], [ -86.466652000001346, 41.441213000002506 ], [ -86.466665000001953, 41.460135000002403 ], [ -86.466675000001629, 41.461940000002507 ], [ -86.467070000001996, 41.468695000002882 ], [ -86.46707000000238, 41.472754000002233 ], [ -86.425744000002013, 41.476658000002708 ], [ -86.349000000001467, 41.477817000003022 ], [ -86.32983800000143, 41.478099000002494 ], [ -86.302567000001972, 41.477081000002777 ], [ -86.281681000002166, 41.478694000002825 ], [ -86.233567000001699, 41.478858000002589 ], [ -86.185038000002152, 41.478813000002397 ], [ -86.156248000002051, 41.479224000002297 ], [ -86.059451000002497, 41.479154000002403 ], [ -86.059440000001658, 41.521465000002863 ], [ -86.060521000002026, 41.586531000002502 ], [ -86.060652000001824, 41.608400000002455 ], [ -86.061084000002054, 41.650680000003099 ], [ -86.060817000001776, 41.651558000002794 ], [ -86.060902000001434, 41.653448000003117 ], [ -86.061074000001369, 41.659248000002819 ], [ -86.061074000001753, 41.663785000002839 ], [ -86.061089000002028, 41.664127000002615 ], [ -86.061102000001583, 41.666577000002675 ], [ -86.061329000002488, 41.67860400000238 ], [ -86.061359000002511, 41.68049700000293 ], [ -86.061475000002162, 41.686629000002306 ], [ -86.061735000001832, 41.695424000002639 ], [ -86.061942000002048, 41.702771000002784 ], [ -86.061965000002417, 41.705463000002219 ], [ -86.062004000001565, 41.709930000003119 ], [ -86.0622760000021, 41.736157000002251 ], [ -86.062337000001904, 41.742584000002708 ], [ -86.06247300000247, 41.753474000002917 ], [ -86.06257500000234, 41.760513000002256 ], [ -86.004557000001981, 41.760242000002847 ], [ -85.974836000001375, 41.760009000002498 ], [ -85.942340000002488, 41.759848000003082 ], [ -85.888769000002327, 41.759443000002939 ], [ -85.774033000001509, 41.759090000002978 ], [ -85.659750000001779, 41.759068000002266 ], [ -85.486638000002301, 41.759266000002683 ], [ -85.368309000002057, 41.759870000002735 ], [ -85.196774000002179, 41.759644000002297 ], [ -85.1957580000024, 41.700248000003057 ], [ -85.194463000001988, 41.612797000002274 ], [ -85.194084000002462, 41.526437000002872 ], [ -85.252219000001844, 41.526443000002359 ], [ -85.308461000002012, 41.526198000003028 ], [ -85.42350200000223, 41.525596000002629 ], [ -85.539159000001419, 41.524810000002589 ], [ -85.654747000002374, 41.523347000003007 ], [ -85.653910000001645, 41.487853000003042 ], [ -85.65350700000171, 41.436856000002429 ], [ -85.71795500000151, 41.436378000002499 ], [ -85.749827000001815, 41.435999000002262 ], [ -85.768708000001965, 41.435745000002349 ], [ -85.812352000001638, 41.434968000002918 ], [ -85.885824000001634, 41.43564100000232 ], [ -85.924924000001511, 41.435750000002344 ], [ -85.972403000001819, 41.435491000002791 ], [ -85.972737000001388, 41.435490000002808 ], [ -85.982087000001471, 41.435399000002782 ], [ -85.991656000002052, 41.435413000002953 ], [ -86.001434000002206, 41.435420000002637 ], [ -86.011025000001439, 41.435507000003064 ], [ -86.059230000001961, 41.435812000002784 ], [ -86.058555000002016, 41.375640000002761 ], [ -86.05834800000234, 41.346682000002751 ], [ -86.058178000001831, 41.339714000002552 ], [ -86.05655300000231, 41.274342000002292 ], [ -86.055148000002262, 41.224891000003026 ], [ -86.054047000001432, 41.173147000002551 ], [ -86.077551000002487, 41.17286800000258 ], [ -86.076587000002348, 41.128591000002416 ], [ -86.075939000001526, 41.084878000002369 ], [ -86.018414000001499, 41.086118000002465 ], [ -86.018664000001621, 41.041878000002974 ], [ -86.015940000002161, 41.042006000003134 ], [ -85.984155000002261, 41.042171000002853 ], [ -85.945561000002243, 41.042876000002643 ], [ -85.946436000001469, 40.99919500000248 ], [ -85.944713000001528, 40.942787000002305 ], [ -85.944114000001747, 40.91381500000292 ], [ -85.943124000001447, 40.867271000003171 ], [ -85.942261000002205, 40.823479000002855 ], [ -85.941967000002464, 40.808927000002768 ], [ -85.941783000002417, 40.772521000002563 ], [ -85.941094000001911, 40.737269000002605 ], [ -85.939525000001481, 40.650991000002641 ], [ -85.86479100000237, 40.65169300000268 ], [ -85.863641000002261, 40.56552500000231 ], [ -85.938785000001459, 40.56479900000312 ], [ -86.013325000002482, 40.56412800000269 ], [ -86.089352000001355, 40.563405000002483 ], [ -86.127424000001369, 40.563098000002554 ], [ -86.16502400000185, 40.562649000003162 ], [ -86.184044000002302, 40.562459000002896 ], [ -86.242278000002301, 40.561961000002334 ], [ -86.261248000001856, 40.561882000002768 ], [ -86.374417000002353, 40.561361000002293 ], [ -86.373961000002438, 40.604984000003135 ], [ -86.373580000001482, 40.648799000002931 ], [ -86.37352100000183, 40.692460000002988 ], [ -86.391477000002268, 40.692364000002577 ], [ -86.467934000001961, 40.691955000002416 ], [ -86.525164000002206, 40.692419000002978 ], [ -86.525213000002324, 40.71719600000241 ], [ -86.49728200000213, 40.741284000002501 ], [ -86.468208000002207, 40.745443000002709 ], [ -86.431159000002239, 40.754723000002841 ], [ -86.391457000001765, 40.736096000002561 ], [ -86.391247000002195, 40.736097000002381 ], [ -86.391224000002168, 40.730542000002323 ], [ -86.388429000001778, 40.736093000002931 ], [ -86.370046000001537, 40.737102000003013 ], [ -86.366524000001746, 40.737152000002531 ], [ -86.366217000001797, 40.729036000003155 ], [ -86.336842000001809, 40.729909000002394 ], [ -86.349933000002295, 40.743903000002959 ], [ -86.349595000002353, 40.743762000002462 ], [ -86.346083000001457, 40.743634000002686 ], [ -86.335133000001676, 40.747731000002752 ], [ -86.31794400000183, 40.75605900000307 ], [ -86.324319000002504, 40.757300000002701 ], [ -86.32301300000195, 40.76414100000283 ], [ -86.338672000002035, 40.76313700000258 ], [ -86.338383000001897, 40.763641000003091 ], [ -86.299881000002273, 40.770286000002329 ], [ -86.267755000001472, 40.772574000002997 ], [ -86.258919000001868, 40.796002000003007 ], [ -86.242295000001334, 40.801152000002602 ], [ -86.24228000000214, 40.82276700000255 ], [ -86.354850000001647, 40.822876000002772 ], [ -86.355867000002107, 40.909453000002522 ], [ -86.468233000001845, 40.909884000003089 ], [ -86.468509000001404, 40.90988900000302 ], [ -86.581532000001772, 40.91092500000304 ], [ -86.583878000001391, 40.910959000002833 ], [ -86.696740000002038, 40.912230000002538 ], [ -86.699718000001624, 40.912238000002766 ], [ -86.775850000002237, 40.912460000002568 ], [ -86.815097000002112, 40.912480000002788 ], [ -86.930759000001643, 40.912418000002788 ], [ -86.987438000001916, 40.912177000002835 ], [ -86.987348000002129, 40.896213000002213 ], [ -86.986438000001513, 40.837921000003128 ], [ -87.099793000002478, 40.837607000002265 ], [ -87.099645000002042, 40.823036000002773 ], [ -87.098390000001658, 40.736541000002539 ], [ -87.153645000001845, 40.736698000003102 ], [ -87.211193000001458, 40.736671000002623 ], [ -87.267298000001603, 40.736582000002386 ], [ -87.295961000001455, 40.736551000002869 ], [ -87.324592000002468, 40.736554000002918 ], [ -87.381751000002424, 40.736515000002278 ], [ -87.439131000002078, 40.7367030000024 ], [ -87.449844000001647, 40.736731000002948 ], [ -87.526031000002419, 40.736885000002573 ], [ -87.525696000002469, 40.817250000002907 ], [ -87.525996000002237, 40.911838000002234 ], [ -87.526278000002307, 40.999758000002799 ] ] ] } },
{ "type": "Feature", "properties": { "opt_all": 3, "population": 756625.0, "voting_age_pop": 569549.0, "dem_votes": 95064.0, "rep_votes": 191044.0, "minority_pop": 99240.0, "dem_pct": 0.33226613714671865, "rep_pct": 0.66773386250376299 }, "geometry": { "type": "Polygon", "coordinates": [ [ [ -85.942261000002205, 40.823479000002855 ], [ -85.943124000001447, 40.867271000003171 ], [ -85.944114000001747, 40.91381500000292 ], [ -85.944713000001528, 40.942787000002305 ], [ -85.946436000001469, 40.99919500000248 ], [ -85.945561000002243, 41.042876000002643 ], [ -85.984155000002261, 41.042171000002853 ], [ -86.015940000002161, 41.042006000003134 ], [ -86.018664000001621, 41.041878000002974 ], [ -86.018414000001499, 41.086118000002465 ], [ -86.075939000001526, 41.084878000002369 ], [ -86.076587000002348, 41.128591000002416 ], [ -86.077551000002487, 41.17286800000258 ], [ -86.054047000001432, 41.173147000002551 ], [ -86.055148000002262, 41.224891000003026 ], [ -86.05655300000231, 41.274342000002292 ], [ -86.058178000001831, 41.339714000002552 ], [ -86.05834800000234, 41.346682000002751 ], [ -86.058555000002016, 41.375640000002761 ], [ -86.059230000001961, 41.435812000002784 ], [ -86.011025000001439, 41.435507000003064 ], [ -86.001434000002206, 41.435420000002637 ], [ -85.991656000002052, 41.435413000002953 ], [ -85.982087000001471, 41.435399000002782 ], [ -85.972737000001388, 41.435490000002808 ], [ -85.972403000001819, 41.435491000002791 ], [ -85.924924000001511, 41.435750000002344 ], [ -85.885824000001634, 41.43564100000232 ], [ -85.812352000001638, 41.434968000002918 ], [ -85.768708000001965, 41.435745000002349 ], [ -85.749827000001815, 41.435999000002262 ], [ -85.71795500000151, 41.436378000002499 ], [ -85.65350700000171, 41.436856000002429 ], [ -85.653910000001645, 41.487853000003042 ], [ -85.654747000002374, 41.523347000003007 ], [ -85.539159000001419, 41.524810000002589 ], [ -85.42350200000223, 41.525596000002629 ], [ -85.308461000002012, 41.526198000003028 ], [ -85.252219000001844, 41.526443000002359 ], [ -85.194084000002462, 41.526437000002872 ], [ -85.194463000001988, 41.612797000002274 ], [ -85.1957580000024, 41.700248000003057 ], [ -85.196774000002179, 41.759644000002297 ], [ -85.083974000001916, 41.759658000002752 ], [ -84.971377000002192, 41.759548000002418 ], [ -84.860137000002439, 41.759906000002744 ], [ -84.80588500000222, 41.760171000002302 ], [ -84.805945000001714, 41.702740000002478 ], [ -84.805794000001967, 41.616439000002615 ], [ -84.804687000001636, 41.530134000002647 ], [ -84.804061000002434, 41.444789000002771 ], [ -84.803997000002411, 41.357756000002304 ], [ -84.803589000002191, 41.271273000002864 ], [ -84.803383000002356, 41.185063000002991 ], [ -84.803388000002045, 41.096867000002447 ], [ -84.803287000001362, 41.009576000003122 ], [ -84.802922000002113, 40.922568000002833 ], [ -84.802340000002218, 40.834685000002693 ], [ -84.802164000002023, 40.74717700000258 ], [ -84.80232100000147, 40.660341000002454 ], [ -84.802477000001417, 40.572213000002961 ], [ -84.877728000001369, 40.571376000003099 ], [ -84.992140000001854, 40.569589000002829 ], [ -85.068479000001787, 40.568240000002668 ], [ -85.106918000001457, 40.567824000002503 ], [ -85.20114600000143, 40.567242000002587 ], [ -85.220999000002479, 40.567251000002635 ], [ -85.333667000001995, 40.567327000002393 ], [ -85.390539000001539, 40.566898000003199 ], [ -85.447014000001957, 40.566929000002496 ], [ -85.448825000001676, 40.653607000002452 ], [ -85.562294000001472, 40.653193000002602 ], [ -85.638587000002346, 40.65312900000265 ], [ -85.675525000002239, 40.65281700000245 ], [ -85.690956000001805, 40.652711000002725 ], [ -85.788524000002482, 40.652238000002825 ], [ -85.86479100000237, 40.65169300000268 ], [ -85.939525000001481, 40.650991000002641 ], [ -85.941094000001911, 40.737269000002605 ], [ -85.941783000002417, 40.772521000002563 ], [ -85.941967000002464, 40.808927000002768 ], [ -85.942261000002205, 40.823479000002855 ] ] ] } },
{ "type": "Feature", "properties": { "opt_all": 4, "population": 750657.0, "voting_age_pop": 582902.0, "dem_votes": 101812.0, "rep_votes": 177130.0, "minority_pop": 92855.0, "dem_pct": 0.36499343936553352, "rep_pct": 0.63500656027596902 }, "geometry": { "type": "Polygon", "coordinates": [ [ [ -87.590451000002389, 39.33206600000279 ], [ -87.531646000002155, 39.347888000002499 ], [ -87.531355000002009, 39.437212000003143 ], [ -87.531751000001876, 39.486444000002955 ], [ -87.531927000001929, 39.520360000003066 ], [ -87.532194000001738, 39.607306000002801 ], [ -87.532360000001745, 39.64355200000287 ], [ -87.532809000002374, 39.69446500000312 ], [ -87.532969000001444, 39.745302000002717 ], [ -87.533131000001433, 39.82333100000254 ], [ -87.533020000001429, 39.910357000002456 ], [ -87.532288000002566, 39.999984000002812 ], [ -87.531449000002084, 40.148127000002752 ], [ -87.53101800000195, 40.177193000002674 ], [ -87.53052100000194, 40.214778000002617 ], [ -87.529258000002358, 40.303595000002325 ], [ -87.528004000002085, 40.388959000002544 ], [ -87.526589000001607, 40.476876000002463 ], [ -87.526238000001925, 40.564223000002386 ], [ -87.52622500000227, 40.649778000002492 ], [ -87.526031000002419, 40.736885000002573 ], [ -87.449844000001647, 40.736731000002948 ], [ -87.439131000002078, 40.7367030000024 ], [ -87.381751000002424, 40.736515000002278 ], [ -87.324592000002468, 40.736554000002918 ], [ -87.295961000001455, 40.736551000002869 ], [ -87.267298000001603, 40.736582000002386 ], [ -87.211193000001458, 40.736671000002623 ], [ -87.153645000001845, 40.736698000003102 ], [ -87.098390000001658, 40.736541000002539 ], [ -87.099645000002042, 40.823036000002773 ], [ -87.099793000002478, 40.837607000002265 ], [ -86.986438000001513, 40.837921000003128 ], [ -86.987348000002129, 40.896213000002213 ], [ -86.987438000001916, 40.912177000002835 ], [ -86.930759000001643, 40.912418000002788 ], [ -86.815097000002112, 40.912480000002788 ], [ -86.775850000002237, 40.912460000002568 ], [ -86.699718000001624, 40.912238000002766 ], [ -86.696740000002038, 40.912230000002538 ], [ -86.583878000001391, 40.910959000002833 ], [ -86.581532000001772, 40.91092500000304 ], [ -86.468509000001404, 40.90988900000302 ], [ -86.468233000001845, 40.909884000003089 ], [ -86.355867000002107, 40.909453000002522 ], [ -86.354850000001647, 40.822876000002772 ], [ -86.24228000000214, 40.82276700000255 ], [ -86.242295000001334, 40.801152000002602 ], [ -86.258919000001868, 40.796002000003007 ], [ -86.267755000001472, 40.772574000002997 ], [ -86.299881000002273, 40.770286000002329 ], [ -86.338383000001897, 40.763641000003091 ], [ -86.338672000002035, 40.76313700000258 ], [ -86.32301300000195, 40.76414100000283 ], [ -86.324319000002504, 40.757300000002701 ], [ -86.31794400000183, 40.75605900000307 ], [ -86.335133000001676, 40.747731000002752 ], [ -86.346083000001457, 40.743634000002686 ], [ -86.349595000002353, 40.743762000002462 ], [ -86.349933000002295, 40.743903000002959 ], [ -86.336842000001809, 40.729909000002394 ], [ -86.366217000001797, 40.729036000003155 ], [ -86.366524000001746, 40.737152000002531 ], [ -86.370046000001537, 40.737102000003013 ], [ -86.388429000001778, 40.736093000002931 ], [ -86.391224000002168, 40.730542000002323 ], [ -86.391247000002195, 40.736097000002381 ], [ -86.391457000001765, 40.736096000002561 ], [ -86.431159000002239, 40.754723000002841 ], [ -86.468208000002207, 40.745443000002709 ], [ -86.49728200000213, 40.741284000002501 ], [ -86.525213000002324, 40.71719600000241 ], [ -86.525164000002206, 40.692419000002978 ], [ -86.467934000001961, 40.691955000002416 ], [ -86.391477000002268, 40.692364000002577 ], [ -86.37352100000183, 40.692460000002988 ], [ -86.373580000001482, 40.648799000002931 ], [ -86.373961000002438, 40.604984000003135 ], [ -86.374417000002353, 40.561361000002293 ], [ -86.261248000001856, 40.561882000002768 ], [ -86.242278000002301, 40.561961000002334 ], [ -86.184044000002302, 40.562459000002896 ], [ -86.16502400000185, 40.562649000003162 ], [ -86.127424000001369, 40.563098000002554 ], [ -86.089352000001355, 40.563405000002483 ], [ -86.013325000002482, 40.56412800000269 ], [ -85.938785000001459, 40.56479900000312 ], [ -85.863641000002261, 40.56552500000231 ], [ -85.86304700000224, 40.478728000002349 ], [ -85.862117000001774, 40.406889000002302 ], [ -85.862296000002431, 40.378367000002427 ], [ -85.86158800000203, 40.334744000002722 ], [ -85.860391000001982, 40.29145500000282 ], [ -85.860698000002188, 40.278337000002466 ], [ -85.860725000001636, 40.27694700000275 ], [ -85.860785000002238, 40.2733340000024 ], [ -85.861283000001421, 40.233645000002817 ], [ -85.861903000001391, 40.218936000002323 ], [ -85.935561000002494, 40.218437000003078 ], [ -85.966430000001793, 40.218278000003011 ], [ -85.996076000001693, 40.218152000002931 ], [ -86.036238000002427, 40.217846000002339 ], [ -86.12796600000236, 40.217209000002903 ], [ -86.1282280000014, 40.217207000002418 ], [ -86.185352000001387, 40.216601000002363 ], [ -86.204529000001472, 40.216409000002457 ], [ -86.223631000001845, 40.216124000002303 ], [ -86.242743000002207, 40.215834000002666 ], [ -86.24236500000174, 40.180778000003158 ], [ -86.241965000001429, 40.136892000002533 ], [ -86.241902000001488, 40.129621000002309 ], [ -86.241722000001985, 40.099850000003073 ], [ -86.241458000002041, 40.070819000002899 ], [ -86.24145300000238, 40.04882900000235 ], [ -86.241420000001497, 40.041545000002621 ], [ -86.241067000001664, 40.005923000002795 ], [ -86.241065000001541, 39.998773000003155 ], [ -86.24107400000139, 39.991517000003029 ], [ -86.241218000002263, 39.985351000002616 ], [ -86.241177000001684, 39.977094000002317 ], [ -86.24101700000169, 39.962574000002505 ], [ -86.24096100000213, 39.955315000003047 ], [ -86.240902000001597, 39.94075300000285 ], [ -86.240736000002101, 39.926062000002659 ], [ -86.268246000002179, 39.924916000002447 ], [ -86.27847100000146, 39.924729000002714 ], [ -86.307246000002465, 39.924394000002401 ], [ -86.321394000002286, 39.924158000002691 ], [ -86.326293000002281, 39.924029000002704 ], [ -86.355262000001474, 39.924041000002816 ], [ -86.397710000002078, 39.923772000002586 ], [ -86.430870000001661, 39.923490000002595 ], [ -86.449850000001888, 39.923297000002883 ], [ -86.506028000002132, 39.922912000002768 ], [ -86.543710000001965, 39.922792000002765 ], [ -86.58158400000174, 39.922820000002659 ], [ -86.628987000002041, 39.922815000002934 ], [ -86.695071000001505, 39.922770000002309 ], [ -86.695127000002103, 39.864845000003072 ], [ -86.686843000002426, 39.864842000003122 ], [ -86.68681200000151, 39.819676000002296 ], [ -86.686814000001917, 39.776111000003169 ], [ -86.793165000002432, 39.776655000003089 ], [ -86.853772000001555, 39.777483000002753 ], [ -86.854286000001792, 39.7330410000027 ], [ -86.817160000002303, 39.732397000003026 ], [ -86.793585000001755, 39.717797000003152 ], [ -86.793671000002291, 39.688856000002367 ], [ -86.794471000002261, 39.643978000002711 ], [ -86.794871000002033, 39.602068000002937 ], [ -86.79474700000172, 39.60186000000283 ], [ -86.795061000002178, 39.529605000002519 ], [ -86.802157000002154, 39.529371000002811 ], [ -86.903334000002019, 39.53037600000301 ], [ -86.903568000001727, 39.509095000002965 ], [ -86.903992000002106, 39.472639000002879 ], [ -86.939981000001524, 39.473345000002908 ], [ -86.942409000001689, 39.429356000002301 ], [ -86.942293000002309, 39.399912000002509 ], [ -86.942473000002011, 39.342043000002469 ], [ -87.053646000001947, 39.342621000002801 ], [ -87.054455000001539, 39.255750000002557 ], [ -87.054578000001854, 39.16808600000244 ], [ -87.035900000002499, 39.168131000003179 ], [ -86.979518000001761, 39.168021000002362 ], [ -86.905261000002056, 39.167841000002298 ], [ -86.893144000001627, 39.167901000002942 ], [ -86.832128000002484, 39.167035000002969 ], [ -86.795205000001545, 39.166726000003138 ], [ -86.73950000000238, 39.166237000002774 ], [ -86.683002000002517, 39.16574600000294 ], [ -86.682548000001859, 39.108931000002805 ], [ -86.682401000001988, 39.079846000002497 ], [ -86.682277000001633, 38.992404000002345 ], [ -86.682853000001558, 38.904697000003203 ], [ -86.794425000002278, 38.904367000002679 ], [ -86.831419000002128, 38.904325000002906 ], [ -86.891678000002102, 38.904210000002372 ], [ -86.90425200000216, 38.904204000002494 ], [ -86.959608000001893, 38.903217000002542 ], [ -87.017356000001499, 38.902593000002611 ], [ -87.058628000002258, 38.903038000003136 ], [ -87.098771000001975, 38.903974000002989 ], [ -87.101308000002064, 38.904019000002712 ], [ -87.129882000002155, 38.90731500000247 ], [ -87.205373000001458, 38.90773800000288 ], [ -87.241027000002347, 38.90787400000282 ], [ -87.240797000002217, 38.994483000002944 ], [ -87.240846000002364, 39.038332000002512 ], [ -87.24094900000172, 39.045393000002875 ], [ -87.240921000002274, 39.067164000002926 ], [ -87.240918000001841, 39.084397000002923 ], [ -87.240871000002187, 39.131373000002426 ], [ -87.240843000002059, 39.142634000002957 ], [ -87.240737000002099, 39.171773000003121 ], [ -87.24068800000174, 39.193598000002602 ], [ -87.240379000001482, 39.25906400000234 ], [ -87.351332000001932, 39.259195000002514 ], [ -87.381845000001917, 39.258981000003118 ], [ -87.388807000002188, 39.259037000003111 ], [ -87.460602000002325, 39.259316000002698 ], [ -87.604141000002087, 39.259458000002851 ], [ -87.605920000002442, 39.311076000002608 ], [ -87.590451000002389, 39.33206600000279 ] ] ] } },
{ "type": "Feature", "properties": { "opt_all": 5, "population": 754296.0, "voting_age_pop": 577178.0, "dem_votes": 112383.0, "rep_votes": 194095.0, "minority_pop": 83230.0, "dem_pct": 0.36669189946205211, "rep_pct": 0.63330810021166017 }, "geometry": { "type": "MultiPolygon", "coordinates": [ [ [ [ -86.106180000002212, 39.956640000002551 ], [ -86.113766000002002, 39.956647000002306 ], [ -86.114034000002263, 39.956645000003157 ], [ -86.126742000001357, 39.956597000002333 ], [ -86.12685700000236, 39.961409000002483 ], [ -86.129716000001395, 39.970556000002624 ], [ -86.141071000002114, 39.978152000002638 ], [ -86.141048000001987, 39.970949000003138 ], [ -86.157651000002389, 39.971367000002495 ], [ -86.157212000002204, 39.977888000002338 ], [ -86.179107000001835, 39.977612000002303 ], [ -86.183532000002288, 39.97756300000281 ], [ -86.183547000002335, 39.984795000002578 ], [ -86.164775000002052, 39.984969000002614 ], [ -86.164773000002384, 39.990103000002591 ], [ -86.164759000001709, 39.992210000002629 ], [ -86.164769000002096, 39.999461000002327 ], [ -86.164921000001613, 39.999458000002811 ], [ -86.16480300000174, 40.003079000003119 ], [ -86.164843000001454, 40.006341000002486 ], [ -86.164877000002008, 40.010511000002758 ], [ -86.164898000001699, 40.013882000003129 ], [ -86.145903000002022, 40.014149000002583 ], [ -86.129002000002387, 40.014704000002986 ], [ -86.127490000002084, 40.022029000002689 ], [ -86.127733000002195, 40.04274400000233 ], [ -86.115668000001833, 40.042866000002775 ], [ -86.11176700000226, 40.042857000002542 ], [ -86.110972000001652, 40.040244000003128 ], [ -86.108718000002469, 40.022163000002685 ], [ -86.089778000001459, 40.022001000002462 ], [ -86.089749000002271, 40.027000000002957 ], [ -86.089747000002475, 40.027285000002344 ], [ -86.089753000001465, 40.032899000003113 ], [ -86.089809000002276, 40.040184000003066 ], [ -86.102919000002444, 40.04292700000309 ], [ -86.109000000002041, 40.042872000003094 ], [ -86.109228000001991, 40.050250000003068 ], [ -86.12173700000173, 40.072250000002519 ], [ -86.118820000001449, 40.072271000002601 ], [ -86.109280000002386, 40.072278000003095 ], [ -86.128022000002375, 40.081994000002375 ], [ -86.157406000001757, 40.084574000002533 ], [ -86.173158000002118, 40.067800000002819 ], [ -86.203405000002434, 40.067466000003158 ], [ -86.203600000001728, 40.100206000003013 ], [ -86.175205000002464, 40.100468000002692 ], [ -86.17533300000251, 40.114968000002449 ], [ -86.220622000001626, 40.136165000002947 ], [ -86.223631000001845, 40.216124000002303 ], [ -86.204529000001472, 40.216409000002457 ], [ -86.185352000001387, 40.216601000002363 ], [ -86.1282280000014, 40.217207000002418 ], [ -86.12796600000236, 40.217209000002903 ], [ -86.036238000002427, 40.217846000002339 ], [ -85.996076000001693, 40.218152000002931 ], [ -85.966430000001793, 40.218278000003011 ], [ -85.935561000002494, 40.218437000003078 ], [ -85.861903000001391, 40.218936000002323 ], [ -85.861283000001421, 40.233645000002817 ], [ -85.860785000002238, 40.2733340000024 ], [ -85.860725000001636, 40.27694700000275 ], [ -85.860698000002188, 40.278337000002466 ], [ -85.860391000001982, 40.29145500000282 ], [ -85.86158800000203, 40.334744000002722 ], [ -85.862296000002431, 40.378367000002427 ], [ -85.862117000001774, 40.406889000002302 ], [ -85.86304700000224, 40.478728000002349 ], [ -85.863641000002261, 40.56552500000231 ], [ -85.86479100000237, 40.65169300000268 ], [ -85.788524000002482, 40.652238000002825 ], [ -85.690956000001805, 40.652711000002725 ], [ -85.675525000002239, 40.65281700000245 ], [ -85.638587000002346, 40.65312900000265 ], [ -85.562294000001472, 40.653193000002602 ], [ -85.448825000001676, 40.653607000002452 ], [ -85.447014000001957, 40.566929000002496 ], [ -85.390539000001539, 40.566898000003199 ], [ -85.333667000001995, 40.567327000002393 ], [ -85.220999000002479, 40.567251000002635 ], [ -85.20114600000143, 40.567242000002587 ], [ -85.106918000001457, 40.567824000002503 ], [ -85.068479000001787, 40.568240000002668 ], [ -84.992140000001854, 40.569589000002829 ], [ -84.877728000001369, 40.571376000003099 ], [ -84.802477000001417, 40.572213000002961 ], [ -84.803066000001309, 40.484717000002789 ], [ -84.804172000002168, 40.396996000002808 ], [ -84.803672000002365, 40.310093000002446 ], [ -84.805380000001335, 40.223775000002824 ], [ -84.805684000002117, 40.211588000002948 ], [ -84.805718000002202, 40.209842000002482 ], [ -84.805740000001563, 40.208804000002552 ], [ -84.806111000001593, 40.192592000002826 ], [ -84.80846100000204, 40.10718900000311 ], [ -84.810825000002069, 40.005077000002437 ], [ -84.886619000001971, 40.006289000002852 ], [ -84.930252000001659, 40.005311000002649 ], [ -84.958762000001968, 40.005278000002953 ], [ -85.034505000001531, 40.004842000002483 ], [ -85.053481000001611, 40.004809000002972 ], [ -85.126777000001681, 40.004205000002472 ], [ -85.201473000001357, 40.004521000003038 ], [ -85.213553000001795, 40.019002000003155 ], [ -85.21438600000198, 40.076889000002986 ], [ -85.308820000002029, 40.076685000003174 ], [ -85.328095000001341, 40.076546000002537 ], [ -85.403715000001384, 40.07647700000242 ], [ -85.442547000001753, 40.076686000002411 ], [ -85.480279000001957, 40.076893000002705 ], [ -85.499551000001631, 40.077016000002565 ], [ -85.537567000002227, 40.077019000003077 ], [ -85.576197000001969, 40.07714300000287 ], [ -85.576274000001376, 40.066269000002514 ], [ -85.576408000001834, 40.047839000002867 ], [ -85.57615200000204, 40.041010000002352 ], [ -85.576365000002028, 39.990103000002343 ], [ -85.576192000001797, 39.945756000002426 ], [ -85.576331000001986, 39.916501000002896 ], [ -85.576798000001645, 39.872808000002443 ], [ -85.591137000001623, 39.872762000002538 ], [ -85.596678000001475, 39.872926000002778 ], [ -85.596879000002247, 39.808219000003142 ], [ -85.596916000001812, 39.786519000002791 ], [ -85.633491000001968, 39.786177000002532 ], [ -85.633228000002433, 39.698462000002699 ], [ -85.632505000002254, 39.698455000002816 ], [ -85.632824000001477, 39.656173000003008 ], [ -85.632771000001654, 39.625706000002474 ], [ -85.63222400000187, 39.611160000003082 ], [ -85.631125000001845, 39.540040000002968 ], [ -85.630706000002021, 39.525274000002966 ], [ -85.629327000002149, 39.452750000002979 ], [ -85.62978000000237, 39.438576000002918 ], [ -85.629991000001553, 39.432778000002841 ], [ -85.630258000001476, 39.423694000002733 ], [ -85.630281000001858, 39.379402000003054 ], [ -85.630630000002185, 39.350205000003086 ], [ -85.684515000001809, 39.350049000002471 ], [ -85.741770000002049, 39.350187000003167 ], [ -85.798785000001814, 39.350188000002461 ], [ -85.857460000001367, 39.349312000002826 ], [ -85.942820000001745, 39.347584000002534 ], [ -85.952005000001606, 39.347373000003181 ], [ -85.952480000001756, 39.357130000003096 ], [ -85.952700000001371, 39.361890000002674 ], [ -85.95254500000182, 39.435921000002708 ], [ -85.950937000002057, 39.436091000002584 ], [ -85.950800000001891, 39.495220000003009 ], [ -85.95138900000201, 39.523125000002985 ], [ -85.951922000001687, 39.537875000002614 ], [ -85.952470000002492, 39.600787000003024 ], [ -85.952523000001392, 39.609150000002849 ], [ -85.952080000002212, 39.638345000002928 ], [ -85.952056000001349, 39.668917000002622 ], [ -85.951991000001954, 39.682484000002944 ], [ -85.95173500000223, 39.697049000003105 ], [ -85.951721000001925, 39.697136000003205 ], [ -85.951699000002066, 39.726419000002906 ], [ -85.951842000002301, 39.734107000002943 ], [ -85.95181700000191, 39.740929000002509 ], [ -85.952204000001871, 39.755600000002921 ], [ -85.952312000001712, 39.771969000003089 ], [ -85.952378000002042, 39.782674000003134 ], [ -85.952379000001656, 39.782704000002603 ], [ -85.9524570000019, 39.788196000003133 ], [ -85.952582000001385, 39.797380000003081 ], [ -85.952902000002211, 39.806749000002391 ], [ -85.953123000002378, 39.82677700000292 ], [ -85.953317000002215, 39.834129000002868 ], [ -85.95348900000198, 39.841465000002394 ], [ -85.953640000001627, 39.85326600000284 ], [ -85.953683000002158, 39.856117000002818 ], [ -85.954013000002334, 39.869646000002888 ], [ -85.938067000001737, 39.869812000003108 ], [ -85.938071000001585, 39.880565000002441 ], [ -85.938077000001442, 39.887183000002814 ], [ -85.938080000001875, 39.891427000002999 ], [ -85.938079000002119, 39.898630000003124 ], [ -85.938088000001741, 39.904527000002354 ], [ -85.938099000001571, 39.913028000002662 ], [ -85.938110000001487, 39.926493000002786 ], [ -85.937587000001443, 39.927137000003185 ], [ -85.980854000002182, 39.92710800000269 ], [ -85.991485000001916, 39.927034000002585 ], [ -85.995037000002256, 39.927000000002614 ], [ -86.001659000001538, 39.927057000002428 ], [ -86.006390000001915, 39.927092000003157 ], [ -86.012555000001925, 39.927318000002387 ], [ -86.013708000002126, 39.927390000002354 ], [ -86.019260000002362, 39.927281000002509 ], [ -86.029766000002425, 39.927107000002742 ], [ -86.032979000002129, 39.927064000003149 ], [ -86.046256000002003, 39.927053000002921 ], [ -86.050659000002085, 39.92704600000318 ], [ -86.05548200000149, 39.927029000002911 ], [ -86.057865000001968, 39.927021000002654 ], [ -86.066121000001658, 39.927005000002417 ], [ -86.06959400000207, 39.926985000002546 ], [ -86.076183000001819, 39.926950000002485 ], [ -86.088705000002292, 39.926884000002552 ], [ -86.088713000002301, 39.930486000002347 ], [ -86.098249000001445, 39.941421000003139 ], [ -86.105443000001415, 39.941455000002925 ], [ -86.106180000002212, 39.956640000002551 ] ] ], [ [ [ -86.165536000002305, 40.05699300000304 ], [ -86.165537000001805, 40.054226000002608 ], [ -86.165540000001485, 40.054897000002995 ], [ -86.165536000002305, 40.05699300000304 ] ] ] ] } },
{ "type": "Feature", "properties": { "opt_all": 6, "population": 753755.0, "voting_age_pop": 565219.0, "dem_votes": 120242.0, "rep_votes": 169363.0, "minority_pop": 154264.0, "dem_pct": 0.41519310771043555, "rep_pct": 0.58480689194426649 }, "geometry": { "type": "Polygon", "coordinates": [ [ [ -86.599467000001468, 39.217602000002529 ], [ -86.598981000001658, 39.217384000003058 ], [ -86.592678000001797, 39.215133000002702 ], [ -86.586064000002239, 39.211764000003171 ], [ -86.584198000001436, 39.21084600000308 ], [ -86.573725000002241, 39.207674000002363 ], [ -86.573885000002306, 39.251688000002915 ], [ -86.574114000002453, 39.275828000002313 ], [ -86.574280000002219, 39.339681000003075 ], [ -86.630818000001796, 39.346948000002747 ], [ -86.630955000001521, 39.40625600000304 ], [ -86.631910000001369, 39.441086000002649 ], [ -86.632206000001602, 39.470214000002571 ], [ -86.685710000002047, 39.470063000002348 ], [ -86.706134000001555, 39.470516000002519 ], [ -86.780813000002297, 39.471463000002998 ], [ -86.850949000002501, 39.472322000002897 ], [ -86.903992000002106, 39.472639000002879 ], [ -86.903568000001727, 39.509095000002965 ], [ -86.903334000002019, 39.53037600000301 ], [ -86.802157000002154, 39.529371000002811 ], [ -86.795061000002178, 39.529605000002519 ], [ -86.79474700000172, 39.60186000000283 ], [ -86.794871000002033, 39.602068000002937 ], [ -86.794471000002261, 39.643978000002711 ], [ -86.793671000002291, 39.688856000002367 ], [ -86.793585000001755, 39.717797000003152 ], [ -86.817160000002303, 39.732397000003026 ], [ -86.854286000001792, 39.7330410000027 ], [ -86.853772000001555, 39.777483000002753 ], [ -86.793165000002432, 39.776655000003089 ], [ -86.686814000001917, 39.776111000003169 ], [ -86.68681200000151, 39.819676000002296 ], [ -86.686843000002426, 39.864842000003122 ], [ -86.695127000002103, 39.864845000003072 ], [ -86.695071000001505, 39.922770000002309 ], [ -86.628987000002041, 39.922815000002934 ], [ -86.58158400000174, 39.922820000002659 ], [ -86.543710000001965, 39.922792000002765 ], [ -86.506028000002132, 39.922912000002768 ], [ -86.449850000001888, 39.923297000002883 ], [ -86.430870000001661, 39.923490000002595 ], [ -86.397710000002078, 39.923772000002586 ], [ -86.355262000001474, 39.924041000002816 ], [ -86.326293000002281, 39.924029000002704 ], [ -86.321394000002286, 39.924158000002691 ], [ -86.307246000002465, 39.924394000002401 ], [ -86.27847100000146, 39.924729000002714 ], [ -86.268246000002179, 39.924916000002447 ], [ -86.240736000002101, 39.926062000002659 ], [ -86.240902000001597, 39.94075300000285 ], [ -86.24096100000213, 39.955315000003047 ], [ -86.24101700000169, 39.962574000002505 ], [ -86.241177000001684, 39.977094000002317 ], [ -86.241218000002263, 39.985351000002616 ], [ -86.24107400000139, 39.991517000003029 ], [ -86.241065000001541, 39.998773000003155 ], [ -86.241067000001664, 40.005923000002795 ], [ -86.241420000001497, 40.041545000002621 ], [ -86.24145300000238, 40.04882900000235 ], [ -86.241458000002041, 40.070819000002899 ], [ -86.241722000001985, 40.099850000003073 ], [ -86.241902000001488, 40.129621000002309 ], [ -86.241965000001429, 40.136892000002533 ], [ -86.24236500000174, 40.180778000003158 ], [ -86.242743000002207, 40.215834000002666 ], [ -86.223631000001845, 40.216124000002303 ], [ -86.220622000001626, 40.136165000002947 ], [ -86.17533300000251, 40.114968000002449 ], [ -86.175205000002464, 40.100468000002692 ], [ -86.203600000001728, 40.100206000003013 ], [ -86.203405000002434, 40.067466000003158 ], [ -86.173158000002118, 40.067800000002819 ], [ -86.157406000001757, 40.084574000002533 ], [ -86.128022000002375, 40.081994000002375 ], [ -86.109280000002386, 40.072278000003095 ], [ -86.118820000001449, 40.072271000002601 ], [ -86.12173700000173, 40.072250000002519 ], [ -86.109228000001991, 40.050250000003068 ], [ -86.109000000002041, 40.042872000003094 ], [ -86.102919000002444, 40.04292700000309 ], [ -86.089809000002276, 40.040184000003066 ], [ -86.089753000001465, 40.032899000003113 ], [ -86.089747000002475, 40.027285000002344 ], [ -86.089749000002271, 40.027000000002957 ], [ -86.089778000001459, 40.022001000002462 ], [ -86.108718000002469, 40.022163000002685 ], [ -86.110972000001652, 40.040244000003128 ], [ -86.11176700000226, 40.042857000002542 ], [ -86.115668000001833, 40.042866000002775 ], [ -86.127733000002195, 40.04274400000233 ], [ -86.127490000002084, 40.022029000002689 ], [ -86.129002000002387, 40.014704000002986 ], [ -86.145903000002022, 40.014149000002583 ], [ -86.164898000001699, 40.013882000003129 ], [ -86.164877000002008, 40.010511000002758 ], [ -86.164843000001454, 40.006341000002486 ], [ -86.16480300000174, 40.003079000003119 ], [ -86.164921000001613, 39.999458000002811 ], [ -86.164769000002096, 39.999461000002327 ], [ -86.164759000001709, 39.992210000002629 ], [ -86.164773000002384, 39.990103000002591 ], [ -86.164775000002052, 39.984969000002614 ], [ -86.183547000002335, 39.984795000002578 ], [ -86.183532000002288, 39.97756300000281 ], [ -86.179107000001835, 39.977612000002303 ], [ -86.157212000002204, 39.977888000002338 ], [ -86.157651000002389, 39.971367000002495 ], [ -86.141048000001987, 39.970949000003138 ], [ -86.141071000002114, 39.978152000002638 ], [ -86.129716000001395, 39.970556000002624 ], [ -86.12685700000236, 39.961409000002483 ], [ -86.126742000001357, 39.956597000002333 ], [ -86.114034000002263, 39.956645000003157 ], [ -86.113766000002002, 39.956647000002306 ], [ -86.106180000002212, 39.956640000002551 ], [ -86.105443000001415, 39.941455000002925 ], [ -86.098249000001445, 39.941421000003139 ], [ -86.088713000002301, 39.930486000002347 ], [ -86.088705000002292, 39.926884000002552 ], [ -86.103486000002107, 39.926894000002392 ], [ -86.11216800000237, 39.926902000002933 ], [ -86.11241400000165, 39.926901000002829 ], [ -86.13636700000184, 39.92706900000266 ], [ -86.145264000002356, 39.927157000002651 ], [ -86.145883000002442, 39.927168000002943 ], [ -86.1506910000017, 39.927105000002797 ], [ -86.165066000002483, 39.926906000002802 ], [ -86.175543000002023, 39.926866000002903 ], [ -86.184021000001991, 39.918244000002993 ], [ -86.184007000001955, 39.915074000003067 ], [ -86.202993000002039, 39.917532000002815 ], [ -86.203038000002067, 39.906511000002375 ], [ -86.209645000001828, 39.905673000002501 ], [ -86.219736000001546, 39.905454000002713 ], [ -86.217947000002042, 39.897112000002934 ], [ -86.216005000002028, 39.883053000002498 ], [ -86.213257000001391, 39.883967000003068 ], [ -86.218643000002061, 39.877548000002946 ], [ -86.215725000001669, 39.867887000002995 ], [ -86.217082000001653, 39.867863000002572 ], [ -86.216685000002059, 39.849226000002801 ], [ -86.216560000002104, 39.844012000002358 ], [ -86.224420000001658, 39.853437000002486 ], [ -86.226274000002306, 39.838870000002657 ], [ -86.216402000002148, 39.828460000002629 ], [ -86.216379000001993, 39.823847000003127 ], [ -86.211380000002478, 39.82391700000278 ], [ -86.197546000001424, 39.824403000002455 ], [ -86.19715000000231, 39.809925000002806 ], [ -86.202514000002225, 39.80985900000276 ], [ -86.20587500000228, 39.795498000002759 ], [ -86.211031000002194, 39.787879000002611 ], [ -86.206300000001647, 39.787932000002414 ], [ -86.196825000002477, 39.786133000002621 ], [ -86.196973000002401, 39.780737000002823 ], [ -86.19692900000156, 39.77470000000249 ], [ -86.196909000001469, 39.771159000002946 ], [ -86.196901000002171, 39.766239000002983 ], [ -86.196873000002427, 39.76356300000284 ], [ -86.196791000002364, 39.756174000002389 ], [ -86.212250000001603, 39.754296000002491 ], [ -86.216079000002125, 39.755680000002641 ], [ -86.225235000002002, 39.753444000002993 ], [ -86.233484000001795, 39.727869000003054 ], [ -86.2503170000018, 39.730601000002991 ], [ -86.250341000001981, 39.721142000003027 ], [ -86.273996000002114, 39.720752000002321 ], [ -86.269415000002454, 39.694246000002813 ], [ -86.274930000002314, 39.690572000002668 ], [ -86.32658500000214, 39.6862420000027 ], [ -86.326584000001858, 39.671795000002597 ], [ -86.326461000001459, 39.661335000002573 ], [ -86.326363000001379, 39.646768000002488 ], [ -86.326365000002212, 39.639890000002929 ], [ -86.326341000001577, 39.632177000002727 ], [ -86.316827000002334, 39.632375000002767 ], [ -86.311241000001658, 39.632528000002871 ], [ -86.3110660000021, 39.632533000002667 ], [ -86.307318000001402, 39.632614000002505 ], [ -86.249885000002266, 39.633645000002637 ], [ -86.234224000001547, 39.633854000002344 ], [ -86.205778000001828, 39.634250000003007 ], [ -86.196410000002047, 39.63439000000259 ], [ -86.185662000002353, 39.634586000003011 ], [ -86.184163000002215, 39.634603000002357 ], [ -86.177417000002364, 39.634742000002738 ], [ -86.168150000002512, 39.634910000002748 ], [ -86.163749000001786, 39.634999000002637 ], [ -86.158390000001745, 39.63510000000273 ], [ -86.15299000000168, 39.635160000002948 ], [ -86.139422000001773, 39.635386000002448 ], [ -86.132449000002268, 39.635478000002621 ], [ -86.126863000001777, 39.635474000002489 ], [ -86.117138000002427, 39.635607000003162 ], [ -86.111230000001925, 39.635750000002389 ], [ -86.106297000001717, 39.635780000002377 ], [ -86.101520000002168, 39.635850000002407 ], [ -86.082730000002471, 39.636440000002885 ], [ -86.074208000001462, 39.636589000002459 ], [ -86.063710000002388, 39.636830000002611 ], [ -86.052865000002001, 39.637062000002643 ], [ -86.044705000002267, 39.637219000002425 ], [ -86.044638000001882, 39.637224000003208 ], [ -86.018788000002104, 39.637342000002612 ], [ -85.956974000001708, 39.638295000003119 ], [ -85.952080000002212, 39.638345000002928 ], [ -85.952523000001392, 39.609150000002849 ], [ -85.952470000002492, 39.600787000003024 ], [ -85.951922000001687, 39.537875000002614 ], [ -85.95138900000201, 39.523125000002985 ], [ -85.950800000001891, 39.495220000003009 ], [ -85.950937000002057, 39.436091000002584 ], [ -85.95254500000182, 39.435921000002708 ], [ -85.952700000001371, 39.361890000002674 ], [ -85.952480000001756, 39.357130000003096 ], [ -85.952005000001606, 39.347373000003181 ], [ -85.962650000001545, 39.347080000002805 ], [ -85.970137000002467, 39.346864000002888 ], [ -85.977935000002503, 39.346621000002337 ], [ -85.993141000001543, 39.346543000003173 ], [ -86.027719000001653, 39.345609000002611 ], [ -86.085601000002427, 39.344189000002601 ], [ -86.084094000002182, 39.299638000002417 ], [ -86.082623000001718, 39.255964000002393 ], [ -86.081824000002399, 39.226288000003031 ], [ -86.163732000002042, 39.225169000002737 ], [ -86.192813000002204, 39.201154000003143 ], [ -86.184184000001935, 39.166465000002546 ], [ -86.21710600000155, 39.16642400000292 ], [ -86.226975000001758, 39.135227000002473 ], [ -86.300898000001865, 39.1328750000025 ], [ -86.29980000000144, 39.048861000003214 ], [ -86.318133000001794, 39.048810000002774 ], [ -86.370066000001742, 39.048375000002565 ], [ -86.369168000001764, 39.076826000002583 ], [ -86.37029200000228, 39.165448000002357 ], [ -86.371993000002377, 39.223556000002944 ], [ -86.372202000002432, 39.238283000002426 ], [ -86.430858000001891, 39.23062000000278 ], [ -86.463268000001761, 39.210031000002843 ], [ -86.463525000002093, 39.212728000002897 ], [ -86.525925000001905, 39.208110000002534 ], [ -86.528724000002313, 39.208019000003048 ], [ -86.528396000002161, 39.186292000002865 ], [ -86.519814000001915, 39.185996000002447 ], [ -86.518978000002377, 39.17901000000316 ], [ -86.533499000002422, 39.178990000002635 ], [ -86.534698000002066, 39.178992000002822 ], [ -86.537746000001874, 39.179013000003074 ], [ -86.551468000002146, 39.170710000002778 ], [ -86.561487000001804, 39.165639000002663 ], [ -86.564988000001932, 39.172481000003174 ], [ -86.568408000001426, 39.17293700000257 ], [ -86.573544000002045, 39.17337800000265 ], [ -86.573595000001504, 39.187970000002416 ], [ -86.605835000002514, 39.208088000002938 ], [ -86.599467000001468, 39.217602000002529 ] ], [ [ -86.165536000002305, 40.05699300000304 ], [ -86.165540000001485, 40.054897000002995 ], [ -86.165537000001805, 40.054226000002608 ], [ -86.165536000002305, 40.05699300000304 ] ] ] } },
{ "type": "Feature", "properties": { "opt_all": 7, "population": 756589.0, "voting_age_pop": 578273.0, "dem_votes": 168132.0, "rep_votes": 109243.0, "minority_pop": 234630.0, "dem_pct": 0.60615412326051221, "rep_pct": 0.39384587637896495 }, "geometry": { "type": "Polygon", "coordinates": [ [ [ -86.274930000002314, 39.690572000002668 ], [ -86.269415000002454, 39.694246000002813 ], [ -86.273996000002114, 39.720752000002321 ], [ -86.250341000001981, 39.721142000003027 ], [ -86.2503170000018, 39.730601000002991 ], [ -86.233484000001795, 39.727869000003054 ], [ -86.225235000002002, 39.753444000002993 ], [ -86.216079000002125, 39.755680000002641 ], [ -86.212250000001603, 39.754296000002491 ], [ -86.196791000002364, 39.756174000002389 ], [ -86.196873000002427, 39.76356300000284 ], [ -86.196901000002171, 39.766239000002983 ], [ -86.196909000001469, 39.771159000002946 ], [ -86.19692900000156, 39.77470000000249 ], [ -86.196973000002401, 39.780737000002823 ], [ -86.196825000002477, 39.786133000002621 ], [ -86.206300000001647, 39.787932000002414 ], [ -86.211031000002194, 39.787879000002611 ], [ -86.20587500000228, 39.795498000002759 ], [ -86.202514000002225, 39.80985900000276 ], [ -86.19715000000231, 39.809925000002806 ], [ -86.197546000001424, 39.824403000002455 ], [ -86.211380000002478, 39.82391700000278 ], [ -86.216379000001993, 39.823847000003127 ], [ -86.216402000002148, 39.828460000002629 ], [ -86.226274000002306, 39.838870000002657 ], [ -86.224420000001658, 39.853437000002486 ], [ -86.216560000002104, 39.844012000002358 ], [ -86.216685000002059, 39.849226000002801 ], [ -86.217082000001653, 39.867863000002572 ], [ -86.215725000001669, 39.867887000002995 ], [ -86.218643000002061, 39.877548000002946 ], [ -86.213257000001391, 39.883967000003068 ], [ -86.216005000002028, 39.883053000002498 ], [ -86.217947000002042, 39.897112000002934 ], [ -86.219736000001546, 39.905454000002713 ], [ -86.209645000001828, 39.905673000002501 ], [ -86.203038000002067, 39.906511000002375 ], [ -86.202993000002039, 39.917532000002815 ], [ -86.184007000001955, 39.915074000003067 ], [ -86.184021000001991, 39.918244000002993 ], [ -86.175543000002023, 39.926866000002903 ], [ -86.165066000002483, 39.926906000002802 ], [ -86.1506910000017, 39.927105000002797 ], [ -86.145883000002442, 39.927168000002943 ], [ -86.145264000002356, 39.927157000002651 ], [ -86.13636700000184, 39.92706900000266 ], [ -86.11241400000165, 39.926901000002829 ], [ -86.11216800000237, 39.926902000002933 ], [ -86.103486000002107, 39.926894000002392 ], [ -86.088705000002292, 39.926884000002552 ], [ -86.076183000001819, 39.926950000002485 ], [ -86.06959400000207, 39.926985000002546 ], [ -86.066121000001658, 39.927005000002417 ], [ -86.057865000001968, 39.927021000002654 ], [ -86.05548200000149, 39.927029000002911 ], [ -86.050659000002085, 39.92704600000318 ], [ -86.046256000002003, 39.927053000002921 ], [ -86.032979000002129, 39.927064000003149 ], [ -86.029766000002425, 39.927107000002742 ], [ -86.019260000002362, 39.927281000002509 ], [ -86.013708000002126, 39.927390000002354 ], [ -86.012555000001925, 39.927318000002387 ], [ -86.006390000001915, 39.927092000003157 ], [ -86.001659000001538, 39.927057000002428 ], [ -85.995037000002256, 39.927000000002614 ], [ -85.991485000001916, 39.927034000002585 ], [ -85.980854000002182, 39.92710800000269 ], [ -85.937587000001443, 39.927137000003185 ], [ -85.938110000001487, 39.926493000002786 ], [ -85.938099000001571, 39.913028000002662 ], [ -85.938088000001741, 39.904527000002354 ], [ -85.938079000002119, 39.898630000003124 ], [ -85.938080000001875, 39.891427000002999 ], [ -85.938077000001442, 39.887183000002814 ], [ -85.938071000001585, 39.880565000002441 ], [ -85.938067000001737, 39.869812000003108 ], [ -85.954013000002334, 39.869646000002888 ], [ -85.953683000002158, 39.856117000002818 ], [ -85.953640000001627, 39.85326600000284 ], [ -85.95348900000198, 39.841465000002394 ], [ -85.953317000002215, 39.834129000002868 ], [ -85.953123000002378, 39.82677700000292 ], [ -85.952902000002211, 39.806749000002391 ], [ -85.952582000001385, 39.797380000003081 ], [ -85.9524570000019, 39.788196000003133 ], [ -85.952379000001656, 39.782704000002603 ], [ -85.952378000002042, 39.782674000003134 ], [ -85.952312000001712, 39.771969000003089 ], [ -85.952204000001871, 39.755600000002921 ], [ -85.95181700000191, 39.740929000002509 ], [ -85.951842000002301, 39.734107000002943 ], [ -85.951699000002066, 39.726419000002906 ], [ -85.951721000001925, 39.697136000003205 ], [ -85.95173500000223, 39.697049000003105 ], [ -85.951991000001954, 39.682484000002944 ], [ -85.952056000001349, 39.668917000002622 ], [ -85.952080000002212, 39.638345000002928 ], [ -85.956974000001708, 39.638295000003119 ], [ -86.018788000002104, 39.637342000002612 ], [ -86.044638000001882, 39.637224000003208 ], [ -86.044705000002267, 39.637219000002425 ], [ -86.052865000002001, 39.637062000002643 ], [ -86.063710000002388, 39.636830000002611 ], [ -86.074208000001462, 39.636589000002459 ], [ -86.082730000002471, 39.636440000002885 ], [ -86.101520000002168, 39.635850000002407 ], [ -86.106297000001717, 39.635780000002377 ], [ -86.111230000001925, 39.635750000002389 ], [ -86.117138000002427, 39.635607000003162 ], [ -86.126863000001777, 39.635474000002489 ], [ -86.132449000002268, 39.635478000002621 ], [ -86.139422000001773, 39.635386000002448 ], [ -86.15299000000168, 39.635160000002948 ], [ -86.158390000001745, 39.63510000000273 ], [ -86.163749000001786, 39.634999000002637 ], [ -86.168150000002512, 39.634910000002748 ], [ -86.177417000002364, 39.634742000002738 ], [ -86.184163000002215, 39.634603000002357 ], [ -86.185662000002353, 39.634586000003011 ], [ -86.196410000002047, 39.63439000000259 ], [ -86.205778000001828, 39.634250000003007 ], [ -86.234224000001547, 39.633854000002344 ], [ -86.249885000002266, 39.633645000002637 ], [ -86.307318000001402, 39.632614000002505 ], [ -86.3110660000021, 39.632533000002667 ], [ -86.311241000001658, 39.632528000002871 ], [ -86.316827000002334, 39.632375000002767 ], [ -86.326341000001577, 39.632177000002727 ], [ -86.326365000002212, 39.639890000002929 ], [ -86.326363000001379, 39.646768000002488 ], [ -86.326461000001459, 39.661335000002573 ], [ -86.326584000001858, 39.671795000002597 ], [ -86.32658500000214, 39.6862420000027 ], [ -86.274930000002314, 39.690572000002668 ] ] ] } },
{ "type": "Feature", "properties": { "opt_all": 8, "population": 756591.0, "voting_age_pop": 592859.0, "dem_votes": 121929.0, "rep_votes": 184175.0, "minority_pop": 69299.0, "dem_pct": 0.39832540561432539, "rep_pct": 0.60167459405898827 }, "geometry": { "type": "Polygon", "coordinates": [ [ [ -88.035456000002483, 37.809520000002401 ], [ -88.062223000002589, 37.80058100000246 ], [ -88.090039000002221, 37.816771000002994 ], [ -88.080854000001622, 37.830902000002943 ], [ -88.0438310000021, 37.821525000002502 ], [ -88.028217000001817, 37.838585000003114 ], [ -88.059425000002449, 37.848732000003025 ], [ -88.078529000002519, 37.879118000002279 ], [ -88.094956000001645, 37.893689000003064 ], [ -88.086237000001589, 37.90571300000321 ], [ -88.055373000002021, 37.89123800000236 ], [ -88.014225000001929, 37.892206000002318 ], [ -88.036186000001777, 37.943860000002786 ], [ -88.012574000001834, 37.977062000002412 ], [ -88.025259000002123, 38.010632000002651 ], [ -88.004731000001485, 38.051045000002581 ], [ -87.967226000001972, 38.067105000002435 ], [ -87.957879000001725, 38.083791000003131 ], [ -87.960677000002008, 38.100191000003029 ], [ -88.004697000002409, 38.08396500000255 ], [ -88.013118000002279, 38.103527000002458 ], [ -87.974781000001926, 38.1105150000026 ], [ -87.969464000001594, 38.130744000002721 ], [ -87.942506000002126, 38.131280000003109 ], [ -87.916716000001756, 38.156640000003001 ], [ -87.92071200000197, 38.174032000002413 ], [ -87.940491000002481, 38.174902000002682 ], [ -87.969865000001803, 38.191786000003034 ], [ -87.982763000001796, 38.206705000002934 ], [ -87.983732000001453, 38.230354000003011 ], [ -87.960225000001913, 38.237118000003143 ], [ -87.952163000002344, 38.270512000002853 ], [ -87.937329000002265, 38.29243100000258 ], [ -87.888223000002554, 38.284917000002551 ], [ -87.878303000001907, 38.307849000002314 ], [ -87.85113000000166, 38.275120000002602 ], [ -87.83095300000214, 38.299365000002346 ], [ -87.832723000002389, 38.324853000002406 ], [ -87.808897000001991, 38.360431000003011 ], [ -87.784994000002143, 38.368011000002298 ], [ -87.759402000002183, 38.392662000002872 ], [ -87.743691000002471, 38.414387000002726 ], [ -87.730820000001515, 38.449228000002535 ], [ -87.756179000002021, 38.462538000003079 ], [ -87.74464400000241, 38.47726600000275 ], [ -87.714047000002083, 38.479880000002922 ], [ -87.685921000001997, 38.491843000002426 ], [ -87.650011000002479, 38.517728000002592 ], [ -87.670071000002238, 38.545237000002565 ], [ -87.65273800000152, 38.565039000002614 ], [ -87.621401000001484, 38.586118000002514 ], [ -87.627345000001924, 38.607237000002854 ], [ -87.597247000001445, 38.665314000002567 ], [ -87.564417000002294, 38.674944000002412 ], [ -87.53516400000251, 38.681437000002788 ], [ -87.519610000001919, 38.697198000002373 ], [ -87.5062210000021, 38.733533000002659 ], [ -87.497476000001512, 38.767647000002327 ], [ -87.495905000001883, 38.78543400000251 ], [ -87.526816000001702, 38.817369000002465 ], [ -87.525893000001886, 38.848795000003157 ], [ -87.552028000002252, 38.8603180000027 ], [ -87.536816000002105, 38.877408000002859 ], [ -87.544292000001846, 38.888953000002729 ], [ -87.522939000002509, 38.902390000002534 ], [ -87.519469000002346, 38.942981000002689 ], [ -87.513346000001903, 38.956000000002717 ], [ -87.542437000002479, 38.975587000002648 ], [ -87.573466000002483, 38.985441000002353 ], [ -87.569696000001514, 39.019413000002842 ], [ -87.580207000002233, 39.041940000002576 ], [ -87.572588000002185, 39.057286000002591 ], [ -87.596373000001535, 39.079639000002885 ], [ -87.618733000001754, 39.085010000002328 ], [ -87.618385000002476, 39.104284000002821 ], [ -87.658745000002043, 39.135997000003037 ], [ -87.637934000002517, 39.168428000002336 ], [ -87.619410000002148, 39.172089000003034 ], [ -87.619603000001831, 39.186032000003074 ], [ -87.585725000001645, 39.200396000002769 ], [ -87.574615000001671, 39.223931000002992 ], [ -87.580652000002104, 39.255237000002708 ], [ -87.604141000002087, 39.259458000002851 ], [ -87.460602000002325, 39.259316000002698 ], [ -87.388807000002188, 39.259037000003111 ], [ -87.381845000001917, 39.258981000003118 ], [ -87.351332000001932, 39.259195000002514 ], [ -87.240379000001482, 39.25906400000234 ], [ -87.24068800000174, 39.193598000002602 ], [ -87.240737000002099, 39.171773000003121 ], [ -87.240843000002059, 39.142634000002957 ], [ -87.240871000002187, 39.131373000002426 ], [ -87.240918000001841, 39.084397000002923 ], [ -87.240921000002274, 39.067164000002926 ], [ -87.24094900000172, 39.045393000002875 ], [ -87.240846000002364, 39.038332000002512 ], [ -87.240797000002217, 38.994483000002944 ], [ -87.241027000002347, 38.90787400000282 ], [ -87.205373000001458, 38.90773800000288 ], [ -87.129882000002155, 38.90731500000247 ], [ -87.101308000002064, 38.904019000002712 ], [ -87.098771000001975, 38.903974000002989 ], [ -87.058628000002258, 38.903038000003136 ], [ -87.017356000001499, 38.902593000002611 ], [ -86.959608000001893, 38.903217000002542 ], [ -86.90425200000216, 38.904204000002494 ], [ -86.891678000002102, 38.904210000002372 ], [ -86.831419000002128, 38.904325000002906 ], [ -86.794425000002278, 38.904367000002679 ], [ -86.682853000001558, 38.904697000003203 ], [ -86.682277000001633, 38.992404000002345 ], [ -86.682401000001988, 39.079846000002497 ], [ -86.682548000001859, 39.108931000002805 ], [ -86.683002000002517, 39.16574600000294 ], [ -86.73950000000238, 39.166237000002774 ], [ -86.795205000001545, 39.166726000003138 ], [ -86.832128000002484, 39.167035000002969 ], [ -86.893144000001627, 39.167901000002942 ], [ -86.905261000002056, 39.167841000002298 ], [ -86.979518000001761, 39.168021000002362 ], [ -87.035900000002499, 39.168131000003179 ], [ -87.054578000001854, 39.16808600000244 ], [ -87.054455000001539, 39.255750000002557 ], [ -87.053646000001947, 39.342621000002801 ], [ -86.942473000002011, 39.342043000002469 ], [ -86.942293000002309, 39.399912000002509 ], [ -86.942409000001689, 39.429356000002301 ], [ -86.939981000001524, 39.473345000002908 ], [ -86.903992000002106, 39.472639000002879 ], [ -86.850949000002501, 39.472322000002897 ], [ -86.780813000002297, 39.471463000002998 ], [ -86.706134000001555, 39.470516000002519 ], [ -86.685710000002047, 39.470063000002348 ], [ -86.632206000001602, 39.470214000002571 ], [ -86.631910000001369, 39.441086000002649 ], [ -86.630955000001521, 39.40625600000304 ], [ -86.630818000001796, 39.346948000002747 ], [ -86.574280000002219, 39.339681000003075 ], [ -86.574114000002453, 39.275828000002313 ], [ -86.573885000002306, 39.251688000002915 ], [ -86.573725000002241, 39.207674000002363 ], [ -86.584198000001436, 39.21084600000308 ], [ -86.586064000002239, 39.211764000003171 ], [ -86.592678000001797, 39.215133000002702 ], [ -86.598981000001658, 39.217384000003058 ], [ -86.599467000001468, 39.217602000002529 ], [ -86.605835000002514, 39.208088000002938 ], [ -86.573595000001504, 39.187970000002416 ], [ -86.573544000002045, 39.17337800000265 ], [ -86.568408000001426, 39.17293700000257 ], [ -86.564988000001932, 39.172481000003174 ], [ -86.561487000001804, 39.165639000002663 ], [ -86.551468000002146, 39.170710000002778 ], [ -86.537746000001874, 39.179013000003074 ], [ -86.534698000002066, 39.178992000002822 ], [ -86.533499000002422, 39.178990000002635 ], [ -86.518978000002377, 39.17901000000316 ], [ -86.519814000001915, 39.185996000002447 ], [ -86.528396000002161, 39.186292000002865 ], [ -86.528724000002313, 39.208019000003048 ], [ -86.525925000001905, 39.208110000002534 ], [ -86.463525000002093, 39.212728000002897 ], [ -86.463268000001761, 39.210031000002843 ], [ -86.430858000001891, 39.23062000000278 ], [ -86.372202000002432, 39.238283000002426 ], [ -86.371993000002377, 39.223556000002944 ], [ -86.37029200000228, 39.165448000002357 ], [ -86.369168000001764, 39.076826000002583 ], [ -86.370066000001742, 39.048375000002565 ], [ -86.318133000001794, 39.048810000002774 ], [ -86.317474000002349, 38.990870000003 ], [ -86.280389000001989, 38.991028000002935 ], [ -86.279437000002304, 38.961106000003106 ], [ -86.277331000002079, 38.874342000003189 ], [ -86.277059000001628, 38.859589000002593 ], [ -86.275281000001712, 38.763795000002865 ], [ -86.292057000002188, 38.735097000002952 ], [ -86.31005800000203, 38.733131000003091 ], [ -86.308701000002515, 38.688101000002803 ], [ -86.307749000001579, 38.644462000002704 ], [ -86.307993000001403, 38.586243000002646 ], [ -86.308206000002315, 38.564394000002451 ], [ -86.308614000001384, 38.484824000002426 ], [ -86.308359000001559, 38.470382000002765 ], [ -86.308674000001389, 38.422875000002684 ], [ -86.255045000002369, 38.422685000002545 ], [ -86.141731000001826, 38.41991700000294 ], [ -86.123287000001838, 38.419678000002627 ], [ -86.106876000001535, 38.419177000002541 ], [ -86.032817000001984, 38.417898000002879 ], [ -86.033104000002012, 38.385195000003222 ], [ -86.032345000002067, 38.367421000002388 ], [ -86.032414000001424, 38.352817000002901 ], [ -86.03255600000162, 38.330883000003041 ], [ -86.014312000002377, 38.330718000003195 ], [ -86.014115000002022, 38.301813000002909 ], [ -85.995280000002396, 38.300893000003207 ], [ -85.995302000002255, 38.294570000003162 ], [ -85.992411000001539, 38.272844000002621 ], [ -85.973638000001884, 38.271622000002957 ], [ -85.973848000001624, 38.258132000002519 ], [ -85.955199000001898, 38.257806000002361 ], [ -85.958020000001383, 38.186623000002569 ], [ -85.899613000001708, 38.180416000002637 ], [ -85.909096000001981, 38.142341000003064 ], [ -85.905285000002436, 38.088936000002775 ], [ -85.907554000001568, 38.083291000002767 ], [ -85.920652000002207, 38.032306000003054 ], [ -85.942699000002264, 38.006816000002814 ], [ -85.977415000001642, 38.003382000002468 ], [ -86.030852000002255, 37.991769000002407 ], [ -86.038906000001873, 37.958990000002672 ], [ -86.05799700000199, 37.967671000002952 ], [ -86.086345000001543, 38.004901000002477 ], [ -86.133328000001882, 38.016074000002845 ], [ -86.163186000001375, 38.010064000002473 ], [ -86.196501000001845, 38.01852600000273 ], [ -86.267805000002014, 38.057148000002726 ], [ -86.272831000001986, 38.064990000002489 ], [ -86.279116000002304, 38.100938000002934 ], [ -86.271513000001505, 38.124642000002723 ], [ -86.277053000001743, 38.146033000002838 ], [ -86.295085000002231, 38.163754000002626 ], [ -86.329600000002443, 38.18180500000274 ], [ -86.348553000001772, 38.19568500000274 ], [ -86.375707000002421, 38.191125000002643 ], [ -86.376728000001592, 38.169743000003052 ], [ -86.36534200000176, 38.161367000002826 ], [ -86.325874000002116, 38.154029000002502 ], [ -86.327578000002475, 38.133428000002922 ], [ -86.37508300000151, 38.130638000002527 ], [ -86.396463000002413, 38.106891000002399 ], [ -86.416993000001455, 38.116741000003216 ], [ -86.432738000002303, 38.126429000002808 ], [ -86.461023000001447, 38.121097000002791 ], [ -86.465503000002059, 38.104306000003177 ], [ -86.431551000002443, 38.083736000003043 ], [ -86.433923000001556, 38.065705000002907 ], [ -86.46699800000205, 38.046638000003085 ], [ -86.497027000002319, 38.045883000002483 ], [ -86.525074000001965, 38.028941000002817 ], [ -86.524937000002467, 37.966495000002645 ], [ -86.509318000001841, 37.94229700000281 ], [ -86.510246000002269, 37.926660000002755 ], [ -86.533331000001553, 37.91725000000325 ], [ -86.586481000001811, 37.92226700000279 ], [ -86.6001730000023, 37.904400000002866 ], [ -86.597857000002008, 37.867728000002892 ], [ -86.638279000002257, 37.842690000002371 ], [ -86.662481000001762, 37.857084000002928 ], [ -86.644719000002013, 37.894991000003216 ], [ -86.650426000001673, 37.910861000002775 ], [ -86.67239700000151, 37.914774000002751 ], [ -86.703617000001515, 37.901414000002362 ], [ -86.717436000001811, 37.893504000003219 ], [ -86.733403000001616, 37.895373000003062 ], [ -86.755002000002023, 37.919149000002506 ], [ -86.765517000001608, 37.93348000000276 ], [ -86.773567000002501, 37.94737100000264 ], [ -86.774359000001425, 37.948364000002371 ], [ -86.795045000001778, 37.989279000002448 ], [ -86.805038000002369, 37.993671000003019 ], [ -86.814652000002454, 37.998708000002715 ], [ -86.860914000002069, 37.984368000002775 ], [ -86.907270000001503, 37.942999000003233 ], [ -86.920658000002476, 37.936214000002423 ], [ -86.967986000002185, 37.933009000003182 ], [ -87.018057000002216, 37.915376000002638 ], [ -87.0462120000021, 37.888613000003083 ], [ -87.043056000002338, 37.87554200000298 ], [ -87.056664000001419, 37.827531000002679 ], [ -87.069675000001496, 37.801513000003069 ], [ -87.091518000001727, 37.786760000002687 ], [ -87.129363000001533, 37.785991000002859 ], [ -87.148080000002025, 37.825051000002397 ], [ -87.161096000001621, 37.839359000003135 ], [ -87.220466000002403, 37.84906500000298 ], [ -87.268995000002093, 37.878026000003139 ], [ -87.3210130000015, 37.905969000002692 ], [ -87.337910000002111, 37.908131000002911 ], [ -87.373400000002434, 37.931963000002632 ], [ -87.391150000002483, 37.938867000002453 ], [ -87.404244000002521, 37.942916000002413 ], [ -87.410908000001768, 37.944259000002326 ], [ -87.423212000001499, 37.944356000002557 ], [ -87.451219000002268, 37.940808000002903 ], [ -87.509720000002247, 37.906028000002422 ], [ -87.548498000002425, 37.923880000003088 ], [ -87.573210000001964, 37.950227000002435 ], [ -87.575253000002434, 37.966414000002828 ], [ -87.588129000001601, 37.975299000002586 ], [ -87.600767000001667, 37.971968000002605 ], [ -87.603368000001822, 37.966931000002432 ], [ -87.610616000002139, 37.944538000002495 ], [ -87.623521000001617, 37.930747000002512 ], [ -87.618153000002451, 37.905522000002598 ], [ -87.587141000001935, 37.884858000002403 ], [ -87.583925000001472, 37.872485000002463 ], [ -87.615345000001682, 37.831882000002686 ], [ -87.670344000001535, 37.827962000002813 ], [ -87.681684000001567, 37.856273000002325 ], [ -87.666714000002258, 37.880038000002749 ], [ -87.666840000001585, 37.895763000002674 ], [ -87.684653000002271, 37.903521000002819 ], [ -87.70078600000214, 37.897420000002526 ], [ -87.759239000002012, 37.891662000002661 ], [ -87.78344700000207, 37.87778500000266 ], [ -87.815729000002463, 37.875592000002648 ], [ -87.838425000001749, 37.879907000003051 ], [ -87.875130000002144, 37.922865000002673 ], [ -87.888443000001928, 37.927194000002437 ], [ -87.894383000002335, 37.928059000002882 ], [ -87.906634000002271, 37.923238000002662 ], [ -87.937204000001827, 37.892181000002942 ], [ -87.937986000002283, 37.870287000002492 ], [ -87.909967000002283, 37.843028000003073 ], [ -87.906939000002026, 37.80759300000269 ], [ -87.93412900000223, 37.796414000002798 ], [ -87.94554300000182, 37.773931000003067 ], [ -88.001340000002372, 37.79890700000238 ], [ -88.02802000000159, 37.799197000003154 ], [ -88.035456000002483, 37.809520000002401 ] ] ] } },
{ "type": "Feature", "properties": { "opt_all": 9, "population": 754466.0, "voting_age_pop": 582783.0, "dem_votes": 96209.0, "rep_votes": 200851.0, "minority_pop": 64599.0, "dem_pct": 0.32387059842325772, "rep_pct": 0.6761294012401099 }, "geometry": { "type": "Polygon", "coordinates": [ [ [ -86.014115000002022, 38.301813000002909 ], [ -86.014312000002377, 38.330718000003195 ], [ -86.03255600000162, 38.330883000003041 ], [ -86.032414000001424, 38.352817000002901 ], [ -86.032345000002067, 38.367421000002388 ], [ -86.033104000002012, 38.385195000003222 ], [ -86.032817000001984, 38.417898000002879 ], [ -86.106876000001535, 38.419177000002541 ], [ -86.123287000001838, 38.419678000002627 ], [ -86.141731000001826, 38.41991700000294 ], [ -86.255045000002369, 38.422685000002545 ], [ -86.308674000001389, 38.422875000002684 ], [ -86.308359000001559, 38.470382000002765 ], [ -86.308614000001384, 38.484824000002426 ], [ -86.308206000002315, 38.564394000002451 ], [ -86.307993000001403, 38.586243000002646 ], [ -86.307749000001579, 38.644462000002704 ], [ -86.308701000002515, 38.688101000002803 ], [ -86.31005800000203, 38.733131000003091 ], [ -86.292057000002188, 38.735097000002952 ], [ -86.275281000001712, 38.763795000002865 ], [ -86.277059000001628, 38.859589000002593 ], [ -86.277331000002079, 38.874342000003189 ], [ -86.279437000002304, 38.961106000003106 ], [ -86.280389000001989, 38.991028000002935 ], [ -86.317474000002349, 38.990870000003 ], [ -86.318133000001794, 39.048810000002774 ], [ -86.29980000000144, 39.048861000003214 ], [ -86.300898000001865, 39.1328750000025 ], [ -86.226975000001758, 39.135227000002473 ], [ -86.21710600000155, 39.16642400000292 ], [ -86.184184000001935, 39.166465000002546 ], [ -86.192813000002204, 39.201154000003143 ], [ -86.163732000002042, 39.225169000002737 ], [ -86.081824000002399, 39.226288000003031 ], [ -86.082623000001718, 39.255964000002393 ], [ -86.084094000002182, 39.299638000002417 ], [ -86.085601000002427, 39.344189000002601 ], [ -86.027719000001653, 39.345609000002611 ], [ -85.993141000001543, 39.346543000003173 ], [ -85.977935000002503, 39.346621000002337 ], [ -85.970137000002467, 39.346864000002888 ], [ -85.962650000001545, 39.347080000002805 ], [ -85.952005000001606, 39.347373000003181 ], [ -85.942820000001745, 39.347584000002534 ], [ -85.857460000001367, 39.349312000002826 ], [ -85.798785000001814, 39.350188000002461 ], [ -85.741770000002049, 39.350187000003167 ], [ -85.684515000001809, 39.350049000002471 ], [ -85.630630000002185, 39.350205000003086 ], [ -85.630281000001858, 39.379402000003054 ], [ -85.630258000001476, 39.423694000002733 ], [ -85.629991000001553, 39.432778000002841 ], [ -85.62978000000237, 39.438576000002918 ], [ -85.629327000002149, 39.452750000002979 ], [ -85.630706000002021, 39.525274000002966 ], [ -85.631125000001845, 39.540040000002968 ], [ -85.63222400000187, 39.611160000003082 ], [ -85.632771000001654, 39.625706000002474 ], [ -85.632824000001477, 39.656173000003008 ], [ -85.632505000002254, 39.698455000002816 ], [ -85.633228000002433, 39.698462000002699 ], [ -85.633491000001968, 39.786177000002532 ], [ -85.596916000001812, 39.786519000002791 ], [ -85.596879000002247, 39.808219000003142 ], [ -85.596678000001475, 39.872926000002778 ], [ -85.591137000001623, 39.872762000002538 ], [ -85.576798000001645, 39.872808000002443 ], [ -85.576331000001986, 39.916501000002896 ], [ -85.576192000001797, 39.945756000002426 ], [ -85.576365000002028, 39.990103000002343 ], [ -85.57615200000204, 40.041010000002352 ], [ -85.576408000001834, 40.047839000002867 ], [ -85.576274000001376, 40.066269000002514 ], [ -85.576197000001969, 40.07714300000287 ], [ -85.537567000002227, 40.077019000003077 ], [ -85.499551000001631, 40.077016000002565 ], [ -85.480279000001957, 40.076893000002705 ], [ -85.442547000001753, 40.076686000002411 ], [ -85.403715000001384, 40.07647700000242 ], [ -85.328095000001341, 40.076546000002537 ], [ -85.308820000002029, 40.076685000003174 ], [ -85.21438600000198, 40.076889000002986 ], [ -85.213553000001795, 40.019002000003155 ], [ -85.201473000001357, 40.004521000003038 ], [ -85.126777000001681, 40.004205000002472 ], [ -85.053481000001611, 40.004809000002972 ], [ -85.034505000001531, 40.004842000002483 ], [ -84.958762000001968, 40.005278000002953 ], [ -84.930252000001659, 40.005311000002649 ], [ -84.886619000001971, 40.006289000002852 ], [ -84.810825000002069, 40.005077000002437 ], [ -84.812644000001839, 39.902206000002515 ], [ -84.813840000002457, 39.830459000002783 ], [ -84.81417800000213, 39.814159000002419 ], [ -84.814288000001625, 39.784803000002618 ], [ -84.814373000001922, 39.726620000002818 ], [ -84.814618000002056, 39.653767000002389 ], [ -84.814985000001514, 39.595678000002835 ], [ -84.815082000001794, 39.573742000002603 ], [ -84.815055000001607, 39.565151000002906 ], [ -84.815353000001394, 39.521950000002718 ], [ -84.815749000002384, 39.479450000002515 ], [ -84.817647000001571, 39.391816000002464 ], [ -84.819450000002377, 39.305153000002647 ], [ -84.819707000001586, 39.267385000002371 ], [ -84.820068000001655, 39.251137000002821 ], [ -84.820085000001924, 39.247587000002881 ], [ -84.820147000002308, 39.218710000003114 ], [ -84.819865000002238, 39.16146500000287 ], [ -84.819948000001645, 39.157954000003173 ], [ -84.820155000002416, 39.105419000002762 ], [ -84.837298000002107, 39.097165000002647 ], [ -84.867290000002413, 39.074539000003057 ], [ -84.897095000002054, 39.05679800000312 ], [ -84.88692500000171, 39.039096000002452 ], [ -84.87765000000195, 39.031189000002534 ], [ -84.838579000002326, 38.989902000002445 ], [ -84.833289000002239, 38.96001600000325 ], [ -84.850227000001937, 38.947204000002543 ], [ -84.855729000002171, 38.941173000003268 ], [ -84.877934000001773, 38.920149000002866 ], [ -84.870623000002126, 38.900906000002415 ], [ -84.814553000001339, 38.895468000002602 ], [ -84.797868000001429, 38.889640000002629 ], [ -84.78453500000208, 38.875082000003019 ], [ -84.790436000001989, 38.861246000002538 ], [ -84.830045000002386, 38.830140000003141 ], [ -84.811599000001621, 38.791960000002497 ], [ -84.827547000001786, 38.78315600000326 ], [ -84.876831000002142, 38.792484000002723 ], [ -84.887742000001339, 38.794793000002755 ], [ -84.934020000002363, 38.777281000002965 ], [ -84.993080000002379, 38.777919000002868 ], [ -85.063534000001695, 38.743831000002849 ], [ -85.10138400000217, 38.726502000003144 ], [ -85.131990000002133, 38.702916000003185 ], [ -85.17339000000139, 38.687996000002705 ], [ -85.201450000001572, 38.691038000002514 ], [ -85.226418000001402, 38.705993000002536 ], [ -85.246455000001788, 38.731746000002985 ], [ -85.295903000001687, 38.742063000003135 ], [ -85.363329000001656, 38.730478000002471 ], [ -85.374289000001681, 38.730942000002543 ], [ -85.384380000002324, 38.732688000002938 ], [ -85.408365000001794, 38.73714400000275 ], [ -85.443183000001611, 38.718924000002637 ], [ -85.455927000002262, 38.696287000003096 ], [ -85.454661000001607, 38.680716000002491 ], [ -85.438629000002024, 38.658890000003069 ], [ -85.438354000002136, 38.606063000002493 ], [ -85.427900000001358, 38.586241000003241 ], [ -85.417555000002025, 38.569487000002738 ], [ -85.415555000001575, 38.544969000002446 ], [ -85.434234000001481, 38.523264000002378 ], [ -85.467079000002457, 38.510096000002711 ], [ -85.498094000001373, 38.468802000002682 ], [ -85.541966000002233, 38.454836000003233 ], [ -85.585518000001358, 38.450246000003141 ], [ -85.618751000002263, 38.425733000003078 ], [ -85.633658000001702, 38.393168000002426 ], [ -85.647068000001582, 38.340688000003162 ], [ -85.653317000001806, 38.32710800000244 ], [ -85.659334000001877, 38.319722000002479 ], [ -85.666865000001351, 38.31177700000309 ], [ -85.675725000001592, 38.300711000002664 ], [ -85.716106000002398, 38.280024000003209 ], [ -85.732571000002153, 38.271955000002364 ], [ -85.738318000002323, 38.269019000002515 ], [ -85.751475000002273, 38.267998000002521 ], [ -85.777521000002167, 38.286339000003181 ], [ -85.792301000001885, 38.287455000003234 ], [ -85.802376000001829, 38.28470000000241 ], [ -85.811468000002009, 38.283401000002762 ], [ -85.823698000002494, 38.280181000003132 ], [ -85.837632000001847, 38.258999000003101 ], [ -85.845340000002224, 38.229936000002645 ], [ -85.87498800000175, 38.207697000002909 ], [ -85.899613000001708, 38.180416000002637 ], [ -85.958020000001383, 38.186623000002569 ], [ -85.955199000001898, 38.257806000002361 ], [ -85.973848000001624, 38.258132000002519 ], [ -85.973638000001884, 38.271622000002957 ], [ -85.992411000001539, 38.272844000002621 ], [ -85.995302000002255, 38.294570000003162 ], [ -85.995280000002396, 38.300893000003207 ], [ -86.014115000002022, 38.301813000002909 ] ] ] } }
]
}
