{
"type": "FeatureCollection",
"name": "iowa_optimized_districts_headcount",
"crs": { "type": "name", "properties": { "name": "urn:ogc:def:crs:OGC:1.3:CRS84" } },
"features": [
{ "type": "Feature", "properties": { "district_id": 0, "voting_age_pop": 574959, "lib_votes": 0, "grn_votes": 0, "con_votes": 0, "ref_votes": 0, "total_pop": 757084, "dem_votes_sum": 139812, "rep_votes_sum": 186933, "lib_votes_sum": 0, "grn_votes_sum": 0, "con_votes_sum": 0, "ref_votes_sum": 0, "minority_pop_sum": 104092, "dem_pct": 0.42789331129780106, "rep_pct": 0.57210668870219894, "lib_pct": 0.0, "grn_pct": 0.0, "con_pct": 0.0, "ref_pct": 0.0, "minority_pct": 0.13749068795536559, "compactness": 0.41834791923047193 }, "geometry": { "type": "Polygon", "coordinates": [ [ [ -94.471213, 40.570825 ], [ -95.765645, 40.585208 ], [ -95.748626, 40.603355 ], [ -95.776251, 40.647463 ], [ -95.842801, 40.677496 ], [ -95.854456, 40.704164 ], [ -95.885349, 40.721093 ], [ -95.881529, 40.750611 ], [ -95.834881, 40.78021 ], [ -95.847785, 40.864328 ], [ -95.809379, 40.893279 ], [ -95.839743, 40.93278 ], [ -95.829792, 40.977344 ], [ -95.866951, 41.001085 ], [ -95.859654, 41.035695 ], [ -95.882342, 41.059419 ], [ -95.862427, 41.089687 ], [ -95.88254, 41.155881 ], [ -95.842188, 41.177421 ], [ -95.863797, 41.188245 ], [ -95.916119, 41.185279 ], [ -95.927975, 41.200069 ], [ -95.910629, 41.234579 ], [ -95.927642, 41.29844 ], [ -95.905899, 41.301038 ], [ -95.912581, 41.279527 ], [ -95.90284, 41.274374 ], [ -95.876051, 41.285739 ], [ -95.872269, 41.30307 ], [ -95.889251, 41.319474 ], [ -95.929383, 41.32313 ], [ -95.957137, 41.345902 ], [ -95.929681, 41.367058 ], [ -95.937694, 41.39477 ], [ -95.919989, 41.452604 ], [ -95.93634, 41.465304 ], [ -95.966688, 41.463425 ], [ -96.013585, 41.478469 ], [ -96.019543, 41.491592 ], [ -95.992777, 41.514596 ], [ -96.005112, 41.54325 ], [ -96.026657, 41.540366 ], [ -96.040613, 41.506893 ], [ -96.091908, 41.534049 ], [ -96.082285, 41.580683 ], [ -96.118233, 41.613291 ], [ -96.096116, 41.654472 ], [ -96.122604, 41.68304 ], [ -96.113461, 41.697569 ], [ -96.073225, 41.704062 ], [ -96.106354, 41.738046 ], [ -96.081211, 41.757081 ], [ -96.06479, 41.794406 ], [ -96.106565, 41.819613 ], [ -96.110548, 41.849199 ], [ -96.141908, 41.868999 ], [ -96.161756, 41.90182 ], [ -96.136743, 41.920826 ], [ -96.144583, 41.941544 ], [ -96.129505, 41.971673 ], [ -96.187219, 41.977946 ], [ -96.184002, 42.003063 ], [ -96.194556, 42.008662 ], [ -96.236488, 41.996429 ], [ -96.223822, 42.033346 ], [ -96.272545, 42.046202 ], [ -96.269459, 42.114216 ], [ -96.309758, 42.132101 ], [ -96.349688, 42.170702 ], [ -96.35987, 42.210553 ], [ -96.323723, 42.229887 ], [ -96.328897, 42.254723 ], [ -96.365751, 42.285814 ], [ -96.375307, 42.318339 ], [ -96.417786, 42.351449 ], [ -96.415186, 42.404203 ], [ -96.380705, 42.446393 ], [ -96.386003, 42.474496 ], [ -96.401962, 42.48644 ], [ -96.476461, 42.490128 ], [ -96.476048, 42.507783 ], [ -96.493722, 42.516742 ], [ -96.479007, 42.526394 ], [ -96.47696, 42.555972 ], [ -96.498544, 42.558116 ], [ -96.485797, 42.57502 ], [ -96.509453, 42.612704 ], [ -96.531335, 42.613642 ], [ -96.515661, 42.629711 ], [ -96.542365, 42.660934 ], [ -96.558999, 42.657679 ], [ -96.566964, 42.676417 ], [ -96.578399, 42.67184 ], [ -96.57518, 42.682757 ], [ -96.630154, 42.705438 ], [ -96.624414, 42.725212 ], [ -96.639468, 42.736821 ], [ -96.619262, 42.754609 ], [ -96.636382, 42.76974 ], [ -96.595214, 42.792896 ], [ -96.58147, 42.837726 ], [ -96.563604, 42.828174 ], [ -96.550322, 42.837531 ], [ -96.543485, 42.883765 ], [ -96.525287, 42.89191 ], [ -96.54293, 42.903756 ], [ -96.541283, 42.923927 ], [ -96.516835, 42.932347 ], [ -96.498963, 42.957802 ], [ -96.520838, 42.980314 ], [ -96.491981, 43.010197 ], [ -96.521302, 43.03966 ], [ -96.460742, 43.064337 ], [ -96.46232, 43.092885 ], [ -96.436472, 43.120166 ], [ -96.468499, 43.151887 ], [ -96.476654, 43.221941 ], [ -96.559326, 43.222934 ], [ -96.571486, 43.238847 ], [ -96.549187, 43.246814 ], [ -96.55266, 43.258148 ], [ -96.58566, 43.269352 ], [ -96.57756, 43.279212 ], [ -96.588492, 43.296175 ], [ -96.552056, 43.29285 ], [ -96.526962, 43.305229 ], [ -96.535087, 43.336502 ], [ -96.521662, 43.385905 ], [ -96.573555, 43.418969 ], [ -96.570289, 43.428547 ], [ -96.594141, 43.433824 ], [ -96.603051, 43.450828 ], [ -96.581082, 43.481498 ], [ -96.599191, 43.500456 ], [ -93.497353, 43.499622 ], [ -93.498617, 42.908512 ], [ -93.025144, 42.907549 ], [ -93.027115, 42.470776 ], [ -93.002902, 42.470638 ], [ -93.001674, 42.209267 ], [ -93.69839, 42.209339 ], [ -93.698032, 41.86337 ], [ -94.28034, 41.862999 ], [ -94.280057, 41.601312 ], [ -94.241356, 41.600971 ], [ -94.241637, 41.157134 ], [ -94.470603, 41.157566 ], [ -94.471213, 40.570825 ] ] ] } },
{ "type": "Feature", "properties": { "district_id": 1, "voting_age_pop": 598977, "lib_votes": 0, "grn_votes": 0, "con_votes": 0, "ref_votes": 0, "total_pop": 779467, "dem_votes_sum": 176043, "rep_votes_sum": 164728, "lib_votes_sum": 0, "grn_votes_sum": 0, "con_votes_sum": 0, "ref_votes_sum": 0, "minority_pop_sum": 98752, "dem_pct": 0.51660205827373806, "rep_pct": 0.48339794172626194, "lib_pct": 0.0, "grn_pct": 0.0, "con_pct": 0.0, "ref_pct": 0.0, "minority_pct": 0.1266917008673876, "compactness": 0.30778031895227809 }, "geometry": { "type": "Polygon", "coordinates": [ [ [ -93.097296, 40.584014 ], [ -93.097595, 40.898451 ], [ -92.639091, 40.898886 ], [ -92.640361, 41.161298 ], [ -92.869771, 41.161066 ], [ -92.871421, 41.508522 ], [ -93.328614, 41.507824 ], [ -93.328681, 41.601148 ], [ -93.348681, 41.600999 ], [ -93.347933, 41.863104 ], [ -93.231858, 41.862711 ], [ -93.231722, 42.208886 ], [ -93.001674, 42.209267 ], [ -93.002902, 42.470638 ], [ -93.027115, 42.470776 ], [ -93.025144, 42.907549 ], [ -93.498617, 42.908512 ], [ -93.497353, 43.499622 ], [ -91.217706, 43.50055 ], [ -91.233367, 43.455168 ], [ -91.200359, 43.412701 ], [ -91.21499, 43.368006 ], [ -91.20662, 43.352524 ], [ -91.107237, 43.313645 ], [ -91.057918, 43.255366 ], [ -91.177932, 43.128875 ], [ -91.179457, 43.067427 ], [ -91.145935, 42.96077 ], [ -91.145615, 42.908006 ], [ -91.100565, 42.883078 ], [ -91.09406, 42.830813 ], [ -91.078665, 42.827678 ], [ -91.053733, 42.738238 ], [ -91.035418, 42.73734 ], [ -90.976314, 42.695996 ], [ -90.896951, 42.675082 ], [ -90.897415, 42.645714 ], [ -91.607059, 42.643973 ], [ -91.596981, 42.296408 ], [ -91.831089, 42.299063 ], [ -91.833078, 41.600414 ], [ -91.829231, 41.511457 ], [ -91.519828, 41.51101 ], [ -91.527935, 41.507763 ], [ -91.5175, 41.496987 ], [ -91.507352, 41.502308 ], [ -91.501316, 41.48734 ], [ -91.516031, 41.468223 ], [ -91.498773, 41.459213 ], [ -91.483995, 41.423848 ], [ -91.368521, 41.423178 ], [ -91.369332, 41.336063 ], [ -91.072045, 41.333599 ], [ -91.074841, 41.305578 ], [ -91.113062, 41.239968 ], [ -91.041557, 41.166162 ], [ -90.989662, 41.155707 ], [ -90.946625, 41.096628 ], [ -90.942253, 41.034702 ], [ -90.962916, 40.924957 ], [ -91.009536, 40.900565 ], [ -91.092993, 40.821079 ], [ -91.12082, 40.672777 ], [ -91.18698, 40.637297 ], [ -91.253074, 40.637962 ], [ -91.357058, 40.604263 ], [ -91.406851, 40.547557 ], [ -91.364211, 40.500043 ], [ -91.381468, 40.44604 ], [ -91.375712, 40.391925 ], [ -91.463895, 40.375659 ], [ -91.463554, 40.385547 ], [ -91.485255, 40.384657 ], [ -91.488481, 40.404317 ], [ -91.524612, 40.410765 ], [ -91.52509, 40.457845 ], [ -91.574746, 40.465664 ], [ -91.590817, 40.492292 ], [ -91.621353, 40.510072 ], [ -91.620071, 40.540817 ], [ -91.6887, 40.55739 ], [ -91.686357, 40.580875 ], [ -91.729115, 40.61364 ], [ -93.097296, 40.584014 ] ] ] } },
{ "type": "Feature", "properties": { "district_id": 2, "voting_age_pop": 588007, "lib_votes": 0, "grn_votes": 0, "con_votes": 0, "ref_votes": 0, "total_pop": 769595, "dem_votes_sum": 176079, "rep_votes_sum": 140565, "lib_votes_sum": 0, "grn_votes_sum": 0, "con_votes_sum": 0, "ref_votes_sum": 0, "minority_pop_sum": 133243, "dem_pct": 0.55607875090006442, "rep_pct": 0.44392124909993558, "lib_pct": 0.0, "grn_pct": 0.0, "con_pct": 0.0, "ref_pct": 0.0, "minority_pct": 0.17313392108836467, "compactness": 0.67249219548070105 }, "geometry": { "type": "Polygon", "coordinates": [ [ [ -90.316262, 41.728235 ], [ -90.313435, 41.698082 ], [ -90.334525, 41.679559 ], [ -90.343452, 41.646959 ], [ -90.343228, 41.587833 ], [ -90.412825, 41.565329 ], [ -90.461432, 41.523533 ], [ -90.556235, 41.524232 ], [ -90.595237, 41.511032 ], [ -90.655839, 41.462132 ], [ -90.745946, 41.44973 ], [ -90.846558, 41.455141 ], [ -90.930016, 41.421404 ], [ -90.979815, 41.434321 ], [ -91.027787, 41.423603 ], [ -91.047642, 41.41131 ], [ -91.072045, 41.333599 ], [ -91.369332, 41.336063 ], [ -91.368521, 41.423178 ], [ -91.483995, 41.423848 ], [ -91.498773, 41.459213 ], [ -91.516031, 41.468223 ], [ -91.501316, 41.48734 ], [ -91.507352, 41.502308 ], [ -91.5175, 41.496987 ], [ -91.527935, 41.507763 ], [ -91.519828, 41.51101 ], [ -91.829231, 41.511457 ], [ -91.831089, 42.299063 ], [ -91.596981, 42.296408 ], [ -91.607059, 42.643973 ], [ -90.897415, 42.645714 ], [ -90.896951, 42.675082 ], [ -90.706303, 42.634169 ], [ -90.643927, 42.540401 ], [ -90.636927, 42.513202 ], [ -90.654027, 42.478503 ], [ -90.567968, 42.440389 ], [ -90.555018, 42.416138 ], [ -90.477279, 42.383794 ], [ -90.443874, 42.355218 ], [ -90.415937, 42.322699 ], [ -90.430884, 42.27823 ], [ -90.393151, 42.227186 ], [ -90.216107, 42.15673 ], [ -90.201404, 42.130937 ], [ -90.162895, 42.116718 ], [ -90.164485, 42.042105 ], [ -90.140061, 42.003252 ], [ -90.164135, 41.956178 ], [ -90.153584, 41.906614 ], [ -90.181901, 41.843216 ], [ -90.180954, 41.809354 ], [ -90.278633, 41.767358 ], [ -90.316262, 41.728235 ] ] ] } },
{ "type": "Feature", "properties": { "district_id": 3, "voting_age_pop": 556419, "lib_votes": 0, "grn_votes": 0, "con_votes": 0, "ref_votes": 0, "total_pop": 740209, "dem_votes_sum": 146583, "rep_votes_sum": 142147, "lib_votes_sum": 0, "grn_votes_sum": 0, "con_votes_sum": 0, "ref_votes_sum": 0, "minority_pop_sum": 160716, "dem_pct": 0.50768191736224155, "rep_pct": 0.49231808263775845, "lib_pct": 0.0, "grn_pct": 0.0, "con_pct": 0.0, "ref_pct": 0.0, "minority_pct": 0.21712246135888646, "compactness": 0.45525051231742447 }, "geometry": { "type": "Polygon", "coordinates": [ [ [ -94.471213, 40.570825 ], [ -94.470603, 41.157566 ], [ -94.241637, 41.157134 ], [ -94.241356, 41.600971 ], [ -94.280057, 41.601312 ], [ -94.28034, 41.862999 ], [ -93.698032, 41.86337 ], [ -93.69839, 42.209339 ], [ -93.231829, 42.208957 ], [ -93.231858, 41.862711 ], [ -93.347933, 41.863104 ], [ -93.348681, 41.600999 ], [ -93.328681, 41.601148 ], [ -93.328614, 41.507824 ], [ -92.871421, 41.508522 ], [ -92.869771, 41.161066 ], [ -92.640361, 41.161298 ], [ -92.639091, 40.898886 ], [ -93.097595, 40.898451 ], [ -93.097296, 40.584014 ], [ -94.471213, 40.570825 ] ] ] } }
]
}
