{
"type": "FeatureCollection",
"name": "iowa_optimized_districts_race",
"crs": { "type": "name", "properties": { "name": "urn:ogc:def:crs:OGC:1.3:CRS84" } },
"features": [
{ "type": "Feature", "properties": { "district_id": 0, "voting_age_pop": 558411, "lib_votes": 0, "grn_votes": 0, "con_votes": 0, "ref_votes": 0, "total_pop": 749490, "dem_votes_sum": 149994, "rep_votes_sum": 147508, "lib_votes_sum": 0, "grn_votes_sum": 0, "con_votes_sum": 0, "ref_votes_sum": 0, "minority_pop_sum": 152195, "dem_pct": 0.50417812317228117, "rep_pct": 0.49582187682771883, "lib_pct": 0.0, "grn_pct": 0.0, "con_pct": 0.0, "ref_pct": 0.0, "minority_pct": 0.20306475069714072, "compactness": 0.64479833318786883 }, "geometry": { "type": "Polygon", "coordinates": [ [ [ -94.015492, 40.573914 ], [ -94.014189, 41.156762 ], [ -94.241637, 41.157134 ], [ -94.241356, 41.600971 ], [ -94.280057, 41.601312 ], [ -94.28034, 41.862999 ], [ -92.765999, 41.862373 ], [ -92.756508, 41.508794 ], [ -92.411995, 41.509548 ], [ -92.410233, 41.161942 ], [ -92.179974, 41.162662 ], [ -92.17978, 40.600529 ], [ -94.015492, 40.573914 ] ] ] } },
{ "type": "Feature", "properties": { "district_id": 1, "voting_age_pop": 566826, "lib_votes": 0, "grn_votes": 0, "con_votes": 0, "ref_votes": 0, "total_pop": 746535, "dem_votes_sum": 137742, "rep_votes_sum": 184162, "lib_votes_sum": 0, "grn_votes_sum": 0, "con_votes_sum": 0, "ref_votes_sum": 0, "minority_pop_sum": 101392, "dem_pct": 0.42789775833788957, "rep_pct": 0.57210224166211043, "lib_pct": 0.0, "grn_pct": 0.0, "con_pct": 0.0, "ref_pct": 0.0, "minority_pct": 0.13581680698158827, "compactness": 0.43836821030226997 }, "geometry": { "type": "Polygon", "coordinates": [ [ [ -94.015492, 40.573914 ], [ -95.765645, 40.585208 ], [ -95.748626, 40.603355 ], [ -95.776251, 40.647463 ], [ -95.842801, 40.677496 ], [ -95.854456, 40.704164 ], [ -95.885349, 40.721093 ], [ -95.881529, 40.750611 ], [ -95.834881, 40.78021 ], [ -95.847785, 40.864328 ], [ -95.809379, 40.893279 ], [ -95.839743, 40.93278 ], [ -95.829792, 40.977344 ], [ -95.866951, 41.001085 ], [ -95.859654, 41.035695 ], [ -95.882342, 41.059419 ], [ -95.862427, 41.089687 ], [ -95.88254, 41.155881 ], [ -95.842188, 41.177421 ], [ -95.863797, 41.188245 ], [ -95.916119, 41.185279 ], [ -95.927975, 41.200069 ], [ -95.910629, 41.234579 ], [ -95.927642, 41.29844 ], [ -95.905899, 41.301038 ], [ -95.912581, 41.279527 ], [ -95.90284, 41.274374 ], [ -95.876051, 41.285739 ], [ -95.872269, 41.30307 ], [ -95.889251, 41.319474 ], [ -95.929383, 41.32313 ], [ -95.957137, 41.345902 ], [ -95.929681, 41.367058 ], [ -95.937694, 41.39477 ], [ -95.919989, 41.452604 ], [ -95.93634, 41.465304 ], [ -95.966688, 41.463425 ], [ -96.013585, 41.478469 ], [ -96.019543, 41.491592 ], [ -95.992777, 41.514596 ], [ -96.005112, 41.54325 ], [ -96.026657, 41.540366 ], [ -96.040613, 41.506893 ], [ -96.091908, 41.534049 ], [ -96.082285, 41.580683 ], [ -96.118233, 41.613291 ], [ -96.096116, 41.654472 ], [ -96.122604, 41.68304 ], [ -96.113461, 41.697569 ], [ -96.073225, 41.704062 ], [ -96.106354, 41.738046 ], [ -96.081211, 41.757081 ], [ -96.06479, 41.794406 ], [ -96.106565, 41.819613 ], [ -96.110548, 41.849199 ], [ -96.141908, 41.868999 ], [ -96.161756, 41.90182 ], [ -96.136743, 41.920826 ], [ -96.144583, 41.941544 ], [ -96.129505, 41.971673 ], [ -96.187219, 41.977946 ], [ -96.184002, 42.003063 ], [ -96.194556, 42.008662 ], [ -96.236488, 41.996429 ], [ -96.223822, 42.033346 ], [ -96.272545, 42.046202 ], [ -96.269459, 42.114216 ], [ -96.309758, 42.132101 ], [ -96.349688, 42.170702 ], [ -96.35987, 42.210553 ], [ -96.323723, 42.229887 ], [ -96.328897, 42.254723 ], [ -96.365751, 42.285814 ], [ -96.375307, 42.318339 ], [ -96.417786, 42.351449 ], [ -96.415186, 42.404203 ], [ -96.380705, 42.446393 ], [ -96.386003, 42.474496 ], [ -96.401962, 42.48644 ], [ -96.476461, 42.490128 ], [ -96.476048, 42.507783 ], [ -96.493722, 42.516742 ], [ -96.479007, 42.526394 ], [ -96.47696, 42.555972 ], [ -96.498544, 42.558116 ], [ -96.485797, 42.57502 ], [ -96.509453, 42.612704 ], [ -96.531335, 42.613642 ], [ -96.515661, 42.629711 ], [ -96.542365, 42.660934 ], [ -96.558999, 42.657679 ], [ -96.566964, 42.676417 ], [ -96.578399, 42.67184 ], [ -96.57518, 42.682757 ], [ -96.630154, 42.705438 ], [ -96.624414, 42.725212 ], [ -96.639468, 42.736821 ], [ -96.619262, 42.754609 ], [ -96.636382, 42.76974 ], [ -96.595214, 42.792896 ], [ -96.58147, 42.837726 ], [ -96.563604, 42.828174 ], [ -96.550322, 42.837531 ], [ -96.543485, 42.883765 ], [ -96.525287, 42.89191 ], [ -96.54293, 42.903756 ], [ -96.541283, 42.923927 ], [ -96.516835, 42.932347 ], [ -96.498963, 42.957802 ], [ -96.520838, 42.980314 ], [ -96.491981, 43.010197 ], [ -96.521302, 43.03966 ], [ -96.460742, 43.064337 ], [ -96.46232, 43.092885 ], [ -96.436472, 43.120166 ], [ -96.468499, 43.151887 ], [ -96.476654, 43.221941 ], [ -96.559326, 43.222934 ], [ -96.571486, 43.238847 ], [ -96.549187, 43.246814 ], [ -96.55266, 43.258148 ], [ -96.58566, 43.269352 ], [ -96.57756, 43.279212 ], [ -96.588492, 43.296175 ], [ -96.552056, 43.29285 ], [ -96.526962, 43.305229 ], [ -96.535087, 43.336502 ], [ -96.521662, 43.385905 ], [ -96.573555, 43.418969 ], [ -96.570289, 43.428547 ], [ -96.594141, 43.433824 ], [ -96.603051, 43.450828 ], [ -96.581082, 43.481498 ], [ -96.599191, 43.500456 ], [ -93.497353, 43.499622 ], [ -93.499098, 42.470975 ], [ -93.462635, 42.470802 ], [ -93.463043, 42.209302 ], [ -93.69839, 42.209339 ], [ -93.698032, 41.86337 ], [ -94.28034, 41.862999 ], [ -94.280057, 41.601312 ], [ -94.241356, 41.600971 ], [ -94.241637, 41.157134 ], [ -94.014189, 41.156762 ], [ -94.015492, 40.573914 ] ] ] } },
{ "type": "Feature", "properties": { "district_id": 2, "voting_age_pop": 596495, "lib_votes": 0, "grn_votes": 0, "con_votes": 0, "ref_votes": 0, "total_pop": 776114, "dem_votes_sum": 176472, "rep_votes_sum": 145541, "lib_votes_sum": 0, "grn_votes_sum": 0, "con_votes_sum": 0, "ref_votes_sum": 0, "minority_pop_sum": 128917, "dem_pct": 0.54802756410455478, "rep_pct": 0.45197243589544522, "lib_pct": 0.0, "grn_pct": 0.0, "con_pct": 0.0, "ref_pct": 0.0, "minority_pct": 0.16610575250543091, "compactness": 0.34260615798773186 }, "geometry": { "type": "Polygon", "coordinates": [ [ [ -91.092993, 40.821079 ], [ -91.123928, 40.669152 ], [ -91.185295, 40.637803 ], [ -91.253074, 40.637962 ], [ -91.348733, 40.609695 ], [ -91.401482, 40.559458 ], [ -91.404125, 40.539127 ], [ -91.364211, 40.500043 ], [ -91.381769, 40.442555 ], [ -91.372554, 40.4012 ], [ -91.384201, 40.38643 ], [ -91.419422, 40.378264 ], [ -91.441243, 40.386255 ], [ -91.463895, 40.375659 ], [ -91.463554, 40.385547 ], [ -91.485255, 40.384657 ], [ -91.488481, 40.404317 ], [ -91.524612, 40.410765 ], [ -91.52509, 40.457845 ], [ -91.574746, 40.465664 ], [ -91.590817, 40.492292 ], [ -91.621353, 40.510072 ], [ -91.620071, 40.540817 ], [ -91.6887, 40.55739 ], [ -91.686357, 40.580875 ], [ -91.729115, 40.61364 ], [ -92.17978, 40.600529 ], [ -92.179974, 41.162662 ], [ -92.410233, 41.161942 ], [ -92.411995, 41.509548 ], [ -92.756508, 41.508794 ], [ -92.765999, 41.862373 ], [ -91.366079, 41.860068 ], [ -91.363263, 42.296445 ], [ -91.596981, 42.296408 ], [ -91.597397, 42.469245 ], [ -91.608508, 42.469275 ], [ -91.605307, 43.081653 ], [ -91.177222, 43.080247 ], [ -91.14543, 42.958211 ], [ -91.145615, 42.908006 ], [ -91.100565, 42.883078 ], [ -91.09406, 42.830813 ], [ -91.078665, 42.827678 ], [ -91.053733, 42.738238 ], [ -91.035418, 42.73734 ], [ -90.94921, 42.685569 ], [ -90.706303, 42.634169 ], [ -90.643927, 42.540401 ], [ -90.636927, 42.513202 ], [ -90.654027, 42.478503 ], [ -90.567968, 42.440389 ], [ -90.555018, 42.416138 ], [ -90.477279, 42.383794 ], [ -90.443874, 42.355218 ], [ -90.415937, 42.322699 ], [ -90.430884, 42.27823 ], [ -90.393151, 42.227186 ], [ -90.216107, 42.15673 ], [ -90.201404, 42.130937 ], [ -90.161884, 42.11378 ], [ -90.164485, 42.042105 ], [ -90.140061, 42.003252 ], [ -90.164135, 41.956178 ], [ -90.153584, 41.906614 ], [ -90.181901, 41.843216 ], [ -90.180954, 41.809354 ], [ -90.278633, 41.767358 ], [ -90.310878, 41.742325 ], [ -90.313435, 41.698082 ], [ -90.334525, 41.679559 ], [ -90.343452, 41.646959 ], [ -90.343228, 41.587833 ], [ -90.412825, 41.565329 ], [ -90.461432, 41.523533 ], [ -90.500633, 41.518033 ], [ -90.540935, 41.526133 ], [ -90.591037, 41.512832 ], [ -90.655839, 41.462132 ], [ -90.745946, 41.44973 ], [ -90.846558, 41.455141 ], [ -90.929254, 41.421544 ], [ -90.982913, 41.434171 ], [ -91.04589, 41.414085 ], [ -91.074841, 41.305578 ], [ -91.113657, 41.241401 ], [ -91.041557, 41.166162 ], [ -90.989662, 41.155707 ], [ -90.946625, 41.096628 ], [ -90.942253, 41.034702 ], [ -90.962916, 40.924957 ], [ -91.009536, 40.900565 ], [ -91.092993, 40.821079 ] ] ] } },
{ "type": "Feature", "properties": { "district_id": 3, "voting_age_pop": 596630, "lib_votes": 0, "grn_votes": 0, "con_votes": 0, "ref_votes": 0, "total_pop": 774216, "dem_votes_sum": 174309, "rep_votes_sum": 157162, "lib_votes_sum": 0, "grn_votes_sum": 0, "con_votes_sum": 0, "ref_votes_sum": 0, "minority_pop_sum": 114299, "dem_pct": 0.52586500779857059, "rep_pct": 0.47413499220142941, "lib_pct": 0.0, "grn_pct": 0.0, "con_pct": 0.0, "ref_pct": 0.0, "minority_pct": 0.14763192700745012, "compactness": 0.57010967827758829 }, "geometry": { "type": "Polygon", "coordinates": [ [ [ -91.366079, 41.860068 ], [ -93.698032, 41.86337 ], [ -93.69839, 42.209339 ], [ -93.463043, 42.209302 ], [ -93.462635, 42.470802 ], [ -93.499098, 42.470975 ], [ -93.497353, 43.499622 ], [ -91.217706, 43.50055 ], [ -91.233367, 43.455168 ], [ -91.200359, 43.412701 ], [ -91.21499, 43.368006 ], [ -91.20662, 43.352524 ], [ -91.107237, 43.313645 ], [ -91.057918, 43.255366 ], [ -91.12217, 43.197255 ], [ -91.1462, 43.152405 ], [ -91.175253, 43.134665 ], [ -91.177222, 43.080247 ], [ -91.605307, 43.081653 ], [ -91.608508, 42.469275 ], [ -91.597397, 42.469245 ], [ -91.596981, 42.296408 ], [ -91.363263, 42.296445 ], [ -91.366079, 41.860068 ] ] ] } }
]
}
