{
"type": "FeatureCollection",
"name": "iowa_enacted_districts",
"crs": { "type": "name", "properties": { "name": "urn:ogc:def:crs:OGC:1.3:CRS84" } },
"features": [
{ "type": "Feature", "properties": { "enacted_district": 1, "population": 797584.0, "voting_age_pop": 618402.0, "dem_votes": 183035.0, "rep_votes": 190960.0, "minority_pop": 87700.0, "dem_pct": 0.48940493843783878, "rep_pct": 0.51059506129477794 }, "geometry": { "type": "Polygon", "coordinates": [ [ [ -92.410233000001881, 41.161942000002028 ], [ -92.640361000002599, 41.161298000002013 ], [ -92.86977100000172, 41.161066000002485 ], [ -93.099217000002284, 41.160867000002732 ], [ -93.327886000002678, 41.160659000002489 ], [ -93.557556000001597, 41.16127100000228 ], [ -93.789196000002462, 41.162035000002291 ], [ -93.790774000002244, 41.379493000002029 ], [ -93.790612000002042, 41.511916000002032 ], [ -93.548242000002119, 41.511309000002591 ], [ -93.441286000002293, 41.507589000002802 ], [ -93.422854000002701, 41.511444000002719 ], [ -93.339335000001697, 41.482724000002641 ], [ -93.328407000002059, 41.490921000002501 ], [ -93.328614000002204, 41.507824000002799 ], [ -93.328681000002604, 41.601148000002468 ], [ -93.3486810000026, 41.60099900000197 ], [ -93.347933000002541, 41.8631040000027 ], [ -93.231858000002177, 41.862711000002108 ], [ -92.765999000001756, 41.862373000002606 ], [ -92.766759000001727, 41.601355000002016 ], [ -92.75706800000232, 41.60141100000196 ], [ -92.756508000002242, 41.508794000002169 ], [ -92.411995000001554, 41.509548000002283 ], [ -92.297494000001862, 41.509790000002454 ], [ -92.299495000002224, 41.601536000002191 ], [ -92.299990000001515, 41.721532000002398 ], [ -92.298164000001606, 41.862779000002398 ], [ -91.831379000002258, 41.861851000002481 ], [ -91.714518000002542, 41.862035000002486 ], [ -91.571401000002098, 41.860449000002603 ], [ -91.366221000002525, 41.86006900000244 ], [ -91.365877000001817, 41.947410000001994 ], [ -91.364860000001556, 42.135334000002821 ], [ -91.363263000001893, 42.296445000002514 ], [ -91.130079000001757, 42.295761000001988 ], [ -90.898020000002063, 42.295236000002582 ], [ -90.665551000001741, 42.294699000002545 ], [ -90.665029000001596, 42.382155000002065 ], [ -90.47379800000256, 42.381458000002269 ], [ -90.445167000002243, 42.356441000002349 ], [ -90.4159370000026, 42.322699000002309 ], [ -90.431039000001576, 42.282452000002593 ], [ -90.419326000001817, 42.254467000002343 ], [ -90.391108000001523, 42.225473000002694 ], [ -90.356964000002137, 42.205445000002584 ], [ -90.328273000001886, 42.201047000002561 ], [ -90.28217300000162, 42.178846000002778 ], [ -90.250129000002076, 42.171469000002858 ], [ -90.209479000002261, 42.152680000002213 ], [ -90.20140400000264, 42.13093700000239 ], [ -90.170970000002086, 42.125198000002158 ], [ -90.162895000001839, 42.116718000002351 ], [ -90.168358000002584, 42.075779000002846 ], [ -90.164485000002344, 42.042105000002813 ], [ -90.154221000002195, 42.033073000002616 ], [ -90.140613000001807, 41.995999000002598 ], [ -90.162141000002165, 41.961293000002144 ], [ -90.163847000001624, 41.944934000002888 ], [ -90.151600000002119, 41.931002000002508 ], [ -90.1535840000018, 41.906614000002413 ], [ -90.170041000002158, 41.876439000002257 ], [ -90.183973000002055, 41.833070000002714 ], [ -90.180643000001766, 41.811979000002111 ], [ -90.187969000002084, 41.803163000002314 ], [ -90.222263000002158, 41.793133000002712 ], [ -90.278633000002301, 41.767358000002403 ], [ -90.309973000001577, 41.743420000002487 ], [ -90.316562000001767, 41.728928000002441 ], [ -90.313052000001633, 41.699631000002725 ], [ -90.334525000001761, 41.67955900000284 ], [ -90.343452000001676, 41.646959000002894 ], [ -90.339528000002204, 41.598633000002074 ], [ -90.343228000001844, 41.587833000002632 ], [ -90.4128250000024, 41.56532900000208 ], [ -90.461432000001807, 41.523533000002502 ], [ -90.500633000002125, 41.518033000002625 ], [ -90.540935000002193, 41.526133000002901 ], [ -90.595237000001859, 41.51103200000238 ], [ -90.605936000001506, 41.494232000002739 ], [ -90.655839000002644, 41.462132000002441 ], [ -90.737537000002078, 41.450127000002134 ], [ -90.786282000001506, 41.452888000002275 ], [ -90.833817000001844, 41.455512000002685 ], [ -90.857554000001841, 41.45275100000287 ], [ -90.902667000001856, 41.430313000002577 ], [ -90.930691000002042, 41.421368000002431 ], [ -90.97516800000264, 41.43398500000248 ], [ -91.027787000002405, 41.423603000002565 ], [ -91.048259000001863, 41.409748000002431 ], [ -91.051933000002279, 41.384482000002372 ], [ -91.065058000001926, 41.369101000002026 ], [ -91.072045000002078, 41.333599000002359 ], [ -91.073553000002036, 41.310481000002376 ], [ -91.114186000002064, 41.250029000002755 ], [ -91.112348000002555, 41.239002000002309 ], [ -91.065899000002602, 41.19951700000211 ], [ -91.041875000001966, 41.166484000002789 ], [ -91.009607000001637, 41.166245000002043 ], [ -90.989662000001658, 41.155707000002245 ], [ -90.946260000002283, 41.094730000002755 ], [ -90.949381000001637, 41.072710000002445 ], [ -90.942253000002367, 41.034702000002163 ], [ -90.9459490000024, 41.006495000002488 ], [ -90.958142000001715, 40.979767000002184 ], [ -90.951967000002, 40.9582380000029 ], [ -90.962916000001883, 40.924957000002863 ], [ -90.998500000002593, 40.90812000000215 ], [ -91.021562000002163, 40.884021000002477 ], [ -91.044653000002, 40.868356000002606 ], [ -91.056430000001967, 40.848387000002099 ], [ -91.090072000002138, 40.824638000002565 ], [ -91.096946000001836, 40.811403000002485 ], [ -91.092476000001938, 40.776838000002797 ], [ -91.108765000001824, 40.750040000002052 ], [ -91.11573500000172, 40.725168000002682 ], [ -91.112467000002439, 40.696301000002812 ], [ -91.12082000000224, 40.672777000002412 ], [ -91.138055000002282, 40.660893000002083 ], [ -91.185295000001602, 40.637803000002592 ], [ -91.247851000001674, 40.638390000002602 ], [ -91.310048000002297, 40.62504100000212 ], [ -91.359873000002182, 40.601805000002535 ], [ -91.379752000002284, 40.574450000002479 ], [ -91.401482000002517, 40.55945800000211 ], [ -91.406202000002622, 40.54269800000268 ], [ -91.38806700000174, 40.533069000002264 ], [ -91.369059000001926, 40.512532000002651 ], [ -91.364915000001758, 40.48416800000237 ], [ -91.381045000002501, 40.448490000002771 ], [ -91.373280000001898, 40.416496000002738 ], [ -91.375712000002594, 40.391925000002189 ], [ -91.396996000002474, 40.383127000002624 ], [ -91.441243000001919, 40.386255000002052 ], [ -91.483153000001664, 40.38249200000228 ], [ -91.498093000002243, 40.401926000002653 ], [ -91.52461200000198, 40.410765000002705 ], [ -91.519012000001879, 40.431298000002471 ], [ -91.532807000002379, 40.436784000002717 ], [ -91.526155000002205, 40.458625000002826 ], [ -91.567723000001706, 40.46228400000291 ], [ -91.580355000002356, 40.471015000002708 ], [ -91.594644000001537, 40.494997000002328 ], [ -91.616948000002367, 40.504794000002072 ], [ -91.625161000002123, 40.543500000002851 ], [ -91.681714000002657, 40.553035000002481 ], [ -91.690804000001862, 40.55989300000212 ], [ -91.688820000001982, 40.583409000002362 ], [ -91.716769000002273, 40.59853000000232 ], [ -91.729115000002196, 40.613640000002306 ], [ -91.868400000001955, 40.608056000002023 ], [ -92.096611000001957, 40.601831000002399 ], [ -92.179780000002566, 40.600529000002531 ], [ -92.178181000002439, 40.682774000002517 ], [ -92.179072000001725, 40.899720000002354 ], [ -92.179974000001806, 41.162662000002314 ], [ -92.410233000001881, 41.161942000002028 ] ] ] } },
{ "type": "Feature", "properties": { "enacted_district": 2, "population": 797589.0, "voting_age_pop": 617226.0, "dem_votes": 185177.0, "rep_votes": 202972.0, "minority_pop": 71750.0, "dem_pct": 0.47707710171169393, "rep_pct": 0.52292289803067304 }, "geometry": { "type": "Polygon", "coordinates": [ [ [ -92.765667000001599, 41.939677000002412 ], [ -92.767463000002365, 42.210140000002106 ], [ -93.001674000001557, 42.209267000002725 ], [ -93.231722000002478, 42.208886000002131 ], [ -93.463043000002045, 42.209302000001927 ], [ -93.462635000002479, 42.470802000001974 ], [ -93.499098000002164, 42.47097500000222 ], [ -93.499485000001599, 42.557700000002015 ], [ -93.153158000001895, 42.556768000002229 ], [ -93.027000000001919, 42.556810000002358 ], [ -93.025144000002086, 42.90754900000276 ], [ -93.300261000002237, 42.907685000002047 ], [ -93.498617000002525, 42.908512000002268 ], [ -93.497769000002378, 42.999958000001847 ], [ -93.497635000001594, 43.255468000002296 ], [ -93.497353000002406, 43.499622000002297 ], [ -93.298874000002201, 43.499459000002723 ], [ -93.024345000001503, 43.499733000001918 ], [ -92.553128000002033, 43.500218000002675 ], [ -92.079802000001862, 43.50062100000229 ], [ -91.610835000001998, 43.500657000002683 ], [ -91.21770600000248, 43.500550000002029 ], [ -91.215282000001636, 43.484798000002357 ], [ -91.232241000001736, 43.460018000002322 ], [ -91.228750000002279, 43.445537000002275 ], [ -91.203144000001558, 43.4198050000021 ], [ -91.197670000002105, 43.395334000001938 ], [ -91.214770000001579, 43.365874000002592 ], [ -91.201847000002033, 43.349103000002266 ], [ -91.181115000002407, 43.345926000002557 ], [ -91.129121000002115, 43.326350000002563 ], [ -91.10723700000176, 43.313645000001976 ], [ -91.085652000002085, 43.29187000000271 ], [ -91.057910000001755, 43.253968000002473 ], [ -91.07927800000148, 43.228259000002275 ], [ -91.119115000002125, 43.200366000001999 ], [ -91.156200000002016, 43.142945000002513 ], [ -91.175253000002101, 43.134665000002308 ], [ -91.177222000002558, 43.080247000002032 ], [ -91.174692000001897, 43.038713000002687 ], [ -91.146550000001483, 42.963345000002782 ], [ -91.149784000001901, 42.940244000002508 ], [ -91.143491000002086, 42.904698000002014 ], [ -91.120369000001816, 42.897187000002234 ], [ -91.100565000002007, 42.883078000002442 ], [ -91.091586000002565, 42.848664000002735 ], [ -91.095114000002297, 42.834966000002737 ], [ -91.078665000002275, 42.827678000002592 ], [ -91.078569000002247, 42.809626000002453 ], [ -91.065606000001765, 42.756766000002287 ], [ -91.051275000001553, 42.737001000002309 ], [ -90.995536000001593, 42.713704000002629 ], [ -90.980578000001984, 42.698932000002131 ], [ -90.952415000001594, 42.686778000002363 ], [ -90.921155000002287, 42.685406000002054 ], [ -90.896951000001764, 42.675082000002774 ], [ -90.843910000002381, 42.663071000002567 ], [ -90.769495000002436, 42.65144300000221 ], [ -90.720209000001844, 42.640758000002393 ], [ -90.702671000002596, 42.630756000002123 ], [ -90.686975000001581, 42.591774000002331 ], [ -90.66152700000174, 42.567999000002672 ], [ -90.644033000002153, 42.539860000002363 ], [ -90.635989000002198, 42.515409000002165 ], [ -90.656462000001994, 42.490962000002334 ], [ -90.65112000000164, 42.475189000002416 ], [ -90.624328000002023, 42.458904000002548 ], [ -90.570736000002285, 42.441701000002055 ], [ -90.555018000001553, 42.416138000002668 ], [ -90.500128000002363, 42.395539000002799 ], [ -90.47379800000256, 42.381458000002269 ], [ -90.665029000001596, 42.382155000002065 ], [ -90.665551000001741, 42.294699000002545 ], [ -90.898020000002063, 42.295236000002582 ], [ -91.130079000001757, 42.295761000001988 ], [ -91.363263000001893, 42.296445000002514 ], [ -91.364860000001556, 42.135334000002821 ], [ -91.365877000001817, 41.947410000001994 ], [ -91.366221000002525, 41.86006900000244 ], [ -91.571401000002098, 41.860449000002603 ], [ -91.714518000002542, 41.862035000002486 ], [ -91.831379000002258, 41.861851000002481 ], [ -92.298164000001606, 41.862779000002398 ], [ -92.299990000001515, 41.721532000002398 ], [ -92.299495000002224, 41.601536000002191 ], [ -92.297494000001862, 41.509790000002454 ], [ -92.411995000001554, 41.509548000002283 ], [ -92.756508000002242, 41.508794000002169 ], [ -92.75706800000232, 41.60141100000196 ], [ -92.766759000001727, 41.601355000002016 ], [ -92.765999000001756, 41.862373000002606 ], [ -92.765667000001599, 41.939677000002412 ] ] ] } },
{ "type": "Feature", "properties": { "enacted_district": 3, "population": 797551.0, "voting_age_pop": 600958.0, "dem_votes": 180658.0, "rep_votes": 185497.0, "minority_pop": 107644.0, "dem_pct": 0.49339214253706976, "rep_pct": 0.50660785718982182 }, "geometry": { "type": "Polygon", "coordinates": [ [ [ -94.471213000001583, 40.570825000002358 ], [ -94.594196000002114, 40.570960000002401 ], [ -94.914896000002486, 40.575068000002332 ], [ -95.131592000002442, 40.577503000001926 ], [ -95.373923000002563, 40.580503000002381 ], [ -95.373883000002081, 40.655527000002635 ], [ -95.370618000001755, 40.728241000001894 ], [ -95.38525400000232, 40.728378000002387 ], [ -95.384964000001602, 40.901550000002729 ], [ -95.384349000002558, 41.160011000002555 ], [ -95.155851000002073, 41.159236000002267 ], [ -95.154614000001885, 41.388455000002715 ], [ -95.154722000002081, 41.505211000001879 ], [ -95.040770000002354, 41.504690000002441 ], [ -94.700629000002095, 41.504148000001997 ], [ -94.70074500000166, 41.602184000002332 ], [ -94.744204000002341, 41.602185000002642 ], [ -94.743965000001921, 41.760561000001857 ], [ -94.744876000002321, 41.862394000001935 ], [ -94.628724000002663, 41.862763000002552 ], [ -94.629636000002222, 41.908227000002228 ], [ -94.628806000002086, 42.209396000001995 ], [ -94.397526000002657, 42.209161000002688 ], [ -94.164704000002473, 42.209920000002548 ], [ -94.164138000001984, 41.863244000002133 ], [ -93.815721000002, 41.863419000002281 ], [ -93.698032000001675, 41.863370000002021 ], [ -93.347933000002541, 41.8631040000027 ], [ -93.3486810000026, 41.60099900000197 ], [ -93.328681000002604, 41.601148000002468 ], [ -93.328614000002204, 41.507824000002799 ], [ -93.328407000002059, 41.490921000002501 ], [ -93.339335000001697, 41.482724000002641 ], [ -93.422854000002701, 41.511444000002719 ], [ -93.441286000002293, 41.507589000002802 ], [ -93.548242000002119, 41.511309000002591 ], [ -93.790612000002042, 41.511916000002032 ], [ -93.790774000002244, 41.379493000002029 ], [ -93.789196000002462, 41.162035000002291 ], [ -93.557556000001597, 41.16127100000228 ], [ -93.327886000002678, 41.160659000002489 ], [ -93.099217000002284, 41.160867000002732 ], [ -92.86977100000172, 41.161066000002485 ], [ -92.640361000002599, 41.161298000002013 ], [ -92.410233000001881, 41.161942000002028 ], [ -92.179974000001806, 41.162662000002314 ], [ -92.179072000001725, 40.899720000002354 ], [ -92.178181000002439, 40.682774000002517 ], [ -92.179780000002566, 40.600529000002531 ], [ -92.637898000002679, 40.590853000002809 ], [ -92.781317000002062, 40.588590000002711 ], [ -92.961591000002485, 40.587337000002769 ], [ -93.097296000002117, 40.584014000002661 ], [ -93.260429000001579, 40.580814000002313 ], [ -93.437500000002075, 40.579940000002424 ], [ -93.556899000002261, 40.580235000002219 ], [ -93.694367000001904, 40.577841000002039 ], [ -93.815485000002724, 40.577277000002681 ], [ -94.015492000001686, 40.573914000002162 ], [ -94.282994000002603, 40.571469000002296 ], [ -94.471213000001583, 40.570825000002358 ] ] ] } },
{ "type": "Feature", "properties": { "enacted_district": 4, "population": 797645.0, "voting_age_pop": 613517.0, "dem_votes": 138603.0, "rep_votes": 227688.0, "minority_pop": 89240.0, "dem_pct": 0.37839586547897824, "rep_pct": 0.62160413424801475 }, "geometry": { "type": "Polygon", "coordinates": [ [ [ -95.776251000001693, 40.647463000002361 ], [ -95.789485000002159, 40.659388000002188 ], [ -95.822913000002075, 40.667240000002202 ], [ -95.842801000001714, 40.677496000002513 ], [ -95.852615000002757, 40.702262000002591 ], [ -95.883178000001706, 40.717579000002281 ], [ -95.888907000002405, 40.73185500000254 ], [ -95.881529000002274, 40.75061100000255 ], [ -95.836903000001925, 40.776477000001933 ], [ -95.843745000002698, 40.803783000002255 ], [ -95.837186000002006, 40.835347000002557 ], [ -95.847785000001906, 40.864328000002203 ], [ -95.812083000002275, 40.884239000002061 ], [ -95.81346500000204, 40.90169300000268 ], [ -95.836438000002119, 40.921642000001889 ], [ -95.840275000001697, 40.939942000002624 ], [ -95.829829000001766, 40.963857000002406 ], [ -95.832055000001915, 40.981140000002043 ], [ -95.863492000002495, 40.997340000002197 ], [ -95.869502000002598, 41.009429000002129 ], [ -95.860862000002527, 41.038547000001842 ], [ -95.881588000002324, 41.0543780000026 ], [ -95.882225000002322, 41.063539000002642 ], [ -95.862427000001759, 41.089687000002193 ], [ -95.867228000002527, 41.121493000002317 ], [ -95.882883000002124, 41.146657000002072 ], [ -95.88052100000192, 41.159874000001913 ], [ -95.865929000002694, 41.168129000002672 ], [ -95.843443000001798, 41.169096000001957 ], [ -95.847241000002199, 41.183351000001963 ], [ -95.867624000002436, 41.188416000002455 ], [ -95.915428000001683, 41.18514500000272 ], [ -95.926694000002016, 41.195633000001905 ], [ -95.926117000001923, 41.211619000001917 ], [ -95.911296000001798, 41.23944200000183 ], [ -95.921364000002441, 41.25818100000248 ], [ -95.915937000001961, 41.272725000002289 ], [ -95.928646000001621, 41.28133200000196 ], [ -95.927642000002663, 41.298440000002003 ], [ -95.905899000002165, 41.301038000001917 ], [ -95.912581000002262, 41.279527000002304 ], [ -95.902840000002541, 41.274374000002283 ], [ -95.877481000001566, 41.28458300000208 ], [ -95.874184000002487, 41.30792400000211 ], [ -95.885554000002685, 41.318097000002695 ], [ -95.925185000002244, 41.321355000001866 ], [ -95.95165700000166, 41.337502000002637 ], [ -95.957130000001996, 41.349593000001839 ], [ -95.928774000002406, 41.370080000002638 ], [ -95.93769400000248, 41.394770000002445 ], [ -95.929478000001779, 41.415329000002615 ], [ -95.932311000002684, 41.432071000001969 ], [ -95.91998900000182, 41.452604000002651 ], [ -95.936340000002474, 41.465304000001993 ], [ -95.968334000001605, 41.463890000002102 ], [ -96.004047000001634, 41.47214600000234 ], [ -96.01738000000222, 41.492139000002382 ], [ -95.996194000002262, 41.506960000002373 ], [ -95.999966000002601, 41.539480000001788 ], [ -96.02665700000216, 41.540366000001882 ], [ -96.034290000002699, 41.513036000001847 ], [ -96.057331000002435, 41.51105100000224 ], [ -96.091908000002078, 41.534049000002319 ], [ -96.096586000002304, 41.545397000002311 ], [ -96.081188000002243, 41.574296000001922 ], [ -96.087186000001722, 41.586550000002624 ], [ -96.11364000000178, 41.601955000001894 ], [ -96.115995000001845, 41.622024000002149 ], [ -96.095131000002283, 41.647767000002041 ], [ -96.100055000002158, 41.661077000002237 ], [ -96.121048000002702, 41.677002000002147 ], [ -96.119861000002473, 41.692649000001843 ], [ -96.087139000002395, 41.697420000002339 ], [ -96.073100000001844, 41.70916900000271 ], [ -96.099441000001846, 41.726086000002297 ], [ -96.106185000001858, 41.739176000002416 ], [ -96.078635000002606, 41.761945000002321 ], [ -96.07754600000176, 41.777822000002594 ], [ -96.064897000002276, 41.791673000002028 ], [ -96.080161000002221, 41.810023000002403 ], [ -96.109746000001678, 41.823992000002271 ], [ -96.111252000002324, 41.850229000002422 ], [ -96.139008000002278, 41.86627700000259 ], [ -96.162067000001883, 41.903047000002459 ], [ -96.14226500000224, 41.915379000002673 ], [ -96.143493000002323, 41.937387000002509 ], [ -96.129186000001624, 41.965136000002211 ], [ -96.133203000001842, 41.974944000002502 ], [ -96.158049000001881, 41.980275000002528 ], [ -96.177204000002604, 41.976308000002611 ], [ -96.191971000001985, 41.985347000002115 ], [ -96.184711000001982, 42.00497200000212 ], [ -96.238860000001978, 42.012315000002587 ], [ -96.222823000001796, 42.023817000002573 ], [ -96.234356000002521, 42.04071200000206 ], [ -96.268063000002314, 42.041705000001954 ], [ -96.279201000001834, 42.073544000001995 ], [ -96.267486000002194, 42.109780000001891 ], [ -96.285952000002126, 42.125926000002536 ], [ -96.309758000002617, 42.132101000002109 ], [ -96.32074000000172, 42.147928000001805 ], [ -96.346688000002757, 42.164686000002362 ], [ -96.348474000001715, 42.196146000002287 ], [ -96.356560000002659, 42.215002000002457 ], [ -96.337025000001717, 42.217463000002077 ], [ -96.323723000001635, 42.22988700000203 ], [ -96.331312000002484, 42.25940800000248 ], [ -96.367977000002355, 42.290681000002323 ], [ -96.369969000001561, 42.310878000002177 ], [ -96.384169000002402, 42.325874000002486 ], [ -96.407998000002081, 42.337408000001744 ], [ -96.417918000002246, 42.358700000001917 ], [ -96.408436000002055, 42.376092000002046 ], [ -96.414606000001953, 42.392247000002435 ], [ -96.410307000001936, 42.412965000002174 ], [ -96.387608000001975, 42.43249400000186 ], [ -96.38070500000228, 42.446393000002253 ], [ -96.386013000002393, 42.474506000002265 ], [ -96.401962000002683, 42.486440000002446 ], [ -96.455424000002125, 42.492498000002193 ], [ -96.488163000001833, 42.511284000002085 ], [ -96.479949000001838, 42.524246000002641 ], [ -96.476960000001796, 42.555972000002292 ], [ -96.498776000002579, 42.561043000002087 ], [ -96.496026000002274, 42.580382000002452 ], [ -96.515140000002376, 42.628228000001826 ], [ -96.576692000002524, 42.68310900000175 ], [ -96.605596000002393, 42.702020000002243 ], [ -96.629920000002102, 42.705255000002509 ], [ -96.624465000002402, 42.721113000001779 ], [ -96.635561000002113, 42.740847000002262 ], [ -96.632882000001842, 42.76189100000235 ], [ -96.619849000001921, 42.783792000002158 ], [ -96.603582000002433, 42.784140000002282 ], [ -96.577830000002535, 42.829067000001722 ], [ -96.544831000001722, 42.850193000001717 ], [ -96.546561000001859, 42.874524000002538 ], [ -96.528536000002276, 42.897666000002381 ], [ -96.538458000001555, 42.908771000001977 ], [ -96.539926000002424, 42.925066000002239 ], [ -96.509138000002338, 42.945417000002543 ], [ -96.498909000002755, 42.958330000002071 ], [ -96.520820000001677, 42.979923000002209 ], [ -96.491981000002042, 43.010197000001739 ], [ -96.513952000001566, 43.030075000002029 ], [ -96.513681000002279, 43.047030000001925 ], [ -96.489201000001742, 43.051494000001746 ], [ -96.460742000001673, 43.064337000001935 ], [ -96.454063000002407, 43.097331000001851 ], [ -96.436567000002356, 43.119818000002518 ], [ -96.450598000001918, 43.142521000002112 ], [ -96.468290000002, 43.151552000001793 ], [ -96.465247000001796, 43.182916000002024 ], [ -96.474070000001674, 43.190309000002237 ], [ -96.47672900000164, 43.221987000002528 ], [ -96.517540000002285, 43.217825000001689 ], [ -96.535823000001784, 43.227606000001892 ], [ -96.555281000002438, 43.226666000002282 ], [ -96.571414000001766, 43.23907800000255 ], [ -96.549534000002282, 43.248372000002014 ], [ -96.554969000001918, 43.259951000002452 ], [ -96.577754000002599, 43.278373000002055 ], [ -96.581528000002663, 43.295595000001896 ], [ -96.553082000001879, 43.292835000002441 ], [ -96.530691000002037, 43.299713000001908 ], [ -96.524522000001767, 43.312067000001754 ], [ -96.535022000001959, 43.336674000002226 ], [ -96.524376000001737, 43.347134000002548 ], [ -96.527644000001885, 43.362685000002273 ], [ -96.521720000001835, 43.386755000002339 ], [ -96.593141000002163, 43.433045000002103 ], [ -96.602547000001678, 43.449249000002183 ], [ -96.582402000001778, 43.466739000002576 ], [ -96.58485800000274, 43.489689000002258 ], [ -96.599191000001824, 43.50045600000248 ], [ -96.350845000002082, 43.500238000001858 ], [ -96.035696000002474, 43.500100000002483 ], [ -95.86094700000254, 43.500036000002083 ], [ -95.689309000001558, 43.499881000002439 ], [ -95.387787000002234, 43.500226000002428 ], [ -95.167595000002706, 43.501021000001984 ], [ -94.914582000001801, 43.500853000001925 ], [ -94.442850000002323, 43.500422000002203 ], [ -94.274829000001674, 43.500141000002543 ], [ -93.970762000002239, 43.499886000001837 ], [ -93.801789000002159, 43.49967700000208 ], [ -93.497353000002406, 43.499622000002297 ], [ -93.497635000001594, 43.255468000002296 ], [ -93.497769000002378, 42.999958000001847 ], [ -93.498617000002525, 42.908512000002268 ], [ -93.300261000002237, 42.907685000002047 ], [ -93.025144000002086, 42.90754900000276 ], [ -93.027000000001919, 42.556810000002358 ], [ -93.153158000001895, 42.556768000002229 ], [ -93.499485000001599, 42.557700000002015 ], [ -93.499098000002164, 42.47097500000222 ], [ -93.462635000002479, 42.470802000001974 ], [ -93.463043000002045, 42.209302000001927 ], [ -93.231722000002478, 42.208886000002131 ], [ -93.001674000001557, 42.209267000002725 ], [ -92.767463000002365, 42.210140000002106 ], [ -92.765667000001599, 41.939677000002412 ], [ -92.765999000001756, 41.862373000002606 ], [ -93.231858000002177, 41.862711000002108 ], [ -93.347933000002541, 41.8631040000027 ], [ -93.698032000001675, 41.863370000002021 ], [ -93.815721000002, 41.863419000002281 ], [ -94.164138000001984, 41.863244000002133 ], [ -94.164704000002473, 42.209920000002548 ], [ -94.397526000002657, 42.209161000002688 ], [ -94.628806000002086, 42.209396000001995 ], [ -94.629636000002222, 41.908227000002228 ], [ -94.628724000002663, 41.862763000002552 ], [ -94.744876000002321, 41.862394000001935 ], [ -94.743965000001921, 41.760561000001857 ], [ -94.744204000002341, 41.602185000002642 ], [ -94.70074500000166, 41.602184000002332 ], [ -94.700629000002095, 41.504148000001997 ], [ -95.040770000002354, 41.504690000002441 ], [ -95.154722000002081, 41.505211000001879 ], [ -95.154614000001885, 41.388455000002715 ], [ -95.155851000002073, 41.159236000002267 ], [ -95.384349000002558, 41.160011000002555 ], [ -95.384964000001602, 40.901550000002729 ], [ -95.38525400000232, 40.728378000002387 ], [ -95.370618000001755, 40.728241000001894 ], [ -95.373883000002081, 40.655527000002635 ], [ -95.373923000002563, 40.580503000002381 ], [ -95.765645000001797, 40.585208000002211 ], [ -95.753148000002625, 40.592840000002234 ], [ -95.751271000001964, 40.609057000002537 ], [ -95.769759000002722, 40.622884000002429 ], [ -95.776251000001693, 40.647463000002361 ] ] ] } }
]
}
