{
"type": "FeatureCollection",
"name": "kansas_optimized_districts_all",
"crs": { "type": "name", "properties": { "name": "urn:ogc:def:crs:OGC:1.3:CRS84" } },
"features": [
{ "type": "Feature", "properties": { "opt_all": 1, "population": 734847.0, "voting_age_pop": 559948.0, "dem_votes": 75209.0, "rep_votes": 181601.0, "minority_pop": 129610.0, "dem_pct": 0.29285853343216445, "rep_pct": 0.70714146617844265 }, "geometry": { "type": "Polygon", "coordinates": [ [ [ -102.044708000002402, 38.041257000002304 ], [ -102.044307000001723, 38.175559000002195 ], [ -102.044464000002606, 38.262412000001845 ], [ -102.045052000002798, 38.460822000002217 ], [ -102.045212000001882, 38.69756700000206 ], [ -102.045351000001915, 38.856897000001965 ], [ -102.047161000002617, 39.133147000002403 ], [ -102.047751000002705, 39.220290000002052 ], [ -102.049179000002198, 39.394064000001769 ], [ -102.049764000002682, 39.568180000002087 ], [ -102.050866000002699, 39.741794000001654 ], [ -102.051744000001875, 40.003078000002425 ], [ -101.861742000002181, 40.003017000001797 ], [ -101.748488000002723, 40.002843000002322 ], [ -101.579640000001802, 40.002713000002366 ], [ -101.411029000002216, 40.002522000001697 ], [ -101.186892000001677, 40.002481000002255 ], [ -100.96226700000166, 40.002248000001757 ], [ -100.738825000001924, 40.002116000001969 ], [ -100.626752000002, 40.001984000002096 ], [ -100.514415000002799, 40.001877000002111 ], [ -100.402451000002401, 40.001807000001776 ], [ -100.29012200000264, 40.00171700000238 ], [ -100.177794000002564, 40.001602000002542 ], [ -99.991631000002684, 40.001645000001936 ], [ -99.850072000002015, 40.001619000002393 ], [ -99.737771000002439, 40.001759000002117 ], [ -99.625324000001697, 40.001859000001808 ], [ -99.515339000001958, 40.001965000001917 ], [ -99.403389000002676, 40.001969000002326 ], [ -99.290910000002199, 40.001947000001735 ], [ -99.179134000002193, 40.002013000002094 ], [ -99.067046000001938, 40.002348000001788 ], [ -98.953885000001677, 40.002303000002257 ], [ -98.84250500000276, 40.002337000002392 ], [ -98.729035000002042, 40.002321000001828 ], [ -98.616414000002678, 40.002409000002359 ], [ -98.504455000001727, 40.002291000001811 ], [ -98.391854000001658, 40.0024040000025 ], [ -98.268218000002676, 40.002490000002418 ], [ -98.156844000002337, 40.002241000002137 ], [ -98.042768000002482, 40.002187000002003 ], [ -97.931825000002135, 40.002072000002471 ], [ -97.8192610000022, 40.002053000002419 ], [ -97.707017000001798, 40.002128000002628 ], [ -97.59372100000212, 40.002051000002083 ], [ -97.481364000002358, 40.001777000002633 ], [ -97.369199000002197, 40.001966000002312 ], [ -97.256543000001983, 40.001803000002653 ], [ -97.144152000002379, 40.001585000001988 ], [ -97.030942000002241, 40.001373000002594 ], [ -96.91845500000224, 40.001529000002492 ], [ -96.805768000002359, 40.00149500000262 ], [ -96.8059660000024, 39.914877000001923 ], [ -96.806201000002602, 39.827538000002697 ], [ -96.806519000002282, 39.740339000002358 ], [ -96.806599000002578, 39.65334400000242 ], [ -96.806544000002319, 39.566423000002239 ], [ -96.693971000002094, 39.56644100000269 ], [ -96.581453000002, 39.566333000001961 ], [ -96.580362000002097, 39.566332000002738 ], [ -96.591075000001894, 39.552937000001911 ], [ -96.589230000002459, 39.545660000002059 ], [ -96.644383000001994, 39.518926000002509 ], [ -96.66779300000276, 39.475324000002367 ], [ -96.684090000001945, 39.478797000002601 ], [ -96.713094000002499, 39.435680000002279 ], [ -96.717139000002518, 39.407190000002728 ], [ -96.717544000002562, 39.392802000002433 ], [ -96.644767000002645, 39.392466000002052 ], [ -96.644528000002566, 39.406735000002691 ], [ -96.588543000002559, 39.40651400000268 ], [ -96.588457000002379, 39.392020000002049 ], [ -96.519850000002279, 39.392135000001915 ], [ -96.463749000001798, 39.392274000002722 ], [ -96.388883000002593, 39.391685000001985 ], [ -96.351586000002698, 39.391437000002369 ], [ -96.277068000002657, 39.391540000002749 ], [ -96.277360000001622, 39.304406000002729 ], [ -96.24003900000244, 39.304123000002171 ], [ -96.240255000001966, 39.238812000002767 ], [ -96.231170000002194, 39.214192000001923 ], [ -96.231214000002538, 39.211585000002188 ], [ -96.219750000001966, 39.200764000002039 ], [ -96.1967890000018, 39.206580000002489 ], [ -96.178732000002753, 39.189963000002209 ], [ -96.138094000001999, 39.190580000002441 ], [ -96.079628000002643, 39.190181000002241 ], [ -96.058763000001676, 39.164806000002741 ], [ -96.083867000001959, 39.163263000002438 ], [ -96.08822500000224, 39.152339000002662 ], [ -96.041801000002664, 39.129779000002145 ], [ -96.039060000002721, 39.126527000002753 ], [ -95.997285000002663, 39.109741000002593 ], [ -95.972607000002597, 39.111569000002838 ], [ -95.946754000002599, 39.098685000002611 ], [ -95.946712000002165, 39.044047000002195 ], [ -95.946728000002082, 38.986417000002753 ], [ -95.946868000002738, 38.928445000002483 ], [ -95.94658700000204, 38.869973000002332 ], [ -95.946148000002225, 38.753727000002691 ], [ -95.945924000002435, 38.739112000002585 ], [ -95.945661000002318, 38.695363000001969 ], [ -95.9496540000019, 38.695385000002368 ], [ -95.949653000002755, 38.608083000002523 ], [ -95.949995000002716, 38.521065000002459 ], [ -95.949969000001943, 38.477704000002525 ], [ -95.950282000002005, 38.434105000002802 ], [ -95.820796000002318, 38.433544000002492 ], [ -95.802282000002663, 38.433820000002797 ], [ -95.691886000002199, 38.434062000001973 ], [ -95.673860000002762, 38.434490000002071 ], [ -95.59986400000254, 38.43413000000249 ], [ -95.508267000002036, 38.433933000002135 ], [ -95.508328000002294, 38.390278000002304 ], [ -95.507968000002336, 38.346583000002319 ], [ -95.507474000002645, 38.259248000002643 ], [ -95.516757000002457, 38.259296000002557 ], [ -95.517490000001999, 38.198368000002532 ], [ -95.51794000000254, 38.154436000002157 ], [ -95.518097000001859, 38.139930000002614 ], [ -95.518970000002284, 38.038230000002763 ], [ -95.519373000002361, 37.951084000002382 ], [ -95.519193000001977, 37.922025000002485 ], [ -95.519224000002566, 37.863755000002669 ], [ -95.519178000002398, 37.83474400000263 ], [ -95.524862000002514, 37.820285000002258 ], [ -95.525499000001759, 37.732759000002687 ], [ -95.52569800000164, 37.689271000002748 ], [ -95.525904000001859, 37.645604000002429 ], [ -95.525118000002564, 37.558695000002807 ], [ -95.525042000001804, 37.514663000002145 ], [ -95.5254260000019, 37.471176000002188 ], [ -95.525560000002244, 37.383979000002526 ], [ -95.521130000002273, 37.383990000002029 ], [ -95.519568000002778, 37.339584000002247 ], [ -95.519437000002526, 37.324861000002443 ], [ -95.517976000002406, 37.266376000002332 ], [ -95.518017000002445, 37.251718000002313 ], [ -95.521414000002395, 37.193749000002647 ], [ -95.521981000002526, 37.150354000002039 ], [ -95.521691000002434, 37.120290000002619 ], [ -95.521858000002283, 37.077086000002467 ], [ -95.522415000001956, 36.999280000002265 ], [ -95.601517000002616, 36.999302000002842 ], [ -95.674042000002515, 36.99927200000274 ], [ -95.746470000002205, 36.99921800000223 ], [ -95.819366000002276, 36.99916600000229 ], [ -95.910122000002119, 36.999342000002486 ], [ -95.964270000001875, 36.999104000002575 ], [ -95.964692000002415, 37.096390000002266 ], [ -95.964464000002337, 37.125511000002213 ], [ -95.964135000002045, 37.197483000002215 ], [ -95.964396000002395, 37.255693000002339 ], [ -95.964399000002274, 37.299232000002533 ], [ -95.961605000001796, 37.386636000002504 ], [ -95.962311000002444, 37.430273000002749 ], [ -95.962415000001741, 37.472910000002408 ], [ -95.962241000001796, 37.51668000000253 ], [ -95.961002000002736, 37.603761000002208 ], [ -95.961004000002021, 37.618896000002032 ], [ -95.960689000002006, 37.719742000002348 ], [ -95.960876000001662, 37.73430400000273 ], [ -95.961408000002521, 37.821985000002272 ], [ -95.958554000002422, 37.909245000002656 ], [ -95.958510000002036, 37.938283000002855 ], [ -95.959046000002516, 38.040195000002313 ], [ -95.958862000002156, 38.170939000002591 ], [ -96.067117000002327, 38.171867000002173 ], [ -96.138642000001767, 38.172110000002483 ], [ -96.357277000001645, 38.172660000002658 ], [ -96.358099000002355, 38.085817000002173 ], [ -96.522782000002138, 38.086370000002397 ], [ -96.639426000001677, 38.086348000002225 ], [ -96.730858000002456, 38.086080000002184 ], [ -96.785829000002238, 38.0859210000025 ], [ -96.840772000002474, 38.085622000002438 ], [ -96.84082800000202, 38.172772000002489 ], [ -96.840971000002696, 38.230832000002358 ], [ -96.837801000002059, 38.275830000002372 ], [ -96.837654000001876, 38.348636000002173 ], [ -96.819475000001816, 38.348502000002483 ], [ -96.819787000001796, 38.450046000001947 ], [ -96.819509000001801, 38.522449000002347 ], [ -96.929969000001719, 38.522412000002753 ], [ -96.930286000002525, 38.609362000002172 ], [ -97.040753000001885, 38.609022000002341 ], [ -97.150746000002556, 38.609560000002681 ], [ -97.261034000002056, 38.609307000002197 ], [ -97.371911000001717, 38.609353000002464 ], [ -97.371932000002758, 38.522161000002008 ], [ -97.371880000002321, 38.435041000002215 ], [ -97.371670000002041, 38.347989000002229 ], [ -97.371627000002505, 38.260833000002513 ], [ -97.371750000001754, 38.17367300000263 ], [ -97.482244000002297, 38.173889000002667 ], [ -97.592145000002617, 38.174163000002345 ], [ -97.70184100000192, 38.173814000002139 ], [ -97.701721000002138, 38.086698000002386 ], [ -97.702006000001802, 38.072221000002308 ], [ -97.702163000001761, 37.999611000002183 ], [ -97.701969000001739, 37.911325000002677 ], [ -97.702031000002222, 37.897950000002474 ], [ -97.7021120000026, 37.839785000002138 ], [ -97.699679000001964, 37.825156000002522 ], [ -97.69869200000204, 37.735056000002075 ], [ -97.807823000002799, 37.733855000002208 ], [ -97.917999000001757, 37.733884000002682 ], [ -98.027326000001864, 37.733289000002252 ], [ -98.136225000002639, 37.732913000002149 ], [ -98.246262000002176, 37.732661000002018 ], [ -98.355520000002343, 37.732572000002357 ], [ -98.464804000002616, 37.732675000002445 ], [ -98.464899000002376, 37.824512000001896 ], [ -98.472257000002713, 37.824497000002019 ], [ -98.471941000001905, 37.911591000002559 ], [ -98.472313000002273, 37.99866200000217 ], [ -98.472507000001983, 38.085599000002013 ], [ -98.472794000001684, 38.172757000002299 ], [ -98.472437000002415, 38.260741000002078 ], [ -98.479841000002438, 38.260790000002388 ], [ -98.582212000002116, 38.261116000001842 ], [ -98.692595000002754, 38.260851000002319 ], [ -98.700750000002543, 38.2608440000025 ], [ -98.802819000001804, 38.260942000002167 ], [ -98.811265000002336, 38.260954000002151 ], [ -98.912583000002726, 38.261088000002331 ], [ -98.912371000002281, 38.174540000002494 ], [ -98.912972000001758, 38.087416000002179 ], [ -98.913136000001998, 38.000451000002023 ], [ -99.022136000001822, 38.00023600000241 ], [ -99.022322000002262, 37.912667000002166 ], [ -99.022627000002601, 37.825358000002268 ], [ -99.013318000002215, 37.825336000002203 ], [ -99.013550000002638, 37.732970000002176 ], [ -99.015359000002164, 37.643499000001874 ], [ -99.014040000002097, 37.556868000001934 ], [ -99.013771000002635, 37.54287800000268 ], [ -99.012598000002754, 37.470421000002702 ], [ -99.011499000002317, 37.384263000002505 ], [ -99.001294000002005, 37.384296000002394 ], [ -99.001945000002394, 37.297143000001896 ], [ -99.001372000002135, 37.180270000001926 ], [ -99.000301000002523, 36.999467000002589 ], [ -99.215433000002236, 36.99955700000217 ], [ -99.396675000001906, 36.999838000002022 ], [ -99.541116000002177, 36.999610000002065 ], [ -99.722588000001878, 37.000479000002223 ], [ -99.904897000002435, 37.001645000002306 ], [ -100.089483000002076, 37.002261000002171 ], [ -100.269987000002615, 37.001888000002033 ], [ -100.434274000001906, 37.001109000002472 ], [ -100.633327000002282, 37.000103000002504 ], [ -100.850000000002325, 36.998707000001957 ], [ -100.997027000001722, 36.99802800000213 ], [ -101.066451000002402, 36.997922000002106 ], [ -101.28320800000192, 36.996700000002335 ], [ -101.555259000002806, 36.99532400000183 ], [ -101.718255000002756, 36.994519000002505 ], [ -101.826552000002678, 36.994008000001983 ], [ -101.880884000002339, 36.993747000001918 ], [ -101.902205000002098, 36.993602000002234 ], [ -101.908051000002644, 36.993602000002362 ], [ -101.935217000001856, 36.99351000000221 ], [ -102.042089000002605, 36.993016000001873 ], [ -102.041964000002224, 37.12671400000194 ], [ -102.041642000002241, 37.389190000001854 ], [ -102.042155000002296, 37.738541000002058 ], [ -102.043692000001954, 37.914004000001697 ], [ -102.044708000002402, 38.041257000002304 ] ] ] } },
{ "type": "Feature", "properties": { "opt_all": 2, "population": 735371.0, "voting_age_pop": 561148.0, "dem_votes": 134037.0, "rep_votes": 142756.0, "minority_pop": 144039.0, "dem_pct": 0.48424996279376648, "rep_pct": 0.51575003684495269 }, "geometry": { "type": "MultiPolygon", "coordinates": [ [ [ [ -95.949969000001943, 38.477704000002525 ], [ -95.949995000002716, 38.521065000002459 ], [ -95.949653000002755, 38.608083000002523 ], [ -95.9496540000019, 38.695385000002368 ], [ -95.945661000002318, 38.695363000001969 ], [ -95.945924000002435, 38.739112000002585 ], [ -95.946148000002225, 38.753727000002691 ], [ -95.94658700000204, 38.869973000002332 ], [ -95.946868000002738, 38.928445000002483 ], [ -95.946728000002082, 38.986417000002753 ], [ -95.946712000002165, 39.044047000002195 ], [ -95.946754000002599, 39.098685000002611 ], [ -95.972607000002597, 39.111569000002838 ], [ -95.997285000002663, 39.109741000002593 ], [ -96.039060000002721, 39.126527000002753 ], [ -96.041801000002664, 39.129779000002145 ], [ -96.08822500000224, 39.152339000002662 ], [ -96.083867000001959, 39.163263000002438 ], [ -96.058763000001676, 39.164806000002741 ], [ -96.079628000002643, 39.190181000002241 ], [ -96.138094000001999, 39.190580000002441 ], [ -96.178732000002753, 39.189963000002209 ], [ -96.1967890000018, 39.206580000002489 ], [ -96.219750000001966, 39.200764000002039 ], [ -96.231214000002538, 39.211585000002188 ], [ -96.231170000002194, 39.214192000001923 ], [ -96.240255000001966, 39.238812000002767 ], [ -96.24003900000244, 39.304123000002171 ], [ -96.277360000001622, 39.304406000002729 ], [ -96.277068000002657, 39.391540000002749 ], [ -96.351586000002698, 39.391437000002369 ], [ -96.388883000002593, 39.391685000001985 ], [ -96.463749000001798, 39.392274000002722 ], [ -96.519850000002279, 39.392135000001915 ], [ -96.588457000002379, 39.392020000002049 ], [ -96.588543000002559, 39.40651400000268 ], [ -96.644528000002566, 39.406735000002691 ], [ -96.644767000002645, 39.392466000002052 ], [ -96.717544000002562, 39.392802000002433 ], [ -96.717139000002518, 39.407190000002728 ], [ -96.713094000002499, 39.435680000002279 ], [ -96.684090000001945, 39.478797000002601 ], [ -96.66779300000276, 39.475324000002367 ], [ -96.644383000001994, 39.518926000002509 ], [ -96.589230000002459, 39.545660000002059 ], [ -96.591075000001894, 39.552937000001911 ], [ -96.580362000002097, 39.566332000002738 ], [ -96.581453000002, 39.566333000001961 ], [ -96.693971000002094, 39.56644100000269 ], [ -96.806544000002319, 39.566423000002239 ], [ -96.806599000002578, 39.65334400000242 ], [ -96.806519000002282, 39.740339000002358 ], [ -96.806201000002602, 39.827538000002697 ], [ -96.8059660000024, 39.914877000001923 ], [ -96.805768000002359, 40.00149500000262 ], [ -96.69340000000264, 40.001360000002691 ], [ -96.581788000001879, 40.0009630000025 ], [ -96.463712000002516, 40.001023000002235 ], [ -96.352038000002395, 40.000949000002464 ], [ -96.23920000000254, 40.000881000002245 ], [ -96.126118000001753, 40.000438000002632 ], [ -96.014712000002476, 40.000675000002737 ], [ -95.901558000001927, 40.00059400000228 ], [ -95.788111000001834, 40.000462000002535 ], [ -95.673002000002683, 40.000338000002323 ], [ -95.639765000001802, 40.000318000002792 ], [ -95.565376000002061, 40.000241000002468 ], [ -95.452050000002075, 40.000290000001939 ], [ -95.339896000002057, 39.999999000002148 ], [ -95.308290000001918, 39.999998000002265 ], [ -95.301613000002703, 39.984000000002602 ], [ -95.272335000002485, 39.971038000002423 ], [ -95.250254000002599, 39.948644000002176 ], [ -95.205266000002439, 39.939750000002348 ], [ -95.199700000002139, 39.90334200000266 ], [ -95.153190000001644, 39.906841000002167 ], [ -95.139679000002104, 39.880592000001997 ], [ -95.085003000001805, 39.861883000002535 ], [ -95.035246000001962, 39.865921000002508 ], [ -95.021897000001687, 39.893974000002508 ], [ -94.955178000002036, 39.901288000002843 ], [ -94.934907000002326, 39.893784000002633 ], [ -94.930471000002683, 39.873562000002373 ], [ -94.939854000001887, 39.852044000002557 ], [ -94.916766000001914, 39.835807000002482 ], [ -94.891481000002074, 39.834644000002065 ], [ -94.875944000002633, 39.813294000002081 ], [ -94.890528000002561, 39.791425000002789 ], [ -94.919550000002118, 39.790291000002483 ], [ -94.934644000001839, 39.773144000002596 ], [ -94.912293000001995, 39.75933800000238 ], [ -94.898587000001783, 39.761522000002053 ], [ -94.869655000002695, 39.772899000002077 ], [ -94.859035000002365, 39.754116000002568 ], [ -94.865048000002744, 39.738591000002437 ], [ -94.884143000002481, 39.726794000002386 ], [ -94.907014000002135, 39.725101000002773 ], [ -94.947541000002602, 39.745337000001967 ], [ -94.963782000002766, 39.740393000002662 ], [ -94.971334000002656, 39.725706000002219 ], [ -94.96933300000164, 39.690730000002475 ], [ -94.988405000001862, 39.677098000002253 ], [ -95.021522000001681, 39.67065000000207 ], [ -95.049518000002237, 39.63787600000262 ], [ -95.053586000001758, 39.615269000002201 ], [ -95.04668800000168, 39.596752000002112 ], [ -95.05689700000184, 39.580567000002652 ], [ -95.097059000001977, 39.580251000002477 ], [ -95.109222000002646, 39.569390000002429 ], [ -95.112900000002284, 39.559621000002451 ], [ -95.113502000002541, 39.553713000002439 ], [ -95.096904000001999, 39.527820000002123 ], [ -95.050552000001758, 39.497514000002589 ], [ -95.044668000002559, 39.47125600000205 ], [ -95.033408000001657, 39.460876000002131 ], [ -94.990172000002104, 39.446192000002803 ], [ -94.968973000002507, 39.418879000002221 ], [ -94.946293000001759, 39.405646000002839 ], [ -94.938200000002126, 39.387113000002451 ], [ -94.91922500000166, 39.385174000002749 ], [ -94.901823000001727, 39.392798000002337 ], [ -94.888972000001743, 39.392432000002337 ], [ -94.880979000002114, 39.383899000002131 ], [ -94.879088000002255, 39.375703000002247 ], [ -94.884922000001794, 39.366511000002532 ], [ -94.910255000001953, 39.351564000002263 ], [ -94.90851000000238, 39.329755000002265 ], [ -94.898516000002516, 39.298450000001992 ], [ -94.880399000002114, 39.282207000002238 ], [ -94.834593000001917, 39.259574000002289 ], [ -94.826175000002166, 39.244849000002517 ], [ -94.831679000002765, 39.215938000002197 ], [ -94.775532000002499, 39.200606000002487 ], [ -94.771196000002405, 39.191620000002345 ], [ -94.741858000002537, 39.170318000002197 ], [ -94.723637000002483, 39.169003000002682 ], [ -94.688788000001978, 39.183228000002217 ], [ -94.659162000002397, 39.174126000002019 ], [ -94.650774000001846, 39.154121000002782 ], [ -94.623354000002223, 39.156839000002606 ], [ -94.606455000002398, 39.160827000002115 ], [ -94.588658000001615, 39.151163000002555 ], [ -94.607354000002118, 39.113444000002723 ], [ -94.607223000002435, 39.0897090000025 ], [ -94.608651000002567, 39.090064000002101 ], [ -94.624657000001875, 39.075269000002272 ], [ -94.639993000001681, 39.073538000002046 ], [ -94.649572000001783, 39.077616000002536 ], [ -94.67990400000204, 39.099711000002308 ], [ -94.702360000002642, 39.102533000002005 ], [ -94.7100380000022, 39.093298000002754 ], [ -94.728557000002041, 39.105947000002502 ], [ -94.745585000001782, 39.106398000002201 ], [ -94.745614000001964, 39.102226000002432 ], [ -94.760516000002482, 39.101884000002208 ], [ -94.779054000001807, 39.101745000002609 ], [ -94.769313000002242, 39.109485000002245 ], [ -94.771678000002353, 39.116357000002495 ], [ -94.779123000001903, 39.116353000002391 ], [ -94.79771900000236, 39.128597000002607 ], [ -94.816311000002486, 39.128619000002281 ], [ -94.845484000001633, 39.128627000002687 ], [ -94.901394000001886, 39.128686000002865 ], [ -94.90827500000168, 39.128654000002733 ], [ -94.908465000002167, 39.116001000002392 ], [ -94.908469000002114, 39.115707000002011 ], [ -94.908717000001758, 39.093285000001991 ], [ -94.908743000002744, 39.090815000002742 ], [ -94.908751000002624, 39.086899000002347 ], [ -94.908751000001914, 39.072313000002637 ], [ -94.908797000002721, 39.057934000002746 ], [ -94.908840000002726, 39.040964000002397 ], [ -94.908765000001779, 38.991401000001979 ], [ -94.923349000002204, 39.002633000002035 ], [ -94.931571000002577, 39.001460000002346 ], [ -94.948275000001757, 38.984214000002133 ], [ -95.021132000001799, 39.000003000002799 ], [ -95.026045000001915, 38.992337000002202 ], [ -95.023638000002578, 38.988238000002283 ], [ -95.027847000002083, 38.978865000002394 ], [ -95.056258000002515, 38.982120000002404 ], [ -95.056187000001714, 38.943106000002281 ], [ -95.055898000002543, 38.913220000002866 ], [ -95.056117000002686, 38.869573000002646 ], [ -95.056159000002481, 38.840591000002661 ], [ -95.056207000001663, 38.81143200000254 ], [ -95.056198000001956, 38.796814000002115 ], [ -95.056330000002475, 38.767752000002481 ], [ -95.05637000000236, 38.760319000002212 ], [ -95.056375000002703, 38.759734000002496 ], [ -95.056412000002425, 38.738587000002227 ], [ -95.167545000001738, 38.738471000002342 ], [ -95.24159000000202, 38.738678000002452 ], [ -95.26594100000176, 38.738625000002315 ], [ -95.278916000002354, 38.738609000002093 ], [ -95.352914000002684, 38.738788000002117 ], [ -95.408730000002137, 38.738879000002278 ], [ -95.500738000002585, 38.738808000002429 ], [ -95.501223000002398, 38.695263000002029 ], [ -95.508904000001877, 38.652188000002255 ], [ -95.508667000002262, 38.623101000001945 ], [ -95.508541000002182, 38.594077000002692 ], [ -95.508549000001636, 38.528832000002666 ], [ -95.508490000002283, 38.52145200000205 ], [ -95.508267000002036, 38.433933000002135 ], [ -95.59986400000254, 38.43413000000249 ], [ -95.673860000002762, 38.434490000002071 ], [ -95.691886000002199, 38.434062000001973 ], [ -95.802282000002663, 38.433820000002797 ], [ -95.820796000002318, 38.433544000002492 ], [ -95.950282000002005, 38.434105000002802 ], [ -95.949969000001943, 38.477704000002525 ] ] ], [ [ [ -95.519437000002526, 37.324861000002443 ], [ -95.519568000002778, 37.339584000002247 ], [ -95.521130000002273, 37.383990000002029 ], [ -95.525560000002244, 37.383979000002526 ], [ -95.5254260000019, 37.471176000002188 ], [ -95.525042000001804, 37.514663000002145 ], [ -95.525118000002564, 37.558695000002807 ], [ -95.525904000001859, 37.645604000002429 ], [ -95.52569800000164, 37.689271000002748 ], [ -95.525499000001759, 37.732759000002687 ], [ -95.524862000002514, 37.820285000002258 ], [ -95.519178000002398, 37.83474400000263 ], [ -95.519224000002566, 37.863755000002669 ], [ -95.519193000001977, 37.922025000002485 ], [ -95.519373000002361, 37.951084000002382 ], [ -95.518970000002284, 38.038230000002763 ], [ -95.518097000001859, 38.139930000002614 ], [ -95.51794000000254, 38.154436000002157 ], [ -95.517490000001999, 38.198368000002532 ], [ -95.516757000002457, 38.259296000002557 ], [ -95.507474000002645, 38.259248000002643 ], [ -95.507968000002336, 38.346583000002319 ], [ -95.508328000002294, 38.390278000002304 ], [ -95.360246000002363, 38.390137000002021 ], [ -95.15777300000164, 38.390006000002607 ], [ -95.065831000002646, 38.389945000002641 ], [ -94.918137000002034, 38.389142000002366 ], [ -94.775253000002039, 38.388996000002031 ], [ -94.770401000002735, 38.389020000002525 ], [ -94.696221000002126, 38.388859000002391 ], [ -94.613232000002554, 38.388718000002065 ], [ -94.61301600000256, 38.34366000000211 ], [ -94.612675000001914, 38.301464000002369 ], [ -94.612650000002461, 38.218569000002674 ], [ -94.613474000002725, 38.16799400000216 ], [ -94.613820000002477, 38.12441800000235 ], [ -94.614089000001684, 38.037057000002491 ], [ -94.615392000002103, 37.90644000000276 ], [ -94.61627300000238, 37.851651000002697 ], [ -94.617645000002241, 37.761243000002786 ], [ -94.617779000002443, 37.673105000002657 ], [ -94.617620000002219, 37.643991000002494 ], [ -94.617503000002046, 37.636691000002173 ], [ -94.61738400000182, 37.614594000002683 ], [ -94.617111000002637, 37.563166000002433 ], [ -94.617108000002176, 37.557355000002104 ], [ -94.617175000002646, 37.552208000002928 ], [ -94.617012000002276, 37.535239000002711 ], [ -94.617110000002398, 37.454776000002639 ], [ -94.617414000002753, 37.410959000002379 ], [ -94.617524000001637, 37.381688000002711 ], [ -94.617722000002118, 37.338418000002697 ], [ -94.61817600000272, 37.207190000002512 ], [ -94.618167000001762, 37.11893000000213 ], [ -94.618073000002553, 37.089267000002295 ], [ -94.617884000001965, 37.069211000002447 ], [ -94.617852000002358, 37.056380000002896 ], [ -94.61792700000268, 37.004740000002627 ], [ -94.617964000002615, 36.998905000002466 ], [ -94.722420000001861, 36.998701000002548 ], [ -94.731507000002324, 36.998670000002093 ], [ -94.744987000002283, 36.99865000000289 ], [ -94.749682000002778, 36.998607000002494 ], [ -94.831540000001695, 36.9987700000028 ], [ -94.840925000002485, 36.998798000002829 ], [ -94.846772000002716, 36.998820000002873 ], [ -94.940612000002218, 36.999229000002821 ], [ -95.073504000002714, 36.999552000002893 ], [ -95.122140000002716, 36.999564000002295 ], [ -95.158969000002486, 36.999594000002645 ], [ -95.267876000002502, 36.999525000002428 ], [ -95.377258000002101, 36.999360000002262 ], [ -95.522415000001956, 36.999280000002265 ], [ -95.521858000002283, 37.077086000002467 ], [ -95.521691000002434, 37.120290000002619 ], [ -95.521981000002526, 37.150354000002039 ], [ -95.521414000002395, 37.193749000002647 ], [ -95.518017000002445, 37.251718000002313 ], [ -95.517976000002406, 37.266376000002332 ], [ -95.519437000002526, 37.324861000002443 ] ] ] ] } },
{ "type": "Feature", "properties": { "opt_all": 3, "population": 731390.0, "voting_age_pop": 554171.0, "dem_votes": 163999.0, "rep_votes": 162288.0, "minority_pop": 124334.0, "dem_pct": 0.50262192471578027, "rep_pct": 0.49737807497774106 }, "geometry": { "type": "Polygon", "coordinates": [ [ [ -95.508549000001636, 38.528832000002666 ], [ -95.508541000002182, 38.594077000002692 ], [ -95.508667000002262, 38.623101000001945 ], [ -95.508904000001877, 38.652188000002255 ], [ -95.501223000002398, 38.695263000002029 ], [ -95.500738000002585, 38.738808000002429 ], [ -95.408730000002137, 38.738879000002278 ], [ -95.352914000002684, 38.738788000002117 ], [ -95.278916000002354, 38.738609000002093 ], [ -95.26594100000176, 38.738625000002315 ], [ -95.24159000000202, 38.738678000002452 ], [ -95.167545000001738, 38.738471000002342 ], [ -95.056412000002425, 38.738587000002227 ], [ -95.056375000002703, 38.759734000002496 ], [ -95.05637000000236, 38.760319000002212 ], [ -95.056330000002475, 38.767752000002481 ], [ -95.056198000001956, 38.796814000002115 ], [ -95.056207000001663, 38.81143200000254 ], [ -95.056159000002481, 38.840591000002661 ], [ -95.056117000002686, 38.869573000002646 ], [ -95.055898000002543, 38.913220000002866 ], [ -95.056187000001714, 38.943106000002281 ], [ -95.056258000002515, 38.982120000002404 ], [ -95.027847000002083, 38.978865000002394 ], [ -95.023638000002578, 38.988238000002283 ], [ -95.026045000001915, 38.992337000002202 ], [ -95.021132000001799, 39.000003000002799 ], [ -94.948275000001757, 38.984214000002133 ], [ -94.931571000002577, 39.001460000002346 ], [ -94.923349000002204, 39.002633000002035 ], [ -94.908765000001779, 38.991401000001979 ], [ -94.908840000002726, 39.040964000002397 ], [ -94.908797000002721, 39.057934000002746 ], [ -94.908751000001914, 39.072313000002637 ], [ -94.908751000002624, 39.086899000002347 ], [ -94.908743000002744, 39.090815000002742 ], [ -94.908717000001758, 39.093285000001991 ], [ -94.908469000002114, 39.115707000002011 ], [ -94.908465000002167, 39.116001000002392 ], [ -94.90827500000168, 39.128654000002733 ], [ -94.901394000001886, 39.128686000002865 ], [ -94.845484000001633, 39.128627000002687 ], [ -94.816311000002486, 39.128619000002281 ], [ -94.79771900000236, 39.128597000002607 ], [ -94.779123000001903, 39.116353000002391 ], [ -94.771678000002353, 39.116357000002495 ], [ -94.769313000002242, 39.109485000002245 ], [ -94.779054000001807, 39.101745000002609 ], [ -94.760516000002482, 39.101884000002208 ], [ -94.745614000001964, 39.102226000002432 ], [ -94.745585000001782, 39.106398000002201 ], [ -94.728557000002041, 39.105947000002502 ], [ -94.7100380000022, 39.093298000002754 ], [ -94.702360000002642, 39.102533000002005 ], [ -94.67990400000204, 39.099711000002308 ], [ -94.649572000001783, 39.077616000002536 ], [ -94.639993000001681, 39.073538000002046 ], [ -94.624657000001875, 39.075269000002272 ], [ -94.608651000002567, 39.090064000002101 ], [ -94.607223000002435, 39.0897090000025 ], [ -94.60733500000164, 39.072454000002779 ], [ -94.607337000001678, 39.054365000001987 ], [ -94.607323000002125, 39.050236000002371 ], [ -94.607382000001877, 39.044086000002814 ], [ -94.607412000001744, 39.040832000002005 ], [ -94.607479000002286, 39.036970000002107 ], [ -94.607524000002556, 39.033354000002269 ], [ -94.607743000002245, 39.015166000002679 ], [ -94.607810000001962, 39.007912000002669 ], [ -94.607867000002202, 39.000555000002791 ], [ -94.607960000002194, 38.992945000002315 ], [ -94.608183000002086, 38.984347000002856 ], [ -94.608437000001643, 38.978724000002714 ], [ -94.60824900000236, 38.973911000002389 ], [ -94.608131000002558, 38.956722000002088 ], [ -94.608133000002141, 38.942071000002763 ], [ -94.607981000001843, 38.936847000002722 ], [ -94.607986000002143, 38.912924000002327 ], [ -94.607974000002002, 38.909694000002347 ], [ -94.607978000001978, 38.905630000002077 ], [ -94.608000000002477, 38.89401800000266 ], [ -94.607960000002123, 38.888639000002826 ], [ -94.607973000002758, 38.883822000002134 ], [ -94.608032000001899, 38.869750000002192 ], [ -94.6079960000027, 38.866832000002674 ], [ -94.608021000001898, 38.850235000002677 ], [ -94.6077110000018, 38.831710000002175 ], [ -94.607670000002514, 38.829769000002599 ], [ -94.607673000002265, 38.825816000002114 ], [ -94.608172000002199, 38.811095000002702 ], [ -94.608360000002563, 38.792978000002691 ], [ -94.608602000001781, 38.767217000002468 ], [ -94.609080000001839, 38.738099000002414 ], [ -94.610437000001781, 38.679216000002505 ], [ -94.611905000002238, 38.605890000002532 ], [ -94.612265000002523, 38.546675000002089 ], [ -94.612331000002143, 38.518761000002755 ], [ -94.613232000002554, 38.388718000002065 ], [ -94.696221000002126, 38.388859000002391 ], [ -94.770401000002735, 38.389020000002525 ], [ -94.775253000002039, 38.388996000002031 ], [ -94.918137000002034, 38.389142000002366 ], [ -95.065831000002646, 38.389945000002641 ], [ -95.15777300000164, 38.390006000002607 ], [ -95.360246000002363, 38.390137000002021 ], [ -95.508328000002294, 38.390278000002304 ], [ -95.508267000002036, 38.433933000002135 ], [ -95.508490000002283, 38.52145200000205 ], [ -95.508549000001636, 38.528832000002666 ] ] ] } },
{ "type": "Feature", "properties": { "opt_all": 4, "population": 736272.0, "voting_age_pop": 554049.0, "dem_votes": 103914.0, "rep_votes": 158753.0, "minority_pop": 147351.0, "dem_pct": 0.39561117293165443, "rep_pct": 0.60438882668763538 }, "geometry": { "type": "Polygon", "coordinates": [ [ [ -99.011499000002317, 37.384263000002505 ], [ -99.012598000002754, 37.470421000002702 ], [ -99.013771000002635, 37.54287800000268 ], [ -99.014040000002097, 37.556868000001934 ], [ -99.015359000002164, 37.643499000001874 ], [ -99.013550000002638, 37.732970000002176 ], [ -99.013318000002215, 37.825336000002203 ], [ -99.022627000002601, 37.825358000002268 ], [ -99.022322000002262, 37.912667000002166 ], [ -99.022136000001822, 38.00023600000241 ], [ -98.913136000001998, 38.000451000002023 ], [ -98.912972000001758, 38.087416000002179 ], [ -98.912371000002281, 38.174540000002494 ], [ -98.912583000002726, 38.261088000002331 ], [ -98.811265000002336, 38.260954000002151 ], [ -98.802819000001804, 38.260942000002167 ], [ -98.700750000002543, 38.2608440000025 ], [ -98.692595000002754, 38.260851000002319 ], [ -98.582212000002116, 38.261116000001842 ], [ -98.479841000002438, 38.260790000002388 ], [ -98.472437000002415, 38.260741000002078 ], [ -98.472794000001684, 38.172757000002299 ], [ -98.472507000001983, 38.085599000002013 ], [ -98.472313000002273, 37.99866200000217 ], [ -98.471941000001905, 37.911591000002559 ], [ -98.472257000002713, 37.824497000002019 ], [ -98.464899000002376, 37.824512000001896 ], [ -98.464804000002616, 37.732675000002445 ], [ -98.355520000002343, 37.732572000002357 ], [ -98.246262000002176, 37.732661000002018 ], [ -98.136225000002639, 37.732913000002149 ], [ -98.027326000001864, 37.733289000002252 ], [ -97.917999000001757, 37.733884000002682 ], [ -97.807823000002799, 37.733855000002208 ], [ -97.69869200000204, 37.735056000002075 ], [ -97.699679000001964, 37.825156000002522 ], [ -97.7021120000026, 37.839785000002138 ], [ -97.702031000002222, 37.897950000002474 ], [ -97.701969000001739, 37.911325000002677 ], [ -97.702163000001761, 37.999611000002183 ], [ -97.702006000001802, 38.072221000002308 ], [ -97.701721000002138, 38.086698000002386 ], [ -97.70184100000192, 38.173814000002139 ], [ -97.592145000002617, 38.174163000002345 ], [ -97.482244000002297, 38.173889000002667 ], [ -97.371750000001754, 38.17367300000263 ], [ -97.371627000002505, 38.260833000002513 ], [ -97.371670000002041, 38.347989000002229 ], [ -97.371880000002321, 38.435041000002215 ], [ -97.371932000002758, 38.522161000002008 ], [ -97.371911000001717, 38.609353000002464 ], [ -97.261034000002056, 38.609307000002197 ], [ -97.150746000002556, 38.609560000002681 ], [ -97.040753000001885, 38.609022000002341 ], [ -96.930286000002525, 38.609362000002172 ], [ -96.929969000001719, 38.522412000002753 ], [ -96.819509000001801, 38.522449000002347 ], [ -96.819787000001796, 38.450046000001947 ], [ -96.819475000001816, 38.348502000002483 ], [ -96.837654000001876, 38.348636000002173 ], [ -96.837801000002059, 38.275830000002372 ], [ -96.840971000002696, 38.230832000002358 ], [ -96.84082800000202, 38.172772000002489 ], [ -96.840772000002474, 38.085622000002438 ], [ -96.785829000002238, 38.0859210000025 ], [ -96.730858000002456, 38.086080000002184 ], [ -96.639426000001677, 38.086348000002225 ], [ -96.522782000002138, 38.086370000002397 ], [ -96.358099000002355, 38.085817000002173 ], [ -96.357277000001645, 38.172660000002658 ], [ -96.138642000001767, 38.172110000002483 ], [ -96.067117000002327, 38.171867000002173 ], [ -95.958862000002156, 38.170939000002591 ], [ -95.959046000002516, 38.040195000002313 ], [ -95.958510000002036, 37.938283000002855 ], [ -95.958554000002422, 37.909245000002656 ], [ -95.961408000002521, 37.821985000002272 ], [ -95.960876000001662, 37.73430400000273 ], [ -95.960689000002006, 37.719742000002348 ], [ -95.961004000002021, 37.618896000002032 ], [ -95.961002000002736, 37.603761000002208 ], [ -95.962241000001796, 37.51668000000253 ], [ -95.962415000001741, 37.472910000002408 ], [ -95.962311000002444, 37.430273000002749 ], [ -95.961605000001796, 37.386636000002504 ], [ -95.964399000002274, 37.299232000002533 ], [ -95.964396000002395, 37.255693000002339 ], [ -95.964135000002045, 37.197483000002215 ], [ -95.964464000002337, 37.125511000002213 ], [ -95.964692000002415, 37.096390000002266 ], [ -95.964270000001875, 36.999104000002575 ], [ -96.091279000002274, 36.99913500000271 ], [ -96.154165000002493, 36.999156000002834 ], [ -96.235320000002616, 36.999180000002667 ], [ -96.38155700000236, 36.999250000002547 ], [ -96.525582000002416, 36.998710000002703 ], [ -96.624488000002302, 36.998985000002641 ], [ -96.731983000002515, 36.999283000002535 ], [ -96.822900000001837, 36.999210000002762 ], [ -96.925294000001799, 36.999129000002817 ], [ -97.039700000002, 36.998960000002057 ], [ -97.147721000002036, 36.999033000002733 ], [ -97.25577000000176, 36.998919000002047 ], [ -97.364866000001882, 36.998813000002414 ], [ -97.472866000002099, 36.998695000002577 ], [ -97.582377000002765, 36.998638000002508 ], [ -97.692180000002196, 36.998849000002181 ], [ -97.8023130000023, 36.998718000002469 ], [ -97.965292000001924, 36.998523000002713 ], [ -98.019366000002606, 36.998455000002032 ], [ -98.12817900000222, 36.998072000001969 ], [ -98.347149000002659, 36.998155000002185 ], [ -98.485557000002245, 36.998539000002758 ], [ -98.622261000002823, 36.998891000002459 ], [ -98.811832000002326, 36.999295000002007 ], [ -99.000301000002523, 36.999467000002589 ], [ -99.001372000002135, 37.180270000001926 ], [ -99.001945000002394, 37.297143000001896 ], [ -99.001294000002005, 37.384296000002394 ], [ -99.011499000002317, 37.384263000002505 ] ] ] } }
]
}
