{
"type": "FeatureCollection",
"name": "kansas_enacted_districts",
"crs": { "type": "name", "properties": { "name": "urn:ogc:def:crs:OGC:1.3:CRS84" } },
"features": [
{ "type": "Feature", "properties": { "enacted_district": 1, "population": 734630.0, "voting_age_pop": 565753.0, "dem_votes": 96156.0, "rep_votes": 172054.0, "minority_pop": 126281.0, "dem_pct": 0.35851012253140818, "rep_pct": 0.64148987709574967 }, "geometry": { "type": "Polygon", "coordinates": [ [ [ -102.044708000002402, 38.041257000002304 ], [ -102.044307000001723, 38.175559000002195 ], [ -102.044464000002606, 38.262412000001845 ], [ -102.045052000002798, 38.460822000002217 ], [ -102.045212000001882, 38.69756700000206 ], [ -102.045351000001915, 38.856897000001965 ], [ -102.047161000002617, 39.133147000002403 ], [ -102.047751000002705, 39.220290000002052 ], [ -102.049179000002198, 39.394064000001769 ], [ -102.049764000002682, 39.568180000002087 ], [ -102.050866000002699, 39.741794000001654 ], [ -102.051744000001875, 40.003078000002425 ], [ -101.861742000002181, 40.003017000001797 ], [ -101.748488000002723, 40.002843000002322 ], [ -101.579640000001802, 40.002713000002366 ], [ -101.411029000002216, 40.002522000001697 ], [ -101.186892000001677, 40.002481000002255 ], [ -100.96226700000166, 40.002248000001757 ], [ -100.738825000001924, 40.002116000001969 ], [ -100.626752000002, 40.001984000002096 ], [ -100.514415000002799, 40.001877000002111 ], [ -100.402451000002401, 40.001807000001776 ], [ -100.29012200000264, 40.00171700000238 ], [ -100.177794000002564, 40.001602000002542 ], [ -99.991631000002684, 40.001645000001936 ], [ -99.850072000002015, 40.001619000002393 ], [ -99.737771000002439, 40.001759000002117 ], [ -99.625324000001697, 40.001859000001808 ], [ -99.515339000001958, 40.001965000001917 ], [ -99.403389000002676, 40.001969000002326 ], [ -99.290910000002199, 40.001947000001735 ], [ -99.179134000002193, 40.002013000002094 ], [ -99.067046000001938, 40.002348000001788 ], [ -98.953885000001677, 40.002303000002257 ], [ -98.84250500000276, 40.002337000002392 ], [ -98.729035000002042, 40.002321000001828 ], [ -98.616414000002678, 40.002409000002359 ], [ -98.504455000001727, 40.002291000001811 ], [ -98.391854000001658, 40.0024040000025 ], [ -98.268218000002676, 40.002490000002418 ], [ -98.156844000002337, 40.002241000002137 ], [ -98.042768000002482, 40.002187000002003 ], [ -97.931825000002135, 40.002072000002471 ], [ -97.8192610000022, 40.002053000002419 ], [ -97.707017000001798, 40.002128000002628 ], [ -97.59372100000212, 40.002051000002083 ], [ -97.481364000002358, 40.001777000002633 ], [ -97.369199000002197, 40.001966000002312 ], [ -97.256543000001983, 40.001803000002653 ], [ -97.144152000002379, 40.001585000001988 ], [ -97.030942000002241, 40.001373000002594 ], [ -96.91845500000224, 40.001529000002492 ], [ -96.805768000002359, 40.00149500000262 ], [ -96.69340000000264, 40.001360000002691 ], [ -96.581788000001879, 40.0009630000025 ], [ -96.463712000002516, 40.001023000002235 ], [ -96.352038000002395, 40.000949000002464 ], [ -96.23920000000254, 40.000881000002245 ], [ -96.239500000001726, 39.914345000002314 ], [ -96.23959000000248, 39.827274000002674 ], [ -96.239583000001844, 39.827119000002675 ], [ -96.239627000001846, 39.740254000002103 ], [ -96.23970500000236, 39.653330000002114 ], [ -96.239705000001763, 39.653262000001916 ], [ -96.238969000002001, 39.566220000002431 ], [ -96.128184000002761, 39.566231000002375 ], [ -96.126940000002236, 39.5662380000024 ], [ -96.035952000002766, 39.5661000000024 ], [ -96.014083000001904, 39.566105000002501 ], [ -95.904643000002366, 39.56597700000232 ], [ -95.901608000001914, 39.565965000002549 ], [ -95.792846000002157, 39.565938000002575 ], [ -95.789098000001843, 39.565943000002591 ], [ -95.682260000002046, 39.565967000002388 ], [ -95.676517000001823, 39.565965000002528 ], [ -95.570348000002113, 39.565870000002107 ], [ -95.570125000001937, 39.535078000002656 ], [ -95.570261000002617, 39.477006000002078 ], [ -95.570351000002404, 39.419050000002201 ], [ -95.460052000002037, 39.420919000002051 ], [ -95.404013000002195, 39.42049100000213 ], [ -95.38526800000264, 39.420397000002104 ], [ -95.347796000002106, 39.419856000002802 ], [ -95.235496000002556, 39.419106000002088 ], [ -95.180891000002674, 39.419218000002829 ], [ -95.17992800000242, 39.390088000002109 ], [ -95.1798800000022, 39.317906000002822 ], [ -95.180142000002604, 39.288693000002795 ], [ -95.180417000002763, 39.201592000002485 ], [ -95.18031100000222, 39.143485000002215 ], [ -95.187963000002441, 39.128909000002523 ], [ -95.187562000002202, 39.073117000002306 ], [ -95.187103000001841, 39.044109000002507 ], [ -95.186623000002243, 38.99667400000201 ], [ -95.186189000001903, 38.964542000002339 ], [ -95.214343000002259, 38.971511000002323 ], [ -95.214262000002677, 38.970582000002416 ], [ -95.211867000002201, 38.964263000002383 ], [ -95.209546000001978, 38.956978000002138 ], [ -95.166560000001795, 38.942728000002056 ], [ -95.166582000002123, 38.942628000002792 ], [ -95.186019000001764, 38.942872000002382 ], [ -95.186020000001875, 38.942600000002443 ], [ -95.216989000002741, 38.928470000002555 ], [ -95.232843000002674, 38.928190000002409 ], [ -95.2418170000022, 38.928283000002693 ], [ -95.260455000001841, 38.916240000002155 ], [ -95.26045200000172, 38.918693000002847 ], [ -95.260446000002602, 38.920856000002871 ], [ -95.260443000002624, 38.921213000002233 ], [ -95.260595000001899, 38.921188000002019 ], [ -95.274520000001687, 38.92510200000244 ], [ -95.279180000002043, 38.926297000002251 ], [ -95.279180000001844, 38.926408000002148 ], [ -95.279216000001995, 38.929001000002572 ], [ -95.279177000001837, 38.930222000002367 ], [ -95.29319800000242, 38.935358000002012 ], [ -95.307273000001686, 38.936247000001984 ], [ -95.316628000001842, 38.942089000002397 ], [ -95.316623000002124, 38.942313000002137 ], [ -95.326392000002215, 38.942293000002337 ], [ -95.335282000002096, 38.942526000002253 ], [ -95.335275000002596, 38.943648000002149 ], [ -95.327974000002698, 38.947637000002771 ], [ -95.334728000001959, 38.95686800000265 ], [ -95.336565000002395, 38.960093000002189 ], [ -95.334156000002523, 38.964187000002582 ], [ -95.332327000002394, 38.970892000002351 ], [ -95.334275000001782, 38.970885000002021 ], [ -95.344503000002007, 38.971147000002645 ], [ -95.344542000002505, 38.978623000002251 ], [ -95.334591000002234, 38.978730000002848 ], [ -95.343826000002139, 38.996710000002736 ], [ -95.391326000002366, 39.000504000002472 ], [ -95.316485000002302, 39.000610000002709 ], [ -95.31685100000216, 39.035000000002213 ], [ -95.354013000002766, 39.034799000002337 ], [ -95.398486000002194, 39.058061000002603 ], [ -95.419439000001802, 39.067205000002382 ], [ -95.446670000002641, 39.069284000002504 ], [ -95.483495000001966, 39.056502000002773 ], [ -95.500254000002684, 39.056656000002192 ], [ -95.513902000002361, 39.067151000002248 ], [ -95.548751000002, 39.068319000001971 ], [ -95.582345000002604, 39.053998000002537 ], [ -95.596759000002379, 39.064672000002069 ], [ -95.594756000001695, 39.086399000002778 ], [ -95.594711000002178, 39.129253000002265 ], [ -95.589443000001822, 39.143780000002558 ], [ -95.589571000002238, 39.15827800000249 ], [ -95.589472000002161, 39.216081000002717 ], [ -95.663497000002238, 39.216464000002723 ], [ -95.730222000002243, 39.216481000002091 ], [ -95.793843000002624, 39.216570000002669 ], [ -95.8123770000023, 39.216535000001933 ], [ -95.905235000002037, 39.2165950000023 ], [ -95.961163000002117, 39.216577000002431 ], [ -96.035573000001961, 39.216520000002141 ], [ -96.035899000002161, 39.129784000002395 ], [ -96.039060000002721, 39.126527000002753 ], [ -96.041801000002664, 39.129779000002145 ], [ -96.08822500000224, 39.152339000002662 ], [ -96.083867000001959, 39.163263000002438 ], [ -96.058763000001676, 39.164806000002741 ], [ -96.079628000002643, 39.190181000002241 ], [ -96.138094000001999, 39.190580000002441 ], [ -96.178732000002753, 39.189963000002209 ], [ -96.1967890000018, 39.206580000002489 ], [ -96.219750000001966, 39.200764000002039 ], [ -96.231214000002538, 39.211585000002188 ], [ -96.240576000002605, 39.210696000002422 ], [ -96.265953000001758, 39.180600000002016 ], [ -96.300245000002135, 39.1971810000028 ], [ -96.305151000002724, 39.197265000001998 ], [ -96.308083000002327, 39.196780000001951 ], [ -96.314334000002361, 39.19410200000241 ], [ -96.331176000002785, 39.165707000002797 ], [ -96.352110000002696, 39.154531000002429 ], [ -96.389046000002367, 39.172878000002548 ], [ -96.390725000002604, 39.057655000002804 ], [ -96.390796000002794, 39.043257000002171 ], [ -96.501166000002684, 39.043666000002311 ], [ -96.500962000002701, 39.072681000002113 ], [ -96.519668000002156, 39.072872000002597 ], [ -96.595943000002634, 39.073425000002679 ], [ -96.679480000002727, 39.073114000002029 ], [ -96.706122000002395, 39.073077000002264 ], [ -96.706257000002154, 39.091160000001942 ], [ -96.756134000002078, 39.087796000002584 ], [ -96.804963000002019, 39.087967000002394 ], [ -96.823595000001959, 39.088113000001904 ], [ -96.826454000002315, 39.088122000002642 ], [ -96.851269000002404, 39.100740000002176 ], [ -96.832271000002237, 39.119721000002663 ], [ -96.8309850000024, 39.139228000002191 ], [ -96.849670000002575, 39.139280000002202 ], [ -96.849879000002417, 39.219012000002429 ], [ -96.896421000002618, 39.21937000000262 ], [ -96.899610000002724, 39.219358000002408 ], [ -96.910427000001874, 39.219480000001901 ], [ -96.924066000002242, 39.219661000002226 ], [ -96.943035000002396, 39.220023000002058 ], [ -96.947023000002318, 39.220149000002195 ], [ -96.961693000002086, 39.220076000002187 ], [ -96.961612000001764, 39.21690800000237 ], [ -96.961028000002656, 39.197098000002313 ], [ -96.961380000001725, 39.132325000002773 ], [ -96.963177000002418, 39.132300000002417 ], [ -96.962956000002166, 39.059802000001994 ], [ -96.963027000002157, 39.045103000001895 ], [ -96.963470000002204, 38.964901000002023 ], [ -96.933478000001884, 38.978553000002066 ], [ -96.926280000002379, 38.970194000002543 ], [ -96.926393000002435, 38.957619000002367 ], [ -96.926710000002345, 38.870350000002034 ], [ -96.890245000002153, 38.870067000001931 ], [ -96.890171000002397, 38.812169000001923 ], [ -96.927234000001903, 38.812160000002663 ], [ -96.927225000002622, 38.783140000002433 ], [ -96.927284000001762, 38.768616000002496 ], [ -96.927374000002118, 38.69600500000265 ], [ -96.930409000001674, 38.696009000002185 ], [ -96.930399000002637, 38.683619000002643 ], [ -96.930410000002738, 38.681863000002139 ], [ -96.930413000002559, 38.679393000002406 ], [ -96.930650000001833, 38.67610300000203 ], [ -96.930376000002596, 38.638426000002546 ], [ -96.930286000002525, 38.609362000002172 ], [ -97.040753000001885, 38.609022000002341 ], [ -97.150746000002556, 38.609560000002681 ], [ -97.261034000002056, 38.609307000002197 ], [ -97.371911000001717, 38.609353000002464 ], [ -97.371932000002758, 38.522161000002008 ], [ -97.371880000002321, 38.435041000002215 ], [ -97.371670000002041, 38.347989000002229 ], [ -97.371627000002505, 38.260833000002513 ], [ -97.371750000001754, 38.17367300000263 ], [ -97.482244000002297, 38.173889000002667 ], [ -97.592145000002617, 38.174163000002345 ], [ -97.70184100000192, 38.173814000002139 ], [ -97.701721000002138, 38.086698000002386 ], [ -97.702006000001802, 38.072221000002308 ], [ -97.702163000001761, 37.999611000002183 ], [ -97.701969000001739, 37.911325000002677 ], [ -97.702031000002222, 37.897950000002474 ], [ -97.7021120000026, 37.839785000002138 ], [ -97.699679000001964, 37.825156000002522 ], [ -97.69869200000204, 37.735056000002075 ], [ -97.807823000002799, 37.733855000002208 ], [ -97.917999000001757, 37.733884000002682 ], [ -98.027326000001864, 37.733289000002252 ], [ -98.136225000002639, 37.732913000002149 ], [ -98.246262000002176, 37.732661000002018 ], [ -98.355520000002343, 37.732572000002357 ], [ -98.464804000002616, 37.732675000002445 ], [ -98.464899000002376, 37.824512000001896 ], [ -98.472257000002713, 37.824497000002019 ], [ -98.471941000001905, 37.911591000002559 ], [ -98.472313000002273, 37.99866200000217 ], [ -98.472507000001983, 38.085599000002013 ], [ -98.472794000001684, 38.172757000002299 ], [ -98.472437000002415, 38.260741000002078 ], [ -98.479841000002438, 38.260790000002388 ], [ -98.582212000002116, 38.261116000001842 ], [ -98.692595000002754, 38.260851000002319 ], [ -98.700750000002543, 38.2608440000025 ], [ -98.802819000001804, 38.260942000002167 ], [ -98.811265000002336, 38.260954000002151 ], [ -98.912583000002726, 38.261088000002331 ], [ -98.921845000002037, 38.261227000002279 ], [ -99.022472000002594, 38.261208000001865 ], [ -99.022070000002444, 38.174834000002342 ], [ -99.086456000002798, 38.174393000002674 ], [ -99.088773000002234, 38.184858000002237 ], [ -99.102441000002798, 38.183761000001866 ], [ -99.1024580000024, 38.181662000002582 ], [ -99.117895000001681, 38.18165400000224 ], [ -99.114308000002566, 38.174428000002152 ], [ -99.131741000001966, 38.17433700000224 ], [ -99.240759000002313, 38.174176000002547 ], [ -99.350268000001677, 38.17545900000183 ], [ -99.460004000002286, 38.175432000001997 ], [ -99.569927000002778, 38.174902000002106 ], [ -99.56967600000192, 38.131245000002536 ], [ -99.569533000002394, 38.08737200000202 ], [ -99.569879000002274, 37.913016000001861 ], [ -99.57057600000212, 37.825634000002687 ], [ -99.56027200000176, 37.825587000001832 ], [ -99.559526000001966, 37.737123000002363 ], [ -99.559580000001901, 37.734888000001838 ], [ -99.559652000001762, 37.73192500000188 ], [ -99.556119000002596, 37.467722000002063 ], [ -99.555774000001847, 37.381112000002503 ], [ -99.543189000002357, 37.381124000002615 ], [ -99.54463100000244, 37.250024000002014 ], [ -99.544020000002561, 37.192156000002647 ], [ -99.541116000002177, 36.999610000002065 ], [ -99.722588000001878, 37.000479000002223 ], [ -99.904897000002435, 37.001645000002306 ], [ -100.089483000002076, 37.002261000002171 ], [ -100.269987000002615, 37.001888000002033 ], [ -100.434274000001906, 37.001109000002472 ], [ -100.633327000002282, 37.000103000002504 ], [ -100.850000000002325, 36.998707000001957 ], [ -100.997027000001722, 36.99802800000213 ], [ -101.066451000002402, 36.997922000002106 ], [ -101.28320800000192, 36.996700000002335 ], [ -101.555259000002806, 36.99532400000183 ], [ -101.718255000002756, 36.994519000002505 ], [ -101.826552000002678, 36.994008000001983 ], [ -101.880884000002339, 36.993747000001918 ], [ -101.902205000002098, 36.993602000002234 ], [ -101.908051000002644, 36.993602000002362 ], [ -101.935217000001856, 36.99351000000221 ], [ -102.042089000002605, 36.993016000001873 ], [ -102.041964000002224, 37.12671400000194 ], [ -102.041642000002241, 37.389190000001854 ], [ -102.042155000002296, 37.738541000002058 ], [ -102.043692000001954, 37.914004000001697 ], [ -102.044708000002402, 38.041257000002304 ] ] ] } },
{ "type": "Feature", "properties": { "enacted_district": 2, "population": 734895.0, "voting_age_pop": 555141.0, "dem_votes": 113981.0, "rep_votes": 151163.0, "minority_pop": 148262.0, "dem_pct": 0.42988338396121223, "rep_pct": 0.57011661566163419 }, "geometry": { "type": "Polygon", "coordinates": [ [ [ -97.371750000001754, 38.17367300000263 ], [ -97.371627000002505, 38.260833000002513 ], [ -97.371670000002041, 38.347989000002229 ], [ -97.371880000002321, 38.435041000002215 ], [ -97.371932000002758, 38.522161000002008 ], [ -97.371911000001717, 38.609353000002464 ], [ -97.261034000002056, 38.609307000002197 ], [ -97.150746000002556, 38.609560000002681 ], [ -97.040753000001885, 38.609022000002341 ], [ -96.930286000002525, 38.609362000002172 ], [ -96.930376000002596, 38.638426000002546 ], [ -96.930650000001833, 38.67610300000203 ], [ -96.930413000002559, 38.679393000002406 ], [ -96.930410000002738, 38.681863000002139 ], [ -96.930399000002637, 38.683619000002643 ], [ -96.930409000001674, 38.696009000002185 ], [ -96.927374000002118, 38.69600500000265 ], [ -96.927284000001762, 38.768616000002496 ], [ -96.927225000002622, 38.783140000002433 ], [ -96.927234000001903, 38.812160000002663 ], [ -96.890171000002397, 38.812169000001923 ], [ -96.890245000002153, 38.870067000001931 ], [ -96.926710000002345, 38.870350000002034 ], [ -96.926393000002435, 38.957619000002367 ], [ -96.926280000002379, 38.970194000002543 ], [ -96.933478000001884, 38.978553000002066 ], [ -96.963470000002204, 38.964901000002023 ], [ -96.963027000002157, 39.045103000001895 ], [ -96.962956000002166, 39.059802000001994 ], [ -96.963177000002418, 39.132300000002417 ], [ -96.961380000001725, 39.132325000002773 ], [ -96.961028000002656, 39.197098000002313 ], [ -96.961612000001764, 39.21690800000237 ], [ -96.961693000002086, 39.220076000002187 ], [ -96.947023000002318, 39.220149000002195 ], [ -96.943035000002396, 39.220023000002058 ], [ -96.924066000002242, 39.219661000002226 ], [ -96.910427000001874, 39.219480000001901 ], [ -96.899610000002724, 39.219358000002408 ], [ -96.896421000002618, 39.21937000000262 ], [ -96.849879000002417, 39.219012000002429 ], [ -96.849670000002575, 39.139280000002202 ], [ -96.8309850000024, 39.139228000002191 ], [ -96.832271000002237, 39.119721000002663 ], [ -96.851269000002404, 39.100740000002176 ], [ -96.826454000002315, 39.088122000002642 ], [ -96.823595000001959, 39.088113000001904 ], [ -96.804963000002019, 39.087967000002394 ], [ -96.756134000002078, 39.087796000002584 ], [ -96.706257000002154, 39.091160000001942 ], [ -96.706122000002395, 39.073077000002264 ], [ -96.679480000002727, 39.073114000002029 ], [ -96.595943000002634, 39.073425000002679 ], [ -96.519668000002156, 39.072872000002597 ], [ -96.500962000002701, 39.072681000002113 ], [ -96.501166000002684, 39.043666000002311 ], [ -96.390796000002794, 39.043257000002171 ], [ -96.390725000002604, 39.057655000002804 ], [ -96.389046000002367, 39.172878000002548 ], [ -96.352110000002696, 39.154531000002429 ], [ -96.331176000002785, 39.165707000002797 ], [ -96.314334000002361, 39.19410200000241 ], [ -96.308083000002327, 39.196780000001951 ], [ -96.305151000002724, 39.197265000001998 ], [ -96.300245000002135, 39.1971810000028 ], [ -96.265953000001758, 39.180600000002016 ], [ -96.240576000002605, 39.210696000002422 ], [ -96.231214000002538, 39.211585000002188 ], [ -96.219750000001966, 39.200764000002039 ], [ -96.1967890000018, 39.206580000002489 ], [ -96.178732000002753, 39.189963000002209 ], [ -96.138094000001999, 39.190580000002441 ], [ -96.079628000002643, 39.190181000002241 ], [ -96.058763000001676, 39.164806000002741 ], [ -96.083867000001959, 39.163263000002438 ], [ -96.08822500000224, 39.152339000002662 ], [ -96.041801000002664, 39.129779000002145 ], [ -96.039060000002721, 39.126527000002753 ], [ -96.035899000002161, 39.129784000002395 ], [ -96.035573000001961, 39.216520000002141 ], [ -95.961163000002117, 39.216577000002431 ], [ -95.905235000002037, 39.2165950000023 ], [ -95.8123770000023, 39.216535000001933 ], [ -95.793843000002624, 39.216570000002669 ], [ -95.730222000002243, 39.216481000002091 ], [ -95.663497000002238, 39.216464000002723 ], [ -95.589472000002161, 39.216081000002717 ], [ -95.589571000002238, 39.15827800000249 ], [ -95.589443000001822, 39.143780000002558 ], [ -95.594711000002178, 39.129253000002265 ], [ -95.594756000001695, 39.086399000002778 ], [ -95.596759000002379, 39.064672000002069 ], [ -95.582345000002604, 39.053998000002537 ], [ -95.548751000002, 39.068319000001971 ], [ -95.513902000002361, 39.067151000002248 ], [ -95.500254000002684, 39.056656000002192 ], [ -95.483495000001966, 39.056502000002773 ], [ -95.446670000002641, 39.069284000002504 ], [ -95.419439000001802, 39.067205000002382 ], [ -95.398486000002194, 39.058061000002603 ], [ -95.354013000002766, 39.034799000002337 ], [ -95.31685100000216, 39.035000000002213 ], [ -95.316485000002302, 39.000610000002709 ], [ -95.391326000002366, 39.000504000002472 ], [ -95.343826000002139, 38.996710000002736 ], [ -95.334591000002234, 38.978730000002848 ], [ -95.344542000002505, 38.978623000002251 ], [ -95.344503000002007, 38.971147000002645 ], [ -95.334275000001782, 38.970885000002021 ], [ -95.332327000002394, 38.970892000002351 ], [ -95.334156000002523, 38.964187000002582 ], [ -95.336565000002395, 38.960093000002189 ], [ -95.334728000001959, 38.95686800000265 ], [ -95.327974000002698, 38.947637000002771 ], [ -95.335275000002596, 38.943648000002149 ], [ -95.335282000002096, 38.942526000002253 ], [ -95.326392000002215, 38.942293000002337 ], [ -95.316623000002124, 38.942313000002137 ], [ -95.316628000001842, 38.942089000002397 ], [ -95.307273000001686, 38.936247000001984 ], [ -95.29319800000242, 38.935358000002012 ], [ -95.279177000001837, 38.930222000002367 ], [ -95.279216000001995, 38.929001000002572 ], [ -95.279180000001844, 38.926408000002148 ], [ -95.279180000002043, 38.926297000002251 ], [ -95.274520000001687, 38.92510200000244 ], [ -95.260595000001899, 38.921188000002019 ], [ -95.260443000002624, 38.921213000002233 ], [ -95.260446000002602, 38.920856000002871 ], [ -95.26045200000172, 38.918693000002847 ], [ -95.260455000001841, 38.916240000002155 ], [ -95.2418170000022, 38.928283000002693 ], [ -95.232843000002674, 38.928190000002409 ], [ -95.216989000002741, 38.928470000002555 ], [ -95.186020000001875, 38.942600000002443 ], [ -95.186019000001764, 38.942872000002382 ], [ -95.166582000002123, 38.942628000002792 ], [ -95.166560000001795, 38.942728000002056 ], [ -95.209546000001978, 38.956978000002138 ], [ -95.211867000002201, 38.964263000002383 ], [ -95.214262000002677, 38.970582000002416 ], [ -95.214343000002259, 38.971511000002323 ], [ -95.186189000001903, 38.964542000002339 ], [ -95.186623000002243, 38.99667400000201 ], [ -95.187103000001841, 39.044109000002507 ], [ -95.187562000002202, 39.073117000002306 ], [ -95.187963000002441, 39.128909000002523 ], [ -95.18031100000222, 39.143485000002215 ], [ -95.180417000002763, 39.201592000002485 ], [ -95.180142000002604, 39.288693000002795 ], [ -95.1798800000022, 39.317906000002822 ], [ -95.17992800000242, 39.390088000002109 ], [ -95.180891000002674, 39.419218000002829 ], [ -95.235496000002556, 39.419106000002088 ], [ -95.347796000002106, 39.419856000002802 ], [ -95.38526800000264, 39.420397000002104 ], [ -95.404013000002195, 39.42049100000213 ], [ -95.460052000002037, 39.420919000002051 ], [ -95.570351000002404, 39.419050000002201 ], [ -95.570261000002617, 39.477006000002078 ], [ -95.570125000001937, 39.535078000002656 ], [ -95.570348000002113, 39.565870000002107 ], [ -95.676517000001823, 39.565965000002528 ], [ -95.682260000002046, 39.565967000002388 ], [ -95.789098000001843, 39.565943000002591 ], [ -95.792846000002157, 39.565938000002575 ], [ -95.901608000001914, 39.565965000002549 ], [ -95.904643000002366, 39.56597700000232 ], [ -96.014083000001904, 39.566105000002501 ], [ -96.035952000002766, 39.5661000000024 ], [ -96.126940000002236, 39.5662380000024 ], [ -96.128184000002761, 39.566231000002375 ], [ -96.238969000002001, 39.566220000002431 ], [ -96.239705000001763, 39.653262000001916 ], [ -96.23970500000236, 39.653330000002114 ], [ -96.239627000001846, 39.740254000002103 ], [ -96.239583000001844, 39.827119000002675 ], [ -96.23959000000248, 39.827274000002674 ], [ -96.239500000001726, 39.914345000002314 ], [ -96.23920000000254, 40.000881000002245 ], [ -96.126118000001753, 40.000438000002632 ], [ -96.014712000002476, 40.000675000002737 ], [ -95.901558000001927, 40.00059400000228 ], [ -95.788111000001834, 40.000462000002535 ], [ -95.673002000002683, 40.000338000002323 ], [ -95.639765000001802, 40.000318000002792 ], [ -95.565376000002061, 40.000241000002468 ], [ -95.452050000002075, 40.000290000001939 ], [ -95.339896000002057, 39.999999000002148 ], [ -95.308290000001918, 39.999998000002265 ], [ -95.301613000002703, 39.984000000002602 ], [ -95.272335000002485, 39.971038000002423 ], [ -95.250254000002599, 39.948644000002176 ], [ -95.205266000002439, 39.939750000002348 ], [ -95.199700000002139, 39.90334200000266 ], [ -95.153190000001644, 39.906841000002167 ], [ -95.139679000002104, 39.880592000001997 ], [ -95.085003000001805, 39.861883000002535 ], [ -95.035246000001962, 39.865921000002508 ], [ -95.021897000001687, 39.893974000002508 ], [ -94.955178000002036, 39.901288000002843 ], [ -94.934907000002326, 39.893784000002633 ], [ -94.930471000002683, 39.873562000002373 ], [ -94.939854000001887, 39.852044000002557 ], [ -94.916766000001914, 39.835807000002482 ], [ -94.891481000002074, 39.834644000002065 ], [ -94.875944000002633, 39.813294000002081 ], [ -94.890528000002561, 39.791425000002789 ], [ -94.919550000002118, 39.790291000002483 ], [ -94.934644000001839, 39.773144000002596 ], [ -94.912293000001995, 39.75933800000238 ], [ -94.898587000001783, 39.761522000002053 ], [ -94.869655000002695, 39.772899000002077 ], [ -94.859035000002365, 39.754116000002568 ], [ -94.865048000002744, 39.738591000002437 ], [ -94.884143000002481, 39.726794000002386 ], [ -94.907014000002135, 39.725101000002773 ], [ -94.947541000002602, 39.745337000001967 ], [ -94.963782000002766, 39.740393000002662 ], [ -94.971334000002656, 39.725706000002219 ], [ -94.96933300000164, 39.690730000002475 ], [ -94.988405000001862, 39.677098000002253 ], [ -95.021522000001681, 39.67065000000207 ], [ -95.049518000002237, 39.63787600000262 ], [ -95.053586000001758, 39.615269000002201 ], [ -95.04668800000168, 39.596752000002112 ], [ -95.05689700000184, 39.580567000002652 ], [ -95.097059000001977, 39.580251000002477 ], [ -95.109222000002646, 39.569390000002429 ], [ -95.112900000002284, 39.559621000002451 ], [ -95.113502000002541, 39.553713000002439 ], [ -95.096904000001999, 39.527820000002123 ], [ -95.050552000001758, 39.497514000002589 ], [ -95.044668000002559, 39.47125600000205 ], [ -95.033408000001657, 39.460876000002131 ], [ -94.990172000002104, 39.446192000002803 ], [ -94.968973000002507, 39.418879000002221 ], [ -94.946293000001759, 39.405646000002839 ], [ -94.938200000002126, 39.387113000002451 ], [ -94.91922500000166, 39.385174000002749 ], [ -94.901823000001727, 39.392798000002337 ], [ -94.888972000001743, 39.392432000002337 ], [ -94.880979000002114, 39.383899000002131 ], [ -94.879088000002255, 39.375703000002247 ], [ -94.884922000001794, 39.366511000002532 ], [ -94.910255000001953, 39.351564000002263 ], [ -94.90851000000238, 39.329755000002265 ], [ -94.898516000002516, 39.298450000001992 ], [ -94.880399000002114, 39.282207000002238 ], [ -94.834593000001917, 39.259574000002289 ], [ -94.826175000002166, 39.244849000002517 ], [ -94.831679000002765, 39.215938000002197 ], [ -94.775532000002499, 39.200606000002487 ], [ -94.771196000002405, 39.191620000002345 ], [ -94.741858000002537, 39.170318000002197 ], [ -94.723637000002483, 39.169003000002682 ], [ -94.688788000001978, 39.183228000002217 ], [ -94.659162000002397, 39.174126000002019 ], [ -94.650774000001846, 39.154121000002782 ], [ -94.623354000002223, 39.156839000002606 ], [ -94.606455000002398, 39.160827000002115 ], [ -94.588658000001615, 39.151163000002555 ], [ -94.607354000002118, 39.113444000002723 ], [ -94.607223000002435, 39.0897090000025 ], [ -94.608651000002567, 39.090064000002101 ], [ -94.624657000001875, 39.075269000002272 ], [ -94.639993000001681, 39.073538000002046 ], [ -94.649572000001783, 39.077616000002536 ], [ -94.67990400000204, 39.099711000002308 ], [ -94.702360000002642, 39.102533000002005 ], [ -94.7100380000022, 39.093298000002754 ], [ -94.728557000002041, 39.105947000002502 ], [ -94.745585000001782, 39.106398000002201 ], [ -94.745614000001964, 39.102226000002432 ], [ -94.760516000002482, 39.101884000002208 ], [ -94.779054000001807, 39.101745000002609 ], [ -94.79771100000184, 39.101838000002573 ], [ -94.810971000002326, 39.10537700000274 ], [ -94.81616900000202, 39.105374000002143 ], [ -94.853615000002236, 39.103752000002643 ], [ -94.853720000002639, 39.115805000002794 ], [ -94.908469000002114, 39.115707000002011 ], [ -94.908717000001758, 39.093285000001991 ], [ -94.908743000002744, 39.090815000002742 ], [ -94.908751000002624, 39.086899000002347 ], [ -94.908751000001914, 39.072313000002637 ], [ -94.908797000002721, 39.057934000002746 ], [ -94.908840000002726, 39.040964000002397 ], [ -94.908765000001779, 38.991401000001979 ], [ -94.923349000002204, 39.002633000002035 ], [ -94.931571000002577, 39.001460000002346 ], [ -94.948275000001757, 38.984214000002133 ], [ -95.021132000001799, 39.000003000002799 ], [ -95.026045000001915, 38.992337000002202 ], [ -95.023638000002578, 38.988238000002283 ], [ -95.027847000002083, 38.978865000002394 ], [ -95.056258000002515, 38.982120000002404 ], [ -95.056187000001714, 38.943106000002281 ], [ -95.055898000002543, 38.913220000002866 ], [ -95.056117000002686, 38.869573000002646 ], [ -95.056159000002481, 38.840591000002661 ], [ -95.056207000001663, 38.81143200000254 ], [ -95.056198000001956, 38.796814000002115 ], [ -95.056330000002475, 38.767752000002481 ], [ -95.05637000000236, 38.760319000002212 ], [ -95.056375000002703, 38.759734000002496 ], [ -95.056412000002425, 38.738587000002227 ], [ -95.167545000001738, 38.738471000002342 ], [ -95.24159000000202, 38.738678000002452 ], [ -95.26594100000176, 38.738625000002315 ], [ -95.278916000002354, 38.738609000002093 ], [ -95.352914000002684, 38.738788000002117 ], [ -95.408730000002137, 38.738879000002278 ], [ -95.500738000002585, 38.738808000002429 ], [ -95.501223000002398, 38.695263000002029 ], [ -95.508904000001877, 38.652188000002255 ], [ -95.508667000002262, 38.623101000001945 ], [ -95.508541000002182, 38.594077000002692 ], [ -95.508549000001636, 38.528832000002666 ], [ -95.508490000002283, 38.52145200000205 ], [ -95.508267000002036, 38.433933000002135 ], [ -95.508328000002294, 38.390278000002304 ], [ -95.507968000002336, 38.346583000002319 ], [ -95.507474000002645, 38.259248000002643 ], [ -95.516757000002457, 38.259296000002557 ], [ -95.517490000001999, 38.198368000002532 ], [ -95.51794000000254, 38.154436000002157 ], [ -95.518097000001859, 38.139930000002614 ], [ -95.518970000002284, 38.038230000002763 ], [ -95.426685000002621, 38.038395000002858 ], [ -95.408367000002599, 38.038446000002729 ], [ -95.33565800000224, 38.038083000002217 ], [ -95.299176000002163, 38.038067000002201 ], [ -95.224902000002714, 38.037805000002429 ], [ -95.188061000002136, 38.037702000002348 ], [ -95.077876000002504, 38.037706000002593 ], [ -95.076712000002601, 38.154120000002273 ], [ -95.076667000002118, 38.168252000002674 ], [ -95.07545900000234, 38.258714000002108 ], [ -95.0653050000017, 38.273177000002562 ], [ -95.065831000002646, 38.389945000002641 ], [ -94.918137000002034, 38.389142000002366 ], [ -94.775253000002039, 38.388996000002031 ], [ -94.770401000002735, 38.389020000002525 ], [ -94.696221000002126, 38.388859000002391 ], [ -94.613232000002554, 38.388718000002065 ], [ -94.61301600000256, 38.34366000000211 ], [ -94.612675000001914, 38.301464000002369 ], [ -94.612650000002461, 38.218569000002674 ], [ -94.613474000002725, 38.16799400000216 ], [ -94.613820000002477, 38.12441800000235 ], [ -94.614089000001684, 38.037057000002491 ], [ -94.615392000002103, 37.90644000000276 ], [ -94.61627300000238, 37.851651000002697 ], [ -94.617645000002241, 37.761243000002786 ], [ -94.617779000002443, 37.673105000002657 ], [ -94.617620000002219, 37.643991000002494 ], [ -94.617503000002046, 37.636691000002173 ], [ -94.61738400000182, 37.614594000002683 ], [ -94.617111000002637, 37.563166000002433 ], [ -94.617108000002176, 37.557355000002104 ], [ -94.617175000002646, 37.552208000002928 ], [ -94.617012000002276, 37.535239000002711 ], [ -94.617110000002398, 37.454776000002639 ], [ -94.617414000002753, 37.410959000002379 ], [ -94.617524000001637, 37.381688000002711 ], [ -94.617722000002118, 37.338418000002697 ], [ -94.61817600000272, 37.207190000002512 ], [ -94.618167000001762, 37.11893000000213 ], [ -94.618073000002553, 37.089267000002295 ], [ -94.617884000001965, 37.069211000002447 ], [ -94.617852000002358, 37.056380000002896 ], [ -94.61792700000268, 37.004740000002627 ], [ -94.617964000002615, 36.998905000002466 ], [ -94.722420000001861, 36.998701000002548 ], [ -94.731507000002324, 36.998670000002093 ], [ -94.744987000002283, 36.99865000000289 ], [ -94.749682000002778, 36.998607000002494 ], [ -94.831540000001695, 36.9987700000028 ], [ -94.840925000002485, 36.998798000002829 ], [ -94.846772000002716, 36.998820000002873 ], [ -94.940612000002218, 36.999229000002821 ], [ -95.073504000002714, 36.999552000002893 ], [ -95.122140000002716, 36.999564000002295 ], [ -95.158969000002486, 36.999594000002645 ], [ -95.267876000002502, 36.999525000002428 ], [ -95.377258000002101, 36.999360000002262 ], [ -95.522415000001956, 36.999280000002265 ], [ -95.601517000002616, 36.999302000002842 ], [ -95.674042000002515, 36.99927200000274 ], [ -95.746470000002205, 36.99921800000223 ], [ -95.819366000002276, 36.99916600000229 ], [ -95.910122000002119, 36.999342000002486 ], [ -95.964270000001875, 36.999104000002575 ], [ -95.964692000002415, 37.096390000002266 ], [ -95.964464000002337, 37.125511000002213 ], [ -95.964135000002045, 37.197483000002215 ], [ -95.964396000002395, 37.255693000002339 ], [ -95.964399000002274, 37.299232000002533 ], [ -95.961605000001796, 37.386636000002504 ], [ -95.962311000002444, 37.430273000002749 ], [ -95.962415000001741, 37.472910000002408 ], [ -95.962241000001796, 37.51668000000253 ], [ -95.961002000002736, 37.603761000002208 ], [ -95.961004000002021, 37.618896000002032 ], [ -95.960689000002006, 37.719742000002348 ], [ -95.960876000001662, 37.73430400000273 ], [ -95.961408000002521, 37.821985000002272 ], [ -95.958554000002422, 37.909245000002656 ], [ -95.958510000002036, 37.938283000002855 ], [ -95.959046000002516, 38.040195000002313 ], [ -95.958862000002156, 38.170939000002591 ], [ -96.067117000002327, 38.171867000002173 ], [ -96.138642000001767, 38.172110000002483 ], [ -96.357277000001645, 38.172660000002658 ], [ -96.358099000002355, 38.085817000002173 ], [ -96.522782000002138, 38.086370000002397 ], [ -96.639426000001677, 38.086348000002225 ], [ -96.730858000002456, 38.086080000002184 ], [ -96.785829000002238, 38.0859210000025 ], [ -96.840772000002474, 38.085622000002438 ], [ -96.914187000002045, 38.085751000002539 ], [ -96.93213100000176, 38.085774000002466 ], [ -97.042207000002506, 38.086524000002171 ], [ -97.097534000001659, 38.087062000002554 ], [ -97.152913000002755, 38.087704000002397 ], [ -97.153093000001704, 38.17463400000225 ], [ -97.263462000002519, 38.174895000002486 ], [ -97.371750000001754, 38.17367300000263 ] ] ] } },
{ "type": "Feature", "properties": { "enacted_district": 3, "population": 734139.0, "voting_age_pop": 556107.0, "dem_votes": 163661.0, "rep_votes": 164000.0, "minority_pop": 123046.0, "dem_pct": 0.49948269690335967, "rep_pct": 0.50051730279144691 }, "geometry": { "type": "Polygon", "coordinates": [ [ [ -95.507474000002645, 38.259248000002643 ], [ -95.507968000002336, 38.346583000002319 ], [ -95.508328000002294, 38.390278000002304 ], [ -95.508267000002036, 38.433933000002135 ], [ -95.508490000002283, 38.52145200000205 ], [ -95.508549000001636, 38.528832000002666 ], [ -95.508541000002182, 38.594077000002692 ], [ -95.508667000002262, 38.623101000001945 ], [ -95.508904000001877, 38.652188000002255 ], [ -95.501223000002398, 38.695263000002029 ], [ -95.500738000002585, 38.738808000002429 ], [ -95.408730000002137, 38.738879000002278 ], [ -95.352914000002684, 38.738788000002117 ], [ -95.278916000002354, 38.738609000002093 ], [ -95.26594100000176, 38.738625000002315 ], [ -95.24159000000202, 38.738678000002452 ], [ -95.167545000001738, 38.738471000002342 ], [ -95.056412000002425, 38.738587000002227 ], [ -95.056375000002703, 38.759734000002496 ], [ -95.05637000000236, 38.760319000002212 ], [ -95.056330000002475, 38.767752000002481 ], [ -95.056198000001956, 38.796814000002115 ], [ -95.056207000001663, 38.81143200000254 ], [ -95.056159000002481, 38.840591000002661 ], [ -95.056117000002686, 38.869573000002646 ], [ -95.055898000002543, 38.913220000002866 ], [ -95.056187000001714, 38.943106000002281 ], [ -95.056258000002515, 38.982120000002404 ], [ -95.027847000002083, 38.978865000002394 ], [ -95.023638000002578, 38.988238000002283 ], [ -95.026045000001915, 38.992337000002202 ], [ -95.021132000001799, 39.000003000002799 ], [ -94.948275000001757, 38.984214000002133 ], [ -94.931571000002577, 39.001460000002346 ], [ -94.923349000002204, 39.002633000002035 ], [ -94.908765000001779, 38.991401000001979 ], [ -94.908840000002726, 39.040964000002397 ], [ -94.908797000002721, 39.057934000002746 ], [ -94.908751000001914, 39.072313000002637 ], [ -94.908751000002624, 39.086899000002347 ], [ -94.908743000002744, 39.090815000002742 ], [ -94.908717000001758, 39.093285000001991 ], [ -94.908469000002114, 39.115707000002011 ], [ -94.853720000002639, 39.115805000002794 ], [ -94.853615000002236, 39.103752000002643 ], [ -94.81616900000202, 39.105374000002143 ], [ -94.810971000002326, 39.10537700000274 ], [ -94.79771100000184, 39.101838000002573 ], [ -94.779054000001807, 39.101745000002609 ], [ -94.760516000002482, 39.101884000002208 ], [ -94.745614000001964, 39.102226000002432 ], [ -94.745585000001782, 39.106398000002201 ], [ -94.728557000002041, 39.105947000002502 ], [ -94.7100380000022, 39.093298000002754 ], [ -94.702360000002642, 39.102533000002005 ], [ -94.67990400000204, 39.099711000002308 ], [ -94.649572000001783, 39.077616000002536 ], [ -94.639993000001681, 39.073538000002046 ], [ -94.624657000001875, 39.075269000002272 ], [ -94.608651000002567, 39.090064000002101 ], [ -94.607223000002435, 39.0897090000025 ], [ -94.60733500000164, 39.072454000002779 ], [ -94.607337000001678, 39.054365000001987 ], [ -94.607323000002125, 39.050236000002371 ], [ -94.607382000001877, 39.044086000002814 ], [ -94.607412000001744, 39.040832000002005 ], [ -94.607479000002286, 39.036970000002107 ], [ -94.607524000002556, 39.033354000002269 ], [ -94.607743000002245, 39.015166000002679 ], [ -94.607810000001962, 39.007912000002669 ], [ -94.607867000002202, 39.000555000002791 ], [ -94.607960000002194, 38.992945000002315 ], [ -94.608183000002086, 38.984347000002856 ], [ -94.608437000001643, 38.978724000002714 ], [ -94.60824900000236, 38.973911000002389 ], [ -94.608131000002558, 38.956722000002088 ], [ -94.608133000002141, 38.942071000002763 ], [ -94.607981000001843, 38.936847000002722 ], [ -94.607986000002143, 38.912924000002327 ], [ -94.607974000002002, 38.909694000002347 ], [ -94.607978000001978, 38.905630000002077 ], [ -94.608000000002477, 38.89401800000266 ], [ -94.607960000002123, 38.888639000002826 ], [ -94.607973000002758, 38.883822000002134 ], [ -94.608032000001899, 38.869750000002192 ], [ -94.6079960000027, 38.866832000002674 ], [ -94.608021000001898, 38.850235000002677 ], [ -94.6077110000018, 38.831710000002175 ], [ -94.607670000002514, 38.829769000002599 ], [ -94.607673000002265, 38.825816000002114 ], [ -94.608172000002199, 38.811095000002702 ], [ -94.608360000002563, 38.792978000002691 ], [ -94.608602000001781, 38.767217000002468 ], [ -94.609080000001839, 38.738099000002414 ], [ -94.610437000001781, 38.679216000002505 ], [ -94.611905000002238, 38.605890000002532 ], [ -94.612265000002523, 38.546675000002089 ], [ -94.612331000002143, 38.518761000002755 ], [ -94.613232000002554, 38.388718000002065 ], [ -94.696221000002126, 38.388859000002391 ], [ -94.770401000002735, 38.389020000002525 ], [ -94.775253000002039, 38.388996000002031 ], [ -94.918137000002034, 38.389142000002366 ], [ -95.065831000002646, 38.389945000002641 ], [ -95.0653050000017, 38.273177000002562 ], [ -95.07545900000234, 38.258714000002108 ], [ -95.076667000002118, 38.168252000002674 ], [ -95.076712000002601, 38.154120000002273 ], [ -95.077876000002504, 38.037706000002593 ], [ -95.188061000002136, 38.037702000002348 ], [ -95.224902000002714, 38.037805000002429 ], [ -95.299176000002163, 38.038067000002201 ], [ -95.33565800000224, 38.038083000002217 ], [ -95.408367000002599, 38.038446000002729 ], [ -95.426685000002621, 38.038395000002858 ], [ -95.518970000002284, 38.038230000002763 ], [ -95.518097000001859, 38.139930000002614 ], [ -95.51794000000254, 38.154436000002157 ], [ -95.517490000001999, 38.198368000002532 ], [ -95.516757000002457, 38.259296000002557 ], [ -95.507474000002645, 38.259248000002643 ] ] ] } },
{ "type": "Feature", "properties": { "enacted_district": 4, "population": 734216.0, "voting_age_pop": 552315.0, "dem_votes": 103361.0, "rep_votes": 158181.0, "minority_pop": 147745.0, "dem_pct": 0.39519847657538809, "rep_pct": 0.60480152304226409 }, "geometry": { "type": "Polygon", "coordinates": [ [ [ -99.541116000002177, 36.999610000002065 ], [ -99.544020000002561, 37.192156000002647 ], [ -99.54463100000244, 37.250024000002014 ], [ -99.543189000002357, 37.381124000002615 ], [ -99.555774000001847, 37.381112000002503 ], [ -99.556119000002596, 37.467722000002063 ], [ -99.559652000001762, 37.73192500000188 ], [ -99.559580000001901, 37.734888000001838 ], [ -99.559526000001966, 37.737123000002363 ], [ -99.56027200000176, 37.825587000001832 ], [ -99.57057600000212, 37.825634000002687 ], [ -99.569879000002274, 37.913016000001861 ], [ -99.569533000002394, 38.08737200000202 ], [ -99.56967600000192, 38.131245000002536 ], [ -99.569927000002778, 38.174902000002106 ], [ -99.460004000002286, 38.175432000001997 ], [ -99.350268000001677, 38.17545900000183 ], [ -99.240759000002313, 38.174176000002547 ], [ -99.131741000001966, 38.17433700000224 ], [ -99.114308000002566, 38.174428000002152 ], [ -99.117895000001681, 38.18165400000224 ], [ -99.1024580000024, 38.181662000002582 ], [ -99.102441000002798, 38.183761000001866 ], [ -99.088773000002234, 38.184858000002237 ], [ -99.086456000002798, 38.174393000002674 ], [ -99.022070000002444, 38.174834000002342 ], [ -99.022472000002594, 38.261208000001865 ], [ -98.921845000002037, 38.261227000002279 ], [ -98.912583000002726, 38.261088000002331 ], [ -98.811265000002336, 38.260954000002151 ], [ -98.802819000001804, 38.260942000002167 ], [ -98.700750000002543, 38.2608440000025 ], [ -98.692595000002754, 38.260851000002319 ], [ -98.582212000002116, 38.261116000001842 ], [ -98.479841000002438, 38.260790000002388 ], [ -98.472437000002415, 38.260741000002078 ], [ -98.472794000001684, 38.172757000002299 ], [ -98.472507000001983, 38.085599000002013 ], [ -98.472313000002273, 37.99866200000217 ], [ -98.471941000001905, 37.911591000002559 ], [ -98.472257000002713, 37.824497000002019 ], [ -98.464899000002376, 37.824512000001896 ], [ -98.464804000002616, 37.732675000002445 ], [ -98.355520000002343, 37.732572000002357 ], [ -98.246262000002176, 37.732661000002018 ], [ -98.136225000002639, 37.732913000002149 ], [ -98.027326000001864, 37.733289000002252 ], [ -97.917999000001757, 37.733884000002682 ], [ -97.807823000002799, 37.733855000002208 ], [ -97.69869200000204, 37.735056000002075 ], [ -97.699679000001964, 37.825156000002522 ], [ -97.7021120000026, 37.839785000002138 ], [ -97.702031000002222, 37.897950000002474 ], [ -97.701969000001739, 37.911325000002677 ], [ -97.702163000001761, 37.999611000002183 ], [ -97.702006000001802, 38.072221000002308 ], [ -97.701721000002138, 38.086698000002386 ], [ -97.70184100000192, 38.173814000002139 ], [ -97.592145000002617, 38.174163000002345 ], [ -97.482244000002297, 38.173889000002667 ], [ -97.371750000001754, 38.17367300000263 ], [ -97.263462000002519, 38.174895000002486 ], [ -97.153093000001704, 38.17463400000225 ], [ -97.152913000002755, 38.087704000002397 ], [ -97.097534000001659, 38.087062000002554 ], [ -97.042207000002506, 38.086524000002171 ], [ -96.93213100000176, 38.085774000002466 ], [ -96.914187000002045, 38.085751000002539 ], [ -96.840772000002474, 38.085622000002438 ], [ -96.785829000002238, 38.0859210000025 ], [ -96.730858000002456, 38.086080000002184 ], [ -96.639426000001677, 38.086348000002225 ], [ -96.522782000002138, 38.086370000002397 ], [ -96.358099000002355, 38.085817000002173 ], [ -96.357277000001645, 38.172660000002658 ], [ -96.138642000001767, 38.172110000002483 ], [ -96.067117000002327, 38.171867000002173 ], [ -95.958862000002156, 38.170939000002591 ], [ -95.959046000002516, 38.040195000002313 ], [ -95.958510000002036, 37.938283000002855 ], [ -95.958554000002422, 37.909245000002656 ], [ -95.961408000002521, 37.821985000002272 ], [ -95.960876000001662, 37.73430400000273 ], [ -95.960689000002006, 37.719742000002348 ], [ -95.961004000002021, 37.618896000002032 ], [ -95.961002000002736, 37.603761000002208 ], [ -95.962241000001796, 37.51668000000253 ], [ -95.962415000001741, 37.472910000002408 ], [ -95.962311000002444, 37.430273000002749 ], [ -95.961605000001796, 37.386636000002504 ], [ -95.964399000002274, 37.299232000002533 ], [ -95.964396000002395, 37.255693000002339 ], [ -95.964135000002045, 37.197483000002215 ], [ -95.964464000002337, 37.125511000002213 ], [ -95.964692000002415, 37.096390000002266 ], [ -95.964270000001875, 36.999104000002575 ], [ -96.091279000002274, 36.99913500000271 ], [ -96.154165000002493, 36.999156000002834 ], [ -96.235320000002616, 36.999180000002667 ], [ -96.38155700000236, 36.999250000002547 ], [ -96.525582000002416, 36.998710000002703 ], [ -96.624488000002302, 36.998985000002641 ], [ -96.731983000002515, 36.999283000002535 ], [ -96.822900000001837, 36.999210000002762 ], [ -96.925294000001799, 36.999129000002817 ], [ -97.039700000002, 36.998960000002057 ], [ -97.147721000002036, 36.999033000002733 ], [ -97.25577000000176, 36.998919000002047 ], [ -97.364866000001882, 36.998813000002414 ], [ -97.472866000002099, 36.998695000002577 ], [ -97.582377000002765, 36.998638000002508 ], [ -97.692180000002196, 36.998849000002181 ], [ -97.8023130000023, 36.998718000002469 ], [ -97.965292000001924, 36.998523000002713 ], [ -98.019366000002606, 36.998455000002032 ], [ -98.12817900000222, 36.998072000001969 ], [ -98.347149000002659, 36.998155000002185 ], [ -98.485557000002245, 36.998539000002758 ], [ -98.622261000002823, 36.998891000002459 ], [ -98.811832000002326, 36.999295000002007 ], [ -99.000301000002523, 36.999467000002589 ], [ -99.215433000002236, 36.99955700000217 ], [ -99.396675000001906, 36.999838000002022 ], [ -99.541116000002177, 36.999610000002065 ] ] ] } }
]
}
