{
"type": "FeatureCollection",
"name": "kentucky_enacted_districts",
"crs": { "type": "name", "properties": { "name": "urn:ogc:def:crs:OGC:1.3:CRS84" } },
"features": [
{ "type": "Feature", "properties": { "enacted_district": 1, "population": 750401.0, "voting_age_pop": 581179.0, "dem_votes": 101425.0, "rep_votes": 227211.0, "minority_pop": 82475.0, "dem_pct": 0.30862413116377263, "rep_pct": 0.69137586853193933 }, "geometry": { "type": "MultiPolygon", "coordinates": [ [ [ [ -89.301022000002334, 36.507233000003055 ], [ -89.417275000002462, 36.499011000003058 ], [ -89.365797000002146, 36.625126000002311 ], [ -89.316450000001979, 36.624044000002456 ], [ -89.269546000002492, 36.569716000002607 ], [ -89.220180000001861, 36.574271000002383 ], [ -89.197753000001526, 36.628971000003176 ], [ -89.174727000001937, 36.650475000002849 ], [ -89.159118000002152, 36.666354000003011 ], [ -89.169426000002517, 36.688771000002767 ], [ -89.200647000001808, 36.718751000002982 ], [ -89.197856000001821, 36.739772000002702 ], [ -89.169785000001923, 36.759641000002873 ], [ -89.125967000002035, 36.751809000002652 ], [ -89.123531000001648, 36.785217000002412 ], [ -89.17056300000192, 36.797538000003087 ], [ -89.178858000002066, 36.825274000002814 ], [ -89.170443000002152, 36.841840000002605 ], [ -89.13810900000162, 36.847323000002483 ], [ -89.117115000002102, 36.888685000002972 ], [ -89.100864000002289, 36.944016000002705 ], [ -89.099772000001749, 36.964535000002506 ], [ -89.132915000002569, 36.982057000002548 ], [ -89.170173000001967, 37.007067000003012 ], [ -89.182467000001949, 37.039164000003183 ], [ -89.167355000001606, 37.0750410000024 ], [ -89.109500000001546, 37.123093000002399 ], [ -89.097350000001853, 37.144750000002858 ], [ -89.087143000002087, 37.164930000002528 ], [ -89.029866000001732, 37.211065000002861 ], [ -88.972956000002057, 37.228491000002677 ], [ -88.933393000002127, 37.224973000003047 ], [ -88.866603000001689, 37.208815000002744 ], [ -88.789683000002555, 37.180178000002563 ], [ -88.732499000001681, 37.143945000002716 ], [ -88.685275000001681, 37.138796000003069 ], [ -88.616215000001603, 37.115683000002683 ], [ -88.605317000001762, 37.109811000002857 ], [ -88.573742000002369, 37.083009000003187 ], [ -88.571900000002344, 37.079079000003055 ], [ -88.566061000001525, 37.075237000002453 ], [ -88.528983000002043, 37.066826000002749 ], [ -88.482180000001819, 37.067368000003071 ], [ -88.452140000002458, 37.084893000002701 ], [ -88.428003000002093, 37.142885000002593 ], [ -88.433614000002294, 37.164144000002963 ], [ -88.44803800000237, 37.203642000002965 ], [ -88.506973000001537, 37.259688000002974 ], [ -88.507692000001825, 37.304407000002506 ], [ -88.484683000002164, 37.345234000002968 ], [ -88.474645000001686, 37.390783000002536 ], [ -88.454542000002164, 37.40984800000313 ], [ -88.409229000002185, 37.42531500000235 ], [ -88.358496000001665, 37.404803000002545 ], [ -88.33013800000154, 37.429874000002762 ], [ -88.281631000002278, 37.452729000002606 ], [ -88.165649000001622, 37.466267000002944 ], [ -88.079533000002286, 37.47583100000265 ], [ -88.061298000001514, 37.505332000002433 ], [ -88.069011000001552, 37.525399000002842 ], [ -88.13428100000236, 37.574636000002798 ], [ -88.157068000001843, 37.633275000003195 ], [ -88.159986000002547, 37.659715000002507 ], [ -88.133954000002078, 37.692296000002976 ], [ -88.120233000002159, 37.71122700000317 ], [ -88.071044000002374, 37.73299800000315 ], [ -88.049183000002216, 37.755073000002461 ], [ -88.0322240000025, 37.796408000003055 ], [ -88.014685000002231, 37.801916000002755 ], [ -87.943673000001795, 37.776796000002477 ], [ -87.93412900000159, 37.796414000002791 ], [ -87.906939000002282, 37.807593000002761 ], [ -87.909967000002183, 37.843028000003123 ], [ -87.937986000002297, 37.870287000002826 ], [ -87.927060000002555, 37.901675000003117 ], [ -87.896892000002538, 37.927859000002528 ], [ -87.875130000001946, 37.922865000002467 ], [ -87.838425000002161, 37.879907000003087 ], [ -87.790287000002081, 37.875862000002634 ], [ -87.759239000001756, 37.891662000002576 ], [ -87.713412000002165, 37.893284000002801 ], [ -87.684488000001792, 37.903649000002531 ], [ -87.666714000002031, 37.880038000002727 ], [ -87.681684000001496, 37.85627300000305 ], [ -87.670344000002274, 37.827962000003069 ], [ -87.637383000001478, 37.826947000002733 ], [ -87.614944000002197, 37.832126000002908 ], [ -87.602160000002513, 37.843852000002599 ], [ -87.595371000001919, 37.852084000002392 ], [ -87.591589000001534, 37.856993000003172 ], [ -87.583914000001741, 37.876567000003142 ], [ -87.584126000001461, 37.879118000002485 ], [ -87.618153000001868, 37.905522000002357 ], [ -87.624597000002524, 37.930278000002971 ], [ -87.60139100000201, 37.971306000003025 ], [ -87.575046000002416, 37.965909000002426 ], [ -87.556045000002072, 37.928168000002508 ], [ -87.505215000001542, 37.907264000002392 ], [ -87.449131000001429, 37.941854000002934 ], [ -87.386179000001789, 37.937804000003226 ], [ -87.337910000002125, 37.908131000002797 ], [ -87.302914000002502, 37.897821000002772 ], [ -87.323402000001863, 37.819239000002547 ], [ -87.279756000002138, 37.773425000002405 ], [ -87.296805000002209, 37.756384000003152 ], [ -87.31952300000188, 37.743159000003111 ], [ -87.373172000002242, 37.737383000003014 ], [ -87.389899000002487, 37.7276930000031 ], [ -87.408547000002059, 37.683563000002934 ], [ -87.42053300000255, 37.670153000003161 ], [ -87.458787000002488, 37.668562000002559 ], [ -87.495331000002381, 37.647547000002845 ], [ -87.489852000002287, 37.612641000002768 ], [ -87.456611000002269, 37.592598000002816 ], [ -87.396970000002156, 37.589253000002962 ], [ -87.375145000001567, 37.569988000002652 ], [ -87.360898000001697, 37.550236000002883 ], [ -87.354556000002148, 37.528374000002749 ], [ -87.361657000001728, 37.48805200000271 ], [ -87.355144000001985, 37.44630800000273 ], [ -87.353524000001499, 37.443179000002409 ], [ -87.351089000001878, 37.424929000002685 ], [ -87.295965000002113, 37.391819000002577 ], [ -87.299586000002193, 37.368308000002784 ], [ -87.330413000001471, 37.34406600000321 ], [ -87.346414000002454, 37.309536000002616 ], [ -87.377927000001947, 37.308549000002664 ], [ -87.385540000001697, 37.294225000003188 ], [ -87.388707000002256, 37.262180000003085 ], [ -87.356584000002542, 37.233433000002975 ], [ -87.344996000001615, 37.211277000003179 ], [ -87.320623000001746, 37.200550000002949 ], [ -87.306862000002297, 37.191541000002829 ], [ -87.333741000002462, 37.157186000002589 ], [ -87.313080000001463, 37.114597000003165 ], [ -87.284901000002151, 37.108385000002841 ], [ -87.2805870000021, 37.076942000002525 ], [ -87.259371000001821, 37.072401000002728 ], [ -87.250256000002324, 37.040557000003069 ], [ -87.225423000001953, 37.041325000003212 ], [ -87.12375000000246, 37.044544000002865 ], [ -87.053164000002411, 37.061019000003128 ], [ -87.027637000001661, 37.065156000002979 ], [ -86.992750000002161, 37.070814000002819 ], [ -86.941391000001715, 37.068981000002786 ], [ -86.844346000001948, 37.05617600000302 ], [ -86.79724900000177, 37.040500000002531 ], [ -86.748970000001819, 37.024402000002596 ], [ -86.674462000001725, 36.999766000002978 ], [ -86.668752000001547, 36.989055000003191 ], [ -86.704455000002511, 36.977841000002549 ], [ -86.71661500000171, 36.945992000002512 ], [ -86.741491000001972, 36.927651000002399 ], [ -86.751916000002396, 36.902254000002557 ], [ -86.782417000002141, 36.892726000002895 ], [ -86.759841000002282, 36.881561000002371 ], [ -86.766622000002485, 36.851488000002639 ], [ -86.749933000002258, 36.855442000002888 ], [ -86.696694000001884, 36.866720000003269 ], [ -86.652287000002246, 36.884242000002935 ], [ -86.633148000001754, 36.88271900000251 ], [ -86.611586000002077, 36.88305700000312 ], [ -86.603976000001822, 36.868922000002627 ], [ -86.592607000002332, 36.847681000002623 ], [ -86.583289000002452, 36.830282000002434 ], [ -86.472871000002314, 36.817115000003277 ], [ -86.452544000001936, 36.814372000002443 ], [ -86.452166000002137, 36.81432400000314 ], [ -86.400518000002336, 36.807226000003133 ], [ -86.405769000002493, 36.776187000002594 ], [ -86.331028000001695, 36.827084000002806 ], [ -86.317867000002195, 36.836049000002753 ], [ -86.275191000002266, 36.865109000003237 ], [ -86.268273000002054, 36.892071000002979 ], [ -86.234900000002298, 36.903805000003146 ], [ -86.226309000002431, 36.912633000002494 ], [ -86.20417600000178, 36.933784000002547 ], [ -86.166740000002321, 36.934015000003043 ], [ -86.125004000001397, 36.895579000003224 ], [ -86.07587400000142, 36.902602000003256 ], [ -86.078016000001554, 36.854700000003085 ], [ -86.058886000001436, 36.835217000003041 ], [ -86.06803100000171, 36.806434000002469 ], [ -86.039224000001866, 36.790835000002907 ], [ -86.037306000002275, 36.760179000002957 ], [ -86.002309000002001, 36.758711000002805 ], [ -85.976910000002476, 36.722722000002769 ], [ -85.961522000002063, 36.731604000003117 ], [ -85.900239000001918, 36.767094000002672 ], [ -85.878143000001572, 36.780059000002751 ], [ -85.78829400000194, 36.828705000002458 ], [ -85.762764000002178, 36.837216000002492 ], [ -85.73925500000145, 36.841476000002828 ], [ -85.745702000002339, 36.936624000002908 ], [ -85.746182000001809, 36.943715000002435 ], [ -85.750407000002312, 37.005951000002568 ], [ -85.757172000002484, 37.04568500000255 ], [ -85.759275000002148, 37.068543000002784 ], [ -85.756090000002047, 37.109835000002803 ], [ -85.776962000001845, 37.138328000002659 ], [ -85.745323000002031, 37.168379000002531 ], [ -85.744221000002227, 37.169813000003202 ], [ -85.686482000001831, 37.182427000002896 ], [ -85.660898000001694, 37.143039000003277 ], [ -85.632399000002309, 37.12511300000287 ], [ -85.590958000002161, 37.11629800000275 ], [ -85.526881000001552, 37.109450000002767 ], [ -85.465167000002452, 37.133742000002826 ], [ -85.382584000001472, 37.16729100000299 ], [ -85.352771000001937, 37.192432000002675 ], [ -85.371895000002084, 37.221312000003302 ], [ -85.40647600000176, 37.222076000002531 ], [ -85.392779000001624, 37.249324000002879 ], [ -85.4197710000021, 37.288494000003155 ], [ -85.421223000001348, 37.290600000003167 ], [ -85.43784500000217, 37.307116000002949 ], [ -85.47787000000217, 37.361317000002657 ], [ -85.478193000001752, 37.363747000002462 ], [ -85.521935000002443, 37.392351000003053 ], [ -85.584477000001414, 37.432091000002508 ], [ -85.583497000002325, 37.469917000003171 ], [ -85.528855000002309, 37.454067000002418 ], [ -85.502771000002397, 37.482303000002553 ], [ -85.466250000001949, 37.465595000003049 ], [ -85.503473000001563, 37.549382000003078 ], [ -85.521290000002153, 37.554343000002909 ], [ -85.486396000001733, 37.620508000002602 ], [ -85.471493000001971, 37.648191000003081 ], [ -85.452874000002353, 37.68169900000305 ], [ -85.402053000001686, 37.730412000002801 ], [ -85.401784000001939, 37.730658000002883 ], [ -85.355835000001818, 37.781428000002549 ], [ -85.323484000001656, 37.787200000002855 ], [ -85.31323700000236, 37.809879000002859 ], [ -85.296076000002415, 37.832667000003127 ], [ -85.242185000001911, 37.862449000002833 ], [ -85.230820000001785, 37.870495000002535 ], [ -85.205377000002272, 37.863621000003242 ], [ -85.181399000002273, 37.892428000002973 ], [ -85.151165000002038, 37.889801000002834 ], [ -85.152797000001584, 37.897661000002763 ], [ -85.167834000001548, 37.97180900000312 ], [ -85.109766000002253, 38.027046000002805 ], [ -85.101646000001921, 38.037270000002998 ], [ -85.083616000002166, 38.040876000003259 ], [ -85.052624000002353, 38.075440000003177 ], [ -85.039653000002247, 38.119313000003046 ], [ -85.02440200000234, 38.125720000003078 ], [ -85.023711000002024, 38.129052000003277 ], [ -85.016145000001671, 38.147057000002683 ], [ -85.001181000002177, 38.224970000002585 ], [ -85.001032000001899, 38.226152000002671 ], [ -84.998896000001977, 38.274933000002491 ], [ -84.956959000002314, 38.332271000002542 ], [ -84.997667000001343, 38.335586000003111 ], [ -84.907904000002262, 38.374128000002543 ], [ -84.884079000002018, 38.351527000003237 ], [ -84.870482000002227, 38.356751000002824 ], [ -84.838419000002389, 38.356926000003199 ], [ -84.793228000002429, 38.338505000002989 ], [ -84.740594000001508, 38.35241500000317 ], [ -84.739684000001688, 38.338035000002911 ], [ -84.737148000001426, 38.289481000002787 ], [ -84.732241000001565, 38.231192000002864 ], [ -84.730289000001974, 38.208302000002831 ], [ -84.725168000001972, 38.195426000003202 ], [ -84.747124000001378, 38.186985000003304 ], [ -84.807264000002419, 38.163737000002811 ], [ -84.807418000001348, 38.163677000002728 ], [ -84.864804000002167, 38.141373000002567 ], [ -84.864908000001591, 38.116926000003033 ], [ -84.881548000002269, 38.102086000002529 ], [ -84.90779800000162, 38.093666000002898 ], [ -84.968598000001521, 38.119618000003186 ], [ -84.917096000001706, 38.063273000002951 ], [ -84.94854700000171, 38.035014000002612 ], [ -84.94418900000133, 38.026687000002653 ], [ -84.957683000001808, 37.998782000003089 ], [ -84.95945100000236, 37.99774900000245 ], [ -84.975006000002452, 38.004412000002766 ], [ -85.06018000000175, 38.00230300000284 ], [ -85.045506000001367, 37.985640000002917 ], [ -85.062339000002211, 37.94531400000325 ], [ -85.07171500000166, 37.926635000003188 ], [ -85.107158000002244, 37.901313000002979 ], [ -85.088441000002206, 37.887646000002455 ], [ -85.059587000001642, 37.89043300000305 ], [ -85.030528000002448, 37.891538000002406 ], [ -85.031456000001654, 37.881597000003161 ], [ -85.000520000002368, 37.854723000003069 ], [ -85.003235000002149, 37.835228000002715 ], [ -85.011878000001673, 37.769002000002452 ], [ -85.012051000001918, 37.767651000002758 ], [ -85.015800000002045, 37.740469000002648 ], [ -85.025021000002297, 37.678854000003014 ], [ -84.9183090000014, 37.690118000003125 ], [ -84.898801000001555, 37.69267600000255 ], [ -84.807688000001377, 37.704769000002749 ], [ -84.807529000002461, 37.704913000003039 ], [ -84.793506000001358, 37.717244000002772 ], [ -84.744888000001453, 37.71307500000264 ], [ -84.743698000001316, 37.698390000003187 ], [ -84.682694000001931, 37.677898000002749 ], [ -84.690342000001323, 37.671256000002849 ], [ -84.658296000002366, 37.634501000002729 ], [ -84.680188000002218, 37.623502000002603 ], [ -84.723860000001721, 37.591269000002455 ], [ -84.788669000001747, 37.574417000002491 ], [ -84.794137000001427, 37.571992000003277 ], [ -84.801355000001706, 37.568788000002677 ], [ -84.847434000002295, 37.548343000003108 ], [ -84.857086000002155, 37.528519000003115 ], [ -84.860130000002357, 37.467350000002483 ], [ -84.85124600000232, 37.429028000002667 ], [ -84.808679000002357, 37.399391000003334 ], [ -84.735842000002435, 37.366358000003238 ], [ -84.722826000002058, 37.360043000002811 ], [ -84.707063000002108, 37.303094000003149 ], [ -84.724165000002372, 37.286675000003022 ], [ -84.72117300000194, 37.240276000002694 ], [ -84.720712000001825, 37.238328000002589 ], [ -84.811396000001395, 37.173710000003332 ], [ -84.870602000001426, 37.13571500000257 ], [ -84.901112000002144, 37.11629700000298 ], [ -84.905778000001405, 37.047187000003341 ], [ -84.882352000001674, 37.025269000002723 ], [ -84.881420000001469, 37.024410000002518 ], [ -84.835712000001422, 36.997612000003265 ], [ -84.907859000002034, 36.945447000002936 ], [ -84.950428000001551, 36.955467000003203 ], [ -84.955628000002378, 36.926368000003265 ], [ -84.972809000002343, 36.9103750000031 ], [ -84.975693000002437, 36.90959700000284 ], [ -85.044499000001395, 36.870935000003023 ], [ -85.064307000001662, 36.858743000002711 ], [ -85.059167000001452, 36.833097000002589 ], [ -85.026277000001969, 36.806688000002637 ], [ -85.004259000001383, 36.755882000003297 ], [ -85.009883000002006, 36.74374100000319 ], [ -85.020476000002319, 36.694350000002999 ], [ -85.001267000001477, 36.676740000002908 ], [ -84.999106000002385, 36.624161000002466 ], [ -84.974811000002035, 36.615465000002622 ], [ -85.08639600000177, 36.621921000002835 ], [ -85.136033000002413, 36.623813000002791 ], [ -85.214038000001906, 36.62568200000262 ], [ -85.271118000001891, 36.626723000002634 ], [ -85.296002000001664, 36.625718000003026 ], [ -85.325510000001501, 36.62439500000275 ], [ -85.436442000001975, 36.618655000002512 ], [ -85.556483000001492, 36.615917000002632 ], [ -85.719906000001984, 36.619891000003207 ], [ -85.738391000001627, 36.620496000003122 ], [ -85.905423000001818, 36.625318000002963 ], [ -85.97641800000153, 36.628493000002592 ], [ -86.114501000001695, 36.635491000002702 ], [ -86.244565000001515, 36.642421000002933 ], [ -86.29619700000211, 36.645565000002527 ], [ -86.411379000001631, 36.650924000002938 ], [ -86.499931000001666, 36.652271000002422 ], [ -86.545708000001625, 36.644177000002657 ], [ -86.563909000002056, 36.633562000002456 ], [ -86.589906000002415, 36.652443000002719 ], [ -86.763296000002029, 36.648954000002483 ], [ -86.854040000002158, 36.647006000002769 ], [ -87.008590000001703, 36.644105000002654 ], [ -87.060849000001795, 36.642963000002453 ], [ -87.159651000002327, 36.642098000002704 ], [ -87.249330000001521, 36.641721000002704 ], [ -87.335980000002337, 36.64165900000252 ], [ -87.39835400000247, 36.641202000002963 ], [ -87.414296000001499, 36.641052000002851 ], [ -87.445409000001575, 36.640742000002582 ], [ -87.694192000002502, 36.637108000002726 ], [ -87.796767000001495, 36.634874000003251 ], [ -87.853319000001591, 36.633160000002583 ], [ -87.849544000001742, 36.663695000002591 ], [ -87.912003000002244, 36.667773000002938 ], [ -88.012203000001819, 36.67719000000298 ], [ -88.070541000001541, 36.678255000003183 ], [ -88.056337000002586, 36.638230000002778 ], [ -88.032675000001959, 36.536985000002787 ], [ -88.053293000002157, 36.497058000003136 ], [ -88.183246000001873, 36.49944000000297 ], [ -88.231989000001519, 36.499867000003093 ], [ -88.30082300000204, 36.500400000002521 ], [ -88.380505000001676, 36.500554000002978 ], [ -88.489075000002217, 36.5011570000025 ], [ -88.623317000001705, 36.502095000003081 ], [ -88.654942000002507, 36.502271000002388 ], [ -88.761445000002183, 36.502680000002933 ], [ -88.816763000002226, 36.502665000002715 ], [ -88.834588000001546, 36.502611000002815 ], [ -88.871544000001819, 36.502396000002584 ], [ -88.888990000002138, 36.502334000002847 ], [ -88.926832000002477, 36.502219000002775 ], [ -89.034725000001544, 36.50297900000303 ], [ -89.120000000001923, 36.503754000002608 ], [ -89.193200000002321, 36.505331000002784 ], [ -89.301022000002334, 36.507233000003055 ] ] ], [ [ [ -89.479930000001644, 36.569087000002305 ], [ -89.46664600000193, 36.527041000002299 ], [ -89.485427000002389, 36.49749100000254 ], [ -89.539232000001718, 36.497934000002822 ], [ -89.571203000001702, 36.552142000002647 ], [ -89.565328000001529, 36.567259000002437 ], [ -89.530638000002227, 36.581710000003035 ], [ -89.479930000001644, 36.569087000002305 ] ] ] ] } },
{ "type": "Feature", "properties": { "enacted_district": 2, "population": 751702.0, "voting_age_pop": 574004.0, "dem_votes": 108222.0, "rep_votes": 214593.0, "minority_pop": 82448.0, "dem_pct": 0.33524464466172743, "rep_pct": 0.66475535502849759 }, "geometry": { "type": "Polygon", "coordinates": [ [ [ -87.250256000002324, 37.040557000003069 ], [ -87.259371000001821, 37.072401000002728 ], [ -87.2805870000021, 37.076942000002525 ], [ -87.284901000002151, 37.108385000002841 ], [ -87.313080000001463, 37.114597000003165 ], [ -87.333741000002462, 37.157186000002589 ], [ -87.306862000002297, 37.191541000002829 ], [ -87.320623000001746, 37.200550000002949 ], [ -87.344996000001615, 37.211277000003179 ], [ -87.356584000002542, 37.233433000002975 ], [ -87.388707000002256, 37.262180000003085 ], [ -87.385540000001697, 37.294225000003188 ], [ -87.377927000001947, 37.308549000002664 ], [ -87.346414000002454, 37.309536000002616 ], [ -87.330413000001471, 37.34406600000321 ], [ -87.299586000002193, 37.368308000002784 ], [ -87.295965000002113, 37.391819000002577 ], [ -87.351089000001878, 37.424929000002685 ], [ -87.353524000001499, 37.443179000002409 ], [ -87.355144000001985, 37.44630800000273 ], [ -87.361657000001728, 37.48805200000271 ], [ -87.354556000002148, 37.528374000002749 ], [ -87.360898000001697, 37.550236000002883 ], [ -87.375145000001567, 37.569988000002652 ], [ -87.396970000002156, 37.589253000002962 ], [ -87.456611000002269, 37.592598000002816 ], [ -87.489852000002287, 37.612641000002768 ], [ -87.495331000002381, 37.647547000002845 ], [ -87.458787000002488, 37.668562000002559 ], [ -87.42053300000255, 37.670153000003161 ], [ -87.408547000002059, 37.683563000002934 ], [ -87.389899000002487, 37.7276930000031 ], [ -87.373172000002242, 37.737383000003014 ], [ -87.31952300000188, 37.743159000003111 ], [ -87.296805000002209, 37.756384000003152 ], [ -87.279756000002138, 37.773425000002405 ], [ -87.323402000001863, 37.819239000002547 ], [ -87.302914000002502, 37.897821000002772 ], [ -87.220466000002403, 37.849065000002753 ], [ -87.193549000001667, 37.843118000002761 ], [ -87.16109600000145, 37.839359000002993 ], [ -87.137027000001694, 37.807314000002627 ], [ -87.128241000002205, 37.785523000002762 ], [ -87.123473000002093, 37.784120000002346 ], [ -87.0769890000022, 37.79543000000308 ], [ -87.076008000002219, 37.796254000002506 ], [ -87.054171000001901, 37.835235000003138 ], [ -87.03517400000176, 37.905466000002612 ], [ -86.978846000002434, 37.930281000002751 ], [ -86.920658000001907, 37.936214000002408 ], [ -86.89923700000152, 37.949840000003022 ], [ -86.860914000002154, 37.984368000002483 ], [ -86.824926000001739, 37.99854300000306 ], [ -86.795045000002304, 37.989279000002881 ], [ -86.776510000002034, 37.950108000003212 ], [ -86.742758000001402, 37.904270000002647 ], [ -86.711076000002478, 37.896700000003129 ], [ -86.686240000001419, 37.912866000002495 ], [ -86.650426000001957, 37.910861000002363 ], [ -86.644719000001473, 37.894991000002783 ], [ -86.66248100000243, 37.857084000002637 ], [ -86.655285000002138, 37.842506000002352 ], [ -86.633468000001486, 37.844057000002749 ], [ -86.59785700000144, 37.867728000002849 ], [ -86.593384000002047, 37.917086000003152 ], [ -86.533331000002505, 37.917250000002497 ], [ -86.510246000002255, 37.926660000003224 ], [ -86.524937000001387, 37.96649500000256 ], [ -86.521712000001699, 38.039617000002792 ], [ -86.49086900000222, 38.045747000002507 ], [ -86.447898000001572, 38.053171000003012 ], [ -86.431551000002457, 38.083736000003192 ], [ -86.457786000001505, 38.09523100000257 ], [ -86.464680000002303, 38.117375000002376 ], [ -86.432738000002161, 38.126429000003142 ], [ -86.395025000001837, 38.108707000002845 ], [ -86.375083000002149, 38.130638000002406 ], [ -86.327578000002276, 38.133428000002745 ], [ -86.325874000002074, 38.154029000003057 ], [ -86.376728000001975, 38.169743000002526 ], [ -86.373033000001854, 38.194241000002663 ], [ -86.348553000001615, 38.195685000003117 ], [ -86.295085000001919, 38.163754000002946 ], [ -86.270256000001993, 38.132250000002486 ], [ -86.276125000002452, 38.074275000003141 ], [ -86.252846000002151, 38.047533000002602 ], [ -86.220242000002457, 38.027964000002669 ], [ -86.169376000001691, 38.009728000002518 ], [ -86.123507000001368, 38.01615700000319 ], [ -86.098964000001928, 38.010561000002667 ], [ -86.079438000001446, 38.000580000002543 ], [ -86.047088000002162, 37.959014000002782 ], [ -86.025894000002182, 37.994309000003184 ], [ -85.998971000001887, 37.999754000002895 ], [ -85.947104000001644, 38.005072000003089 ], [ -85.942456000001755, 38.001095000002934 ], [ -85.938321000002446, 37.998756000002885 ], [ -85.880208000002384, 38.040975000003058 ], [ -85.842259000001945, 38.051485000003083 ], [ -85.816945000002448, 38.058446000002483 ], [ -85.790154000001806, 38.065842000002839 ], [ -85.778531000001678, 38.069045000002646 ], [ -85.719773000002064, 38.085315000002701 ], [ -85.703163000001453, 38.086499000003023 ], [ -85.700857000001918, 38.086300000002737 ], [ -85.699310000002058, 38.08617300000315 ], [ -85.677502000001851, 38.084286000002379 ], [ -85.66715100000205, 38.083392000002917 ], [ -85.655452000001844, 38.082383000003148 ], [ -85.642996000001844, 38.08130900000274 ], [ -85.64277200000177, 38.081289000003238 ], [ -85.623735000001474, 38.079648000002948 ], [ -85.616942000001686, 38.079061000003101 ], [ -85.596213000001839, 38.077274000002539 ], [ -85.567145000001673, 38.074743000002563 ], [ -85.574747000001381, 38.098406000002946 ], [ -85.567378000001597, 38.102571000002982 ], [ -85.572016000001852, 38.116972000002797 ], [ -85.574613000002373, 38.125410000002603 ], [ -85.57960600000176, 38.134145000003258 ], [ -85.548614000001606, 38.13645200000245 ], [ -85.547550000001934, 38.137089000002547 ], [ -85.538352000002348, 38.136628000002403 ], [ -85.545872000001566, 38.146826000002982 ], [ -85.519888000002112, 38.167922000002477 ], [ -85.506293000001506, 38.165301000003126 ], [ -85.510439000001412, 38.186859000002912 ], [ -85.519240000001957, 38.187460000002602 ], [ -85.523835000002279, 38.187051000002626 ], [ -85.527328000001503, 38.198729000002899 ], [ -85.50895400000239, 38.192444000002894 ], [ -85.507483000001486, 38.204766000003097 ], [ -85.499535000002368, 38.20744600000279 ], [ -85.506375000001469, 38.213723000002886 ], [ -85.505495000001844, 38.222616000002461 ], [ -85.49651900000174, 38.241405000002771 ], [ -85.496168000001774, 38.255064000002918 ], [ -85.481159000001995, 38.270340000003216 ], [ -85.485853000002223, 38.283248000002637 ], [ -85.479320000001394, 38.288682000003071 ], [ -85.476253000001748, 38.289695000003178 ], [ -85.468206000001928, 38.285309000003132 ], [ -85.441352000002468, 38.276173000003048 ], [ -85.426138000002297, 38.270991000003256 ], [ -85.41136400000191, 38.265920000002772 ], [ -85.40511100000208, 38.262395000003238 ], [ -85.414717000002113, 38.203835000002705 ], [ -85.417213000001695, 38.188758000002515 ], [ -85.424054000001647, 38.147438000002921 ], [ -85.424171000002445, 38.146752000002763 ], [ -85.427678000002416, 38.125821000002439 ], [ -85.428830000001554, 38.118383000002751 ], [ -85.436129000001586, 38.104761000003087 ], [ -85.469231000001471, 38.096222000003117 ], [ -85.486643000001379, 38.062424000003247 ], [ -85.51155100000237, 38.013632000003234 ], [ -85.516882000001956, 38.011267000002462 ], [ -85.489202000001583, 37.990654000002706 ], [ -85.534301000002245, 37.965356000003261 ], [ -85.542399000001836, 37.940455000003041 ], [ -85.585424000002263, 37.906395000002419 ], [ -85.526665000002012, 37.866936000002767 ], [ -85.505793000002114, 37.848873000002584 ], [ -85.513790000001975, 37.82948600000276 ], [ -85.485055000001765, 37.82976900000309 ], [ -85.460513000001484, 37.837118000002476 ], [ -85.454335000001791, 37.824825000002527 ], [ -85.444156000002295, 37.82125100000291 ], [ -85.427728000001608, 37.811496000003025 ], [ -85.434186000001375, 37.798361000003091 ], [ -85.455117000001479, 37.800342000002431 ], [ -85.462872000002221, 37.793822000002557 ], [ -85.440611000001638, 37.764367000002558 ], [ -85.402053000001686, 37.730412000002801 ], [ -85.452874000002353, 37.68169900000305 ], [ -85.471493000001971, 37.648191000003081 ], [ -85.486396000001733, 37.620508000002602 ], [ -85.521290000002153, 37.554343000002909 ], [ -85.503473000001563, 37.549382000003078 ], [ -85.466250000001949, 37.465595000003049 ], [ -85.502771000002397, 37.482303000002553 ], [ -85.528855000002309, 37.454067000002418 ], [ -85.583497000002325, 37.469917000003171 ], [ -85.584477000001414, 37.432091000002508 ], [ -85.521935000002443, 37.392351000003053 ], [ -85.478193000001752, 37.363747000002462 ], [ -85.47787000000217, 37.361317000002657 ], [ -85.43784500000217, 37.307116000002949 ], [ -85.421223000001348, 37.290600000003167 ], [ -85.4197710000021, 37.288494000003155 ], [ -85.392779000001624, 37.249324000002879 ], [ -85.40647600000176, 37.222076000002531 ], [ -85.371895000002084, 37.221312000003302 ], [ -85.352771000001937, 37.192432000002675 ], [ -85.382584000001472, 37.16729100000299 ], [ -85.465167000002452, 37.133742000002826 ], [ -85.526881000001552, 37.109450000002767 ], [ -85.590958000002161, 37.11629800000275 ], [ -85.632399000002309, 37.12511300000287 ], [ -85.660898000001694, 37.143039000003277 ], [ -85.686482000001831, 37.182427000002896 ], [ -85.744221000002227, 37.169813000003202 ], [ -85.745323000002031, 37.168379000002531 ], [ -85.776962000001845, 37.138328000002659 ], [ -85.756090000002047, 37.109835000002803 ], [ -85.759275000002148, 37.068543000002784 ], [ -85.757172000002484, 37.04568500000255 ], [ -85.750407000002312, 37.005951000002568 ], [ -85.746182000001809, 36.943715000002435 ], [ -85.745702000002339, 36.936624000002908 ], [ -85.73925500000145, 36.841476000002828 ], [ -85.762764000002178, 36.837216000002492 ], [ -85.78829400000194, 36.828705000002458 ], [ -85.878143000001572, 36.780059000002751 ], [ -85.900239000001918, 36.767094000002672 ], [ -85.961522000002063, 36.731604000003117 ], [ -85.976910000002476, 36.722722000002769 ], [ -86.002309000002001, 36.758711000002805 ], [ -86.037306000002275, 36.760179000002957 ], [ -86.039224000001866, 36.790835000002907 ], [ -86.06803100000171, 36.806434000002469 ], [ -86.058886000001436, 36.835217000003041 ], [ -86.078016000001554, 36.854700000003085 ], [ -86.07587400000142, 36.902602000003256 ], [ -86.125004000001397, 36.895579000003224 ], [ -86.166740000002321, 36.934015000003043 ], [ -86.20417600000178, 36.933784000002547 ], [ -86.226309000002431, 36.912633000002494 ], [ -86.234900000002298, 36.903805000003146 ], [ -86.268273000002054, 36.892071000002979 ], [ -86.275191000002266, 36.865109000003237 ], [ -86.317867000002195, 36.836049000002753 ], [ -86.331028000001695, 36.827084000002806 ], [ -86.405769000002493, 36.776187000002594 ], [ -86.400518000002336, 36.807226000003133 ], [ -86.452166000002137, 36.81432400000314 ], [ -86.452544000001936, 36.814372000002443 ], [ -86.472871000002314, 36.817115000003277 ], [ -86.583289000002452, 36.830282000002434 ], [ -86.592607000002332, 36.847681000002623 ], [ -86.603976000001822, 36.868922000002627 ], [ -86.611586000002077, 36.88305700000312 ], [ -86.633148000001754, 36.88271900000251 ], [ -86.652287000002246, 36.884242000002935 ], [ -86.696694000001884, 36.866720000003269 ], [ -86.749933000002258, 36.855442000002888 ], [ -86.766622000002485, 36.851488000002639 ], [ -86.759841000002282, 36.881561000002371 ], [ -86.782417000002141, 36.892726000002895 ], [ -86.751916000002396, 36.902254000002557 ], [ -86.741491000001972, 36.927651000002399 ], [ -86.71661500000171, 36.945992000002512 ], [ -86.704455000002511, 36.977841000002549 ], [ -86.668752000001547, 36.989055000003191 ], [ -86.674462000001725, 36.999766000002978 ], [ -86.748970000001819, 37.024402000002596 ], [ -86.79724900000177, 37.040500000002531 ], [ -86.844346000001948, 37.05617600000302 ], [ -86.941391000001715, 37.068981000002786 ], [ -86.992750000002161, 37.070814000002819 ], [ -87.027637000001661, 37.065156000002979 ], [ -87.053164000002411, 37.061019000003128 ], [ -87.12375000000246, 37.044544000002865 ], [ -87.225423000001953, 37.041325000003212 ], [ -87.250256000002324, 37.040557000003069 ] ] ] } },
{ "type": "Feature", "properties": { "enacted_district": 3, "population": 749623.0, "voting_age_pop": 588666.0, "dem_votes": 207452.0, "rep_votes": 134472.0, "minority_pop": 202581.0, "dem_pct": 0.60671962172684002, "rep_pct": 0.39328037798069737 }, "geometry": { "type": "Polygon", "coordinates": [ [ [ -85.942456000001755, 38.001095000002934 ], [ -85.947104000001644, 38.005072000003089 ], [ -85.920652000001823, 38.032306000003011 ], [ -85.915750000001495, 38.065130000002746 ], [ -85.905309000001651, 38.111105000003263 ], [ -85.906116000001418, 38.116887000002727 ], [ -85.908706000001615, 38.147916000002724 ], [ -85.899675000001778, 38.180324000002976 ], [ -85.874834000002082, 38.207780000002451 ], [ -85.871948000001836, 38.209593000003188 ], [ -85.84276800000211, 38.233393000002984 ], [ -85.839148000002339, 38.239732000002519 ], [ -85.838104000002119, 38.245748000002358 ], [ -85.837248000001495, 38.250912000002643 ], [ -85.829065000001933, 38.276554000003031 ], [ -85.802376000001559, 38.284700000002722 ], [ -85.763712000001547, 38.274129000002418 ], [ -85.763359000002353, 38.273729000002717 ], [ -85.761488000001648, 38.27226700000238 ], [ -85.750670000002046, 38.267829000003033 ], [ -85.735457000002356, 38.270503000003075 ], [ -85.713042000001792, 38.281438000002922 ], [ -85.704186000001698, 38.285868000002402 ], [ -85.686034000002238, 38.294298000002406 ], [ -85.676835000001958, 38.299833000003169 ], [ -85.657636000001617, 38.321475000002451 ], [ -85.651251000001395, 38.331554000002981 ], [ -85.637817000002045, 38.380239000003172 ], [ -85.617079000002406, 38.368712000002567 ], [ -85.606761000002109, 38.362918000003106 ], [ -85.580545000001706, 38.348066000002568 ], [ -85.559965000002308, 38.33638400000315 ], [ -85.545618000002349, 38.328387000002678 ], [ -85.545363000002013, 38.328248000002723 ], [ -85.543914000002403, 38.327436000002919 ], [ -85.526966000001366, 38.31795000000325 ], [ -85.514600000002105, 38.311011000002502 ], [ -85.498273000002371, 38.301741000002686 ], [ -85.492437000001985, 38.29854000000293 ], [ -85.490830000001409, 38.297661000002705 ], [ -85.476253000001748, 38.289695000003178 ], [ -85.479320000001394, 38.288682000003071 ], [ -85.485853000002223, 38.283248000002637 ], [ -85.481159000001995, 38.270340000003216 ], [ -85.496168000001774, 38.255064000002918 ], [ -85.49651900000174, 38.241405000002771 ], [ -85.505495000001844, 38.222616000002461 ], [ -85.506375000001469, 38.213723000002886 ], [ -85.499535000002368, 38.20744600000279 ], [ -85.507483000001486, 38.204766000003097 ], [ -85.50895400000239, 38.192444000002894 ], [ -85.527328000001503, 38.198729000002899 ], [ -85.523835000002279, 38.187051000002626 ], [ -85.519240000001957, 38.187460000002602 ], [ -85.510439000001412, 38.186859000002912 ], [ -85.506293000001506, 38.165301000003126 ], [ -85.519888000002112, 38.167922000002477 ], [ -85.545872000001566, 38.146826000002982 ], [ -85.538352000002348, 38.136628000002403 ], [ -85.547550000001934, 38.137089000002547 ], [ -85.548614000001606, 38.13645200000245 ], [ -85.57960600000176, 38.134145000003258 ], [ -85.574613000002373, 38.125410000002603 ], [ -85.572016000001852, 38.116972000002797 ], [ -85.567378000001597, 38.102571000002982 ], [ -85.574747000001381, 38.098406000002946 ], [ -85.567145000001673, 38.074743000002563 ], [ -85.596213000001839, 38.077274000002539 ], [ -85.616942000001686, 38.079061000003101 ], [ -85.623735000001474, 38.079648000002948 ], [ -85.64277200000177, 38.081289000003238 ], [ -85.642996000001844, 38.08130900000274 ], [ -85.655452000001844, 38.082383000003148 ], [ -85.66715100000205, 38.083392000002917 ], [ -85.677502000001851, 38.084286000002379 ], [ -85.699310000002058, 38.08617300000315 ], [ -85.700857000001918, 38.086300000002737 ], [ -85.703163000001453, 38.086499000003023 ], [ -85.719773000002064, 38.085315000002701 ], [ -85.778531000001678, 38.069045000002646 ], [ -85.790154000001806, 38.065842000002839 ], [ -85.816945000002448, 38.058446000002483 ], [ -85.842259000001945, 38.051485000003083 ], [ -85.880208000002384, 38.040975000003058 ], [ -85.938321000002446, 37.998756000002885 ], [ -85.942456000001755, 38.001095000002934 ] ] ] } },
{ "type": "Feature", "properties": { "enacted_district": 4, "population": 752079.0, "voting_age_pop": 570543.0, "dem_votes": 115070.0, "rep_votes": 225368.0, "minority_pop": 65251.0, "dem_pct": 0.33800574544028406, "rep_pct": 0.66199425426597669 }, "geometry": { "type": "Polygon", "coordinates": [ [ [ -85.434186000001375, 37.798361000003091 ], [ -85.427728000001608, 37.811496000003025 ], [ -85.444156000002295, 37.82125100000291 ], [ -85.454335000001791, 37.824825000002527 ], [ -85.460513000001484, 37.837118000002476 ], [ -85.485055000001765, 37.82976900000309 ], [ -85.513790000001975, 37.82948600000276 ], [ -85.505793000002114, 37.848873000002584 ], [ -85.526665000002012, 37.866936000002767 ], [ -85.585424000002263, 37.906395000002419 ], [ -85.542399000001836, 37.940455000003041 ], [ -85.534301000002245, 37.965356000003261 ], [ -85.489202000001583, 37.990654000002706 ], [ -85.516882000001956, 38.011267000002462 ], [ -85.51155100000237, 38.013632000003234 ], [ -85.486643000001379, 38.062424000003247 ], [ -85.469231000001471, 38.096222000003117 ], [ -85.436129000001586, 38.104761000003087 ], [ -85.428830000001554, 38.118383000002751 ], [ -85.427678000002416, 38.125821000002439 ], [ -85.424171000002445, 38.146752000002763 ], [ -85.424054000001647, 38.147438000002921 ], [ -85.417213000001695, 38.188758000002515 ], [ -85.414717000002113, 38.203835000002705 ], [ -85.40511100000208, 38.262395000003238 ], [ -85.41136400000191, 38.265920000002772 ], [ -85.426138000002297, 38.270991000003256 ], [ -85.441352000002468, 38.276173000003048 ], [ -85.468206000001928, 38.285309000003132 ], [ -85.476253000001748, 38.289695000003178 ], [ -85.490830000001409, 38.297661000002705 ], [ -85.492437000001985, 38.29854000000293 ], [ -85.498273000002371, 38.301741000002686 ], [ -85.514600000002105, 38.311011000002502 ], [ -85.526966000001366, 38.31795000000325 ], [ -85.543914000002403, 38.327436000002919 ], [ -85.545363000002013, 38.328248000002723 ], [ -85.545618000002349, 38.328387000002678 ], [ -85.559965000002308, 38.33638400000315 ], [ -85.580545000001706, 38.348066000002568 ], [ -85.606761000002109, 38.362918000003106 ], [ -85.617079000002406, 38.368712000002567 ], [ -85.637817000002045, 38.380239000003172 ], [ -85.622012000002371, 38.416770000003112 ], [ -85.591721000001783, 38.447678000002959 ], [ -85.504765000002038, 38.465209000003007 ], [ -85.464247000002047, 38.511659000002886 ], [ -85.432922000001597, 38.524066000002669 ], [ -85.419479000001544, 38.536530000003125 ], [ -85.420742000001567, 38.574793000002678 ], [ -85.433495000001997, 38.595106000002531 ], [ -85.438629000001328, 38.658890000002387 ], [ -85.45457200000142, 38.700279000002602 ], [ -85.437231000001489, 38.727562000002706 ], [ -85.408365000001382, 38.73714400000275 ], [ -85.368511000001931, 38.730578000002879 ], [ -85.333110000001412, 38.736258000002778 ], [ -85.279126000002378, 38.741720000003177 ], [ -85.246455000001873, 38.731746000003199 ], [ -85.21305300000158, 38.695453000002374 ], [ -85.188637000001933, 38.687562000002927 ], [ -85.173576000001702, 38.688027000002855 ], [ -85.170501000001877, 38.688681000002987 ], [ -85.139241000001505, 38.699001000002468 ], [ -85.092149000001683, 38.730672000002919 ], [ -85.023118000001389, 38.761327000003078 ], [ -84.99192400000203, 38.778284000002841 ], [ -84.946832000001535, 38.775287000002585 ], [ -84.913365000002159, 38.784994000002612 ], [ -84.899314000002164, 38.791677000002991 ], [ -84.813129000002078, 38.785791000002554 ], [ -84.816456000002376, 38.805173000002753 ], [ -84.830045000001448, 38.830140000002878 ], [ -84.795058000001916, 38.857277000003229 ], [ -84.801045000001395, 38.891463000002389 ], [ -84.861874000002132, 38.897752000003088 ], [ -84.87793400000217, 38.92014900000278 ], [ -84.835268000001832, 38.957813000002822 ], [ -84.838579000001459, 38.989902000002509 ], [ -84.864298000002194, 39.019999000002429 ], [ -84.897314000001458, 39.057482000003013 ], [ -84.832435000001894, 39.100489000003108 ], [ -84.807542000002442, 39.109891000002605 ], [ -84.775612000002198, 39.128481000002488 ], [ -84.753401000001915, 39.147114000002837 ], [ -84.724679000001871, 39.141071000002512 ], [ -84.692488000001376, 39.10747300000294 ], [ -84.623493000001602, 39.07433000000281 ], [ -84.569759000001483, 39.083683000002708 ], [ -84.553887000002064, 39.09828500000323 ], [ -84.506161000001953, 39.095177000002501 ], [ -84.502249000001441, 39.096932000002781 ], [ -84.497404000001723, 39.10007600000322 ], [ -84.492905000001613, 39.104654000002633 ], [ -84.487754000001971, 39.111380000002463 ], [ -84.485244000001558, 39.113700000003043 ], [ -84.479996000001975, 39.117812000002424 ], [ -84.476433000002231, 39.119511000002952 ], [ -84.440449000001934, 39.108934000002613 ], [ -84.427980000002194, 39.056360000003025 ], [ -84.3734660000015, 39.043435000002518 ], [ -84.32944200000145, 39.029019000002812 ], [ -84.300398000001323, 38.997105000003273 ], [ -84.282558000001373, 38.948154000003257 ], [ -84.243600000002118, 38.904153000003255 ], [ -84.232014000002181, 38.874826000002557 ], [ -84.230459000002128, 38.827393000002928 ], [ -84.21311500000175, 38.805835000003171 ], [ -84.17092100000238, 38.797194000003174 ], [ -84.091623000001462, 38.77423600000256 ], [ -84.044576000001811, 38.770557000003272 ], [ -84.008302000002189, 38.779656000002895 ], [ -83.978095000001716, 38.787363000002557 ], [ -83.903901000001511, 38.768182000002689 ], [ -83.872415000002022, 38.762255000002646 ], [ -83.847464000001693, 38.744775000003301 ], [ -83.83920400000153, 38.720022000002757 ], [ -83.784463000001381, 38.696723000002557 ], [ -83.772456000001924, 38.65874000000251 ], [ -83.758467000001502, 38.65142700000272 ], [ -83.717809000001466, 38.645089000003033 ], [ -83.668893000002399, 38.626562000003318 ], [ -83.644977000002385, 38.636363000002966 ], [ -83.634901000001349, 38.670426000003296 ], [ -83.608525000001364, 38.684967000003077 ], [ -83.533677000001333, 38.70218100000276 ], [ -83.505665000001528, 38.69977300000248 ], [ -83.459559000001889, 38.673831000003169 ], [ -83.362775000001292, 38.657220000003122 ], [ -83.327566000001255, 38.637675000002496 ], [ -83.312768000002009, 38.604460000002717 ], [ -83.286717000001588, 38.599135000002541 ], [ -83.245664000001568, 38.628564000002889 ], [ -83.218917000001866, 38.621797000002715 ], [ -83.159399000001557, 38.61854500000328 ], [ -83.134754000001806, 38.632013000002821 ], [ -83.113449000001964, 38.670559000003173 ], [ -83.062180000002343, 38.68966900000261 ], [ -83.030882000001441, 38.725563000002829 ], [ -82.974815000002323, 38.726904000002648 ], [ -82.959748000001582, 38.734507000003035 ], [ -82.922858000002137, 38.750328000002682 ], [ -82.879670000001411, 38.751396000002671 ], [ -82.869884000001946, 38.727272000002749 ], [ -82.874969000001485, 38.683050000002567 ], [ -82.856853000001976, 38.64712100000245 ], [ -82.847111000002243, 38.594934000002944 ], [ -82.832160000002148, 38.581247000002833 ], [ -82.811807000001281, 38.568770000003013 ], [ -82.797796000001497, 38.562515000002726 ], [ -82.766971000001419, 38.560588000003136 ], [ -82.755670000002354, 38.559966000002909 ], [ -82.708154000001386, 38.54822200000293 ], [ -82.684328000001926, 38.528318000003068 ], [ -82.665422000001882, 38.505779000002633 ], [ -82.67841200000187, 38.496654000002877 ], [ -82.689433000001998, 38.489028000003067 ], [ -82.698820000002016, 38.482501000002848 ], [ -82.743603000001428, 38.451323000002724 ], [ -82.769047000002061, 38.433715000003318 ], [ -82.802003000002188, 38.397874000002851 ], [ -82.817454000001334, 38.373935000003335 ], [ -82.885011000001271, 38.391722000003377 ], [ -82.889471000001919, 38.392900000003209 ], [ -82.973346000001598, 38.398959000002868 ], [ -83.000886000001245, 38.410592000003014 ], [ -82.999266000002237, 38.39033800000292 ], [ -83.032303000002301, 38.384180000002907 ], [ -83.05621700000161, 38.387698000003347 ], [ -83.102221000001634, 38.365365000003194 ], [ -83.109856000001287, 38.368888000003238 ], [ -83.13557400000127, 38.365490000003263 ], [ -83.123437000001331, 38.338503000003257 ], [ -83.175645000002262, 38.331792000002721 ], [ -83.17876500000196, 38.298121000003292 ], [ -83.192806000001724, 38.316450000002597 ], [ -83.238211000001399, 38.335293000003148 ], [ -83.239457000002147, 38.335114000003067 ], [ -83.282237000002382, 38.32424200000245 ], [ -83.325737000001851, 38.329677000002725 ], [ -83.341347000002102, 38.319521000002666 ], [ -83.416724000002347, 38.396266000003259 ], [ -83.452848000002362, 38.381799000002808 ], [ -83.466833000001841, 38.398982000002761 ], [ -83.49743400000213, 38.401587000003175 ], [ -83.544577000002263, 38.418472000002538 ], [ -83.555168000001643, 38.42172200000288 ], [ -83.58056600000198, 38.430169000002664 ], [ -83.576791000001634, 38.457188000002468 ], [ -83.603250000001822, 38.504583000003237 ], [ -83.623564000001721, 38.504041000003149 ], [ -83.641852000001435, 38.525381000003193 ], [ -83.702854000002233, 38.509041000002568 ], [ -83.721744000002104, 38.503982000002814 ], [ -83.801642000002403, 38.476424000003142 ], [ -83.859124000001756, 38.456402000002569 ], [ -83.879040000002348, 38.466338000003155 ], [ -83.930348000001985, 38.492278000002827 ], [ -83.970263000001765, 38.463817000002813 ], [ -83.980068000001424, 38.439448000002812 ], [ -84.010146000001569, 38.432872000002611 ], [ -84.055708000001559, 38.452114000002943 ], [ -84.070717000002006, 38.456569000003306 ], [ -84.102100000002238, 38.459379000002855 ], [ -84.194050000002349, 38.371750000002649 ], [ -84.205670000001291, 38.363889000003297 ], [ -84.255859000001578, 38.330025000003054 ], [ -84.281844000001968, 38.312461000003012 ], [ -84.30616900000183, 38.313100000002919 ], [ -84.317304000001386, 38.29800700000245 ], [ -84.345476000001696, 38.28509900000261 ], [ -84.442661000001465, 38.283236000003122 ], [ -84.443756000002125, 38.324310000003258 ], [ -84.456298000001539, 38.336761000003136 ], [ -84.459906000001951, 38.378995000003243 ], [ -84.474265000002418, 38.400169000002499 ], [ -84.481960000001848, 38.405234000002942 ], [ -84.527948000002056, 38.433250000002445 ], [ -84.557375000001599, 38.492917000002862 ], [ -84.558970000001878, 38.492125000002538 ], [ -84.55970500000241, 38.492077000002773 ], [ -84.580539000002247, 38.473039000003141 ], [ -84.623583000001304, 38.431191000003253 ], [ -84.663198000001543, 38.405309000002795 ], [ -84.681555000001808, 38.390157000002652 ], [ -84.706066000001584, 38.370062000002562 ], [ -84.740594000001508, 38.35241500000317 ], [ -84.793228000002429, 38.338505000002989 ], [ -84.838419000002389, 38.356926000003199 ], [ -84.870482000002227, 38.356751000002824 ], [ -84.884079000002018, 38.351527000003237 ], [ -84.907904000002262, 38.374128000002543 ], [ -84.997667000001343, 38.335586000003111 ], [ -84.956959000002314, 38.332271000002542 ], [ -84.998896000001977, 38.274933000002491 ], [ -85.001032000001899, 38.226152000002671 ], [ -85.001181000002177, 38.224970000002585 ], [ -85.016145000001671, 38.147057000002683 ], [ -85.023711000002024, 38.129052000003277 ], [ -85.02440200000234, 38.125720000003078 ], [ -85.039653000002247, 38.119313000003046 ], [ -85.052624000002353, 38.075440000003177 ], [ -85.083616000002166, 38.040876000003259 ], [ -85.101646000001921, 38.037270000002998 ], [ -85.109766000002253, 38.027046000002805 ], [ -85.167834000001548, 37.97180900000312 ], [ -85.152797000001584, 37.897661000002763 ], [ -85.151165000002038, 37.889801000002834 ], [ -85.181399000002273, 37.892428000002973 ], [ -85.205377000002272, 37.863621000003242 ], [ -85.230820000001785, 37.870495000002535 ], [ -85.242185000001911, 37.862449000002833 ], [ -85.296076000002415, 37.832667000003127 ], [ -85.31323700000236, 37.809879000002859 ], [ -85.323484000001656, 37.787200000002855 ], [ -85.355835000001818, 37.781428000002549 ], [ -85.401784000001939, 37.730658000002883 ], [ -85.402053000001686, 37.730412000002801 ], [ -85.440611000001638, 37.764367000002558 ], [ -85.462872000002221, 37.793822000002557 ], [ -85.455117000001479, 37.800342000002431 ], [ -85.434186000001375, 37.798361000003091 ] ] ] } },
{ "type": "Feature", "properties": { "enacted_district": 5, "population": 749394.0, "voting_age_pop": 584535.0, "dem_votes": 73628.0, "rep_votes": 229817.0, "minority_pop": 34366.0, "dem_pct": 0.24264034660559891, "rep_pct": 0.75735965306485209 }, "geometry": { "type": "Polygon", "coordinates": [ [ [ -84.999106000002385, 36.624161000002466 ], [ -85.001267000001477, 36.676740000002908 ], [ -85.020476000002319, 36.694350000002999 ], [ -85.009883000002006, 36.74374100000319 ], [ -85.004259000001383, 36.755882000003297 ], [ -85.026277000001969, 36.806688000002637 ], [ -85.059167000001452, 36.833097000002589 ], [ -85.064307000001662, 36.858743000002711 ], [ -85.044499000001395, 36.870935000003023 ], [ -84.975693000002437, 36.90959700000284 ], [ -84.972809000002343, 36.9103750000031 ], [ -84.955628000002378, 36.926368000003265 ], [ -84.950428000001551, 36.955467000003203 ], [ -84.907859000002034, 36.945447000002936 ], [ -84.835712000001422, 36.997612000003265 ], [ -84.881420000001469, 37.024410000002518 ], [ -84.882352000001674, 37.025269000002723 ], [ -84.905778000001405, 37.047187000003341 ], [ -84.901112000002144, 37.11629700000298 ], [ -84.870602000001426, 37.13571500000257 ], [ -84.811396000001395, 37.173710000003332 ], [ -84.720712000001825, 37.238328000002589 ], [ -84.72117300000194, 37.240276000002694 ], [ -84.724165000002372, 37.286675000003022 ], [ -84.707063000002108, 37.303094000003149 ], [ -84.722826000002058, 37.360043000002811 ], [ -84.735842000002435, 37.366358000003238 ], [ -84.808679000002357, 37.399391000003334 ], [ -84.85124600000232, 37.429028000002667 ], [ -84.860130000002357, 37.467350000002483 ], [ -84.857086000002155, 37.528519000003115 ], [ -84.847434000002295, 37.548343000003108 ], [ -84.801355000001706, 37.568788000002677 ], [ -84.794137000001427, 37.571992000003277 ], [ -84.788669000001747, 37.574417000002491 ], [ -84.723860000001721, 37.591269000002455 ], [ -84.680188000002218, 37.623502000002603 ], [ -84.658296000002366, 37.634501000002729 ], [ -84.648877000001406, 37.610550000003002 ], [ -84.604604000002112, 37.583670000002591 ], [ -84.561977000002017, 37.554565000002853 ], [ -84.54798200000161, 37.545113000003006 ], [ -84.524207000001581, 37.529056000003152 ], [ -84.473203000001945, 37.494440000002989 ], [ -84.44671900000202, 37.485893000003117 ], [ -84.386288000002253, 37.474786000002538 ], [ -84.355538000001772, 37.497940000003197 ], [ -84.347805000001813, 37.539064000002817 ], [ -84.301161000001457, 37.536260000002983 ], [ -84.272434000001667, 37.520544000003305 ], [ -84.207985000001571, 37.523862000002509 ], [ -84.199489000002188, 37.52285800000255 ], [ -84.180513000002421, 37.546667000003012 ], [ -84.172278000001981, 37.556994000002994 ], [ -84.090364000002282, 37.566227000003281 ], [ -84.045023000002317, 37.563573000002954 ], [ -84.003069000001474, 37.571676000003151 ], [ -83.965244000002301, 37.581421000002941 ], [ -83.924951000002196, 37.560901000003007 ], [ -83.924818000001451, 37.560782000003023 ], [ -83.905570000002285, 37.54285600000329 ], [ -83.85809800000213, 37.609205000003108 ], [ -83.8143980000021, 37.644705000003128 ], [ -83.802532000002245, 37.675983000002525 ], [ -83.749284000002305, 37.715162000002891 ], [ -83.7221000000023, 37.716420000002671 ], [ -83.707974000002253, 37.716463000003309 ], [ -83.689309000002297, 37.742996000003131 ], [ -83.652176000002214, 37.795419000002489 ], [ -83.631060000002151, 37.825372000002936 ], [ -83.675671000001557, 37.844016000002867 ], [ -83.674026000001987, 37.852709000003301 ], [ -83.702237000002057, 37.869986000003159 ], [ -83.750350000001532, 37.896024000002477 ], [ -83.768783000001733, 37.918371000002765 ], [ -83.775720000001272, 37.987141000002531 ], [ -83.75943000000207, 37.998731000002728 ], [ -83.709507000001537, 38.009317000003087 ], [ -83.700478000002235, 38.025391000002848 ], [ -83.718765000001667, 38.109339000002763 ], [ -83.765963000001676, 38.116396000002744 ], [ -83.764108000002352, 38.144743000003018 ], [ -83.850011000002326, 38.177412000002832 ], [ -83.851991000002059, 38.202984000002957 ], [ -83.82267600000219, 38.196893000002845 ], [ -83.720196000001479, 38.239170000002616 ], [ -83.715997000002005, 38.250109000002894 ], [ -83.687187000002169, 38.260372000003251 ], [ -83.691572000001472, 38.235335000002969 ], [ -83.672350000001956, 38.197464000002995 ], [ -83.646546000001791, 38.170963000003127 ], [ -83.635195000001673, 38.187525000002566 ], [ -83.587685000001613, 38.214377000002479 ], [ -83.559070000002293, 38.23248200000257 ], [ -83.524641000001779, 38.254787000002629 ], [ -83.503729000002053, 38.2968240000028 ], [ -83.497990000001437, 38.333886000002948 ], [ -83.452848000002362, 38.381799000002808 ], [ -83.416724000002347, 38.396266000003259 ], [ -83.341347000002102, 38.319521000002666 ], [ -83.325737000001851, 38.329677000002725 ], [ -83.282237000002382, 38.32424200000245 ], [ -83.239457000002147, 38.335114000003067 ], [ -83.238211000001399, 38.335293000003148 ], [ -83.192806000001724, 38.316450000002597 ], [ -83.17876500000196, 38.298121000003292 ], [ -83.175645000002262, 38.331792000002721 ], [ -83.123437000001331, 38.338503000003257 ], [ -83.13557400000127, 38.365490000003263 ], [ -83.109856000001287, 38.368888000003238 ], [ -83.102221000001634, 38.365365000003194 ], [ -83.05621700000161, 38.387698000003347 ], [ -83.032303000002301, 38.384180000002907 ], [ -82.999266000002237, 38.39033800000292 ], [ -83.000886000001245, 38.410592000003014 ], [ -82.973346000001598, 38.398959000002868 ], [ -82.889471000001919, 38.392900000003209 ], [ -82.885011000001271, 38.391722000003377 ], [ -82.817454000001334, 38.373935000003335 ], [ -82.802003000002188, 38.397874000002851 ], [ -82.769047000002061, 38.433715000003318 ], [ -82.743603000001428, 38.451323000002724 ], [ -82.698820000002016, 38.482501000002848 ], [ -82.689433000001998, 38.489028000003067 ], [ -82.67841200000187, 38.496654000002877 ], [ -82.665422000001882, 38.505779000002633 ], [ -82.660956000001306, 38.50087600000284 ], [ -82.624195000002274, 38.479626000003115 ], [ -82.604235000001921, 38.459966000003085 ], [ -82.601649000001757, 38.442969000002726 ], [ -82.594625000002054, 38.399860000002647 ], [ -82.594094000001547, 38.381399000002695 ], [ -82.598121000002124, 38.345933000002965 ], [ -82.576005000001345, 38.326569000003033 ], [ -82.582655000001466, 38.298365000003145 ], [ -82.574518000001234, 38.2645050000027 ], [ -82.604625000001334, 38.247662000003032 ], [ -82.59829500000221, 38.217361000002583 ], [ -82.609894000001319, 38.175660000002893 ], [ -82.638599000001349, 38.151690000002574 ], [ -82.621219000002284, 38.124933000002883 ], [ -82.613997000001362, 38.120376000002928 ], [ -82.601465000001937, 38.117943000002626 ], [ -82.580279000002008, 38.087934000002925 ], [ -82.549240000001518, 38.06795200000267 ], [ -82.518956000002149, 38.002153000002622 ], [ -82.46675800000223, 37.985329000003325 ], [ -82.471830000001233, 37.960291000003011 ], [ -82.497796000001642, 37.945488000002577 ], [ -82.502198000001471, 37.933052000002689 ], [ -82.470947000002226, 37.899478000003377 ], [ -82.470452000001359, 37.900139000002554 ], [ -82.438118000001239, 37.900213000002672 ], [ -82.42048400000192, 37.885446000002574 ], [ -82.412119000001994, 37.84389100000292 ], [ -82.398878000001517, 37.825084000003407 ], [ -82.376169000001866, 37.802030000003235 ], [ -82.340596000001824, 37.786028000002972 ], [ -82.333136000001574, 37.740848000003332 ], [ -82.311003000001676, 37.715670000002888 ], [ -82.296214000001697, 37.700695000002675 ], [ -82.302182000001864, 37.675667000003159 ], [ -82.258068000002012, 37.656883000002978 ], [ -82.226156000002192, 37.652913000002897 ], [ -82.214499000001595, 37.625400000003275 ], [ -82.186008000001323, 37.62841400000255 ], [ -82.156297000001899, 37.592365000003397 ], [ -82.126472000002281, 37.583152000002947 ], [ -82.130472000001731, 37.551849000002946 ], [ -82.104885000001971, 37.55521100000275 ], [ -82.075651000001827, 37.555915000002855 ], [ -82.056353000001309, 37.536804000002554 ], [ -81.968012000001835, 37.538035000003006 ], [ -82.149776000001282, 37.410228000003386 ], [ -82.190835000001897, 37.382221000003376 ], [ -82.254513000001992, 37.337741000003419 ], [ -82.314628000001278, 37.295794000003283 ], [ -82.34914600000198, 37.267905000002699 ], [ -82.396128000001667, 37.25691700000322 ], [ -82.507731000002011, 37.223042000002678 ], [ -82.513401000002276, 37.217098000003197 ], [ -82.565379000001229, 37.196099000003123 ], [ -82.604277000002, 37.174438000003242 ], [ -82.632900000001428, 37.15491600000324 ], [ -82.71223000000218, 37.124083000003218 ], [ -82.723760000001619, 37.093263000002523 ], [ -82.722964000002307, 37.047798000002913 ], [ -82.742759000001328, 37.042796000003172 ], [ -82.782863000001555, 37.007821000003005 ], [ -82.812085000001318, 37.006111000003202 ], [ -82.86919200000176, 36.974186000002803 ], [ -82.869212000001625, 36.972253000002958 ], [ -82.857644000001557, 36.928850000002619 ], [ -82.873777000002164, 36.912299000003188 ], [ -82.879080000002077, 36.889255000003288 ], [ -82.969243000002336, 36.858019000003239 ], [ -83.072836000001743, 36.854457000002562 ], [ -83.102005000002251, 36.828032000002857 ], [ -83.098480000001359, 36.813517000003245 ], [ -83.128987000001729, 36.775784000002723 ], [ -83.135120000001351, 36.742629000002651 ], [ -83.194252000001256, 36.739519000002922 ], [ -83.234541000001556, 36.727675000002641 ], [ -83.347635000001887, 36.700199000003387 ], [ -83.418682000001823, 36.668729000002749 ], [ -83.461016000001777, 36.664860000002747 ], [ -83.492805000001923, 36.670187000003359 ], [ -83.547871000001933, 36.65387400000332 ], [ -83.613896000001446, 36.63485000000265 ], [ -83.649313000001825, 36.616774000002941 ], [ -83.690789000002169, 36.58259600000266 ], [ -83.715497000001363, 36.582901000003083 ], [ -83.840492000001902, 36.585139000003387 ], [ -83.930762000001735, 36.587691000002877 ], [ -84.050949000001367, 36.590417000002965 ], [ -84.104641000001479, 36.591317000003144 ], [ -84.146288000001334, 36.591478000003299 ], [ -84.227292000002322, 36.592045000002734 ], [ -84.393895000001663, 36.595039000002828 ], [ -84.605192000001537, 36.598777000003061 ], [ -84.778454000002355, 36.603290000002566 ], [ -84.905139000001711, 36.609622000002815 ], [ -84.974811000002035, 36.615465000002622 ], [ -84.999106000002385, 36.624161000002466 ] ] ] } },
{ "type": "Feature", "properties": { "enacted_district": 6, "population": 752637.0, "voting_age_pop": 584973.0, "dem_votes": 150975.0, "rep_votes": 181313.0, "minority_pop": 111234.0, "dem_pct": 0.45434984096496117, "rep_pct": 0.54565015873409506 }, "geometry": { "type": "Polygon", "coordinates": [ [ [ -84.690342000001323, 37.671256000002849 ], [ -84.682694000001931, 37.677898000002749 ], [ -84.743698000001316, 37.698390000003187 ], [ -84.744888000001453, 37.71307500000264 ], [ -84.793506000001358, 37.717244000002772 ], [ -84.807529000002461, 37.704913000003039 ], [ -84.807688000001377, 37.704769000002749 ], [ -84.898801000001555, 37.69267600000255 ], [ -84.9183090000014, 37.690118000003125 ], [ -85.025021000002297, 37.678854000003014 ], [ -85.015800000002045, 37.740469000002648 ], [ -85.012051000001918, 37.767651000002758 ], [ -85.011878000001673, 37.769002000002452 ], [ -85.003235000002149, 37.835228000002715 ], [ -85.000520000002368, 37.854723000003069 ], [ -85.031456000001654, 37.881597000003161 ], [ -85.030528000002448, 37.891538000002406 ], [ -85.059587000001642, 37.89043300000305 ], [ -85.088441000002206, 37.887646000002455 ], [ -85.107158000002244, 37.901313000002979 ], [ -85.07171500000166, 37.926635000003188 ], [ -85.062339000002211, 37.94531400000325 ], [ -85.045506000001367, 37.985640000002917 ], [ -85.06018000000175, 38.00230300000284 ], [ -84.975006000002452, 38.004412000002766 ], [ -84.95945100000236, 37.99774900000245 ], [ -84.957683000001808, 37.998782000003089 ], [ -84.94418900000133, 38.026687000002653 ], [ -84.94854700000171, 38.035014000002612 ], [ -84.917096000001706, 38.063273000002951 ], [ -84.968598000001521, 38.119618000003186 ], [ -84.90779800000162, 38.093666000002898 ], [ -84.881548000002269, 38.102086000002529 ], [ -84.864908000001591, 38.116926000003033 ], [ -84.864804000002167, 38.141373000002567 ], [ -84.807418000001348, 38.163677000002728 ], [ -84.807264000002419, 38.163737000002811 ], [ -84.747124000001378, 38.186985000003304 ], [ -84.725168000001972, 38.195426000003202 ], [ -84.730289000001974, 38.208302000002831 ], [ -84.732241000001565, 38.231192000002864 ], [ -84.737148000001426, 38.289481000002787 ], [ -84.739684000001688, 38.338035000002911 ], [ -84.740594000001508, 38.35241500000317 ], [ -84.706066000001584, 38.370062000002562 ], [ -84.681555000001808, 38.390157000002652 ], [ -84.663198000001543, 38.405309000002795 ], [ -84.623583000001304, 38.431191000003253 ], [ -84.580539000002247, 38.473039000003141 ], [ -84.55970500000241, 38.492077000002773 ], [ -84.558970000001878, 38.492125000002538 ], [ -84.557375000001599, 38.492917000002862 ], [ -84.527948000002056, 38.433250000002445 ], [ -84.481960000001848, 38.405234000002942 ], [ -84.474265000002418, 38.400169000002499 ], [ -84.459906000001951, 38.378995000003243 ], [ -84.456298000001539, 38.336761000003136 ], [ -84.443756000002125, 38.324310000003258 ], [ -84.442661000001465, 38.283236000003122 ], [ -84.345476000001696, 38.28509900000261 ], [ -84.317304000001386, 38.29800700000245 ], [ -84.30616900000183, 38.313100000002919 ], [ -84.281844000001968, 38.312461000003012 ], [ -84.255859000001578, 38.330025000003054 ], [ -84.205670000001291, 38.363889000003297 ], [ -84.194050000002349, 38.371750000002649 ], [ -84.102100000002238, 38.459379000002855 ], [ -84.070717000002006, 38.456569000003306 ], [ -84.055708000001559, 38.452114000002943 ], [ -84.010146000001569, 38.432872000002611 ], [ -83.980068000001424, 38.439448000002812 ], [ -83.970263000001765, 38.463817000002813 ], [ -83.930348000001985, 38.492278000002827 ], [ -83.879040000002348, 38.466338000003155 ], [ -83.859124000001756, 38.456402000002569 ], [ -83.801642000002403, 38.476424000003142 ], [ -83.721744000002104, 38.503982000002814 ], [ -83.702854000002233, 38.509041000002568 ], [ -83.641852000001435, 38.525381000003193 ], [ -83.623564000001721, 38.504041000003149 ], [ -83.603250000001822, 38.504583000003237 ], [ -83.576791000001634, 38.457188000002468 ], [ -83.58056600000198, 38.430169000002664 ], [ -83.555168000001643, 38.42172200000288 ], [ -83.544577000002263, 38.418472000002538 ], [ -83.49743400000213, 38.401587000003175 ], [ -83.466833000001841, 38.398982000002761 ], [ -83.452848000002362, 38.381799000002808 ], [ -83.497990000001437, 38.333886000002948 ], [ -83.503729000002053, 38.2968240000028 ], [ -83.524641000001779, 38.254787000002629 ], [ -83.559070000002293, 38.23248200000257 ], [ -83.587685000001613, 38.214377000002479 ], [ -83.635195000001673, 38.187525000002566 ], [ -83.646546000001791, 38.170963000003127 ], [ -83.672350000001956, 38.197464000002995 ], [ -83.691572000001472, 38.235335000002969 ], [ -83.687187000002169, 38.260372000003251 ], [ -83.715997000002005, 38.250109000002894 ], [ -83.720196000001479, 38.239170000002616 ], [ -83.82267600000219, 38.196893000002845 ], [ -83.851991000002059, 38.202984000002957 ], [ -83.850011000002326, 38.177412000002832 ], [ -83.764108000002352, 38.144743000003018 ], [ -83.765963000001676, 38.116396000002744 ], [ -83.718765000001667, 38.109339000002763 ], [ -83.700478000002235, 38.025391000002848 ], [ -83.709507000001537, 38.009317000003087 ], [ -83.75943000000207, 37.998731000002728 ], [ -83.775720000001272, 37.987141000002531 ], [ -83.768783000001733, 37.918371000002765 ], [ -83.750350000001532, 37.896024000002477 ], [ -83.702237000002057, 37.869986000003159 ], [ -83.674026000001987, 37.852709000003301 ], [ -83.675671000001557, 37.844016000002867 ], [ -83.631060000002151, 37.825372000002936 ], [ -83.652176000002214, 37.795419000002489 ], [ -83.689309000002297, 37.742996000003131 ], [ -83.707974000002253, 37.716463000003309 ], [ -83.7221000000023, 37.716420000002671 ], [ -83.749284000002305, 37.715162000002891 ], [ -83.802532000002245, 37.675983000002525 ], [ -83.8143980000021, 37.644705000003128 ], [ -83.85809800000213, 37.609205000003108 ], [ -83.905570000002285, 37.54285600000329 ], [ -83.924818000001451, 37.560782000003023 ], [ -83.924951000002196, 37.560901000003007 ], [ -83.965244000002301, 37.581421000002941 ], [ -84.003069000001474, 37.571676000003151 ], [ -84.045023000002317, 37.563573000002954 ], [ -84.090364000002282, 37.566227000003281 ], [ -84.172278000001981, 37.556994000002994 ], [ -84.180513000002421, 37.546667000003012 ], [ -84.199489000002188, 37.52285800000255 ], [ -84.207985000001571, 37.523862000002509 ], [ -84.272434000001667, 37.520544000003305 ], [ -84.301161000001457, 37.536260000002983 ], [ -84.347805000001813, 37.539064000002817 ], [ -84.355538000001772, 37.497940000003197 ], [ -84.386288000002253, 37.474786000002538 ], [ -84.44671900000202, 37.485893000003117 ], [ -84.473203000001945, 37.494440000002989 ], [ -84.524207000001581, 37.529056000003152 ], [ -84.54798200000161, 37.545113000003006 ], [ -84.561977000002017, 37.554565000002853 ], [ -84.604604000002112, 37.583670000002591 ], [ -84.648877000001406, 37.610550000003002 ], [ -84.658296000002366, 37.634501000002729 ], [ -84.690342000001323, 37.671256000002849 ] ] ] } }
]
}
