{
"type": "FeatureCollection",
"name": "kentucky_optimized_districts_all",
"crs": { "type": "name", "properties": { "name": "urn:ogc:def:crs:OGC:1.3:CRS84" } },
"features": [
{ "type": "Feature", "properties": { "opt_all": 1, "population": 753878.0, "voting_age_pop": 579855.0, "dem_votes": 106886.0, "rep_votes": 218726.0, "minority_pop": 92018.0, "dem_pct": 0.32826185757027937, "rep_pct": 0.67173814212260663 }, "geometry": { "type": "MultiPolygon", "coordinates": [ [ [ [ -89.301022000002334, 36.507233000003055 ], [ -89.417275000002462, 36.499011000003058 ], [ -89.365797000002146, 36.625126000002311 ], [ -89.316450000001979, 36.624044000002456 ], [ -89.269546000002492, 36.569716000002607 ], [ -89.220180000001861, 36.574271000002383 ], [ -89.197753000001526, 36.628971000003176 ], [ -89.174727000001937, 36.650475000002849 ], [ -89.159118000002152, 36.666354000003011 ], [ -89.169426000002517, 36.688771000002767 ], [ -89.200647000001808, 36.718751000002982 ], [ -89.197856000001821, 36.739772000002702 ], [ -89.169785000001923, 36.759641000002873 ], [ -89.125967000002035, 36.751809000002652 ], [ -89.123531000001648, 36.785217000002412 ], [ -89.17056300000192, 36.797538000003087 ], [ -89.178858000002066, 36.825274000002814 ], [ -89.170443000002152, 36.841840000002605 ], [ -89.13810900000162, 36.847323000002483 ], [ -89.117115000002102, 36.888685000002972 ], [ -89.100864000002289, 36.944016000002705 ], [ -89.099772000001749, 36.964535000002506 ], [ -89.132915000002569, 36.982057000002548 ], [ -89.170173000001967, 37.007067000003012 ], [ -89.182467000001949, 37.039164000003183 ], [ -89.167355000001606, 37.0750410000024 ], [ -89.109500000001546, 37.123093000002399 ], [ -89.097350000001853, 37.144750000002858 ], [ -89.087143000002087, 37.164930000002528 ], [ -89.029866000001732, 37.211065000002861 ], [ -88.972956000002057, 37.228491000002677 ], [ -88.933393000002127, 37.224973000003047 ], [ -88.866603000001689, 37.208815000002744 ], [ -88.789683000002555, 37.180178000002563 ], [ -88.732499000001681, 37.143945000002716 ], [ -88.685275000001681, 37.138796000003069 ], [ -88.616215000001603, 37.115683000002683 ], [ -88.605317000001762, 37.109811000002857 ], [ -88.573742000002369, 37.083009000003187 ], [ -88.571900000002344, 37.079079000003055 ], [ -88.566061000001525, 37.075237000002453 ], [ -88.528983000002043, 37.066826000002749 ], [ -88.482180000001819, 37.067368000003071 ], [ -88.452140000002458, 37.084893000002701 ], [ -88.428003000002093, 37.142885000002593 ], [ -88.433614000002294, 37.164144000002963 ], [ -88.44803800000237, 37.203642000002965 ], [ -88.506973000001537, 37.259688000002974 ], [ -88.507692000001825, 37.304407000002506 ], [ -88.484683000002164, 37.345234000002968 ], [ -88.474645000001686, 37.390783000002536 ], [ -88.454542000002164, 37.40984800000313 ], [ -88.409229000002185, 37.42531500000235 ], [ -88.358496000001665, 37.404803000002545 ], [ -88.33013800000154, 37.429874000002762 ], [ -88.281631000002278, 37.452729000002606 ], [ -88.165649000001622, 37.466267000002944 ], [ -88.079533000002286, 37.47583100000265 ], [ -88.061298000001514, 37.505332000002433 ], [ -88.069011000001552, 37.525399000002842 ], [ -88.13428100000236, 37.574636000002798 ], [ -88.157068000001843, 37.633275000003195 ], [ -88.159986000002547, 37.659715000002507 ], [ -88.133954000002078, 37.692296000002976 ], [ -88.120233000002159, 37.71122700000317 ], [ -88.071044000002374, 37.73299800000315 ], [ -88.049183000002216, 37.755073000002461 ], [ -88.0322240000025, 37.796408000003055 ], [ -88.014685000002231, 37.801916000002755 ], [ -87.943673000001795, 37.776796000002477 ], [ -87.93412900000159, 37.796414000002791 ], [ -87.906939000002282, 37.807593000002761 ], [ -87.909967000002183, 37.843028000003123 ], [ -87.937986000002297, 37.870287000002826 ], [ -87.927060000002555, 37.901675000003117 ], [ -87.896892000002538, 37.927859000002528 ], [ -87.875130000001946, 37.922865000002467 ], [ -87.838425000002161, 37.879907000003087 ], [ -87.790287000002081, 37.875862000002634 ], [ -87.759239000001756, 37.891662000002576 ], [ -87.713412000002165, 37.893284000002801 ], [ -87.684488000001792, 37.903649000002531 ], [ -87.666714000002031, 37.880038000002727 ], [ -87.681684000001496, 37.85627300000305 ], [ -87.670344000002274, 37.827962000003069 ], [ -87.637383000001478, 37.826947000002733 ], [ -87.614944000002197, 37.832126000002908 ], [ -87.602160000002513, 37.843852000002599 ], [ -87.595371000001919, 37.852084000002392 ], [ -87.591589000001534, 37.856993000003172 ], [ -87.583914000001741, 37.876567000003142 ], [ -87.584126000001461, 37.879118000002485 ], [ -87.618153000001868, 37.905522000002357 ], [ -87.624597000002524, 37.930278000002971 ], [ -87.60139100000201, 37.971306000003025 ], [ -87.575046000002416, 37.965909000002426 ], [ -87.556045000002072, 37.928168000002508 ], [ -87.505215000001542, 37.907264000002392 ], [ -87.449131000001429, 37.941854000002934 ], [ -87.386179000001789, 37.937804000003226 ], [ -87.337910000002125, 37.908131000002797 ], [ -87.302914000002502, 37.897821000002772 ], [ -87.220466000002403, 37.849065000002753 ], [ -87.193549000001667, 37.843118000002761 ], [ -87.16109600000145, 37.839359000002993 ], [ -87.137027000001694, 37.807314000002627 ], [ -87.128241000002205, 37.785523000002762 ], [ -87.123473000002093, 37.784120000002346 ], [ -87.0769890000022, 37.79543000000308 ], [ -87.076008000002219, 37.796254000002506 ], [ -87.054171000001901, 37.835235000003138 ], [ -87.03517400000176, 37.905466000002612 ], [ -86.978846000002434, 37.930281000002751 ], [ -86.920658000001907, 37.936214000002408 ], [ -86.89923700000152, 37.949840000003022 ], [ -86.860914000002154, 37.984368000002483 ], [ -86.824926000001739, 37.99854300000306 ], [ -86.795045000002304, 37.989279000002881 ], [ -86.776510000002034, 37.950108000003212 ], [ -86.742758000001402, 37.904270000002647 ], [ -86.711076000002478, 37.896700000003129 ], [ -86.686240000001419, 37.912866000002495 ], [ -86.650426000001957, 37.910861000002363 ], [ -86.644719000001473, 37.894991000002783 ], [ -86.66248100000243, 37.857084000002637 ], [ -86.655285000002138, 37.842506000002352 ], [ -86.633468000001486, 37.844057000002749 ], [ -86.59785700000144, 37.867728000002849 ], [ -86.593384000002047, 37.917086000003152 ], [ -86.533331000002505, 37.917250000002497 ], [ -86.510246000002255, 37.926660000003224 ], [ -86.524937000001387, 37.96649500000256 ], [ -86.521712000001699, 38.039617000002792 ], [ -86.49086900000222, 38.045747000002507 ], [ -86.447898000001572, 38.053171000003012 ], [ -86.431551000002457, 38.083736000003192 ], [ -86.457786000001505, 38.09523100000257 ], [ -86.464680000002303, 38.117375000002376 ], [ -86.432738000002161, 38.126429000003142 ], [ -86.395025000001837, 38.108707000002845 ], [ -86.375083000002149, 38.130638000002406 ], [ -86.327578000002276, 38.133428000002745 ], [ -86.325874000002074, 38.154029000003057 ], [ -86.376728000001975, 38.169743000002526 ], [ -86.373033000001854, 38.194241000002663 ], [ -86.348553000001615, 38.195685000003117 ], [ -86.295085000001919, 38.163754000002946 ], [ -86.270256000001993, 38.132250000002486 ], [ -86.276125000002452, 38.074275000003141 ], [ -86.252846000002151, 38.047533000002602 ], [ -86.220242000002457, 38.027964000002669 ], [ -86.169376000001691, 38.009728000002518 ], [ -86.123507000001368, 38.01615700000319 ], [ -86.098964000001928, 38.010561000002667 ], [ -86.079438000001446, 38.000580000002543 ], [ -86.047088000002162, 37.959014000002782 ], [ -86.025894000002182, 37.994309000003184 ], [ -85.998971000001887, 37.999754000002895 ], [ -85.947104000001644, 38.005072000003089 ], [ -85.942456000001755, 38.001095000002934 ], [ -85.938321000002446, 37.998756000002885 ], [ -85.935378000002117, 37.996431000003149 ], [ -85.925570000002097, 37.992253000002833 ], [ -85.907437000002133, 37.991586000003025 ], [ -85.905177000001459, 37.942579000003235 ], [ -85.854871000002404, 37.945385000002958 ], [ -85.827460000002404, 37.900631000003159 ], [ -85.83819800000137, 37.879284000002798 ], [ -85.817732000001996, 37.858808000002661 ], [ -85.760574000002336, 37.833430000002814 ], [ -85.750152000002146, 37.826737000002865 ], [ -85.742421000001514, 37.815975000002531 ], [ -85.737777000001472, 37.811790000003093 ], [ -85.740523000001645, 37.789243000002593 ], [ -85.682819000002311, 37.749647000002945 ], [ -85.680488000002129, 37.732284000002409 ], [ -85.689768000001919, 37.719288000003104 ], [ -85.716835000001751, 37.681367000003128 ], [ -85.736209000001438, 37.654364000002452 ], [ -85.742845000001623, 37.649015000002592 ], [ -85.760483000002068, 37.647206000002456 ], [ -85.797672000001768, 37.609945000002625 ], [ -85.838664000001572, 37.568708000002616 ], [ -85.874613000002114, 37.545516000003097 ], [ -85.880109000001667, 37.520089000002883 ], [ -85.884094000002008, 37.497590000002589 ], [ -85.892804000001789, 37.440308000003277 ], [ -85.914046000001974, 37.441658000003009 ], [ -86.002156000002401, 37.447141000002766 ], [ -86.047598000001997, 37.449933000002773 ], [ -86.067311000001837, 37.457386000002998 ], [ -86.054861000002333, 37.474312000002897 ], [ -86.073145000002455, 37.518215000002598 ], [ -86.102438000002167, 37.551598000002933 ], [ -86.114095000001967, 37.567131000002512 ], [ -86.159260000002291, 37.563340000002398 ], [ -86.195708000001815, 37.565529000002705 ], [ -86.22933500000218, 37.579416000002411 ], [ -86.24087900000147, 37.596849000002415 ], [ -86.277558000002387, 37.588806000002677 ], [ -86.275270000002394, 37.59351900000312 ], [ -86.329568000001771, 37.592009000002911 ], [ -86.352694000001435, 37.586974000002691 ], [ -86.346158000001964, 37.56137800000257 ], [ -86.393117000002349, 37.567990000002702 ], [ -86.444604000001775, 37.589596000002722 ], [ -86.477052000001706, 37.590908000002848 ], [ -86.500497000002255, 37.620236000002521 ], [ -86.533378000001733, 37.615700000003166 ], [ -86.534827000001869, 37.589870000002762 ], [ -86.592810000001521, 37.564360000003127 ], [ -86.620226000002333, 37.587105000003064 ], [ -86.640821000001864, 37.619186000002983 ], [ -86.638935000001837, 37.661877000002718 ], [ -86.720422000001406, 37.695398000002704 ], [ -86.758093000002248, 37.710891000003208 ], [ -86.823429000002236, 37.737754000003115 ], [ -86.847880000002448, 37.721365000002677 ], [ -86.866552000001775, 37.708850000002883 ], [ -86.81751400000141, 37.67381400000265 ], [ -86.863423000001603, 37.650293000003053 ], [ -86.927533000001574, 37.623608000002413 ], [ -86.943493000001894, 37.628276000002643 ], [ -86.952827000001648, 37.628019000002972 ], [ -86.989315000001483, 37.596566000002738 ], [ -87.038260000002012, 37.560803000002416 ], [ -87.076454000002173, 37.516107000002691 ], [ -87.103111000002514, 37.480900000002826 ], [ -87.135629000002055, 37.485153000002761 ], [ -87.104603000001973, 37.460728000003115 ], [ -87.099803000002026, 37.416042000002562 ], [ -87.095156000001737, 37.375930000003144 ], [ -87.124382000001773, 37.360054000002371 ], [ -87.13357400000146, 37.332111000002897 ], [ -87.098247000001649, 37.337779000003131 ], [ -87.071330000001836, 37.370298000002514 ], [ -87.030567000001668, 37.363307000002685 ], [ -87.00273700000217, 37.335297000002448 ], [ -86.990947000002279, 37.325513000002445 ], [ -86.981117000002385, 37.268509000003114 ], [ -87.029856000002354, 37.24551600000278 ], [ -87.043060000002214, 37.219604000002931 ], [ -87.054773000002527, 37.231070000003186 ], [ -87.098455000001721, 37.215794000002894 ], [ -87.123927000002169, 37.243528000002392 ], [ -87.166799000001532, 37.228898000002886 ], [ -87.178872000002542, 37.203498000003016 ], [ -87.178520000002393, 37.201082000003019 ], [ -87.178222000001909, 37.198973000002397 ], [ -87.194649000001604, 37.163729000003229 ], [ -87.232945000001436, 37.151154000002983 ], [ -87.268389000001577, 37.116538000003139 ], [ -87.313080000001463, 37.114597000003165 ], [ -87.284901000002151, 37.108385000002841 ], [ -87.2805870000021, 37.076942000002525 ], [ -87.259371000001821, 37.072401000002728 ], [ -87.250256000002324, 37.040557000003069 ], [ -87.225423000001953, 37.041325000003212 ], [ -87.12375000000246, 37.044544000002865 ], [ -87.053164000002411, 37.061019000003128 ], [ -87.054871000002464, 36.997864000002771 ], [ -87.056084000002159, 36.90791900000292 ], [ -87.056447000001668, 36.881151000002504 ], [ -87.056281000002414, 36.795877000003053 ], [ -87.050828000001601, 36.770600000003199 ], [ -87.059535000002555, 36.747951000003226 ], [ -87.060375000001656, 36.680851000002555 ], [ -87.060849000001795, 36.642963000002453 ], [ -87.159651000002327, 36.642098000002704 ], [ -87.249330000001521, 36.641721000002704 ], [ -87.335980000002337, 36.64165900000252 ], [ -87.39835400000247, 36.641202000002963 ], [ -87.414296000001499, 36.641052000002851 ], [ -87.445409000001575, 36.640742000002582 ], [ -87.694192000002502, 36.637108000002726 ], [ -87.796767000001495, 36.634874000003251 ], [ -87.853319000001591, 36.633160000002583 ], [ -87.849544000001742, 36.663695000002591 ], [ -87.912003000002244, 36.667773000002938 ], [ -88.012203000001819, 36.67719000000298 ], [ -88.070541000001541, 36.678255000003183 ], [ -88.056337000002586, 36.638230000002778 ], [ -88.032675000001959, 36.536985000002787 ], [ -88.053293000002157, 36.497058000003136 ], [ -88.183246000001873, 36.49944000000297 ], [ -88.231989000001519, 36.499867000003093 ], [ -88.30082300000204, 36.500400000002521 ], [ -88.380505000001676, 36.500554000002978 ], [ -88.489075000002217, 36.5011570000025 ], [ -88.623317000001705, 36.502095000003081 ], [ -88.654942000002507, 36.502271000002388 ], [ -88.761445000002183, 36.502680000002933 ], [ -88.816763000002226, 36.502665000002715 ], [ -88.834588000001546, 36.502611000002815 ], [ -88.871544000001819, 36.502396000002584 ], [ -88.888990000002138, 36.502334000002847 ], [ -88.926832000002477, 36.502219000002775 ], [ -89.034725000001544, 36.50297900000303 ], [ -89.120000000001923, 36.503754000002608 ], [ -89.193200000002321, 36.505331000002784 ], [ -89.301022000002334, 36.507233000003055 ] ] ], [ [ [ -89.479930000001644, 36.569087000002305 ], [ -89.46664600000193, 36.527041000002299 ], [ -89.485427000002389, 36.49749100000254 ], [ -89.539232000001718, 36.497934000002822 ], [ -89.571203000001702, 36.552142000002647 ], [ -89.565328000001529, 36.567259000002437 ], [ -89.530638000002227, 36.581710000003035 ], [ -89.479930000001644, 36.569087000002305 ] ] ] ] } },
{ "type": "Feature", "properties": { "opt_all": 2, "population": 749797.0, "voting_age_pop": 574554.0, "dem_votes": 107082.0, "rep_votes": 213872.0, "minority_pop": 70763.0, "dem_pct": 0.33363659579452615, "rep_pct": 0.66636340389390269 }, "geometry": { "type": "Polygon", "coordinates": [ [ [ -87.060375000001656, 36.680851000002555 ], [ -87.059535000002555, 36.747951000003226 ], [ -87.050828000001601, 36.770600000003199 ], [ -87.056281000002414, 36.795877000003053 ], [ -87.056447000001668, 36.881151000002504 ], [ -87.056084000002159, 36.90791900000292 ], [ -87.054871000002464, 36.997864000002771 ], [ -87.053164000002411, 37.061019000003128 ], [ -87.12375000000246, 37.044544000002865 ], [ -87.225423000001953, 37.041325000003212 ], [ -87.250256000002324, 37.040557000003069 ], [ -87.259371000001821, 37.072401000002728 ], [ -87.2805870000021, 37.076942000002525 ], [ -87.284901000002151, 37.108385000002841 ], [ -87.313080000001463, 37.114597000003165 ], [ -87.268389000001577, 37.116538000003139 ], [ -87.232945000001436, 37.151154000002983 ], [ -87.194649000001604, 37.163729000003229 ], [ -87.178222000001909, 37.198973000002397 ], [ -87.178520000002393, 37.201082000003019 ], [ -87.178872000002542, 37.203498000003016 ], [ -87.166799000001532, 37.228898000002886 ], [ -87.123927000002169, 37.243528000002392 ], [ -87.098455000001721, 37.215794000002894 ], [ -87.054773000002527, 37.231070000003186 ], [ -87.043060000002214, 37.219604000002931 ], [ -87.029856000002354, 37.24551600000278 ], [ -86.981117000002385, 37.268509000003114 ], [ -86.990947000002279, 37.325513000002445 ], [ -87.00273700000217, 37.335297000002448 ], [ -87.030567000001668, 37.363307000002685 ], [ -87.071330000001836, 37.370298000002514 ], [ -87.098247000001649, 37.337779000003131 ], [ -87.13357400000146, 37.332111000002897 ], [ -87.124382000001773, 37.360054000002371 ], [ -87.095156000001737, 37.375930000003144 ], [ -87.099803000002026, 37.416042000002562 ], [ -87.104603000001973, 37.460728000003115 ], [ -87.135629000002055, 37.485153000002761 ], [ -87.103111000002514, 37.480900000002826 ], [ -87.076454000002173, 37.516107000002691 ], [ -87.038260000002012, 37.560803000002416 ], [ -86.989315000001483, 37.596566000002738 ], [ -86.952827000001648, 37.628019000002972 ], [ -86.943493000001894, 37.628276000002643 ], [ -86.927533000001574, 37.623608000002413 ], [ -86.863423000001603, 37.650293000003053 ], [ -86.81751400000141, 37.67381400000265 ], [ -86.866552000001775, 37.708850000002883 ], [ -86.847880000002448, 37.721365000002677 ], [ -86.823429000002236, 37.737754000003115 ], [ -86.758093000002248, 37.710891000003208 ], [ -86.720422000001406, 37.695398000002704 ], [ -86.638935000001837, 37.661877000002718 ], [ -86.640821000001864, 37.619186000002983 ], [ -86.620226000002333, 37.587105000003064 ], [ -86.592810000001521, 37.564360000003127 ], [ -86.534827000001869, 37.589870000002762 ], [ -86.533378000001733, 37.615700000003166 ], [ -86.500497000002255, 37.620236000002521 ], [ -86.477052000001706, 37.590908000002848 ], [ -86.444604000001775, 37.589596000002722 ], [ -86.393117000002349, 37.567990000002702 ], [ -86.346158000001964, 37.56137800000257 ], [ -86.352694000001435, 37.586974000002691 ], [ -86.329568000001771, 37.592009000002911 ], [ -86.275270000002394, 37.59351900000312 ], [ -86.277558000002387, 37.588806000002677 ], [ -86.24087900000147, 37.596849000002415 ], [ -86.22933500000218, 37.579416000002411 ], [ -86.195708000001815, 37.565529000002705 ], [ -86.159260000002291, 37.563340000002398 ], [ -86.114095000001967, 37.567131000002512 ], [ -86.102438000002167, 37.551598000002933 ], [ -86.073145000002455, 37.518215000002598 ], [ -86.054861000002333, 37.474312000002897 ], [ -86.067311000001837, 37.457386000002998 ], [ -86.047598000001997, 37.449933000002773 ], [ -86.002156000002401, 37.447141000002766 ], [ -85.914046000001974, 37.441658000003009 ], [ -85.892804000001789, 37.440308000003277 ], [ -85.884094000002008, 37.497590000002589 ], [ -85.880109000001667, 37.520089000002883 ], [ -85.874613000002114, 37.545516000003097 ], [ -85.838664000001572, 37.568708000002616 ], [ -85.797672000001768, 37.609945000002625 ], [ -85.760483000002068, 37.647206000002456 ], [ -85.742845000001623, 37.649015000002592 ], [ -85.736209000001438, 37.654364000002452 ], [ -85.716835000001751, 37.681367000003128 ], [ -85.689768000001919, 37.719288000003104 ], [ -85.680488000002129, 37.732284000002409 ], [ -85.682819000002311, 37.749647000002945 ], [ -85.740523000001645, 37.789243000002593 ], [ -85.737777000001472, 37.811790000003093 ], [ -85.698318000001549, 37.811170000003109 ], [ -85.632132000002457, 37.844397000002942 ], [ -85.610898000001399, 37.860330000003266 ], [ -85.572875000002028, 37.84843600000282 ], [ -85.547896000002154, 37.84937000000243 ], [ -85.513790000001975, 37.82948600000276 ], [ -85.485055000001765, 37.82976900000309 ], [ -85.464308000001921, 37.816869000002441 ], [ -85.454335000001791, 37.824825000002527 ], [ -85.444156000002295, 37.82125100000291 ], [ -85.427728000001608, 37.811496000003025 ], [ -85.434186000001375, 37.798361000003091 ], [ -85.455117000001479, 37.800342000002431 ], [ -85.462872000002221, 37.793822000002557 ], [ -85.440611000001638, 37.764367000002558 ], [ -85.372542000002156, 37.798483000002591 ], [ -85.368973000002143, 37.814052000002903 ], [ -85.422767000001386, 37.828011000002874 ], [ -85.421869000001763, 37.828198000002509 ], [ -85.374470000002361, 37.843694000003069 ], [ -85.397988000002229, 37.847917000002951 ], [ -85.434335000001369, 37.876133000002611 ], [ -85.403199000002445, 37.943315000002748 ], [ -85.484364000002401, 37.987066000003232 ], [ -85.489202000001583, 37.990654000002706 ], [ -85.516882000001956, 38.011267000002462 ], [ -85.51155100000237, 38.013632000003234 ], [ -85.486643000001379, 38.062424000003247 ], [ -85.469231000001471, 38.096222000003117 ], [ -85.436129000001586, 38.104761000003087 ], [ -85.428830000001554, 38.118383000002751 ], [ -85.427678000002416, 38.125821000002439 ], [ -85.424171000002445, 38.146752000002763 ], [ -85.424054000001647, 38.147438000002921 ], [ -85.387619000001763, 38.136171000002754 ], [ -85.338717000001736, 38.121028000002759 ], [ -85.325635000002009, 38.117162000002878 ], [ -85.309466000002118, 38.112366000002602 ], [ -85.254760000001355, 38.096172000003094 ], [ -85.196117000001919, 38.07482200000279 ], [ -85.114710000001608, 38.042418000003103 ], [ -85.101646000001921, 38.037270000002998 ], [ -85.083616000002166, 38.040876000003259 ], [ -85.052624000002353, 38.075440000003177 ], [ -85.039653000002247, 38.119313000003046 ], [ -85.02440200000234, 38.125720000003078 ], [ -85.023711000002024, 38.129052000003277 ], [ -85.016145000001671, 38.147057000002683 ], [ -85.001181000002177, 38.224970000002585 ], [ -85.001032000001899, 38.226152000002671 ], [ -84.998896000001977, 38.274933000002491 ], [ -84.956959000002314, 38.332271000002542 ], [ -84.997667000001343, 38.335586000003111 ], [ -84.907904000002262, 38.374128000002543 ], [ -84.884079000002018, 38.351527000003237 ], [ -84.870482000002227, 38.356751000002824 ], [ -84.838419000002389, 38.356926000003199 ], [ -84.793228000002429, 38.338505000002989 ], [ -84.740594000001508, 38.35241500000317 ], [ -84.706066000001584, 38.370062000002562 ], [ -84.681555000001808, 38.390157000002652 ], [ -84.663198000001543, 38.405309000002795 ], [ -84.623583000001304, 38.431191000003253 ], [ -84.580539000002247, 38.473039000003141 ], [ -84.55970500000241, 38.492077000002773 ], [ -84.558970000001878, 38.492125000002538 ], [ -84.557375000001599, 38.492917000002862 ], [ -84.52139300000205, 38.508299000002559 ], [ -84.485295000001386, 38.508552000002602 ], [ -84.476299000002442, 38.542723000003292 ], [ -84.452635000002005, 38.531025000002749 ], [ -84.418146000001684, 38.558583000002557 ], [ -84.356002000001567, 38.565431000002683 ], [ -84.296462000001426, 38.571871000003178 ], [ -84.205346000001768, 38.582039000003093 ], [ -84.204010000001958, 38.563961000002777 ], [ -84.162031000002244, 38.554125000002479 ], [ -84.136031000001623, 38.554253000002674 ], [ -84.102296000001459, 38.581572000002616 ], [ -84.06291600000236, 38.599142000003248 ], [ -84.009052000001745, 38.584752000002986 ], [ -83.991605000002068, 38.593701000002717 ], [ -83.946917000002301, 38.684725000002643 ], [ -83.945901000001683, 38.686711000002553 ], [ -83.903901000001511, 38.768182000002689 ], [ -83.872415000002022, 38.762255000002646 ], [ -83.847464000001693, 38.744775000003301 ], [ -83.83920400000153, 38.720022000002757 ], [ -83.784463000001381, 38.696723000002557 ], [ -83.772456000001924, 38.65874000000251 ], [ -83.758467000001502, 38.65142700000272 ], [ -83.717809000001466, 38.645089000003033 ], [ -83.668893000002399, 38.626562000003318 ], [ -83.644977000002385, 38.636363000002966 ], [ -83.62504500000226, 38.609251000002693 ], [ -83.641852000001435, 38.525381000003193 ], [ -83.623564000001721, 38.504041000003149 ], [ -83.603250000001822, 38.504583000003237 ], [ -83.576791000001634, 38.457188000002468 ], [ -83.58056600000198, 38.430169000002664 ], [ -83.555168000001643, 38.42172200000288 ], [ -83.544577000002263, 38.418472000002538 ], [ -83.49743400000213, 38.401587000003175 ], [ -83.466833000001841, 38.398982000002761 ], [ -83.452848000002362, 38.381799000002808 ], [ -83.416724000002347, 38.396266000003259 ], [ -83.341347000002102, 38.319521000002666 ], [ -83.332655000001751, 38.284886000002487 ], [ -83.321003000002221, 38.272357000003183 ], [ -83.306877000001421, 38.225397000002758 ], [ -83.300213000001364, 38.209205000003067 ], [ -83.244306000001615, 38.192380000003205 ], [ -83.243324000002204, 38.176098000002945 ], [ -83.19899400000179, 38.168643000002923 ], [ -83.223317000001899, 38.131871000002825 ], [ -83.263289000001592, 38.115386000003326 ], [ -83.298813000001289, 38.092586000002939 ], [ -83.334069000001364, 38.088887000002835 ], [ -83.343632000002344, 38.068830000002471 ], [ -83.37182100000139, 38.064899000003265 ], [ -83.382501000001497, 38.050706000002826 ], [ -83.419982000002221, 38.047796000003217 ], [ -83.433942000001295, 38.033974000003006 ], [ -83.443968000001561, 38.030561000002635 ], [ -83.463408000002275, 38.016975000002915 ], [ -83.49362500000133, 38.048720000003229 ], [ -83.498846000001635, 38.050620000003271 ], [ -83.543558000001383, 38.054734000002902 ], [ -83.574989000002347, 38.058883000003007 ], [ -83.572955000001542, 38.023212000003163 ], [ -83.61967100000183, 38.014046000002963 ], [ -83.659293000002265, 38.028261000003234 ], [ -83.707991000001826, 38.01001300000312 ], [ -83.709507000001537, 38.009317000003087 ], [ -83.75943000000207, 37.998731000002728 ], [ -83.775720000001272, 37.987141000002531 ], [ -83.768783000001733, 37.918371000002765 ], [ -83.781787000002382, 37.908312000003299 ], [ -83.844933000001703, 37.902957000002907 ], [ -83.880009000001721, 37.91351600000278 ], [ -83.882326000001285, 37.913452000002572 ], [ -83.91447000000133, 37.919512000003103 ], [ -83.966310000001769, 37.930768000002899 ], [ -83.99968900000205, 37.988502000002889 ], [ -84.014603000001543, 38.010618000003149 ], [ -84.026514000002066, 38.030871000003259 ], [ -84.04382200000147, 38.058832000003036 ], [ -84.080527000002277, 38.11511800000298 ], [ -84.176833000001949, 38.092681000002592 ], [ -84.217478000002174, 38.083172000002655 ], [ -84.27016600000141, 38.070850000002949 ], [ -84.286461000001381, 38.067028000002779 ], [ -84.299488000002043, 38.081894000002805 ], [ -84.316370000002038, 38.09299300000297 ], [ -84.32667000000167, 38.084732000002511 ], [ -84.380788000001502, 38.113960000002614 ], [ -84.368508000001967, 38.133650000003186 ], [ -84.36847300000143, 38.134044000002746 ], [ -84.373755000001609, 38.157572000003334 ], [ -84.355230000002209, 38.178474000003256 ], [ -84.364775000001885, 38.195907000003125 ], [ -84.394630000002095, 38.206563000003257 ], [ -84.401847000001737, 38.207889000002965 ], [ -84.534769000001617, 38.160610000003111 ], [ -84.538989000001635, 38.159066000003165 ], [ -84.620601000001471, 38.129545000002913 ], [ -84.625079000001335, 38.116397000002685 ], [ -84.640882000002335, 38.146244000003016 ], [ -84.66895100000194, 38.176298000003193 ], [ -84.714158000001916, 38.175379000002671 ], [ -84.725168000001972, 38.195426000003202 ], [ -84.747124000001378, 38.186985000003304 ], [ -84.807264000002419, 38.163737000002811 ], [ -84.807418000001348, 38.163677000002728 ], [ -84.864804000002167, 38.141373000002567 ], [ -84.864908000001591, 38.116926000003033 ], [ -84.842174000001393, 38.100003000002658 ], [ -84.835272000001339, 38.076466000003215 ], [ -84.826930000001937, 38.060456000002645 ], [ -84.84681400000197, 38.040969000003052 ], [ -84.829778000001795, 38.023133000003277 ], [ -84.823246000001916, 37.981210000002577 ], [ -84.796327000001398, 37.970088000003187 ], [ -84.883748000002299, 37.939893000003245 ], [ -84.933085000001356, 37.954186000002899 ], [ -84.947837000001371, 37.949034000002762 ], [ -84.978191000001459, 37.922983000002894 ], [ -84.98719200000194, 37.905657000003259 ], [ -85.030528000002448, 37.891538000002406 ], [ -85.031456000001654, 37.881597000003161 ], [ -85.000520000002368, 37.854723000003069 ], [ -85.003235000002149, 37.835228000002715 ], [ -85.011878000001673, 37.769002000002452 ], [ -85.012051000001918, 37.767651000002758 ], [ -85.015800000002045, 37.740469000002648 ], [ -85.025021000002297, 37.678854000003014 ], [ -85.026526000001823, 37.664427000002767 ], [ -85.030172000002295, 37.631270000002822 ], [ -85.123351000001463, 37.631094000003266 ], [ -85.16608400000186, 37.631110000002657 ], [ -85.206947000001975, 37.631087000003255 ], [ -85.256949000001796, 37.630908000003309 ], [ -85.291907000001444, 37.64432400000252 ], [ -85.340697000001356, 37.65142300000285 ], [ -85.36560500000158, 37.667417000002949 ], [ -85.373898000002285, 37.673606000002671 ], [ -85.386618000002429, 37.710345000002597 ], [ -85.401784000001939, 37.730658000002883 ], [ -85.402053000001686, 37.730412000002801 ], [ -85.452874000002353, 37.68169900000305 ], [ -85.471493000001971, 37.648191000003081 ], [ -85.486396000001733, 37.620508000002602 ], [ -85.521290000002153, 37.554343000002909 ], [ -85.503473000001563, 37.549382000003078 ], [ -85.466250000001949, 37.465595000003049 ], [ -85.502771000002397, 37.482303000002553 ], [ -85.528855000002309, 37.454067000002418 ], [ -85.583497000002325, 37.469917000003171 ], [ -85.617671000001664, 37.467250000003098 ], [ -85.634521000002394, 37.4710660000028 ], [ -85.657332000001674, 37.421996000002522 ], [ -85.65290600000192, 37.391054000002704 ], [ -85.688604000001732, 37.351995000002695 ], [ -85.697325000001641, 37.301838000002526 ], [ -85.679125000002415, 37.278026000002967 ], [ -85.679340000002028, 37.246786000002828 ], [ -85.683112000001543, 37.212330000003185 ], [ -85.686482000001831, 37.182427000002896 ], [ -85.660898000001694, 37.143039000003277 ], [ -85.632399000002309, 37.12511300000287 ], [ -85.590958000002161, 37.11629800000275 ], [ -85.526881000001552, 37.109450000002767 ], [ -85.465167000002452, 37.133742000002826 ], [ -85.382584000001472, 37.16729100000299 ], [ -85.352771000001937, 37.192432000002675 ], [ -85.320607000001559, 37.220927000002554 ], [ -85.294739000001741, 37.245649000003091 ], [ -85.272446000002262, 37.260032000003108 ], [ -85.223594000002009, 37.262494000003002 ], [ -85.191674000001896, 37.284800000002477 ], [ -85.165174000001926, 37.310396000002726 ], [ -85.098703000002445, 37.276001000002502 ], [ -85.079934000001757, 37.267502000002573 ], [ -85.056898000002334, 37.257041000002957 ], [ -85.054330000002338, 37.210850000003049 ], [ -85.043316000001838, 37.186028000002665 ], [ -85.086826000001665, 37.129202000003126 ], [ -85.10199700000193, 37.111594000002974 ], [ -85.133624000002058, 37.073505000002669 ], [ -85.151972000001706, 37.050765000003132 ], [ -85.158680000001738, 37.042502000002486 ], [ -85.208891000001898, 36.986105000003285 ], [ -85.23202600000235, 36.925069000003163 ], [ -85.274950000001368, 36.897901000002541 ], [ -85.25014600000226, 36.879291000002482 ], [ -85.268177000001359, 36.870720000002741 ], [ -85.254913000002304, 36.83357900000329 ], [ -85.267193000002251, 36.819807000002541 ], [ -85.300469000002039, 36.853767000002826 ], [ -85.36517700000168, 36.829532000002693 ], [ -85.344294000001568, 36.803261000002898 ], [ -85.350700000002163, 36.797638000002898 ], [ -85.370707000001374, 36.790266000002589 ], [ -85.384002000001388, 36.791094000002495 ], [ -85.375632000001687, 36.780064000002625 ], [ -85.340906000001624, 36.734054000003269 ], [ -85.344811000002423, 36.683185000002915 ], [ -85.332901000002039, 36.66137000000294 ], [ -85.317207000001957, 36.645329000002647 ], [ -85.325510000001501, 36.62439500000275 ], [ -85.436442000001975, 36.618655000002512 ], [ -85.556483000001492, 36.615917000002632 ], [ -85.719906000001984, 36.619891000003207 ], [ -85.738391000001627, 36.620496000003122 ], [ -85.905423000001818, 36.625318000002963 ], [ -85.97641800000153, 36.628493000002592 ], [ -86.114501000001695, 36.635491000002702 ], [ -86.244565000001515, 36.642421000002933 ], [ -86.29619700000211, 36.645565000002527 ], [ -86.411379000001631, 36.650924000002938 ], [ -86.499931000001666, 36.652271000002422 ], [ -86.545708000001625, 36.644177000002657 ], [ -86.563909000002056, 36.633562000002456 ], [ -86.589906000002415, 36.652443000002719 ], [ -86.763296000002029, 36.648954000002483 ], [ -86.854040000002158, 36.647006000002769 ], [ -87.008590000001703, 36.644105000002654 ], [ -87.060849000001795, 36.642963000002453 ], [ -87.060375000001656, 36.680851000002555 ] ] ] } },
{ "type": "Feature", "properties": { "opt_all": 3, "population": 751191.0, "voting_age_pop": 588334.0, "dem_votes": 191640.0, "rep_votes": 138447.0, "minority_pop": 192721.0, "dem_pct": 0.58057421207724802, "rep_pct": 0.41942578761980148 }, "geometry": { "type": "Polygon", "coordinates": [ [ [ -85.827460000002404, 37.900631000003159 ], [ -85.854871000002404, 37.945385000002958 ], [ -85.905177000001459, 37.942579000003235 ], [ -85.907437000002133, 37.991586000003025 ], [ -85.925570000002097, 37.992253000002833 ], [ -85.935378000002117, 37.996431000003149 ], [ -85.938321000002446, 37.998756000002885 ], [ -85.942456000001755, 38.001095000002934 ], [ -85.947104000001644, 38.005072000003089 ], [ -85.920652000001823, 38.032306000003011 ], [ -85.915750000001495, 38.065130000002746 ], [ -85.905309000001651, 38.111105000003263 ], [ -85.906116000001418, 38.116887000002727 ], [ -85.908706000001615, 38.147916000002724 ], [ -85.899675000001778, 38.180324000002976 ], [ -85.874834000002082, 38.207780000002451 ], [ -85.871948000001836, 38.209593000003188 ], [ -85.84276800000211, 38.233393000002984 ], [ -85.839148000002339, 38.239732000002519 ], [ -85.838104000002119, 38.245748000002358 ], [ -85.837248000001495, 38.250912000002643 ], [ -85.829065000001933, 38.276554000003031 ], [ -85.802376000001559, 38.284700000002722 ], [ -85.763712000001547, 38.274129000002418 ], [ -85.763359000002353, 38.273729000002717 ], [ -85.761488000001648, 38.27226700000238 ], [ -85.750670000002046, 38.267829000003033 ], [ -85.735457000002356, 38.270503000003075 ], [ -85.713042000001792, 38.281438000002922 ], [ -85.704186000001698, 38.285868000002402 ], [ -85.686034000002238, 38.294298000002406 ], [ -85.674757000001833, 38.280561000002749 ], [ -85.668113000001426, 38.265234000002977 ], [ -85.665854000001431, 38.265815000002405 ], [ -85.653191000002181, 38.270352000002418 ], [ -85.652823000001561, 38.270519000002949 ], [ -85.648117000002031, 38.268259000002764 ], [ -85.644156000002212, 38.263497000002829 ], [ -85.641355000002022, 38.26012200000315 ], [ -85.636487000002205, 38.262888000003159 ], [ -85.624386000001749, 38.265319000003203 ], [ -85.624210000001455, 38.265406000002912 ], [ -85.622289000002226, 38.266353000002958 ], [ -85.615693000001741, 38.27023500000314 ], [ -85.614300000001492, 38.271043000002813 ], [ -85.610364000002022, 38.266643000002681 ], [ -85.604447000002381, 38.269781000002588 ], [ -85.608695000001447, 38.274326000002745 ], [ -85.606153000002308, 38.275815000002602 ], [ -85.587208000001638, 38.281792000002618 ], [ -85.586822000001717, 38.281977000003224 ], [ -85.589279000002378, 38.287197000002571 ], [ -85.581379000001647, 38.290958000002703 ], [ -85.577606000002362, 38.286032000002933 ], [ -85.574863000002367, 38.286626000002499 ], [ -85.576262000002345, 38.279593000003096 ], [ -85.568352000001894, 38.272384000002866 ], [ -85.572317000002457, 38.287602000002771 ], [ -85.559160000002137, 38.293774000003239 ], [ -85.554320000001368, 38.270213000002542 ], [ -85.566676000002118, 38.270885000003062 ], [ -85.563118000001609, 38.26317100000238 ], [ -85.562192000002455, 38.261433000002583 ], [ -85.567793000001899, 38.245690000003016 ], [ -85.560792000001996, 38.237217000003071 ], [ -85.553168000001492, 38.241639000002749 ], [ -85.551744000002117, 38.243507000002829 ], [ -85.54397100000152, 38.235901000002997 ], [ -85.534701000001448, 38.235984000003207 ], [ -85.53203000000174, 38.23458200000244 ], [ -85.534645000001916, 38.248642000002519 ], [ -85.53150000000231, 38.248635000002714 ], [ -85.526185000002314, 38.246270000002745 ], [ -85.520409000001791, 38.243740000002681 ], [ -85.524821000001523, 38.230152000002555 ], [ -85.530386000002196, 38.231665000003098 ], [ -85.54247900000226, 38.230762000002763 ], [ -85.548271000002089, 38.230942000002941 ], [ -85.552269000002326, 38.223937000002927 ], [ -85.528150000001673, 38.200349000002987 ], [ -85.527328000001503, 38.198729000002899 ], [ -85.523835000002279, 38.187051000002626 ], [ -85.535764000001549, 38.186026000002492 ], [ -85.552036000001735, 38.188299000003269 ], [ -85.557962000002249, 38.193006000002491 ], [ -85.558207000002355, 38.183242000003119 ], [ -85.553781000002459, 38.180492000003071 ], [ -85.550013000002465, 38.181100000002601 ], [ -85.550291000002062, 38.168106000002417 ], [ -85.566867000002347, 38.16380800000244 ], [ -85.545872000001566, 38.146826000002982 ], [ -85.538352000002348, 38.136628000002403 ], [ -85.535002000001413, 38.136428000003093 ], [ -85.517778000002096, 38.132713000002944 ], [ -85.489785000001973, 38.122104000002587 ], [ -85.466488000001945, 38.134001000003181 ], [ -85.427678000002416, 38.125821000002439 ], [ -85.428830000001554, 38.118383000002751 ], [ -85.436129000001586, 38.104761000003087 ], [ -85.469231000001471, 38.096222000003117 ], [ -85.486643000001379, 38.062424000003247 ], [ -85.51155100000237, 38.013632000003234 ], [ -85.516882000001956, 38.011267000002462 ], [ -85.489202000001583, 37.990654000002706 ], [ -85.484364000002401, 37.987066000003232 ], [ -85.403199000002445, 37.943315000002748 ], [ -85.434335000001369, 37.876133000002611 ], [ -85.397988000002229, 37.847917000002951 ], [ -85.374470000002361, 37.843694000003069 ], [ -85.421869000001763, 37.828198000002509 ], [ -85.422767000001386, 37.828011000002874 ], [ -85.368973000002143, 37.814052000002903 ], [ -85.372542000002156, 37.798483000002591 ], [ -85.440611000001638, 37.764367000002558 ], [ -85.462872000002221, 37.793822000002557 ], [ -85.455117000001479, 37.800342000002431 ], [ -85.434186000001375, 37.798361000003091 ], [ -85.427728000001608, 37.811496000003025 ], [ -85.444156000002295, 37.82125100000291 ], [ -85.454335000001791, 37.824825000002527 ], [ -85.464308000001921, 37.816869000002441 ], [ -85.485055000001765, 37.82976900000309 ], [ -85.513790000001975, 37.82948600000276 ], [ -85.547896000002154, 37.84937000000243 ], [ -85.572875000002028, 37.84843600000282 ], [ -85.610898000001399, 37.860330000003266 ], [ -85.632132000002457, 37.844397000002942 ], [ -85.698318000001549, 37.811170000003109 ], [ -85.737777000001472, 37.811790000003093 ], [ -85.742421000001514, 37.815975000002531 ], [ -85.750152000002146, 37.826737000002865 ], [ -85.760574000002336, 37.833430000002814 ], [ -85.817732000001996, 37.858808000002661 ], [ -85.83819800000137, 37.879284000002798 ], [ -85.827460000002404, 37.900631000003159 ] ] ] } },
{ "type": "Feature", "properties": { "opt_all": 4, "population": 750143.0, "voting_age_pop": 570137.0, "dem_votes": 132755.0, "rep_votes": 221948.0, "minority_pop": 78942.0, "dem_pct": 0.37427086876224025, "rep_pct": 0.62572913095583371 }, "geometry": { "type": "Polygon", "coordinates": [ [ [ -85.523835000002279, 38.187051000002626 ], [ -85.527328000001503, 38.198729000002899 ], [ -85.528150000001673, 38.200349000002987 ], [ -85.552269000002326, 38.223937000002927 ], [ -85.548271000002089, 38.230942000002941 ], [ -85.54247900000226, 38.230762000002763 ], [ -85.530386000002196, 38.231665000003098 ], [ -85.524821000001523, 38.230152000002555 ], [ -85.520409000001791, 38.243740000002681 ], [ -85.526185000002314, 38.246270000002745 ], [ -85.53150000000231, 38.248635000002714 ], [ -85.534645000001916, 38.248642000002519 ], [ -85.53203000000174, 38.23458200000244 ], [ -85.534701000001448, 38.235984000003207 ], [ -85.54397100000152, 38.235901000002997 ], [ -85.551744000002117, 38.243507000002829 ], [ -85.553168000001492, 38.241639000002749 ], [ -85.560792000001996, 38.237217000003071 ], [ -85.567793000001899, 38.245690000003016 ], [ -85.562192000002455, 38.261433000002583 ], [ -85.563118000001609, 38.26317100000238 ], [ -85.566676000002118, 38.270885000003062 ], [ -85.554320000001368, 38.270213000002542 ], [ -85.559160000002137, 38.293774000003239 ], [ -85.572317000002457, 38.287602000002771 ], [ -85.568352000001894, 38.272384000002866 ], [ -85.576262000002345, 38.279593000003096 ], [ -85.574863000002367, 38.286626000002499 ], [ -85.577606000002362, 38.286032000002933 ], [ -85.581379000001647, 38.290958000002703 ], [ -85.589279000002378, 38.287197000002571 ], [ -85.586822000001717, 38.281977000003224 ], [ -85.587208000001638, 38.281792000002618 ], [ -85.606153000002308, 38.275815000002602 ], [ -85.608695000001447, 38.274326000002745 ], [ -85.604447000002381, 38.269781000002588 ], [ -85.610364000002022, 38.266643000002681 ], [ -85.614300000001492, 38.271043000002813 ], [ -85.615693000001741, 38.27023500000314 ], [ -85.622289000002226, 38.266353000002958 ], [ -85.624210000001455, 38.265406000002912 ], [ -85.624386000001749, 38.265319000003203 ], [ -85.636487000002205, 38.262888000003159 ], [ -85.641355000002022, 38.26012200000315 ], [ -85.644156000002212, 38.263497000002829 ], [ -85.648117000002031, 38.268259000002764 ], [ -85.652823000001561, 38.270519000002949 ], [ -85.653191000002181, 38.270352000002418 ], [ -85.665854000001431, 38.265815000002405 ], [ -85.668113000001426, 38.265234000002977 ], [ -85.674757000001833, 38.280561000002749 ], [ -85.686034000002238, 38.294298000002406 ], [ -85.676835000001958, 38.299833000003169 ], [ -85.657636000001617, 38.321475000002451 ], [ -85.651251000001395, 38.331554000002981 ], [ -85.637817000002045, 38.380239000003172 ], [ -85.622012000002371, 38.416770000003112 ], [ -85.591721000001783, 38.447678000002959 ], [ -85.504765000002038, 38.465209000003007 ], [ -85.464247000002047, 38.511659000002886 ], [ -85.432922000001597, 38.524066000002669 ], [ -85.419479000001544, 38.536530000003125 ], [ -85.420742000001567, 38.574793000002678 ], [ -85.433495000001997, 38.595106000002531 ], [ -85.438629000001328, 38.658890000002387 ], [ -85.45457200000142, 38.700279000002602 ], [ -85.437231000001489, 38.727562000002706 ], [ -85.408365000001382, 38.73714400000275 ], [ -85.368511000001931, 38.730578000002879 ], [ -85.333110000001412, 38.736258000002778 ], [ -85.279126000002378, 38.741720000003177 ], [ -85.246455000001873, 38.731746000003199 ], [ -85.21305300000158, 38.695453000002374 ], [ -85.188637000001933, 38.687562000002927 ], [ -85.173576000001702, 38.688027000002855 ], [ -85.170501000001877, 38.688681000002987 ], [ -85.139241000001505, 38.699001000002468 ], [ -85.092149000001683, 38.730672000002919 ], [ -85.023118000001389, 38.761327000003078 ], [ -84.99192400000203, 38.778284000002841 ], [ -84.946832000001535, 38.775287000002585 ], [ -84.913365000002159, 38.784994000002612 ], [ -84.899314000002164, 38.791677000002991 ], [ -84.813129000002078, 38.785791000002554 ], [ -84.816456000002376, 38.805173000002753 ], [ -84.830045000001448, 38.830140000002878 ], [ -84.795058000001916, 38.857277000003229 ], [ -84.801045000001395, 38.891463000002389 ], [ -84.861874000002132, 38.897752000003088 ], [ -84.87793400000217, 38.92014900000278 ], [ -84.835268000001832, 38.957813000002822 ], [ -84.838579000001459, 38.989902000002509 ], [ -84.864298000002194, 39.019999000002429 ], [ -84.897314000001458, 39.057482000003013 ], [ -84.832435000001894, 39.100489000003108 ], [ -84.807542000002442, 39.109891000002605 ], [ -84.775612000002198, 39.128481000002488 ], [ -84.753401000001915, 39.147114000002837 ], [ -84.724679000001871, 39.141071000002512 ], [ -84.692488000001376, 39.10747300000294 ], [ -84.623493000001602, 39.07433000000281 ], [ -84.569759000001483, 39.083683000002708 ], [ -84.553887000002064, 39.09828500000323 ], [ -84.506161000001953, 39.095177000002501 ], [ -84.502249000001441, 39.096932000002781 ], [ -84.497404000001723, 39.10007600000322 ], [ -84.492905000001613, 39.104654000002633 ], [ -84.487754000001971, 39.111380000002463 ], [ -84.485244000001558, 39.113700000003043 ], [ -84.479996000001975, 39.117812000002424 ], [ -84.476433000002231, 39.119511000002952 ], [ -84.440449000001934, 39.108934000002613 ], [ -84.427980000002194, 39.056360000003025 ], [ -84.3734660000015, 39.043435000002518 ], [ -84.32944200000145, 39.029019000002812 ], [ -84.300398000001323, 38.997105000003273 ], [ -84.282558000001373, 38.948154000003257 ], [ -84.243600000002118, 38.904153000003255 ], [ -84.232014000002181, 38.874826000002557 ], [ -84.230459000002128, 38.827393000002928 ], [ -84.21311500000175, 38.805835000003171 ], [ -84.17092100000238, 38.797194000003174 ], [ -84.091623000001462, 38.77423600000256 ], [ -84.044576000001811, 38.770557000003272 ], [ -84.008302000002189, 38.779656000002895 ], [ -83.978095000001716, 38.787363000002557 ], [ -83.903901000001511, 38.768182000002689 ], [ -83.945901000001683, 38.686711000002553 ], [ -83.946917000002301, 38.684725000002643 ], [ -83.991605000002068, 38.593701000002717 ], [ -84.009052000001745, 38.584752000002986 ], [ -84.06291600000236, 38.599142000003248 ], [ -84.102296000001459, 38.581572000002616 ], [ -84.136031000001623, 38.554253000002674 ], [ -84.162031000002244, 38.554125000002479 ], [ -84.204010000001958, 38.563961000002777 ], [ -84.205346000001768, 38.582039000003093 ], [ -84.296462000001426, 38.571871000003178 ], [ -84.356002000001567, 38.565431000002683 ], [ -84.418146000001684, 38.558583000002557 ], [ -84.452635000002005, 38.531025000002749 ], [ -84.476299000002442, 38.542723000003292 ], [ -84.485295000001386, 38.508552000002602 ], [ -84.52139300000205, 38.508299000002559 ], [ -84.557375000001599, 38.492917000002862 ], [ -84.558970000001878, 38.492125000002538 ], [ -84.55970500000241, 38.492077000002773 ], [ -84.580539000002247, 38.473039000003141 ], [ -84.623583000001304, 38.431191000003253 ], [ -84.663198000001543, 38.405309000002795 ], [ -84.681555000001808, 38.390157000002652 ], [ -84.706066000001584, 38.370062000002562 ], [ -84.740594000001508, 38.35241500000317 ], [ -84.793228000002429, 38.338505000002989 ], [ -84.838419000002389, 38.356926000003199 ], [ -84.870482000002227, 38.356751000002824 ], [ -84.884079000002018, 38.351527000003237 ], [ -84.907904000002262, 38.374128000002543 ], [ -84.997667000001343, 38.335586000003111 ], [ -84.956959000002314, 38.332271000002542 ], [ -84.998896000001977, 38.274933000002491 ], [ -85.001032000001899, 38.226152000002671 ], [ -85.001181000002177, 38.224970000002585 ], [ -85.016145000001671, 38.147057000002683 ], [ -85.023711000002024, 38.129052000003277 ], [ -85.02440200000234, 38.125720000003078 ], [ -85.039653000002247, 38.119313000003046 ], [ -85.052624000002353, 38.075440000003177 ], [ -85.083616000002166, 38.040876000003259 ], [ -85.101646000001921, 38.037270000002998 ], [ -85.114710000001608, 38.042418000003103 ], [ -85.196117000001919, 38.07482200000279 ], [ -85.254760000001355, 38.096172000003094 ], [ -85.309466000002118, 38.112366000002602 ], [ -85.325635000002009, 38.117162000002878 ], [ -85.338717000001736, 38.121028000002759 ], [ -85.387619000001763, 38.136171000002754 ], [ -85.424054000001647, 38.147438000002921 ], [ -85.424171000002445, 38.146752000002763 ], [ -85.427678000002416, 38.125821000002439 ], [ -85.466488000001945, 38.134001000003181 ], [ -85.489785000001973, 38.122104000002587 ], [ -85.517778000002096, 38.132713000002944 ], [ -85.535002000001413, 38.136428000003093 ], [ -85.538352000002348, 38.136628000002403 ], [ -85.545872000001566, 38.146826000002982 ], [ -85.566867000002347, 38.16380800000244 ], [ -85.550291000002062, 38.168106000002417 ], [ -85.550013000002465, 38.181100000002601 ], [ -85.553781000002459, 38.180492000003071 ], [ -85.558207000002355, 38.183242000003119 ], [ -85.557962000002249, 38.193006000002491 ], [ -85.552036000001735, 38.188299000003269 ], [ -85.535764000001549, 38.186026000002492 ], [ -85.523835000002279, 38.187051000002626 ] ] ] } },
{ "type": "Feature", "properties": { "opt_all": 5, "population": 752682.0, "voting_age_pop": 588532.0, "dem_votes": 84924.0, "rep_votes": 224948.0, "minority_pop": 38390.0, "dem_pct": 0.27406154790556697, "rep_pct": 0.72593845177171912 }, "geometry": { "type": "Polygon", "coordinates": [ [ [ -84.297416000001917, 36.945931000003206 ], [ -84.345872000001975, 36.939496000002578 ], [ -84.358024000001578, 36.959400000002752 ], [ -84.349247000002109, 36.989593000002898 ], [ -84.317060000001788, 36.999333000002821 ], [ -84.318001000001672, 37.04648200000274 ], [ -84.305046000001468, 37.079016000002518 ], [ -84.280033000001524, 37.101472000003227 ], [ -84.290724000002328, 37.110375000002989 ], [ -84.2890760000016, 37.151740000002775 ], [ -84.269036000001805, 37.185665000002693 ], [ -84.267229000001421, 37.222412000003331 ], [ -84.239242000002392, 37.240523000003037 ], [ -84.217827000001904, 37.242432000002701 ], [ -84.21668800000225, 37.270091000002715 ], [ -84.17031700000193, 37.305493000002528 ], [ -84.137898000002295, 37.31975900000333 ], [ -84.1344410000018, 37.366422000002551 ], [ -84.169481000001966, 37.385406000002789 ], [ -84.159608000001441, 37.41779100000295 ], [ -84.169838000001533, 37.430629000002632 ], [ -84.203552000001878, 37.486177000002847 ], [ -84.199489000002188, 37.52285800000255 ], [ -84.207985000001571, 37.523862000002509 ], [ -84.272434000001667, 37.520544000003305 ], [ -84.301161000001457, 37.536260000002983 ], [ -84.347805000001813, 37.539064000002817 ], [ -84.365335000001878, 37.57026200000265 ], [ -84.372342000002405, 37.592412000002824 ], [ -84.426607000002193, 37.637661000003327 ], [ -84.42852600000225, 37.656221000002994 ], [ -84.455024000001387, 37.690539000002445 ], [ -84.502975000001342, 37.734000000003178 ], [ -84.494485000002015, 37.747461000002595 ], [ -84.525643000001935, 37.76949700000273 ], [ -84.494798000002348, 37.786237000003283 ], [ -84.473798000001366, 37.797263000002459 ], [ -84.485128000001538, 37.840287000002462 ], [ -84.477260000001579, 37.852593000002528 ], [ -84.435720000001851, 37.847202000003016 ], [ -84.410672000001625, 37.871260000003176 ], [ -84.393007000001546, 37.847494000003287 ], [ -84.365681000002112, 37.860802000002643 ], [ -84.382571000001676, 37.892573000002621 ], [ -84.366169000001619, 37.897589000002696 ], [ -84.339566000002193, 37.883878000002504 ], [ -84.337393000002052, 37.892007000002472 ], [ -84.346980000001608, 37.899721000002778 ], [ -84.324342000001863, 37.966604000002476 ], [ -84.32246300000196, 38.00087800000324 ], [ -84.315611000002278, 38.004128000002687 ], [ -84.290492000001493, 38.030384000002542 ], [ -84.286461000001381, 38.067028000002779 ], [ -84.27016600000141, 38.070850000002949 ], [ -84.217478000002174, 38.083172000002655 ], [ -84.176833000001949, 38.092681000002592 ], [ -84.080527000002277, 38.11511800000298 ], [ -84.04382200000147, 38.058832000003036 ], [ -84.026514000002066, 38.030871000003259 ], [ -84.014603000001543, 38.010618000003149 ], [ -83.99968900000205, 37.988502000002889 ], [ -83.966310000001769, 37.930768000002899 ], [ -83.91447000000133, 37.919512000003103 ], [ -83.882326000001285, 37.913452000002572 ], [ -83.880009000001721, 37.91351600000278 ], [ -83.844933000001703, 37.902957000002907 ], [ -83.781787000002382, 37.908312000003299 ], [ -83.768783000001733, 37.918371000002765 ], [ -83.775720000001272, 37.987141000002531 ], [ -83.75943000000207, 37.998731000002728 ], [ -83.709507000001537, 38.009317000003087 ], [ -83.707991000001826, 38.01001300000312 ], [ -83.659293000002265, 38.028261000003234 ], [ -83.61967100000183, 38.014046000002963 ], [ -83.572955000001542, 38.023212000003163 ], [ -83.574989000002347, 38.058883000003007 ], [ -83.543558000001383, 38.054734000002902 ], [ -83.498846000001635, 38.050620000003271 ], [ -83.49362500000133, 38.048720000003229 ], [ -83.463408000002275, 38.016975000002915 ], [ -83.443968000001561, 38.030561000002635 ], [ -83.433942000001295, 38.033974000003006 ], [ -83.419982000002221, 38.047796000003217 ], [ -83.382501000001497, 38.050706000002826 ], [ -83.37182100000139, 38.064899000003265 ], [ -83.343632000002344, 38.068830000002471 ], [ -83.334069000001364, 38.088887000002835 ], [ -83.298813000001289, 38.092586000002939 ], [ -83.263289000001592, 38.115386000003326 ], [ -83.223317000001899, 38.131871000002825 ], [ -83.19899400000179, 38.168643000002923 ], [ -83.243324000002204, 38.176098000002945 ], [ -83.244306000001615, 38.192380000003205 ], [ -83.300213000001364, 38.209205000003067 ], [ -83.306877000001421, 38.225397000002758 ], [ -83.321003000002221, 38.272357000003183 ], [ -83.332655000001751, 38.284886000002487 ], [ -83.341347000002102, 38.319521000002666 ], [ -83.416724000002347, 38.396266000003259 ], [ -83.452848000002362, 38.381799000002808 ], [ -83.466833000001841, 38.398982000002761 ], [ -83.49743400000213, 38.401587000003175 ], [ -83.544577000002263, 38.418472000002538 ], [ -83.555168000001643, 38.42172200000288 ], [ -83.58056600000198, 38.430169000002664 ], [ -83.576791000001634, 38.457188000002468 ], [ -83.603250000001822, 38.504583000003237 ], [ -83.623564000001721, 38.504041000003149 ], [ -83.641852000001435, 38.525381000003193 ], [ -83.62504500000226, 38.609251000002693 ], [ -83.644977000002385, 38.636363000002966 ], [ -83.634901000001349, 38.670426000003296 ], [ -83.608525000001364, 38.684967000003077 ], [ -83.533677000001333, 38.70218100000276 ], [ -83.505665000001528, 38.69977300000248 ], [ -83.459559000001889, 38.673831000003169 ], [ -83.362775000001292, 38.657220000003122 ], [ -83.327566000001255, 38.637675000002496 ], [ -83.312768000002009, 38.604460000002717 ], [ -83.286717000001588, 38.599135000002541 ], [ -83.245664000001568, 38.628564000002889 ], [ -83.218917000001866, 38.621797000002715 ], [ -83.159399000001557, 38.61854500000328 ], [ -83.134754000001806, 38.632013000002821 ], [ -83.113449000001964, 38.670559000003173 ], [ -83.062180000002343, 38.68966900000261 ], [ -83.030882000001441, 38.725563000002829 ], [ -82.974815000002323, 38.726904000002648 ], [ -82.959748000001582, 38.734507000003035 ], [ -82.922858000002137, 38.750328000002682 ], [ -82.879670000001411, 38.751396000002671 ], [ -82.869884000001946, 38.727272000002749 ], [ -82.874969000001485, 38.683050000002567 ], [ -82.856853000001976, 38.64712100000245 ], [ -82.847111000002243, 38.594934000002944 ], [ -82.832160000002148, 38.581247000002833 ], [ -82.811807000001281, 38.568770000003013 ], [ -82.797796000001497, 38.562515000002726 ], [ -82.766971000001419, 38.560588000003136 ], [ -82.755670000002354, 38.559966000002909 ], [ -82.708154000001386, 38.54822200000293 ], [ -82.684328000001926, 38.528318000003068 ], [ -82.665422000001882, 38.505779000002633 ], [ -82.660956000001306, 38.50087600000284 ], [ -82.624195000002274, 38.479626000003115 ], [ -82.604235000001921, 38.459966000003085 ], [ -82.601649000001757, 38.442969000002726 ], [ -82.594625000002054, 38.399860000002647 ], [ -82.594094000001547, 38.381399000002695 ], [ -82.598121000002124, 38.345933000002965 ], [ -82.576005000001345, 38.326569000003033 ], [ -82.582655000001466, 38.298365000003145 ], [ -82.574518000001234, 38.2645050000027 ], [ -82.604625000001334, 38.247662000003032 ], [ -82.59829500000221, 38.217361000002583 ], [ -82.609894000001319, 38.175660000002893 ], [ -82.638599000001349, 38.151690000002574 ], [ -82.621219000002284, 38.124933000002883 ], [ -82.613997000001362, 38.120376000002928 ], [ -82.601465000001937, 38.117943000002626 ], [ -82.580279000002008, 38.087934000002925 ], [ -82.549240000001518, 38.06795200000267 ], [ -82.518956000002149, 38.002153000002622 ], [ -82.46675800000223, 37.985329000003325 ], [ -82.471830000001233, 37.960291000003011 ], [ -82.497796000001642, 37.945488000002577 ], [ -82.502198000001471, 37.933052000002689 ], [ -82.470947000002226, 37.899478000003377 ], [ -82.470452000001359, 37.900139000002554 ], [ -82.438118000001239, 37.900213000002672 ], [ -82.42048400000192, 37.885446000002574 ], [ -82.412119000001994, 37.84389100000292 ], [ -82.398878000001517, 37.825084000003407 ], [ -82.376169000001866, 37.802030000003235 ], [ -82.340596000001824, 37.786028000002972 ], [ -82.333136000001574, 37.740848000003332 ], [ -82.311003000001676, 37.715670000002888 ], [ -82.296214000001697, 37.700695000002675 ], [ -82.302182000001864, 37.675667000003159 ], [ -82.258068000002012, 37.656883000002978 ], [ -82.226156000002192, 37.652913000002897 ], [ -82.214499000001595, 37.625400000003275 ], [ -82.186008000001323, 37.62841400000255 ], [ -82.156297000001899, 37.592365000003397 ], [ -82.126472000002281, 37.583152000002947 ], [ -82.130472000001731, 37.551849000002946 ], [ -82.104885000001971, 37.55521100000275 ], [ -82.075651000001827, 37.555915000002855 ], [ -82.056353000001309, 37.536804000002554 ], [ -81.968012000001835, 37.538035000003006 ], [ -82.149776000001282, 37.410228000003386 ], [ -82.190835000001897, 37.382221000003376 ], [ -82.254513000001992, 37.337741000003419 ], [ -82.314628000001278, 37.295794000003283 ], [ -82.34914600000198, 37.267905000002699 ], [ -82.396128000001667, 37.25691700000322 ], [ -82.507731000002011, 37.223042000002678 ], [ -82.513401000002276, 37.217098000003197 ], [ -82.565379000001229, 37.196099000003123 ], [ -82.604277000002, 37.174438000003242 ], [ -82.632900000001428, 37.15491600000324 ], [ -82.71223000000218, 37.124083000003218 ], [ -82.723760000001619, 37.093263000002523 ], [ -82.722964000002307, 37.047798000002913 ], [ -82.742759000001328, 37.042796000003172 ], [ -82.782863000001555, 37.007821000003005 ], [ -82.812085000001318, 37.006111000003202 ], [ -82.86919200000176, 36.974186000002803 ], [ -82.869212000001625, 36.972253000002958 ], [ -82.857644000001557, 36.928850000002619 ], [ -82.873777000002164, 36.912299000003188 ], [ -82.879080000002077, 36.889255000003288 ], [ -82.969243000002336, 36.858019000003239 ], [ -83.072836000001743, 36.854457000002562 ], [ -83.102005000002251, 36.828032000002857 ], [ -83.098480000001359, 36.813517000003245 ], [ -83.128987000001729, 36.775784000002723 ], [ -83.135120000001351, 36.742629000002651 ], [ -83.194252000001256, 36.739519000002922 ], [ -83.234541000001556, 36.727675000002641 ], [ -83.347635000001887, 36.700199000003387 ], [ -83.418682000001823, 36.668729000002749 ], [ -83.461016000001777, 36.664860000002747 ], [ -83.492805000001923, 36.670187000003359 ], [ -83.547871000001933, 36.65387400000332 ], [ -83.613896000001446, 36.63485000000265 ], [ -83.649313000001825, 36.616774000002941 ], [ -83.690789000002169, 36.58259600000266 ], [ -83.715497000001363, 36.582901000003083 ], [ -83.840492000001902, 36.585139000003387 ], [ -83.930762000001735, 36.587691000002877 ], [ -83.92471200000179, 36.602673000002795 ], [ -83.956389000001721, 36.644927000003001 ], [ -83.956234000002198, 36.645491000002878 ], [ -83.878615000002227, 36.680335000003119 ], [ -83.877503000001866, 36.687259000002918 ], [ -83.917233000002, 36.707051000002856 ], [ -83.944366000001551, 36.720314000003313 ], [ -83.959670000002362, 36.749377000002717 ], [ -83.987519000001569, 36.764200000003122 ], [ -83.988185000002403, 36.770131000002777 ], [ -83.980633000002172, 36.791483000003367 ], [ -84.039589000001797, 36.834106000003089 ], [ -84.041960000002106, 36.83647400000293 ], [ -84.066144000001842, 36.856791000002538 ], [ -84.0821220000023, 36.912134000003206 ], [ -84.086370000002361, 36.919257000002624 ], [ -84.11404800000183, 36.918522000002781 ], [ -84.135133000001517, 36.916570000002757 ], [ -84.12951000000173, 36.918093000003054 ], [ -84.125710000001575, 36.933815000002618 ], [ -84.12300800000132, 36.944921000003077 ], [ -84.104162000001836, 36.949079000003344 ], [ -84.099870000001701, 36.94848400000253 ], [ -84.090578000001614, 36.946946000003095 ], [ -84.091853000002104, 36.955992000003256 ], [ -84.103314000001802, 36.963777000002544 ], [ -84.114361000001637, 36.963755000003033 ], [ -84.120938000001331, 36.968743000002881 ], [ -84.13013900000233, 36.968758000003014 ], [ -84.177485000001823, 36.94074400000266 ], [ -84.209771000002334, 36.947092000002776 ], [ -84.256476000001385, 36.972864000003327 ], [ -84.297416000001917, 36.945931000003206 ] ] ] } },
{ "type": "Feature", "properties": { "opt_all": 6, "population": 748145.0, "voting_age_pop": 582488.0, "dem_votes": 133485.0, "rep_votes": 194833.0, "minority_pop": 105521.0, "dem_pct": 0.40657228650071814, "rep_pct": 0.59342771319469911 }, "geometry": { "type": "Polygon", "coordinates": [ [ [ -85.325510000001501, 36.62439500000275 ], [ -85.317207000001957, 36.645329000002647 ], [ -85.332901000002039, 36.66137000000294 ], [ -85.344811000002423, 36.683185000002915 ], [ -85.340906000001624, 36.734054000003269 ], [ -85.375632000001687, 36.780064000002625 ], [ -85.384002000001388, 36.791094000002495 ], [ -85.370707000001374, 36.790266000002589 ], [ -85.350700000002163, 36.797638000002898 ], [ -85.344294000001568, 36.803261000002898 ], [ -85.36517700000168, 36.829532000002693 ], [ -85.300469000002039, 36.853767000002826 ], [ -85.267193000002251, 36.819807000002541 ], [ -85.254913000002304, 36.83357900000329 ], [ -85.268177000001359, 36.870720000002741 ], [ -85.25014600000226, 36.879291000002482 ], [ -85.274950000001368, 36.897901000002541 ], [ -85.23202600000235, 36.925069000003163 ], [ -85.208891000001898, 36.986105000003285 ], [ -85.158680000001738, 37.042502000002486 ], [ -85.151972000001706, 37.050765000003132 ], [ -85.133624000002058, 37.073505000002669 ], [ -85.10199700000193, 37.111594000002974 ], [ -85.086826000001665, 37.129202000003126 ], [ -85.043316000001838, 37.186028000002665 ], [ -85.054330000002338, 37.210850000003049 ], [ -85.056898000002334, 37.257041000002957 ], [ -85.079934000001757, 37.267502000002573 ], [ -85.098703000002445, 37.276001000002502 ], [ -85.165174000001926, 37.310396000002726 ], [ -85.191674000001896, 37.284800000002477 ], [ -85.223594000002009, 37.262494000003002 ], [ -85.272446000002262, 37.260032000003108 ], [ -85.294739000001741, 37.245649000003091 ], [ -85.320607000001559, 37.220927000002554 ], [ -85.352771000001937, 37.192432000002675 ], [ -85.382584000001472, 37.16729100000299 ], [ -85.465167000002452, 37.133742000002826 ], [ -85.526881000001552, 37.109450000002767 ], [ -85.590958000002161, 37.11629800000275 ], [ -85.632399000002309, 37.12511300000287 ], [ -85.660898000001694, 37.143039000003277 ], [ -85.686482000001831, 37.182427000002896 ], [ -85.683112000001543, 37.212330000003185 ], [ -85.679340000002028, 37.246786000002828 ], [ -85.679125000002415, 37.278026000002967 ], [ -85.697325000001641, 37.301838000002526 ], [ -85.688604000001732, 37.351995000002695 ], [ -85.65290600000192, 37.391054000002704 ], [ -85.657332000001674, 37.421996000002522 ], [ -85.634521000002394, 37.4710660000028 ], [ -85.617671000001664, 37.467250000003098 ], [ -85.583497000002325, 37.469917000003171 ], [ -85.528855000002309, 37.454067000002418 ], [ -85.502771000002397, 37.482303000002553 ], [ -85.466250000001949, 37.465595000003049 ], [ -85.503473000001563, 37.549382000003078 ], [ -85.521290000002153, 37.554343000002909 ], [ -85.486396000001733, 37.620508000002602 ], [ -85.471493000001971, 37.648191000003081 ], [ -85.452874000002353, 37.68169900000305 ], [ -85.402053000001686, 37.730412000002801 ], [ -85.401784000001939, 37.730658000002883 ], [ -85.386618000002429, 37.710345000002597 ], [ -85.373898000002285, 37.673606000002671 ], [ -85.36560500000158, 37.667417000002949 ], [ -85.340697000001356, 37.65142300000285 ], [ -85.291907000001444, 37.64432400000252 ], [ -85.256949000001796, 37.630908000003309 ], [ -85.206947000001975, 37.631087000003255 ], [ -85.16608400000186, 37.631110000002657 ], [ -85.123351000001463, 37.631094000003266 ], [ -85.030172000002295, 37.631270000002822 ], [ -85.026526000001823, 37.664427000002767 ], [ -85.025021000002297, 37.678854000003014 ], [ -85.015800000002045, 37.740469000002648 ], [ -85.012051000001918, 37.767651000002758 ], [ -85.011878000001673, 37.769002000002452 ], [ -85.003235000002149, 37.835228000002715 ], [ -85.000520000002368, 37.854723000003069 ], [ -85.031456000001654, 37.881597000003161 ], [ -85.030528000002448, 37.891538000002406 ], [ -84.98719200000194, 37.905657000003259 ], [ -84.978191000001459, 37.922983000002894 ], [ -84.947837000001371, 37.949034000002762 ], [ -84.933085000001356, 37.954186000002899 ], [ -84.883748000002299, 37.939893000003245 ], [ -84.796327000001398, 37.970088000003187 ], [ -84.823246000001916, 37.981210000002577 ], [ -84.829778000001795, 38.023133000003277 ], [ -84.84681400000197, 38.040969000003052 ], [ -84.826930000001937, 38.060456000002645 ], [ -84.835272000001339, 38.076466000003215 ], [ -84.842174000001393, 38.100003000002658 ], [ -84.864908000001591, 38.116926000003033 ], [ -84.864804000002167, 38.141373000002567 ], [ -84.807418000001348, 38.163677000002728 ], [ -84.807264000002419, 38.163737000002811 ], [ -84.747124000001378, 38.186985000003304 ], [ -84.725168000001972, 38.195426000003202 ], [ -84.714158000001916, 38.175379000002671 ], [ -84.66895100000194, 38.176298000003193 ], [ -84.640882000002335, 38.146244000003016 ], [ -84.625079000001335, 38.116397000002685 ], [ -84.620601000001471, 38.129545000002913 ], [ -84.538989000001635, 38.159066000003165 ], [ -84.534769000001617, 38.160610000003111 ], [ -84.401847000001737, 38.207889000002965 ], [ -84.394630000002095, 38.206563000003257 ], [ -84.364775000001885, 38.195907000003125 ], [ -84.355230000002209, 38.178474000003256 ], [ -84.373755000001609, 38.157572000003334 ], [ -84.36847300000143, 38.134044000002746 ], [ -84.368508000001967, 38.133650000003186 ], [ -84.380788000001502, 38.113960000002614 ], [ -84.32667000000167, 38.084732000002511 ], [ -84.316370000002038, 38.09299300000297 ], [ -84.299488000002043, 38.081894000002805 ], [ -84.286461000001381, 38.067028000002779 ], [ -84.290492000001493, 38.030384000002542 ], [ -84.315611000002278, 38.004128000002687 ], [ -84.32246300000196, 38.00087800000324 ], [ -84.324342000001863, 37.966604000002476 ], [ -84.346980000001608, 37.899721000002778 ], [ -84.337393000002052, 37.892007000002472 ], [ -84.339566000002193, 37.883878000002504 ], [ -84.366169000001619, 37.897589000002696 ], [ -84.382571000001676, 37.892573000002621 ], [ -84.365681000002112, 37.860802000002643 ], [ -84.393007000001546, 37.847494000003287 ], [ -84.410672000001625, 37.871260000003176 ], [ -84.435720000001851, 37.847202000003016 ], [ -84.477260000001579, 37.852593000002528 ], [ -84.485128000001538, 37.840287000002462 ], [ -84.473798000001366, 37.797263000002459 ], [ -84.494798000002348, 37.786237000003283 ], [ -84.525643000001935, 37.76949700000273 ], [ -84.494485000002015, 37.747461000002595 ], [ -84.502975000001342, 37.734000000003178 ], [ -84.455024000001387, 37.690539000002445 ], [ -84.42852600000225, 37.656221000002994 ], [ -84.426607000002193, 37.637661000003327 ], [ -84.372342000002405, 37.592412000002824 ], [ -84.365335000001878, 37.57026200000265 ], [ -84.347805000001813, 37.539064000002817 ], [ -84.301161000001457, 37.536260000002983 ], [ -84.272434000001667, 37.520544000003305 ], [ -84.207985000001571, 37.523862000002509 ], [ -84.199489000002188, 37.52285800000255 ], [ -84.203552000001878, 37.486177000002847 ], [ -84.169838000001533, 37.430629000002632 ], [ -84.159608000001441, 37.41779100000295 ], [ -84.169481000001966, 37.385406000002789 ], [ -84.1344410000018, 37.366422000002551 ], [ -84.137898000002295, 37.31975900000333 ], [ -84.17031700000193, 37.305493000002528 ], [ -84.21668800000225, 37.270091000002715 ], [ -84.217827000001904, 37.242432000002701 ], [ -84.239242000002392, 37.240523000003037 ], [ -84.267229000001421, 37.222412000003331 ], [ -84.269036000001805, 37.185665000002693 ], [ -84.2890760000016, 37.151740000002775 ], [ -84.290724000002328, 37.110375000002989 ], [ -84.280033000001524, 37.101472000003227 ], [ -84.305046000001468, 37.079016000002518 ], [ -84.318001000001672, 37.04648200000274 ], [ -84.317060000001788, 36.999333000002821 ], [ -84.349247000002109, 36.989593000002898 ], [ -84.358024000001578, 36.959400000002752 ], [ -84.345872000001975, 36.939496000002578 ], [ -84.297416000001917, 36.945931000003206 ], [ -84.256476000001385, 36.972864000003327 ], [ -84.209771000002334, 36.947092000002776 ], [ -84.177485000001823, 36.94074400000266 ], [ -84.13013900000233, 36.968758000003014 ], [ -84.120938000001331, 36.968743000002881 ], [ -84.114361000001637, 36.963755000003033 ], [ -84.103314000001802, 36.963777000002544 ], [ -84.091853000002104, 36.955992000003256 ], [ -84.090578000001614, 36.946946000003095 ], [ -84.099870000001701, 36.94848400000253 ], [ -84.104162000001836, 36.949079000003344 ], [ -84.12300800000132, 36.944921000003077 ], [ -84.125710000001575, 36.933815000002618 ], [ -84.12951000000173, 36.918093000003054 ], [ -84.135133000001517, 36.916570000002757 ], [ -84.11404800000183, 36.918522000002781 ], [ -84.086370000002361, 36.919257000002624 ], [ -84.0821220000023, 36.912134000003206 ], [ -84.066144000001842, 36.856791000002538 ], [ -84.041960000002106, 36.83647400000293 ], [ -84.039589000001797, 36.834106000003089 ], [ -83.980633000002172, 36.791483000003367 ], [ -83.988185000002403, 36.770131000002777 ], [ -83.987519000001569, 36.764200000003122 ], [ -83.959670000002362, 36.749377000002717 ], [ -83.944366000001551, 36.720314000003313 ], [ -83.917233000002, 36.707051000002856 ], [ -83.877503000001866, 36.687259000002918 ], [ -83.878615000002227, 36.680335000003119 ], [ -83.956234000002198, 36.645491000002878 ], [ -83.956389000001721, 36.644927000003001 ], [ -83.92471200000179, 36.602673000002795 ], [ -83.930762000001735, 36.587691000002877 ], [ -84.050949000001367, 36.590417000002965 ], [ -84.104641000001479, 36.591317000003144 ], [ -84.146288000001334, 36.591478000003299 ], [ -84.227292000002322, 36.592045000002734 ], [ -84.393895000001663, 36.595039000002828 ], [ -84.605192000001537, 36.598777000003061 ], [ -84.778454000002355, 36.603290000002566 ], [ -84.905139000001711, 36.609622000002815 ], [ -84.974811000002035, 36.615465000002622 ], [ -85.08639600000177, 36.621921000002835 ], [ -85.136033000002413, 36.623813000002791 ], [ -85.214038000001906, 36.62568200000262 ], [ -85.271118000001891, 36.626723000002634 ], [ -85.296002000001664, 36.625718000003026 ], [ -85.325510000001501, 36.62439500000275 ] ] ] } }
]
}
