{
"type": "FeatureCollection",
"name": "louisiana_optimized_districts_all",
"crs": { "type": "name", "properties": { "name": "urn:ogc:def:crs:OGC:1.3:CRS84" } },
"features": [
{ "type": "Feature", "properties": { "opt_all": 1, "population": 776847.0, "voting_age_pop": 595462.0, "dem_votes": 31453.0, "rep_votes": 61197.0, "minority_pop": 206282.0, "dem_pct": 0.33948192084243722, "rep_pct": 0.66051807807823193 }, "geometry": { "type": "Polygon", "coordinates": [ [ [ -90.70783767388086, 29.66538532547251 ], [ -90.739215682789833, 29.675394326702605 ], [ -90.751078686302804, 29.682781327953968 ], [ -90.777555694988777, 29.720278335336651 ], [ -90.782858696832122, 29.730334337369499 ], [ -90.804800703612202, 29.750962341197575 ], [ -90.804747703612122, 29.751299341272848 ], [ -90.810369706144499, 29.776204346532911 ], [ -90.827804710853684, 29.775833345914492 ], [ -90.829098710726754, 29.764073343308688 ], [ -90.825916709792722, 29.762279343015663 ], [ -90.827080709932659, 29.757954342036609 ], [ -90.806254703517126, 29.738855338510547 ], [ -90.801880701889473, 29.727901336253822 ], [ -90.816312705317941, 29.715956333201738 ], [ -90.890362724682916, 29.698855327192984 ], [ -90.889162725076957, 29.716678331119581 ], [ -90.882092724344204, 29.74590233771141 ], [ -90.844218714491006, 29.755887341056649 ], [ -90.888269727098702, 29.772597343340863 ], [ -90.853642718599204, 29.79420234912067 ], [ -90.852500718372383, 29.79622634959706 ], [ -90.848700717610555, 29.802795351146024 ], [ -90.852316718639898, 29.804017351300423 ], [ -90.924631739294554, 29.830331354789152 ], [ -90.925051739410165, 29.830382354786884 ], [ -90.909811737200741, 29.877200365446996 ], [ -90.885457730621638, 29.877567366286115 ], [ -90.885754731842553, 29.905353372320462 ], [ -90.886091732689678, 29.923707376300577 ], [ -90.91178974011828, 29.935077377967065 ], [ -90.911809741919726, 29.978505387398258 ], [ -90.946330752198605, 30.000962391186111 ], [ -90.946378753672036, 30.036047398793706 ], [ -90.963750759660726, 30.066836404917098 ], [ -90.953897757273396, 30.073525406677465 ], [ -90.914662748127483, 30.10884041557027 ], [ -90.915570748560313, 30.113290416505393 ], [ -90.869350736404314, 30.122020419863244 ], [ -90.759588707545703, 30.143581428020291 ], [ -90.707915693945296, 30.153661431847041 ], [ -90.723917696275521, 30.105655420923213 ], [ -90.721009694764575, 30.088396417268186 ], [ -90.689069684324721, 30.04590940904518 ], [ -90.672711679890782, 30.046074409595334 ], [ -90.661218676967422, 30.050817410988923 ], [ -90.642116676615046, 30.166453436710935 ], [ -90.631910676149644, 30.221195448910805 ], [ -90.592026664767118, 30.20832944739055 ], [ -90.554152653935802, 30.195633445839125 ], [ -90.509081643132021, 30.230140454764005 ], [ -90.501838642017361, 30.250383459388683 ], [ -90.485831638788383, 30.276997465674853 ], [ -90.489354643091005, 30.355551482592361 ], [ -90.519954653932643, 30.414224494308943 ], [ -90.521446654344516, 30.414340494285707 ], [ -90.546887662010207, 30.431614497200165 ], [ -90.54959366318208, 30.441743499301737 ], [ -90.552859664985363, 30.462926503774487 ], [ -90.558234667138834, 30.478924507055769 ], [ -90.566882670593245, 30.504333512261319 ], [ -90.566905671545925, 30.52613551696675 ], [ -90.567040672368506, 30.544206520860808 ], [ -90.567037673800542, 30.577058527945624 ], [ -90.567145676722916, 30.643094542169582 ], [ -90.567131677022942, 30.650020543661224 ], [ -90.634600695372527, 30.649874541411137 ], [ -90.651850700064358, 30.649885540846199 ], [ -90.763324730356558, 30.649824537161415 ], [ -90.852667754602322, 30.649569534159848 ], [ -90.863863757633723, 30.649423533759169 ], [ -90.877218761255364, 30.649386533310462 ], [ -90.910706770339658, 30.64939053220467 ], [ -90.848773756641123, 30.719463549279567 ], [ -90.839212754271685, 30.724550550687539 ], [ -90.848610757670102, 30.743594554456347 ], [ -90.837550757135475, 30.798864566661074 ], [ -90.841781760354039, 30.8450005763913 ], [ -90.857988766022487, 30.873149581866382 ], [ -90.845371763292704, 30.888579585587721 ], [ -90.861024769660006, 30.93537859505658 ], [ -90.825834763012153, 30.99936660989826 ], [ -90.667678720015559, 30.999479615266683 ], [ -90.567200692672643, 30.999738618711408 ], [ -90.456632662535696, 30.999674622421061 ], [ -90.347321632746656, 31.000444626260503 ], [ -90.194397590984579, 31.000758631459551 ], [ -90.148373578410286, 31.001022633057943 ], [ -90.073132557831514, 31.001213635618377 ], [ -90.009085540307055, 31.001458637812402 ], [ -89.928453518213487, 31.001455640505409 ], [ -89.863703500482757, 31.001975642778007 ], [ -89.728152463299892, 31.002436647393132 ], [ -89.735691463765008, 30.966578639400019 ], [ -89.755953468324606, 30.944124633877038 ], [ -89.744794464138536, 30.918938628803755 ], [ -89.773440471049483, 30.89755062323233 ], [ -89.797338473843766, 30.812597604067292 ], [ -89.81490447828773, 30.804115601653994 ], [ -89.832931481542033, 30.765738592752697 ], [ -89.830437480684495, 30.761783591978148 ], [ -89.831444478926258, 30.715401581895367 ], [ -89.84639748265198, 30.706857579555116 ], [ -89.846379482563123, 30.704947579141049 ], [ -89.842335479755619, 30.6660205708313 ], [ -89.830467474455077, 30.618940560998706 ], [ -89.808148466182146, 30.56911955089566 ], [ -89.779164457154522, 30.544034546375705 ], [ -89.756573449035372, 30.499228537348827 ], [ -89.721410438948112, 30.48888853622547 ], [ -89.683636426999982, 30.45179252934749 ], [ -89.681676424387959, 30.402993518758731 ], [ -89.64516141204669, 30.348109507927507 ], [ -89.641585409185126, 30.303447498271403 ], [ -89.631619404504775, 30.257018488420421 ], [ -89.614748399125261, 30.239067485018055 ], [ -89.571912384940944, 30.180726473567258 ], [ -89.538640376434586, 30.195895477938254 ], [ -89.494978362985833, 30.160755471586281 ], [ -89.593403389114684, 30.139072463750097 ], [ -89.625059398398477, 30.153498465927793 ], [ -89.685292415826211, 30.175351468836482 ], [ -89.714042423122166, 30.161219464837018 ], [ -89.755323434791407, 30.169755465413999 ], [ -89.797419445950297, 30.160762462123703 ], [ -89.848408461134355, 30.19008446694157 ], [ -89.903239476500957, 30.198665467093129 ], [ -90.040282512161895, 30.155119453261396 ], [ -90.108124531104593, 30.164945453271223 ], [ -90.118546528348958, 30.029850423420431 ], [ -90.120990528756167, 30.023553421965737 ], [ -90.121785528535341, 30.012899419609411 ], [ -90.121852528526716, 30.012254419466849 ], [ -90.127927530226884, 30.013280419501417 ], [ -90.129849530754697, 30.01335341945753 ], [ -90.130356530893877, 30.013372419446593 ], [ -90.133745531824275, 30.013501419368811 ], [ -90.136387532549875, 30.013609419310217 ], [ -90.137391532825276, 30.013654419289018 ], [ -90.139454533391941, 30.01373841924309 ], [ -90.141944534076075, 30.013840419187485 ], [ -90.145103534937064, 30.013812419082463 ], [ -90.149158536044055, 30.013830418960502 ], [ -90.154965537644344, 30.01421041886266 ], [ -90.155247537283486, 30.003567416525311 ], [ -90.160657538770366, 30.003817416411518 ], [ -90.164555539843917, 30.004060416342963 ], [ -90.168523540936647, 30.004306416273401 ], [ -90.170300541426883, 30.004431416245406 ], [ -90.172467542023441, 30.004575416209271 ], [ -90.178052543561407, 30.004918416110119 ], [ -90.178769543956676, 30.009766417148469 ], [ -90.179637544442315, 30.015814418443991 ], [ -90.180318544794602, 30.019858419307681 ], [ -90.187146546696837, 30.020817419304127 ], [ -90.192769548289561, 30.022252419442477 ], [ -90.196461549335879, 30.02319441953329 ], [ -90.203625551365306, 30.025021419708917 ], [ -90.20684555225894, 30.025391419689541 ], [ -90.216328554851643, 30.02555241942817 ], [ -90.217740555390961, 30.029277420198703 ], [ -90.221432556414399, 30.02969442017401 ], [ -90.22507255741732, 30.029948420116082 ], [ -90.232556559477516, 30.030401419981391 ], [ -90.233174559352094, 30.023293418408247 ], [ -90.239133560982438, 30.023425418251545 ], [ -90.239468560919178, 30.019671417420728 ], [ -90.228450557885864, 30.018968417610527 ], [ -90.224747556868522, 30.018786417686204 ], [ -90.223355556333274, 30.01499241690053 ], [ -90.222386555959716, 30.012347416352458 ], [ -90.221249555481563, 30.008261415494772 ], [ -90.217564553978121, 29.996142412959532 ], [ -90.216664553633365, 29.993743412463122 ], [ -90.213460552397905, 29.984933410635925 ], [ -90.210873551400496, 29.977833409162741 ], [ -90.209223550781203, 29.973697408309405 ], [ -90.20534854928944, 29.963087406107658 ], [ -90.199422547011537, 29.946927402754376 ], [ -90.198033546483543, 29.943291402001297 ], [ -90.191457544469444, 29.937896401024215 ], [ -90.197636546106537, 29.93670340057129 ], [ -90.198765546401603, 29.936393400468145 ], [ -90.201497547114755, 29.935609400212044 ], [ -90.204632547973205, 29.935696400134368 ], [ -90.206166548398556, 29.935864400123521 ], [ -90.212835550427556, 29.941012401043871 ], [ -90.218677551705596, 29.933321399178471 ], [ -90.229443555566604, 29.9559434037958 ], [ -90.222989554104117, 29.963200405584129 ], [ -90.218494553097301, 29.968533406890881 ], [ -90.216222552708913, 29.974168408194465 ], [ -90.221295554270526, 29.978493408983073 ], [ -90.222462554427338, 29.97458140809065 ], [ -90.226239555467856, 29.974833408028527 ], [ -90.228978556222202, 29.975011407982137 ], [ -90.238354558324119, 29.963927405266055 ], [ -90.234463557164077, 29.961516404859708 ], [ -90.231045556145716, 29.959397404502223 ], [ -90.230275555867834, 29.957741404163507 ], [ -90.27557156751574, 29.940688399025703 ], [ -90.275532567485598, 29.940194398918383 ], [ -90.268282564071313, 29.904992391439009 ], [ -90.241620555322925, 29.868607384293298 ], [ -90.211392546124884, 29.845004380051002 ], [ -90.173207535006156, 29.827529377392818 ], [ -90.17251353387536, 29.804221372297249 ], [ -90.211293541484636, 29.73050935491997 ], [ -90.228162544543963, 29.692033345947944 ], [ -90.189931533819475, 29.684415345435845 ], [ -90.219161539849239, 29.635731333836716 ], [ -90.277700553738342, 29.583796320632967 ], [ -90.352261572938005, 29.556037312272679 ], [ -90.336347568053753, 29.541986309658853 ], [ -90.33589656745616, 29.529925307016892 ], [ -90.292963555130555, 29.513654304722511 ], [ -90.32253456199166, 29.483353297156093 ], [ -90.320063561155294, 29.479148296302942 ], [ -90.311590558315118, 29.465504293548431 ], [ -90.303433555471159, 29.449517290266279 ], [ -90.298521553634643, 29.436728287590817 ], [ -90.291908551359924, 29.424530285095894 ], [ -90.278319547188758, 29.412389282820619 ], [ -90.265239542765357, 29.390172278302579 ], [ -90.256552539445579, 29.365495273106575 ], [ -90.268234543475018, 29.387426277606757 ], [ -90.294169549999964, 29.373624273786209 ], [ -90.319749556668299, 29.366069271357535 ], [ -90.345417564584807, 29.39014427591113 ], [ -90.350878566754758, 29.407755279635239 ], [ -90.399178580164403, 29.414796279748451 ], [ -90.441631592654602, 29.439129283842952 ], [ -90.43767559253584, 29.463614289355448 ], [ -90.521424617075738, 29.509038296835019 ], [ -90.518306617165521, 29.532803302153468 ], [ -90.550040626599198, 29.553433305727644 ], [ -90.574549633471193, 29.558892306184749 ], [ -90.594189639237896, 29.569891308004628 ], [ -90.621169647725338, 29.599195313614704 ], [ -90.66347365983728, 29.615091315812418 ], [ -90.687577667583781, 29.64535932170789 ], [ -90.70783767388086, 29.66538532547251 ] ] ] } },
{ "type": "Feature", "properties": { "opt_all": 2, "population": 775987.0, "voting_age_pop": 609076.0, "dem_votes": 58721.0, "rep_votes": 31962.0, "minority_pop": 347452.0, "dem_pct": 0.6475414348361419, "rep_pct": 0.35245856406111553 }, "geometry": { "type": "Polygon", "coordinates": [ [ [ -90.228162544543963, 29.692033345947944 ], [ -90.211293541484636, 29.73050935491997 ], [ -90.17251353387536, 29.804221372297249 ], [ -90.173207535006156, 29.827529377392818 ], [ -90.211392546124884, 29.845004380051002 ], [ -90.241620555322925, 29.868607384293298 ], [ -90.268282564071313, 29.904992391439009 ], [ -90.275532567485598, 29.940194398918383 ], [ -90.27557156751574, 29.940688399025703 ], [ -90.230275555867834, 29.957741404163507 ], [ -90.231045556145716, 29.959397404502223 ], [ -90.234463557164077, 29.961516404859708 ], [ -90.238354558324119, 29.963927405266055 ], [ -90.228978556222202, 29.975011407982137 ], [ -90.226239555467856, 29.974833408028527 ], [ -90.222462554427338, 29.97458140809065 ], [ -90.221295554270526, 29.978493408983073 ], [ -90.216222552708913, 29.974168408194465 ], [ -90.218494553097301, 29.968533406890881 ], [ -90.222989554104117, 29.963200405584129 ], [ -90.229443555566604, 29.9559434037958 ], [ -90.218677551705596, 29.933321399178471 ], [ -90.212835550427556, 29.941012401043871 ], [ -90.206166548398556, 29.935864400123521 ], [ -90.204632547973205, 29.935696400134368 ], [ -90.201497547114755, 29.935609400212044 ], [ -90.198765546401603, 29.936393400468145 ], [ -90.197636546106537, 29.93670340057129 ], [ -90.191457544469444, 29.937896401024215 ], [ -90.198033546483543, 29.943291402001297 ], [ -90.199422547011537, 29.946927402754376 ], [ -90.20534854928944, 29.963087406107658 ], [ -90.209223550781203, 29.973697408309405 ], [ -90.210873551400496, 29.977833409162741 ], [ -90.213460552397905, 29.984933410635925 ], [ -90.216664553633365, 29.993743412463122 ], [ -90.217564553978121, 29.996142412959532 ], [ -90.221249555481563, 30.008261415494772 ], [ -90.222386555959716, 30.012347416352458 ], [ -90.223355556333274, 30.01499241690053 ], [ -90.224747556868522, 30.018786417686204 ], [ -90.228450557885864, 30.018968417610527 ], [ -90.239468560919178, 30.019671417420728 ], [ -90.239133560982438, 30.023425418251545 ], [ -90.233174559352094, 30.023293418408247 ], [ -90.232556559477516, 30.030401419981391 ], [ -90.22507255741732, 30.029948420116082 ], [ -90.221432556414399, 30.02969442017401 ], [ -90.217740555390961, 30.029277420198703 ], [ -90.216328554851643, 30.02555241942817 ], [ -90.20684555225894, 30.025391419689541 ], [ -90.203625551365306, 30.025021419708917 ], [ -90.196461549335879, 30.02319441953329 ], [ -90.192769548289561, 30.022252419442477 ], [ -90.187146546696837, 30.020817419304127 ], [ -90.180318544794602, 30.019858419307681 ], [ -90.179637544442315, 30.015814418443991 ], [ -90.178769543956676, 30.009766417148469 ], [ -90.178052543561407, 30.004918416110119 ], [ -90.172467542023441, 30.004575416209271 ], [ -90.170300541426883, 30.004431416245406 ], [ -90.168523540936647, 30.004306416273401 ], [ -90.164555539843917, 30.004060416342963 ], [ -90.160657538770366, 30.003817416411518 ], [ -90.155247537283486, 30.003567416525311 ], [ -90.154965537644344, 30.01421041886266 ], [ -90.149158536044055, 30.013830418960502 ], [ -90.145103534937064, 30.013812419082463 ], [ -90.141944534076075, 30.013840419187485 ], [ -90.139454533391941, 30.01373841924309 ], [ -90.137391532825276, 30.013654419289018 ], [ -90.136387532549875, 30.013609419310217 ], [ -90.133745531824275, 30.013501419368811 ], [ -90.130356530893877, 30.013372419446593 ], [ -90.129849530754697, 30.01335341945753 ], [ -90.127927530226884, 30.013280419501417 ], [ -90.121852528526716, 30.012254419466849 ], [ -90.121785528535341, 30.012899419609411 ], [ -90.120990528756167, 30.023553421965737 ], [ -90.118546528348958, 30.029850423420431 ], [ -90.108124531104593, 30.164945453271223 ], [ -90.040282512161895, 30.155119453261396 ], [ -89.903239476500957, 30.198665467093129 ], [ -89.848408461134355, 30.19008446694157 ], [ -89.797419445950297, 30.160762462123703 ], [ -89.755323434791407, 30.169755465413999 ], [ -89.714042423122166, 30.161219464837018 ], [ -89.685292415826211, 30.175351468836482 ], [ -89.625059398398477, 30.153498465927793 ], [ -89.593403389114684, 30.139072463750097 ], [ -89.494978362985833, 30.160755471586281 ], [ -89.416716342176358, 30.177644477742628 ], [ -89.288399306911685, 30.178475481929311 ], [ -89.250045296642483, 30.185524484676531 ], [ -89.183674279461655, 30.212160492613059 ], [ -89.096481253515122, 30.165834485114775 ], [ -88.85491818558809, 30.135537485899956 ], [ -88.834352178076372, 30.090713476609675 ], [ -88.78367116147038, 30.026690463969143 ], [ -88.764500153963198, 29.971949452400555 ], [ -88.758393150122885, 29.918276440656214 ], [ -88.767260149486418, 29.840776423142231 ], [ -88.80182215545625, 29.750202401922081 ], [ -88.879240172805254, 29.647414376680519 ], [ -88.91266218063916, 29.61178536773339 ], [ -88.960209192406992, 29.577109358581275 ], [ -89.038879210810876, 29.492234337298601 ], [ -89.072300219193096, 29.47084333153413 ], [ -89.119456231687309, 29.458070327291253 ], [ -89.142078236815792, 29.429470320237321 ], [ -89.137617233750532, 29.381434309630318 ], [ -89.112164225155013, 29.339677301031912 ], [ -89.069431211671073, 29.294302292113073 ], [ -89.022620198030111, 29.274468289024448 ], [ -88.942059175050801, 29.253747286706012 ], [ -88.918315167849372, 29.236281283468159 ], [ -88.909156163971872, 29.200166275615103 ], [ -88.927814166029393, 29.117280256430927 ], [ -88.996907183882129, 29.08530924725974 ], [ -89.012693186103519, 29.02768523383433 ], [ -89.045643194413728, 29.006947228226068 ], [ -89.09606020592723, 28.942498212274614 ], [ -89.133289215337655, 28.919733206092324 ], [ -89.196541233465098, 28.939969208864575 ], [ -89.23490824573841, 28.987157218397428 ], [ -89.279609257673343, 28.977788215021377 ], [ -89.384732282644052, 28.871508188140005 ], [ -89.425702293286363, 28.855132183301407 ], [ -89.460217303016591, 28.862496183984913 ], [ -89.487645311441113, 28.887376188804119 ], [ -89.491849313763908, 28.919411195882265 ], [ -89.465741308627443, 28.97444220897891 ], [ -89.46500831262091, 29.087765234409058 ], [ -89.502324325490321, 29.158381249139588 ], [ -89.561665342870981, 29.188082254060784 ], [ -89.610432356629445, 29.198640255003511 ], [ -89.899669434091635, 29.155014236878049 ], [ -90.032330469547063, 29.135049228582265 ], [ -90.089097483507061, 29.094653217947609 ], [ -90.089490486209954, 29.16356123325998 ], [ -90.063718480837991, 29.207238243716144 ], [ -90.029256473800189, 29.269294258504281 ], [ -90.000073466816204, 29.294917265048799 ], [ -90.023587474294288, 29.322604270499291 ], [ -90.035306478551306, 29.350173276265973 ], [ -90.020627477571239, 29.428466294044192 ], [ -90.078244494757357, 29.466130300660595 ], [ -90.137509511350842, 29.477168301329552 ], [ -90.174214523931397, 29.5428973147385 ], [ -90.187825527785563, 29.546572315139976 ], [ -90.192021529263783, 29.555064316886327 ], [ -90.151730519574159, 29.587876325333738 ], [ -90.155522523543297, 29.661963341540279 ], [ -90.189931533819475, 29.684415345435845 ], [ -90.228162544543963, 29.692033345947944 ] ] ] } },
{ "type": "Feature", "properties": { "opt_all": 3, "population": 778920.0, "voting_age_pop": 589878.0, "dem_votes": 27815.0, "rep_votes": 57836.0, "minority_pop": 203512.0, "dem_pct": 0.32474810530554443, "rep_pct": 0.67525189352692683 }, "geometry": { "type": "Polygon", "coordinates": [ [ [ -93.487760419196476, 29.717816250096639 ], [ -93.686734470580944, 29.694817238911977 ], [ -93.770153491490476, 29.670830231199123 ], [ -93.779323491442256, 29.611694218423807 ], [ -93.814357500009621, 29.596581214125447 ], [ -93.837418509935716, 29.689890233080153 ], [ -93.89847652937496, 29.771582248327309 ], [ -93.928814538403842, 29.797085252713583 ], [ -93.922750537733606, 29.818813257473213 ], [ -93.859902522997359, 29.85992626813621 ], [ -93.830380516716914, 29.894363276323435 ], [ -93.790093510089719, 29.986569296984506 ], [ -93.73974049847476, 30.02399230647686 ], [ -93.721304494855474, 30.052354313028253 ], [ -93.725916497198796, 30.078474318352601 ], [ -93.692855490976015, 30.135218331328598 ], [ -93.700823494426018, 30.166231337559019 ], [ -93.675145490014856, 30.219630349582179 ], [ -93.638182480254002, 30.218830350640417 ], [ -93.600185470131137, 30.216091351326281 ], [ -93.587558466813917, 30.21625935177978 ], [ -93.56082245918644, 30.202917349870116 ], [ -93.546784455829282, 30.210677351960445 ], [ -93.506201446115497, 30.233017357985556 ], [ -93.460922434357798, 30.237109360343293 ], [ -93.393832416668204, 30.237310362607065 ], [ -93.384885415816086, 30.27163637010463 ], [ -93.402115422054294, 30.309940377562015 ], [ -93.355715408940299, 30.290351374998561 ], [ -93.314354398061724, 30.291396376591347 ], [ -93.273960387524397, 30.294492378582898 ], [ -93.248830380990057, 30.296950379933161 ], [ -93.244585380045805, 30.30097438091898 ], [ -93.232852377194405, 30.306673382505117 ], [ -93.219467373794359, 30.309838383614245 ], [ -93.20027836958856, 30.329514388384769 ], [ -93.200280369609303, 30.329969388480009 ], [ -93.169052361351845, 30.330091389543835 ], [ -93.151774355759514, 30.30696138525709 ], [ -93.121608347271177, 30.295547383857993 ], [ -93.129946348620606, 30.276024379474716 ], [ -93.081295335745864, 30.27618938111863 ], [ -93.086209338182783, 30.302009386389798 ], [ -93.031131323753883, 30.305718388995356 ], [ -93.030887322349287, 30.275234382584149 ], [ -92.878374281918482, 30.275633387703532 ], [ -92.877884279229235, 30.217025375345091 ], [ -92.834374267692155, 30.217318376834907 ], [ -92.821658265207361, 30.237808381582809 ], [ -92.775076252828384, 30.237716383093808 ], [ -92.723759239601407, 30.247175386779418 ], [ -92.723732240194096, 30.260933389690639 ], [ -92.627868214591203, 30.25861539234943 ], [ -92.625145215732275, 30.30134040148242 ], [ -92.58486220517176, 30.305115403608053 ], [ -92.552701196109879, 30.293768402263854 ], [ -92.559467197143917, 30.276165398312951 ], [ -92.512938185080557, 30.283810401461196 ], [ -92.504056183931084, 30.311684407659762 ], [ -92.473133175371956, 30.304475407149067 ], [ -92.413858159530363, 30.303712408935876 ], [ -92.3967991549776, 30.303685409490399 ], [ -92.397262156124285, 30.32710841444327 ], [ -92.318447133972001, 30.301653411631076 ], [ -92.265741120434313, 30.314101416004572 ], [ -92.262717118353663, 30.284854409889331 ], [ -92.261851117720582, 30.275624407954759 ], [ -92.217772105412962, 30.263484406814609 ], [ -92.176289094612841, 30.270224409604275 ], [ -92.142134086098437, 30.284551413769247 ], [ -92.10811307583414, 30.25777540917808 ], [ -92.108118075678163, 30.254134408402233 ], [ -92.091095071282083, 30.257844409747328 ], [ -92.091077071121163, 30.254233408978852 ], [ -92.082903069080601, 30.257649409972956 ], [ -92.050386061481916, 30.283243416488119 ], [ -92.050059061594126, 30.2878664174841 ], [ -92.049405061852966, 30.297850419632592 ], [ -92.049501062638981, 30.315372423362451 ], [ -92.029076056800804, 30.306910422227858 ], [ -92.038614060591058, 30.33531842796647 ], [ -91.998355049594863, 30.330507428259981 ], [ -91.976835042676541, 30.30403442332188 ], [ -91.961947039077501, 30.313058425732557 ], [ -91.9523350356218, 30.292785421723242 ], [ -91.949950034471456, 30.280977419281552 ], [ -91.928449029124806, 30.290650422046443 ], [ -91.929320029826883, 30.301469424326857 ], [ -91.851539010066745, 30.327003432315227 ], [ -91.826876003309323, 30.323835432443953 ], [ -91.81148599865756, 30.311865430390476 ], [ -91.875271014676358, 30.286399422872737 ], [ -91.8888310173744, 30.264661417789 ], [ -91.880707014375005, 30.245651413991943 ], [ -91.877817013229361, 30.237039412245089 ], [ -91.820055998599202, 30.257253418441419 ], [ -91.811094995542106, 30.242135415499423 ], [ -91.8031619942644, 30.261926419989461 ], [ -91.755003981582959, 30.267782422806238 ], [ -91.727248972590203, 30.232087416067358 ], [ -91.779075985622825, 30.211360409952217 ], [ -91.736726972927244, 30.180489404708528 ], [ -91.738596972510095, 30.158971400035998 ], [ -91.738286972424902, 30.158916400034599 ], [ -91.726633967741279, 30.122418392582045 ], [ -91.765343977543679, 30.108437388340398 ], [ -91.797026984547358, 30.072988379720641 ], [ -91.812022987653478, 30.05125937457802 ], [ -91.768782976568886, 30.063619378613073 ], [ -91.773951975941003, 30.015825368184817 ], [ -91.779099976750061, 30.002177365088269 ], [ -91.780493976567698, 29.988929362197258 ], [ -91.753724968974922, 29.979238360964665 ], [ -91.718603958642944, 29.957696357445059 ], [ -91.699832952646602, 29.934831353117517 ], [ -91.680872946976876, 29.920994350736148 ], [ -91.658888940426976, 29.905537348099468 ], [ -91.656672939941245, 29.908181348739149 ], [ -91.655229939627858, 29.909972349170523 ], [ -91.624352932806801, 29.945465357795367 ], [ -91.571694918802919, 29.949197360264311 ], [ -91.471958892258201, 29.95630936495013 ], [ -91.255234834469235, 29.971462375063759 ], [ -91.214081820712238, 29.907574362529225 ], [ -91.199651814890601, 29.86081935284626 ], [ -91.182822809744806, 29.846177350196275 ], [ -91.109467789021735, 29.823950347656005 ], [ -91.092753783590481, 29.801579343314529 ], [ -91.094383782523366, 29.764580335220444 ], [ -91.106556784549696, 29.733492328081159 ], [ -91.100015781403087, 29.699407320864115 ], [ -91.105254780545039, 29.643017308420109 ], [ -91.082616773779819, 29.626819305583066 ], [ -91.012409758101199, 29.708698325586465 ], [ -91.006895756868843, 29.715098327150574 ], [ -90.967559746250259, 29.715610328473311 ], [ -90.889162725076957, 29.716678331119581 ], [ -90.890362724682916, 29.698855327192984 ], [ -90.816312705317941, 29.715956333201738 ], [ -90.801880701889473, 29.727901336253822 ], [ -90.806254703517126, 29.738855338510547 ], [ -90.827080709932659, 29.757954342036609 ], [ -90.825916709792722, 29.762279343015663 ], [ -90.829098710726754, 29.764073343308688 ], [ -90.827804710853684, 29.775833345914492 ], [ -90.810369706144499, 29.776204346532911 ], [ -90.804747703612122, 29.751299341272848 ], [ -90.804800703612202, 29.750962341197575 ], [ -90.782858696832122, 29.730334337369499 ], [ -90.777555694988777, 29.720278335336651 ], [ -90.751078686302804, 29.682781327953968 ], [ -90.739215682789833, 29.675394326702605 ], [ -90.70783767388086, 29.66538532547251 ], [ -90.687577667583781, 29.64535932170789 ], [ -90.66347365983728, 29.615091315812418 ], [ -90.621169647725338, 29.599195313614704 ], [ -90.594189639237896, 29.569891308004628 ], [ -90.574549633471193, 29.558892306184749 ], [ -90.550040626599198, 29.553433305727644 ], [ -90.518306617165521, 29.532803302153468 ], [ -90.521424617075738, 29.509038296835019 ], [ -90.43767559253584, 29.463614289355448 ], [ -90.441631592654602, 29.439129283842952 ], [ -90.399178580164403, 29.414796279748451 ], [ -90.350878566754758, 29.407755279635239 ], [ -90.345417564584807, 29.39014427591113 ], [ -90.319749556668299, 29.366069271357535 ], [ -90.294169549999964, 29.373624273786209 ], [ -90.268234543475018, 29.387426277606757 ], [ -90.256552539445579, 29.365495273106575 ], [ -90.265239542765357, 29.390172278302579 ], [ -90.278319547188758, 29.412389282820619 ], [ -90.291908551359924, 29.424530285095894 ], [ -90.298521553634643, 29.436728287590817 ], [ -90.303433555471159, 29.449517290266279 ], [ -90.311590558315118, 29.465504293548431 ], [ -90.320063561155294, 29.479148296302942 ], [ -90.32253456199166, 29.483353297156093 ], [ -90.292963555130555, 29.513654304722511 ], [ -90.33589656745616, 29.529925307016892 ], [ -90.336347568053753, 29.541986309658853 ], [ -90.352261572938005, 29.556037312272679 ], [ -90.277700553738342, 29.583796320632967 ], [ -90.219161539849239, 29.635731333836716 ], [ -90.189931533819475, 29.684415345435845 ], [ -90.155522523543297, 29.661963341540279 ], [ -90.151730519574159, 29.587876325333738 ], [ -90.192021529263783, 29.555064316886327 ], [ -90.187825527785563, 29.546572315139976 ], [ -90.174214523931397, 29.5428973147385 ], [ -90.137509511350842, 29.477168301329552 ], [ -90.078244494757357, 29.466130300660595 ], [ -90.020627477571239, 29.428466294044192 ], [ -90.035306478551306, 29.350173276265973 ], [ -90.023587474294288, 29.322604270499291 ], [ -90.000073466816204, 29.294917265048799 ], [ -90.029256473800189, 29.269294258504281 ], [ -90.063718480837991, 29.207238243716144 ], [ -90.089490486209954, 29.16356123325998 ], [ -90.089097483507061, 29.094653217947609 ], [ -90.125141492400104, 29.069864211389135 ], [ -90.200701511720354, 29.036189201714308 ], [ -90.239067522048245, 29.033109199921434 ], [ -90.344324549561421, 29.00318319023209 ], [ -90.409637567021804, 28.995393186618465 ], [ -90.479852586584784, 29.008617187527289 ], [ -90.552552607372462, 29.036811191675884 ], [ -90.720770651317153, 28.992635177018943 ], [ -90.822653678645239, 28.98591617258371 ], [ -90.907085701675484, 28.99113717129044 ], [ -90.970292719278916, 29.005032172524764 ], [ -91.008764730495159, 29.026907176231447 ], [ -91.02303673587906, 29.06740318474197 ], [ -90.973047724390042, 29.120479197898643 ], [ -91.006059733290556, 29.119999196825106 ], [ -91.118392764486245, 29.142775198532998 ], [ -91.149364773695922, 29.165089202523447 ], [ -91.207850789700259, 29.171164202131077 ], [ -91.292686813522977, 29.196182205108208 ], [ -91.354277831786177, 29.239611212790425 ], [ -91.421133852234846, 29.302833224618471 ], [ -91.500119874673004, 29.333382228918136 ], [ -91.59186990034884, 29.359380231823117 ], [ -91.644049914998476, 29.375560233771168 ], [ -91.699998929406718, 29.360094228716648 ], [ -91.723413935819082, 29.363423228733129 ], [ -91.777495951611556, 29.396089234196687 ], [ -91.840939967199205, 29.360195224479167 ], [ -91.897657982984597, 29.375224226025558 ], [ -91.913212988930326, 29.420212235310252 ], [ -91.96483700351132, 29.439397237894969 ], [ -91.983873009454641, 29.460718241930255 ], [ -92.029856022364143, 29.475966243822786 ], [ -92.04562202777592, 29.505811249791837 ], [ -92.078056037479286, 29.531494254343983 ], [ -92.146672055838863, 29.532042252350617 ], [ -92.223468074844604, 29.494718241935765 ], [ -92.308439097016887, 29.482339236656689 ], [ -92.405022123480677, 29.500294237551845 ], [ -92.617312181053379, 29.527134236764756 ], [ -92.665795194372976, 29.537880237567663 ], [ -92.806763233768621, 29.586391243573647 ], [ -93.014190292286543, 29.672847255527827 ], [ -93.125156323025678, 29.706214259127709 ], [ -93.228636351223287, 29.726688260200451 ], [ -93.287360366631319, 29.724336257839575 ], [ -93.342822380049199, 29.695090249880124 ], [ -93.38725239254336, 29.71377625243267 ], [ -93.487760419196476, 29.717816250096639 ] ] ] } },
{ "type": "Feature", "properties": { "opt_all": 4, "population": 779118.0, "voting_age_pop": 593498.0, "dem_votes": 35214.0, "rep_votes": 55225.0, "minority_pop": 240948.0, "dem_pct": 0.38936741849272166, "rep_pct": 0.61063258040156065 }, "geometry": { "type": "Polygon", "coordinates": [ [ [ -93.970832649270562, 31.91997368850193 ], [ -93.998835658677123, 31.959086695331266 ], [ -94.04272667232776, 31.999276701760671 ], [ -94.0427066760342, 32.069966715980435 ], [ -94.042738680705284, 32.158100733680136 ], [ -94.042604682689998, 32.196070741301732 ], [ -94.042838688986876, 32.312469764605289 ], [ -94.042880690914686, 32.348013771712203 ], [ -94.042907697572844, 32.47045079615885 ], [ -94.043264700169857, 32.51620480526519 ], [ -94.043021702493647, 32.559664813930006 ], [ -94.042878704795839, 32.602094822379073 ], [ -94.04301570875154, 32.672813836430031 ], [ -94.043133723682757, 32.93772688890423 ], [ -94.042974728282317, 33.019016904958086 ], [ -93.951647704196617, 33.01957590877997 ], [ -93.814604667943485, 33.019312914287902 ], [ -93.640488621822655, 33.01935992134338 ], [ -93.520999590075135, 33.01860892601988 ], [ -93.491119582141494, 33.018642927231369 ], [ -93.462304574484961, 33.018599928384525 ], [ -93.425248564628461, 33.018439929845343 ], [ -93.392923556027242, 33.01830593112124 ], [ -93.238652514957522, 33.018063937276388 ], [ -93.119718483245521, 33.017855942007088 ], [ -93.036544461040833, 33.017673945302711 ], [ -92.958474440162121, 33.017164948325032 ], [ -92.733198379744522, 33.014451956771815 ], [ -92.724844376704525, 33.000144954234202 ], [ -92.725441367533193, 32.832458920505744 ], [ -92.734060368311447, 32.804761914588589 ], [ -92.725413363505325, 32.759448905796695 ], [ -92.827982390941074, 32.759437901770589 ], [ -92.828380388590503, 32.714659892733657 ], [ -92.861450396081295, 32.690049886479564 ], [ -92.86661239294672, 32.607232869572151 ], [ -92.880932395580203, 32.585270864580608 ], [ -92.924326407165154, 32.585265862893237 ], [ -92.941990411868659, 32.585059862164812 ], [ -92.965926418254085, 32.585039861229575 ], [ -92.973876418904183, 32.557925855449923 ], [ -92.969486416876819, 32.542095852424985 ], [ -93.009961426997677, 32.529647848341384 ], [ -93.031041433138682, 32.539276849466169 ], [ -93.032966431031639, 32.490755839598663 ], [ -93.056157435549224, 32.459889832467887 ], [ -93.045069430660874, 32.423839825610472 ], [ -93.07055843695224, 32.414533822746542 ], [ -93.091660440125395, 32.368775812682053 ], [ -93.09708044134706, 32.364639811636714 ], [ -93.057589427158803, 32.295526799157685 ], [ -93.093946434067064, 32.243155787153469 ], [ -93.083102430151555, 32.223630783606737 ], [ -93.105604434812435, 32.198403777632585 ], [ -93.104775434531163, 32.197239777427406 ], [ -93.065720423356282, 32.182365775891022 ], [ -93.083358426264581, 32.148275768298433 ], [ -93.066568421790166, 32.148160768910174 ], [ -93.027276411325616, 32.1480767703802 ], [ -92.939098387828437, 32.147925773684193 ], [ -92.815350354798113, 32.14741877825282 ], [ -92.815073354723935, 32.147414778261641 ], [ -92.791463348405514, 32.147087779085638 ], [ -92.699597323859578, 32.14688578250567 ], [ -92.645662309436247, 32.146757784509198 ], [ -92.721233324852179, 32.054495762817808 ], [ -92.69992831898962, 32.05116176293307 ], [ -92.674419309764033, 32.004322754300546 ], [ -92.653472302676846, 31.975235749121119 ], [ -92.620318293732424, 31.973622750023047 ], [ -92.617563292854641, 31.970857749558697 ], [ -92.603179287286522, 31.937097743167371 ], [ -92.633339295090863, 31.932058741015759 ], [ -92.641702297138963, 31.928406739955676 ], [ -92.641675297090799, 31.927597739790961 ], [ -92.653276300346675, 31.930667739990863 ], [ -92.663499303041021, 31.929932739460991 ], [ -92.655068300336822, 31.921078737957004 ], [ -92.66173830141912, 31.907317734886384 ], [ -92.701194309899762, 31.866848725122271 ], [ -92.734789318054723, 31.850801720588009 ], [ -92.707368310749516, 31.851096721660859 ], [ -92.645877297157497, 31.906844735377103 ], [ -92.61918329003872, 31.907143736426324 ], [ -92.583967277294875, 31.841419724221041 ], [ -92.579390273842193, 31.797210715294273 ], [ -92.384857221766836, 31.796776722334851 ], [ -92.362614215801486, 31.796638723120175 ], [ -92.361346215273485, 31.792895722393347 ], [ -92.35673320791328, 31.670061697178649 ], [ -92.368096208562719, 31.621680686752633 ], [ -92.342976200560443, 31.595829682305027 ], [ -92.305008189962805, 31.587151681874985 ], [ -92.29778718548296, 31.53527667137238 ], [ -92.392609210603183, 31.529733666817105 ], [ -92.414221215852464, 31.518810663775209 ], [ -92.423128216781706, 31.4890796572897 ], [ -92.416146213536422, 31.460825651676501 ], [ -92.449952222593765, 31.46113965053193 ], [ -92.468563228001045, 31.469961651695463 ], [ -92.472310229114441, 31.472255652037397 ], [ -92.464875226408935, 31.457539649250897 ], [ -92.450319221109325, 31.428596643764344 ], [ -92.478234228293317, 31.422847641574577 ], [ -92.478548228374777, 31.422783641549721 ], [ -92.559097249094876, 31.406273635247416 ], [ -92.489525229051367, 31.376199631485235 ], [ -92.464589222968399, 31.388238634874153 ], [ -92.454707217795558, 31.335813624328736 ], [ -92.480829224651686, 31.333196622857077 ], [ -92.559178247517366, 31.373268628395842 ], [ -92.571795249613515, 31.346946622482442 ], [ -92.56115224510458, 31.312359615676524 ], [ -92.527031236056658, 31.313701617165467 ], [ -92.527107236058598, 31.3133146170826 ], [ -92.530202236042697, 31.295784613327577 ], [ -92.536564235584194, 31.250786603742625 ], [ -92.520521231776115, 31.260726606377805 ], [ -92.497164223959203, 31.227715600328395 ], [ -92.462044215112513, 31.238953603907103 ], [ -92.464523215420982, 31.231548602277357 ], [ -92.482928217877074, 31.179837590851719 ], [ -92.455546209848478, 31.164802588675599 ], [ -92.407680195447497, 31.13081158325457 ], [ -92.402893193113727, 31.108465578752533 ], [ -92.344312178009901, 31.12037258328532 ], [ -92.354458182540057, 31.158836590969944 ], [ -92.354032184951834, 31.212108602109357 ], [ -92.339999180811205, 31.203970600903421 ], [ -92.275998162555723, 31.180239598188621 ], [ -92.264988158050343, 31.1472855916826 ], [ -92.233817149902123, 31.151501593652487 ], [ -92.232271147826793, 31.116248586327288 ], [ -92.227130144502681, 31.074764577815735 ], [ -92.211478136049394, 30.983414559195001 ], [ -92.208791134463482, 30.964739555365615 ], [ -92.280744153739434, 30.965076552958045 ], [ -92.280737153173476, 30.952917550406205 ], [ -92.280722152514102, 30.938766547435403 ], [ -92.238287139005763, 30.89216353910086 ], [ -92.237800136858496, 30.848285529887981 ], [ -92.212599130127685, 30.848614530817407 ], [ -92.211396127269524, 30.793162519179756 ], [ -92.191135121171598, 30.778377516752393 ], [ -92.172361115519166, 30.764616514487201 ], [ -92.172515113238717, 30.713422503678732 ], [ -92.172490111444162, 30.673834495319316 ], [ -92.193962116537477, 30.659338491533553 ], [ -92.140467100576757, 30.622821485609759 ], [ -92.11688909552872, 30.651033492369052 ], [ -92.068407081323059, 30.623905488255382 ], [ -92.04653007501048, 30.613875486863556 ], [ -92.046389074867079, 30.611521486370329 ], [ -92.04891207431956, 30.584120480479658 ], [ -92.063425076115905, 30.537126470032906 ], [ -92.065375076398922, 30.531732468823975 ], [ -91.969604051285359, 30.544325474681777 ], [ -91.997054057083446, 30.50907846628645 ], [ -92.029681065211406, 30.495100462235477 ], [ -92.0716090766592, 30.499940461871827 ], [ -92.088103081003723, 30.498271460969583 ], [ -92.088600081053073, 30.496373460550984 ], [ -92.090775082410119, 30.513868464189638 ], [ -92.099693085488283, 30.529397467186701 ], [ -92.126680092893039, 30.533411467138212 ], [ -92.149318098624434, 30.526009464815605 ], [ -92.21109811535112, 30.530378463683377 ], [ -92.211484117137005, 30.568132471661073 ], [ -92.262362130750077, 30.568273469989759 ], [ -92.262725129529727, 30.538743463731183 ], [ -92.359512155401916, 30.538914460534201 ], [ -92.414973170205243, 30.538811458657811 ], [ -92.460665181525087, 30.519243452998044 ], [ -92.462918181305795, 30.500833449034911 ], [ -92.493265188495741, 30.480504443728716 ], [ -92.564300207432936, 30.480541441366523 ], [ -92.597580216309595, 30.480757440301275 ], [ -92.632031225503155, 30.481187439241605 ], [ -92.5975302139924, 30.428870429352067 ], [ -92.604066214458442, 30.400047423047589 ], [ -92.627164218747325, 30.357813413358031 ], [ -92.625145215732275, 30.30134040148242 ], [ -92.627868214591203, 30.25861539234943 ], [ -92.723732240194096, 30.260933389690639 ], [ -92.723759239601407, 30.247175386779418 ], [ -92.775076252828384, 30.237716383093808 ], [ -92.821658265207361, 30.237808381582809 ], [ -92.834374267692155, 30.217318376834907 ], [ -92.877884279229235, 30.217025375345091 ], [ -92.878374281918482, 30.275633387703532 ], [ -93.030887322349287, 30.275234382584149 ], [ -93.031131323753883, 30.305718388995356 ], [ -93.086209338182783, 30.302009386389798 ], [ -93.081295335745864, 30.27618938111863 ], [ -93.129946348620606, 30.276024379474716 ], [ -93.121608347271177, 30.295547383857993 ], [ -93.151774355759514, 30.30696138525709 ], [ -93.169052361351845, 30.330091389543835 ], [ -93.200280369609303, 30.329969388480009 ], [ -93.20027836958856, 30.329514388384769 ], [ -93.219467373794359, 30.309838383614245 ], [ -93.232852377194405, 30.306673382505117 ], [ -93.244585380045805, 30.30097438091898 ], [ -93.248830380990057, 30.296950379933161 ], [ -93.273960387524397, 30.294492378582898 ], [ -93.314354398061724, 30.291396376591347 ], [ -93.355715408940299, 30.290351374998561 ], [ -93.402115422054294, 30.309940377562015 ], [ -93.384885415816086, 30.27163637010463 ], [ -93.393832416668204, 30.237310362607065 ], [ -93.460922434357798, 30.237109360343293 ], [ -93.506201446115497, 30.233017357985556 ], [ -93.546784455829282, 30.210677351960445 ], [ -93.56082245918644, 30.202917349870116 ], [ -93.587558466813917, 30.21625935177978 ], [ -93.600185470131137, 30.216091351326281 ], [ -93.638182480254002, 30.218830350640417 ], [ -93.675145490014856, 30.219630349582179 ], [ -93.700823494426018, 30.166231337559019 ], [ -93.720937501567093, 30.208466345728304 ], [ -93.703550499235362, 30.259326356936644 ], [ -93.704584500852846, 30.289726363252857 ], [ -93.729052507596606, 30.296710363893933 ], [ -93.764258518343155, 30.330234369710457 ], [ -93.75741551924844, 30.39081838256589 ], [ -93.741685515657096, 30.402980385628386 ], [ -93.726112512807376, 30.430725391931372 ], [ -93.698141505815514, 30.438885394574783 ], [ -93.716608513178883, 30.494429405510751 ], [ -93.706339511145941, 30.509232408938303 ], [ -93.738794521125342, 30.540980414434237 ], [ -93.713788516668657, 30.587589424968307 ], [ -93.679389508181686, 30.600028428726262 ], [ -93.683106511024263, 30.640768437057098 ], [ -93.631351499097519, 30.677877446534996 ], [ -93.608881495076858, 30.719122455864692 ], [ -93.619040498743658, 30.740547459957387 ], [ -93.592107492715641, 30.763680465682491 ], [ -93.553632485892507, 30.835145481823357 ], [ -93.558602488777041, 30.868827488624099 ], [ -93.552091489371961, 30.918124499050496 ], [ -93.527100483810997, 30.940090504466216 ], [ -93.565436496311236, 30.990584513556055 ], [ -93.509221483485206, 31.032987524288252 ], [ -93.527174490139259, 31.073194531952129 ], [ -93.563275500642661, 31.093597534881521 ], [ -93.543924497494658, 31.134503543996015 ], [ -93.552530502215163, 31.185410554169518 ], [ -93.589125510934494, 31.165894548850421 ], [ -93.607017517507401, 31.204277556105811 ], [ -93.596274515871798, 31.229041561578725 ], [ -93.614408522201998, 31.260874567466868 ], [ -93.659291535076918, 31.282111570213484 ], [ -93.673844540954505, 31.323860578247963 ], [ -93.671628543776364, 31.393242592535692 ], [ -93.7046845537607, 31.418905596584658 ], [ -93.708209555810399, 31.441562601087732 ], [ -93.744410566607755, 31.466819604927988 ], [ -93.711320560152998, 31.512480615456269 ], [ -93.7417415686254, 31.521487616180551 ], [ -93.785034580261396, 31.525967615508684 ], [ -93.8207705912926, 31.558226620768288 ], [ -93.839422598264207, 31.599205628420965 ], [ -93.81689859349828, 31.622406633970883 ], [ -93.823175597703738, 31.672898644000849 ], [ -93.795482592038482, 31.705124651573527 ], [ -93.836890605247035, 31.750176659176784 ], [ -93.827294603427603, 31.764080662354328 ], [ -93.839349608461418, 31.800335669252831 ], [ -93.874842618943447, 31.822319672376292 ], [ -93.879067621186437, 31.844292676664381 ], [ -93.898470628870285, 31.894104686007296 ], [ -93.970832649270562, 31.91997368850193 ] ] ] } },
{ "type": "Feature", "properties": { "opt_all": 5, "population": 772996.0, "voting_age_pop": 591988.0, "dem_votes": 34365.0, "rep_votes": 58587.0, "minority_pop": 228902.0, "dem_pct": 0.36970694512252888, "rep_pct": 0.63029305380164702 }, "geometry": { "type": "Polygon", "coordinates": [ [ [ -92.663499303041021, 31.929932739460991 ], [ -92.653276300346675, 31.930667739990863 ], [ -92.641675297090799, 31.927597739790961 ], [ -92.641702297138963, 31.928406739955676 ], [ -92.633339295090863, 31.932058741015759 ], [ -92.603179287286522, 31.937097743167371 ], [ -92.617563292854641, 31.970857749558697 ], [ -92.620318293732424, 31.973622750023047 ], [ -92.653472302676846, 31.975235749121119 ], [ -92.674419309764033, 32.004322754300546 ], [ -92.69992831898962, 32.05116176293307 ], [ -92.721233324852179, 32.054495762817808 ], [ -92.645662309436247, 32.146757784509198 ], [ -92.699597323859578, 32.14688578250567 ], [ -92.791463348405514, 32.147087779085638 ], [ -92.815073354723935, 32.147414778261641 ], [ -92.815350354798113, 32.14741877825282 ], [ -92.939098387828437, 32.147925773684193 ], [ -93.027276411325616, 32.1480767703802 ], [ -93.066568421790166, 32.148160768910174 ], [ -93.083358426264581, 32.148275768298433 ], [ -93.065720423356282, 32.182365775891022 ], [ -93.104775434531163, 32.197239777427406 ], [ -93.105604434812435, 32.198403777632585 ], [ -93.083102430151555, 32.223630783606737 ], [ -93.093946434067064, 32.243155787153469 ], [ -93.057589427158803, 32.295526799157685 ], [ -93.09708044134706, 32.364639811636714 ], [ -93.091660440125395, 32.368775812682053 ], [ -93.07055843695224, 32.414533822746542 ], [ -93.045069430660874, 32.423839825610472 ], [ -93.056157435549224, 32.459889832467887 ], [ -93.032966431031639, 32.490755839598663 ], [ -93.031041433138682, 32.539276849466169 ], [ -93.009961426997677, 32.529647848341384 ], [ -92.969486416876819, 32.542095852424985 ], [ -92.973876418904183, 32.557925855449923 ], [ -92.965926418254085, 32.585039861229575 ], [ -92.941990411868659, 32.585059862164812 ], [ -92.924326407165154, 32.585265862893237 ], [ -92.880932395580203, 32.585270864580608 ], [ -92.86661239294672, 32.607232869572151 ], [ -92.861450396081295, 32.690049886479564 ], [ -92.828380388590503, 32.714659892733657 ], [ -92.827982390941074, 32.759437901770589 ], [ -92.725413363505325, 32.759448905796695 ], [ -92.734060368311447, 32.804761914588589 ], [ -92.725441367533193, 32.832458920505744 ], [ -92.724844376704525, 33.000144954234202 ], [ -92.733198379744522, 33.014451956771815 ], [ -92.724746377477203, 33.014395957097648 ], [ -92.711554373941198, 33.014352957613859 ], [ -92.692081368715236, 33.014214958362082 ], [ -92.523673323452087, 33.012536964719814 ], [ -92.488477313980738, 33.012169966042265 ], [ -92.439807300877604, 33.011638967865586 ], [ -92.344867275300246, 33.010677971432578 ], [ -92.068936200822378, 33.007995981787559 ], [ -91.800300128215042, 33.007367992219379 ], [ -91.627528081397074, 33.006763998864088 ], [ -91.435783029341721, 33.00613200622211 ], [ -91.322606998559635, 33.005618010525247 ], [ -91.30547999389222, 33.005421011151526 ], [ -91.265036982874562, 33.005099012657844 ], [ -91.166666956054556, 33.004288016312813 ], [ -91.201847963282205, 32.961218006141983 ], [ -91.212842964146844, 32.922108997715625 ], [ -91.163882949594083, 32.899481994971993 ], [ -91.13130994221234, 32.926924001850196 ], [ -91.135100946137527, 32.980114012592821 ], [ -91.086807932770085, 32.976272013675683 ], [ -91.064809924069763, 32.926470004322752 ], [ -91.070607923603603, 32.888663996347184 ], [ -91.105636931512421, 32.858401988791769 ], [ -91.143564941103961, 32.844743984532805 ], [ -91.161204944227023, 32.813549977456162 ], [ -91.161027943729806, 32.805205975750177 ], [ -91.165819942494196, 32.757846965841566 ], [ -91.060771912274404, 32.727499963609304 ], [ -91.063951911832078, 32.702930958430905 ], [ -91.126206926878723, 32.667140948696435 ], [ -91.153694932281681, 32.627968939586061 ], [ -91.121162921151736, 32.584811931922403 ], [ -91.049807902909777, 32.607190939234783 ], [ -91.025774898444595, 32.646577948267407 ], [ -91.003550890578765, 32.61227694203172 ], [ -91.030996896530795, 32.583352935024344 ], [ -91.070226906118179, 32.562563929253791 ], [ -91.057711901201117, 32.533782923780237 ], [ -90.987674880283876, 32.498486919113603 ], [ -91.000111882826516, 32.482295915296696 ], [ -91.049312897070124, 32.498544916813231 ], [ -91.093747911814958, 32.549132925593753 ], [ -91.116713915494884, 32.500143914612899 ], [ -91.093428906928438, 32.457391906648752 ], [ -91.027411887742645, 32.433947904267434 ], [ -90.993868879489497, 32.450856909021837 ], [ -90.965992870329487, 32.420659903807 ], [ -90.994085877109399, 32.403866899279187 ], [ -91.004711878109077, 32.3672498912915 ], [ -90.986677872400662, 32.351765888749568 ], [ -90.912368851528797, 32.339459888951652 ], [ -90.889835847112806, 32.372938896740692 ], [ -90.877294843385684, 32.366950895963001 ], [ -90.916162850719445, 32.303587881357402 ], [ -90.947839858317124, 32.283491876008476 ], [ -90.983386864331393, 32.211772859781519 ], [ -91.034307879705835, 32.24155386409825 ], [ -91.061413885909062, 32.218655858338614 ], [ -91.083713892371321, 32.226455859136564 ], [ -91.124048902551436, 32.211109854460524 ], [ -91.1648859128628, 32.195748849763469 ], [ -91.174582913539396, 32.157316841420979 ], [ -91.162827909097274, 32.132699836734815 ], [ -91.110995894608578, 32.124649836962242 ], [ -91.053560878985977, 32.124417839020211 ], [ -91.049712879607966, 32.157357846019352 ], [ -91.00291186711722, 32.162057848715428 ], [ -91.030815872610361, 32.120655839069471 ], [ -91.038612873599106, 32.098258834117537 ], [ -91.080013883889805, 32.079159828623354 ], [ -91.098713887420914, 32.048360821521371 ], [ -91.075913879641575, 32.016832815776958 ], [ -91.106913886688275, 31.989362808917956 ], [ -91.164415901961519, 31.982562805407969 ], [ -91.179907905563937, 31.970515802332184 ], [ -91.201015908230687, 31.909164788763626 ], [ -91.233908915583783, 31.87761278098554 ], [ -91.266990923863077, 31.863692776882708 ], [ -91.24562991655938, 31.833170771279061 ], [ -91.283217925887314, 31.815767766287479 ], [ -91.294718931217844, 31.860465775207111 ], [ -91.345219944076376, 31.843866769917181 ], [ -91.363519946039474, 31.783368756625951 ], [ -91.348119940627996, 31.75816875191418 ], [ -91.287425924867321, 31.77196975698082 ], [ -91.279794921461601, 31.744756751561901 ], [ -91.3693809458304, 31.746908748797409 ], [ -91.38025994810414, 31.73326074555397 ], [ -91.397120951592157, 31.71136974037228 ], [ -91.400820948152599, 31.620470721217419 ], [ -91.463822965185457, 31.620370718950554 ], [ -91.497670975555494, 31.645376722973229 ], [ -91.514745978415917, 31.609417714842721 ], [ -91.486523969677961, 31.586571711066817 ], [ -91.422721952938659, 31.597070715535946 ], [ -91.411500948364875, 31.565335709284447 ], [ -91.443921956025306, 31.542471703340492 ], [ -91.518079975374263, 31.528159697711057 ], [ -91.513371970069002, 31.444401680313391 ], [ -91.472072956648915, 31.397081671828428 ], [ -91.472547955536925, 31.371074666345173 ], [ -91.504761963947615, 31.364985663935524 ], [ -91.532341972601316, 31.390280668282852 ], [ -91.548470978983559, 31.432673676614893 ], [ -91.578339985436756, 31.399072668511685 ], [ -91.546389976034504, 31.382768666211565 ], [ -91.548218974780966, 31.346089658440626 ], [ -91.510054963088336, 31.316827653622692 ], [ -91.518583963425058, 31.275288644582886 ], [ -91.558689973630436, 31.262181640426039 ], [ -91.641258996123966, 31.266922638544557 ], [ -91.644361995425157, 31.23441963160025 ], [ -91.595034980598527, 31.201974626485484 ], [ -91.589051977887479, 31.178591621766433 ], [ -91.624222985271615, 31.133734611093463 ], [ -91.62520498470704, 31.115968607313658 ], [ -91.564155965963721, 31.066835599045717 ], [ -91.564402964739799, 31.038970593149436 ], [ -91.636947982466182, 30.999421582305249 ], [ -91.396520917591118, 30.999049590442947 ], [ -91.348157904526474, 30.999083592099321 ], [ -91.176145858001362, 30.99908559795659 ], [ -91.195148861489997, 30.962910589624052 ], [ -91.187975858303659, 30.935613584063237 ], [ -91.207311862765479, 30.918706579812881 ], [ -91.227184865264434, 30.855287565646947 ], [ -91.230876865124486, 30.830099560158796 ], [ -91.232653865504673, 30.827888559628398 ], [ -91.240499865791705, 30.787168550688932 ], [ -91.286185876322563, 30.746665540525399 ], [ -91.292176876684678, 30.718602534341588 ], [ -91.319936883207504, 30.696739528752076 ], [ -91.310066878636562, 30.653966519952711 ], [ -91.330875884465897, 30.658682520267973 ], [ -91.317110879816241, 30.637712516249007 ], [ -91.365277890648045, 30.588637504171285 ], [ -91.364971889724259, 30.569596500113096 ], [ -91.397560898487257, 30.568894498885513 ], [ -91.415025901732875, 30.535645491205425 ], [ -91.415021901712365, 30.535203491111002 ], [ -91.414820900613122, 30.511432486036242 ], [ -91.481739918639803, 30.511034483746837 ], [ -91.485160918958286, 30.497287480697096 ], [ -91.462550911795844, 30.472935476235524 ], [ -91.418408898300356, 30.43648246988462 ], [ -91.40828089514882, 30.426843468151606 ], [ -91.39453689036668, 30.402134463307998 ], [ -91.325407869349277, 30.347522453847763 ], [ -91.311290864458115, 30.322477448928659 ], [ -91.252816848701954, 30.323201450978644 ], [ -91.142110818790883, 30.32329845458365 ], [ -91.142310818698604, 30.319898453845092 ], [ -91.137911817392876, 30.317199453406761 ], [ -91.124809813679761, 30.313213452971961 ], [ -91.092845805349754, 30.320561455587647 ], [ -91.0669707982766, 30.318875456059928 ], [ -91.021019785952859, 30.321494458108827 ], [ -91.044914789446537, 30.251971442349035 ], [ -91.059129791638043, 30.213089433504159 ], [ -91.073645793354601, 30.160926421776981 ], [ -91.090102796968566, 30.141115416972063 ], [ -91.106564800046058, 30.108524409405955 ], [ -91.10600279797292, 30.062754399528146 ], [ -91.089113793408984, 30.062807400074455 ], [ -91.02639877700382, 30.076110404941204 ], [ -91.000831770003273, 30.074127405321569 ], [ -90.963750759660726, 30.066836404917098 ], [ -90.946378753672036, 30.036047398793706 ], [ -90.946330752198605, 30.000962391186111 ], [ -90.911809741919726, 29.978505387398258 ], [ -90.91178974011828, 29.935077377967065 ], [ -90.886091732689678, 29.923707376300577 ], [ -90.885754731842553, 29.905353372320462 ], [ -90.885457730621638, 29.877567366286115 ], [ -90.909811737200741, 29.877200365446996 ], [ -90.925051739410165, 29.830382354786884 ], [ -90.924631739294554, 29.830331354789152 ], [ -90.852316718639898, 29.804017351300423 ], [ -90.848700717610555, 29.802795351146024 ], [ -90.852500718372383, 29.79622634959706 ], [ -90.853642718599204, 29.79420234912067 ], [ -90.888269727098702, 29.772597343340863 ], [ -90.844218714491006, 29.755887341056649 ], [ -90.882092724344204, 29.74590233771141 ], [ -90.889162725076957, 29.716678331119581 ], [ -90.967559746250259, 29.715610328473311 ], [ -91.006895756868843, 29.715098327150574 ], [ -91.012409758101199, 29.708698325586465 ], [ -91.082616773779819, 29.626819305583066 ], [ -91.105254780545039, 29.643017308420109 ], [ -91.100015781403087, 29.699407320864115 ], [ -91.106556784549696, 29.733492328081159 ], [ -91.094383782523366, 29.764580335220444 ], [ -91.092753783590481, 29.801579343314529 ], [ -91.109467789021735, 29.823950347656005 ], [ -91.182822809744806, 29.846177350196275 ], [ -91.199651814890601, 29.86081935284626 ], [ -91.214081820712238, 29.907574362529225 ], [ -91.255234834469235, 29.971462375063759 ], [ -91.471958892258201, 29.95630936495013 ], [ -91.571694918802919, 29.949197360264311 ], [ -91.624352932806801, 29.945465357795367 ], [ -91.655229939627858, 29.909972349170523 ], [ -91.656672939941245, 29.908181348739149 ], [ -91.658888940426976, 29.905537348099468 ], [ -91.680872946976876, 29.920994350736148 ], [ -91.699832952646602, 29.934831353117517 ], [ -91.718603958642944, 29.957696357445059 ], [ -91.753724968974922, 29.979238360964665 ], [ -91.780493976567698, 29.988929362197258 ], [ -91.779099976750061, 30.002177365088269 ], [ -91.773951975941003, 30.015825368184817 ], [ -91.768782976568886, 30.063619378613073 ], [ -91.812022987653478, 30.05125937457802 ], [ -91.797026984547358, 30.072988379720641 ], [ -91.765343977543679, 30.108437388340398 ], [ -91.726633967741279, 30.122418392582045 ], [ -91.738286972424902, 30.158916400034599 ], [ -91.738596972510095, 30.158971400035998 ], [ -91.736726972927244, 30.180489404708528 ], [ -91.779075985622825, 30.211360409952217 ], [ -91.727248972590203, 30.232087416067358 ], [ -91.755003981582959, 30.267782422806238 ], [ -91.8031619942644, 30.261926419989461 ], [ -91.811094995542106, 30.242135415499423 ], [ -91.820055998599202, 30.257253418441419 ], [ -91.877817013229361, 30.237039412245089 ], [ -91.880707014375005, 30.245651413991943 ], [ -91.8888310173744, 30.264661417789 ], [ -91.875271014676358, 30.286399422872737 ], [ -91.81148599865756, 30.311865430390476 ], [ -91.826876003309323, 30.323835432443953 ], [ -91.851539010066745, 30.327003432315227 ], [ -91.929320029826883, 30.301469424326857 ], [ -91.928449029124806, 30.290650422046443 ], [ -91.949950034471456, 30.280977419281552 ], [ -91.9523350356218, 30.292785421723242 ], [ -91.961947039077501, 30.313058425732557 ], [ -91.976835042676541, 30.30403442332188 ], [ -91.998355049594863, 30.330507428259981 ], [ -92.038614060591058, 30.33531842796647 ], [ -92.029076056800804, 30.306910422227858 ], [ -92.049501062638981, 30.315372423362451 ], [ -92.049405061852966, 30.297850419632592 ], [ -92.050059061594126, 30.2878664174841 ], [ -92.050386061481916, 30.283243416488119 ], [ -92.082903069080601, 30.257649409972956 ], [ -92.091077071121163, 30.254233408978852 ], [ -92.091095071282083, 30.257844409747328 ], [ -92.108118075678163, 30.254134408402233 ], [ -92.10811307583414, 30.25777540917808 ], [ -92.142134086098437, 30.284551413769247 ], [ -92.176289094612841, 30.270224409604275 ], [ -92.217772105412962, 30.263484406814609 ], [ -92.261851117720582, 30.275624407954759 ], [ -92.262717118353663, 30.284854409889331 ], [ -92.265741120434313, 30.314101416004572 ], [ -92.318447133972001, 30.301653411631076 ], [ -92.397262156124285, 30.32710841444327 ], [ -92.3967991549776, 30.303685409490399 ], [ -92.413858159530363, 30.303712408935876 ], [ -92.473133175371956, 30.304475407149067 ], [ -92.504056183931084, 30.311684407659762 ], [ -92.512938185080557, 30.283810401461196 ], [ -92.559467197143917, 30.276165398312951 ], [ -92.552701196109879, 30.293768402263854 ], [ -92.58486220517176, 30.305115403608053 ], [ -92.625145215732275, 30.30134040148242 ], [ -92.627164218747325, 30.357813413358031 ], [ -92.604066214458442, 30.400047423047589 ], [ -92.5975302139924, 30.428870429352067 ], [ -92.632031225503155, 30.481187439241605 ], [ -92.597580216309595, 30.480757440301275 ], [ -92.564300207432936, 30.480541441366523 ], [ -92.493265188495741, 30.480504443728716 ], [ -92.462918181305795, 30.500833449034911 ], [ -92.460665181525087, 30.519243452998044 ], [ -92.414973170205243, 30.538811458657811 ], [ -92.359512155401916, 30.538914460534201 ], [ -92.262725129529727, 30.538743463731183 ], [ -92.262362130750077, 30.568273469989759 ], [ -92.211484117137005, 30.568132471661073 ], [ -92.21109811535112, 30.530378463683377 ], [ -92.149318098624434, 30.526009464815605 ], [ -92.126680092893039, 30.533411467138212 ], [ -92.099693085488283, 30.529397467186701 ], [ -92.090775082410119, 30.513868464189638 ], [ -92.088600081053073, 30.496373460550984 ], [ -92.088103081003723, 30.498271460969583 ], [ -92.0716090766592, 30.499940461871827 ], [ -92.029681065211406, 30.495100462235477 ], [ -91.997054057083446, 30.50907846628645 ], [ -91.969604051285359, 30.544325474681777 ], [ -92.065375076398922, 30.531732468823975 ], [ -92.063425076115905, 30.537126470032906 ], [ -92.04891207431956, 30.584120480479658 ], [ -92.046389074867079, 30.611521486370329 ], [ -92.04653007501048, 30.613875486863556 ], [ -92.068407081323059, 30.623905488255382 ], [ -92.11688909552872, 30.651033492369052 ], [ -92.140467100576757, 30.622821485609759 ], [ -92.193962116537477, 30.659338491533553 ], [ -92.172490111444162, 30.673834495319316 ], [ -92.172515113238717, 30.713422503678732 ], [ -92.172361115519166, 30.764616514487201 ], [ -92.191135121171598, 30.778377516752393 ], [ -92.211396127269524, 30.793162519179756 ], [ -92.212599130127685, 30.848614530817407 ], [ -92.237800136858496, 30.848285529887981 ], [ -92.238287139005763, 30.89216353910086 ], [ -92.280722152514102, 30.938766547435403 ], [ -92.280737153173476, 30.952917550406205 ], [ -92.280744153739434, 30.965076552958045 ], [ -92.208791134463482, 30.964739555365615 ], [ -92.211478136049394, 30.983414559195001 ], [ -92.227130144502681, 31.074764577815735 ], [ -92.232271147826793, 31.116248586327288 ], [ -92.233817149902123, 31.151501593652487 ], [ -92.264988158050343, 31.1472855916826 ], [ -92.275998162555723, 31.180239598188621 ], [ -92.339999180811205, 31.203970600903421 ], [ -92.354032184951834, 31.212108602109357 ], [ -92.354458182540057, 31.158836590969944 ], [ -92.344312178009901, 31.12037258328532 ], [ -92.402893193113727, 31.108465578752533 ], [ -92.407680195447497, 31.13081158325457 ], [ -92.455546209848478, 31.164802588675599 ], [ -92.482928217877074, 31.179837590851719 ], [ -92.464523215420982, 31.231548602277357 ], [ -92.462044215112513, 31.238953603907103 ], [ -92.497164223959203, 31.227715600328395 ], [ -92.520521231776115, 31.260726606377805 ], [ -92.536564235584194, 31.250786603742625 ], [ -92.530202236042697, 31.295784613327577 ], [ -92.527107236058598, 31.3133146170826 ], [ -92.527031236056658, 31.313701617165467 ], [ -92.56115224510458, 31.312359615676524 ], [ -92.571795249613515, 31.346946622482442 ], [ -92.559178247517366, 31.373268628395842 ], [ -92.480829224651686, 31.333196622857077 ], [ -92.454707217795558, 31.335813624328736 ], [ -92.464589222968399, 31.388238634874153 ], [ -92.489525229051367, 31.376199631485235 ], [ -92.559097249094876, 31.406273635247416 ], [ -92.478548228374777, 31.422783641549721 ], [ -92.478234228293317, 31.422847641574577 ], [ -92.450319221109325, 31.428596643764344 ], [ -92.464875226408935, 31.457539649250897 ], [ -92.472310229114441, 31.472255652037397 ], [ -92.468563228001045, 31.469961651695463 ], [ -92.449952222593765, 31.46113965053193 ], [ -92.416146213536422, 31.460825651676501 ], [ -92.423128216781706, 31.4890796572897 ], [ -92.414221215852464, 31.518810663775209 ], [ -92.392609210603183, 31.529733666817105 ], [ -92.29778718548296, 31.53527667137238 ], [ -92.305008189962805, 31.587151681874985 ], [ -92.342976200560443, 31.595829682305027 ], [ -92.368096208562719, 31.621680686752633 ], [ -92.35673320791328, 31.670061697178649 ], [ -92.361346215273485, 31.792895722393347 ], [ -92.362614215801486, 31.796638723120175 ], [ -92.384857221766836, 31.796776722334851 ], [ -92.579390273842193, 31.797210715294273 ], [ -92.583967277294875, 31.841419724221041 ], [ -92.61918329003872, 31.907143736426324 ], [ -92.645877297157497, 31.906844735377103 ], [ -92.707368310749516, 31.851096721660859 ], [ -92.734789318054723, 31.850801720588009 ], [ -92.701194309899762, 31.866848725122271 ], [ -92.66173830141912, 31.907317734886384 ], [ -92.655068300336822, 31.921078737957004 ], [ -92.663499303041021, 31.929932739460991 ] ] ] } },
{ "type": "Feature", "properties": { "opt_all": 6, "population": 773889.0, "voting_age_pop": 590646.0, "dem_votes": 42920.0, "rep_votes": 51276.0, "minority_pop": 261342.0, "dem_pct": 0.455645674491862, "rep_pct": 0.54435432444652176 }, "geometry": { "type": "Polygon", "coordinates": [ [ [ -91.325407869349277, 30.347522453847763 ], [ -91.39453689036668, 30.402134463307998 ], [ -91.40828089514882, 30.426843468151606 ], [ -91.418408898300356, 30.43648246988462 ], [ -91.462550911795844, 30.472935476235524 ], [ -91.485160918958286, 30.497287480697096 ], [ -91.481739918639803, 30.511034483746837 ], [ -91.414820900613122, 30.511432486036242 ], [ -91.415021901712365, 30.535203491111002 ], [ -91.415025901732875, 30.535645491205425 ], [ -91.397560898487257, 30.568894498885513 ], [ -91.364971889724259, 30.569596500113096 ], [ -91.365277890648045, 30.588637504171285 ], [ -91.317110879816241, 30.637712516249007 ], [ -91.330875884465897, 30.658682520267973 ], [ -91.310066878636562, 30.653966519952711 ], [ -91.319936883207504, 30.696739528752076 ], [ -91.292176876684678, 30.718602534341588 ], [ -91.286185876322563, 30.746665540525399 ], [ -91.240499865791705, 30.787168550688932 ], [ -91.232653865504673, 30.827888559628398 ], [ -91.230876865124486, 30.830099560158796 ], [ -91.227184865264434, 30.855287565646947 ], [ -91.207311862765479, 30.918706579812881 ], [ -91.187975858303659, 30.935613584063237 ], [ -91.195148861489997, 30.962910589624052 ], [ -91.176145858001362, 30.99908559795659 ], [ -91.042177821703802, 30.998942602477634 ], [ -90.922688789317036, 30.999475606642832 ], [ -90.825834763012153, 30.99936660989826 ], [ -90.861024769660006, 30.93537859505658 ], [ -90.845371763292704, 30.888579585587721 ], [ -90.857988766022487, 30.873149581866382 ], [ -90.841781760354039, 30.8450005763913 ], [ -90.837550757135475, 30.798864566661074 ], [ -90.848610757670102, 30.743594554456347 ], [ -90.839212754271685, 30.724550550687539 ], [ -90.848773756641123, 30.719463549279567 ], [ -90.910706770339658, 30.64939053220467 ], [ -90.877218761255364, 30.649386533310462 ], [ -90.863863757633723, 30.649423533759169 ], [ -90.852667754602322, 30.649569534159848 ], [ -90.763324730356558, 30.649824537161415 ], [ -90.651850700064358, 30.649885540846199 ], [ -90.634600695372527, 30.649874541411137 ], [ -90.567131677022942, 30.650020543661224 ], [ -90.567145676722916, 30.643094542169582 ], [ -90.567037673800542, 30.577058527945624 ], [ -90.567040672368506, 30.544206520860808 ], [ -90.566905671545925, 30.52613551696675 ], [ -90.566882670593245, 30.504333512261319 ], [ -90.558234667138834, 30.478924507055769 ], [ -90.552859664985363, 30.462926503774487 ], [ -90.54959366318208, 30.441743499301737 ], [ -90.546887662010207, 30.431614497200165 ], [ -90.521446654344516, 30.414340494285707 ], [ -90.519954653932643, 30.414224494308943 ], [ -90.489354643091005, 30.355551482592361 ], [ -90.485831638788383, 30.276997465674853 ], [ -90.501838642017361, 30.250383459388683 ], [ -90.509081643132021, 30.230140454764005 ], [ -90.554152653935802, 30.195633445839125 ], [ -90.592026664767118, 30.20832944739055 ], [ -90.631910676149644, 30.221195448910805 ], [ -90.642116676615046, 30.166453436710935 ], [ -90.661218676967422, 30.050817410988923 ], [ -90.672711679890782, 30.046074409595334 ], [ -90.689069684324721, 30.04590940904518 ], [ -90.721009694764575, 30.088396417268186 ], [ -90.723917696275521, 30.105655420923213 ], [ -90.707915693945296, 30.153661431847041 ], [ -90.759588707545703, 30.143581428020291 ], [ -90.869350736404314, 30.122020419863244 ], [ -90.915570748560313, 30.113290416505393 ], [ -90.914662748127483, 30.10884041557027 ], [ -90.953897757273396, 30.073525406677465 ], [ -90.963750759660726, 30.066836404917098 ], [ -91.000831770003273, 30.074127405321569 ], [ -91.02639877700382, 30.076110404941204 ], [ -91.089113793408984, 30.062807400074455 ], [ -91.10600279797292, 30.062754399528146 ], [ -91.106564800046058, 30.108524409405955 ], [ -91.090102796968566, 30.141115416972063 ], [ -91.073645793354601, 30.160926421776981 ], [ -91.059129791638043, 30.213089433504159 ], [ -91.044914789446537, 30.251971442349035 ], [ -91.021019785952859, 30.321494458108827 ], [ -91.0669707982766, 30.318875456059928 ], [ -91.092845805349754, 30.320561455587647 ], [ -91.124809813679761, 30.313213452971961 ], [ -91.137911817392876, 30.317199453406761 ], [ -91.142310818698604, 30.319898453845092 ], [ -91.142110818790883, 30.32329845458365 ], [ -91.252816848701954, 30.323201450978644 ], [ -91.311290864458115, 30.322477448928659 ], [ -91.325407869349277, 30.347522453847763 ] ] ] } }
]
}
