{
"type": "FeatureCollection",
"name": "louisiana_enacted_districts",
"crs": { "type": "name", "properties": { "name": "urn:ogc:def:crs:OGC:1.3:CRS84" } },
"features": [
{ "type": "Feature", "properties": { "enacted_district": 1, "population": 776268.0, "voting_age_pop": 601559.0, "dem_votes": 27139.0, "rep_votes": 64488.0, "minority_pop": 181291.0, "dem_pct": 0.29618998734413438, "rep_pct": 0.70381001156448419 }, "geometry": { "type": "Polygon", "coordinates": [ [ [ -90.722571668553357, 29.430054273430276 ], [ -90.762598680625004, 29.461266279080466 ], [ -90.813486694689246, 29.46839327911195 ], [ -90.791277690505538, 29.514846289967263 ], [ -90.796533692742443, 29.53538529430973 ], [ -90.777726687657434, 29.535634294933747 ], [ -90.778243688810903, 29.561219300523792 ], [ -90.779101689747378, 29.578912304371968 ], [ -90.760615684932006, 29.583799306003758 ], [ -90.758490684982803, 29.599563309520946 ], [ -90.742183680224642, 29.59104830815161 ], [ -90.743244680424496, 29.588840307635948 ], [ -90.726648675751917, 29.584485307186647 ], [ -90.729934676890565, 29.590720308452415 ], [ -90.734561678206461, 29.592270308651049 ], [ -90.741709680259859, 29.595162309067582 ], [ -90.746059681851236, 29.605524311204473 ], [ -90.743406681173084, 29.606548311509037 ], [ -90.744482681657843, 29.611402312538676 ], [ -90.733802679035335, 29.618226314358697 ], [ -90.734656679466113, 29.6232323154283 ], [ -90.736069680277723, 29.633942317729268 ], [ -90.738878681205961, 29.638110318556137 ], [ -90.740093681606524, 29.639907318911625 ], [ -90.752761685268766, 29.645600319771447 ], [ -90.756375686832484, 29.660192322852694 ], [ -90.739215682789833, 29.675394326702605 ], [ -90.70783767388086, 29.66538532547251 ], [ -90.692317669890343, 29.670846327141643 ], [ -90.703864673674005, 29.687092330342782 ], [ -90.698468673460681, 29.718182337307216 ], [ -90.71210767732876, 29.722385337807559 ], [ -90.728041682033719, 29.731881339392821 ], [ -90.720902680939005, 29.752720344165475 ], [ -90.698958674547598, 29.741855342466113 ], [ -90.66026866389096, 29.737896342790027 ], [ -90.631221655849018, 29.733969342823723 ], [ -90.606999649141486, 29.73070134285199 ], [ -90.613982650217125, 29.710306338174924 ], [ -90.598859645700841, 29.700092336402108 ], [ -90.581939641724119, 29.715474340287805 ], [ -90.562270635868302, 29.702688338090223 ], [ -90.542105629372458, 29.677289333141974 ], [ -90.528178625745483, 29.681197334423963 ], [ -90.511862622205086, 29.7034743398047 ], [ -90.534276629665243, 29.737537346579064 ], [ -90.505213622934065, 29.766497353811204 ], [ -90.524958628942258, 29.782388356682219 ], [ -90.476311617439805, 29.824880367477427 ], [ -90.468048614325326, 29.803479363049249 ], [ -90.443068606891018, 29.787630360349137 ], [ -90.371983586406202, 29.759244356311797 ], [ -90.361546581485484, 29.70745534527051 ], [ -90.315970568478207, 29.69245334336679 ], [ -90.228162544543963, 29.692033345947944 ], [ -90.211293541484636, 29.73050935491997 ], [ -90.17251353387536, 29.804221372297249 ], [ -90.173207535006156, 29.827529377392818 ], [ -90.167836534068144, 29.840554380415597 ], [ -90.120884521825033, 29.854558384933618 ], [ -90.116744520431794, 29.848050383633129 ], [ -90.109062518504203, 29.852200384780133 ], [ -90.108014517897445, 29.844289383076031 ], [ -90.109364517937721, 29.836163381249527 ], [ -90.098096514145482, 29.818415377697796 ], [ -90.099210513497241, 29.794793372473546 ], [ -90.10016351310702, 29.778626368891377 ], [ -90.081364507568566, 29.768479367234868 ], [ -90.075688506155061, 29.771855368150941 ], [ -90.06742550417006, 29.778605369887376 ], [ -90.068501505395957, 29.801770374947981 ], [ -90.069012506205212, 29.818389378584943 ], [ -90.057944503930187, 29.836878382986832 ], [ -90.041053499654609, 29.845214385337066 ], [ -90.034132497871582, 29.847854386129399 ], [ -90.0235114956849, 29.865524390338017 ], [ -90.01772449463094, 29.878509393368553 ], [ -90.015492494165869, 29.882094394224922 ], [ -90.008061492681776, 29.895533397404375 ], [ -90.002278491194446, 29.897811398083611 ], [ -89.993864488677872, 29.892470397169717 ], [ -89.987271487386167, 29.905009400127124 ], [ -89.935071472619001, 29.89271039903301 ], [ -89.917592466784839, 29.866666393845168 ], [ -89.910713464952877, 29.867870394321589 ], [ -89.902993463209199, 29.876958396557697 ], [ -89.90465746422673, 29.890851399561409 ], [ -89.910270466161137, 29.900705401554585 ], [ -89.911616466604784, 29.90255140191827 ], [ -89.916815468344581, 29.910396403482778 ], [ -89.936064474169328, 29.924210405923247 ], [ -89.941072475551252, 29.924524405837591 ], [ -89.957162479928982, 29.924012405228883 ], [ -89.960707480891486, 29.923851405083944 ], [ -89.972006484046176, 29.92546140508826 ], [ -89.977685485676318, 29.927378405334288 ], [ -89.980217486401088, 29.928188405433708 ], [ -89.983923487474797, 29.929688405648559 ], [ -89.985056487804073, 29.930178405720955 ], [ -89.989238489034179, 29.932311406059657 ], [ -89.991937489835237, 29.933855406315228 ], [ -89.998617491826209, 29.937937407004412 ], [ -90.005181493788584, 29.942070407708655 ], [ -90.012107495840809, 29.945985408352868 ], [ -90.006413494787878, 29.958293411229587 ], [ -90.000799493722241, 29.969754413917464 ], [ -89.99868049330469, 29.973708414849757 ], [ -89.960134483270252, 29.985953418731022 ], [ -89.953043481136007, 29.981170417901502 ], [ -89.945370479087941, 29.982406418411308 ], [ -89.929799475046082, 29.987684420051405 ], [ -89.915506471567511, 29.998188422799437 ], [ -89.879704461251833, 29.985448421113961 ], [ -89.859290456385438, 30.003022425604762 ], [ -89.812326445228109, 30.044422436150647 ], [ -89.768703433203441, 30.042545437094159 ], [ -89.73332742267192, 30.022055433691193 ], [ -89.727457422729501, 30.062661442793154 ], [ -89.683235411173143, 30.076411447188399 ], [ -89.679036411248347, 30.106198453860362 ], [ -89.625356398311155, 30.149432465026521 ], [ -89.68871841668772, 30.173485468319491 ], [ -89.71593942336807, 30.15460746332802 ], [ -89.743920431054875, 30.155037462546023 ], [ -89.815521448282738, 30.097363447663732 ], [ -89.831549452635386, 30.096491446972379 ], [ -89.882517468623092, 30.14564945614563 ], [ -89.944674482739913, 30.075905438929031 ], [ -89.94850048365538, 30.072730438113854 ], [ -89.95516248534949, 30.069641437228885 ], [ -89.960278486514767, 30.06396143582538 ], [ -89.970212488965529, 30.057533434107775 ], [ -89.97518549020667, 30.054662433323202 ], [ -89.98076149160724, 30.051643432488252 ], [ -89.989055493706417, 30.047567431337175 ], [ -89.992413494559671, 30.045998430888805 ], [ -89.996907495706637, 30.044022430315401 ], [ -89.99995349649312, 30.042928429981423 ], [ -90.002522497146074, 30.041713429634783 ], [ -90.008076498577182, 30.039606429000031 ], [ -90.01229649966713, 30.038080428534261 ], [ -90.035247505674604, 30.031665426414222 ], [ -90.061994513054287, 30.033436425968823 ], [ -90.074238516307901, 30.031246425107639 ], [ -90.070804514965147, 30.021413423061588 ], [ -90.075631516277042, 30.021263422878455 ], [ -90.079429517306025, 30.021044422712073 ], [ -90.083042518285424, 30.020870422561327 ], [ -90.084887518387447, 30.011110420367281 ], [ -90.082876517405779, 30.000591418126181 ], [ -90.084927517803621, 29.996619417192303 ], [ -90.087296518148761, 29.989266415508578 ], [ -90.089406518496943, 29.983711414226324 ], [ -90.090405518730677, 29.982756413986309 ], [ -90.091665519085439, 29.983036414008101 ], [ -90.094187519676794, 29.980656413408074 ], [ -90.097314520400801, 29.97749841261945 ], [ -90.09473151962456, 29.975746412316202 ], [ -90.097639520284602, 29.972492411513247 ], [ -90.099526520850233, 29.973721411723407 ], [ -90.100616521176818, 29.97441641184157 ], [ -90.104200522254047, 29.976838412261529 ], [ -90.106005522798526, 29.978090412479169 ], [ -90.109899523612839, 29.972043411033749 ], [ -90.110096523657106, 29.971789410972153 ], [ -90.112312524488857, 29.977328412116812 ], [ -90.119958526428874, 29.973743411094169 ], [ -90.124775527828064, 29.975816411397801 ], [ -90.125836527969739, 29.972209410575545 ], [ -90.139195531659936, 29.973267410392065 ], [ -90.14319353276116, 29.973540410327796 ], [ -90.15478253597108, 29.974686410218077 ], [ -90.160649537586522, 29.975043410114459 ], [ -90.161816537905963, 29.975072410084245 ], [ -90.161931537755393, 29.970620409105628 ], [ -90.162144537638895, 29.966366408167936 ], [ -90.162297537547403, 29.963111407450153 ], [ -90.157117536127842, 29.962960407578137 ], [ -90.156834536050098, 29.962949407584382 ], [ -90.152341534819087, 29.962825407697391 ], [ -90.152096535043597, 29.969954409266094 ], [ -90.14539853319954, 29.969544409384227 ], [ -90.127667528311463, 29.968348409673009 ], [ -90.128616528502164, 29.966678409277485 ], [ -90.130746528970604, 29.963924408607788 ], [ -90.137372530733202, 29.962807408157623 ], [ -90.136298530086918, 29.954160406297554 ], [ -90.137607530335117, 29.951494405672555 ], [ -90.130399528164233, 29.946512404804672 ], [ -90.125150526558045, 29.942273404038808 ], [ -90.123240526136286, 29.94470140462931 ], [ -90.121343525718117, 29.947132405221105 ], [ -90.120696525572924, 29.947910405411641 ], [ -90.118791525151522, 29.950317405998295 ], [ -90.116866524727655, 29.952798406601246 ], [ -90.114159524089445, 29.955268407226768 ], [ -90.113898523952599, 29.953670406884878 ], [ -90.110469522929165, 29.951526406521328 ], [ -90.110212522855463, 29.951429406508034 ], [ -90.113228523376918, 29.94404640479646 ], [ -90.113990523660206, 29.945890405176517 ], [ -90.116585524161678, 29.940832403988161 ], [ -90.110317522365634, 29.938759403728096 ], [ -90.111004522448553, 29.936189403143413 ], [ -90.111275522481662, 29.93519740291724 ], [ -90.111525522512864, 29.934269402706683 ], [ -90.112516522629136, 29.930505401850276 ], [ -90.113060522694965, 29.928475401388912 ], [ -90.113799522787403, 29.925794400778297 ], [ -90.119820524462881, 29.926585400765255 ], [ -90.120870524643166, 29.923981400162045 ], [ -90.121528524748044, 29.922148399739648 ], [ -90.121843524799019, 29.92128439954087 ], [ -90.11914452403748, 29.92066739948871 ], [ -90.120479524191396, 29.91551039831705 ], [ -90.122029524374796, 29.909640396982105 ], [ -90.125921525470758, 29.910472397044288 ], [ -90.127433525899363, 29.910864397083415 ], [ -90.132479527364495, 29.913010397398168 ], [ -90.138579529265314, 29.91881039848024 ], [ -90.139279529705163, 29.924909399796057 ], [ -90.131934528058537, 29.933670401943186 ], [ -90.128944527397294, 29.937469402868075 ], [ -90.130238527792315, 29.938485403051153 ], [ -90.134658529160873, 29.942459403784419 ], [ -90.138979530174623, 29.938409402762908 ], [ -90.140079530862479, 29.94790940481024 ], [ -90.150677534088416, 29.956073406270217 ], [ -90.157170535773005, 29.953950405603457 ], [ -90.169063538628805, 29.944440403152107 ], [ -90.169147538648716, 29.944356403131263 ], [ -90.184163542233421, 29.931861399928565 ], [ -90.196294545275563, 29.9253363981239 ], [ -90.206425547948001, 29.923125397325929 ], [ -90.206753548042997, 29.923253397343061 ], [ -90.218677551705596, 29.933321399178471 ], [ -90.229443555566604, 29.9559434037958 ], [ -90.230275555867834, 29.957741404163507 ], [ -90.231045556145716, 29.959397404502223 ], [ -90.234463557164077, 29.961516404859708 ], [ -90.238354558324119, 29.963927405266055 ], [ -90.228978556222202, 29.975011407982137 ], [ -90.226239555467856, 29.974833408028527 ], [ -90.222462554427338, 29.97458140809065 ], [ -90.218747553404199, 29.974335408152569 ], [ -90.216222552708913, 29.974168408194465 ], [ -90.221295554270526, 29.978493408983073 ], [ -90.225262555362434, 29.978757408917676 ], [ -90.231755557150336, 29.979180408808137 ], [ -90.235936558298135, 29.979371408719416 ], [ -90.235348558229958, 29.981610409227681 ], [ -90.249371562229115, 29.985888409726417 ], [ -90.247655561999736, 29.991704411051749 ], [ -90.246701561853641, 29.994464411684682 ], [ -90.245534561685446, 29.998118412519887 ], [ -90.243306561432433, 30.006713414468415 ], [ -90.242078561214925, 30.009572415132023 ], [ -90.245221562066362, 30.009440415005017 ], [ -90.245740562276197, 30.011111415353668 ], [ -90.25551356502028, 30.0130244154671 ], [ -90.259270566032995, 30.01275641529099 ], [ -90.262234566831154, 30.012521415147539 ], [ -90.262921567426247, 30.022397417283752 ], [ -90.265301568081483, 30.022570417247504 ], [ -90.267178568151365, 30.011847414845999 ], [ -90.274678570171474, 30.0112624144835 ], [ -90.274663569998594, 30.007180413592053 ], [ -90.279500571302265, 30.006802413358809 ], [ -90.279574572011597, 30.023524417010066 ], [ -90.279439572770244, 30.042798421223651 ], [ -90.279247572953196, 30.048484422471024 ], [ -90.279225572973459, 30.049123422611501 ], [ -90.259894572457185, 30.16341544815095 ], [ -90.156261545278483, 30.189618457136675 ], [ -90.160641548350242, 30.23434246674751 ], [ -90.304105590044955, 30.294879475358975 ], [ -90.322316595172623, 30.298722475613083 ], [ -90.401851616279203, 30.285366470173184 ], [ -90.485831638788383, 30.276997465674853 ], [ -90.489354643091005, 30.355551482592361 ], [ -90.519954653932643, 30.414224494308943 ], [ -90.521446654344516, 30.414340494285707 ], [ -90.546887662010207, 30.431614497200165 ], [ -90.52756965704512, 30.438400499291525 ], [ -90.522490655670637, 30.438577499494667 ], [ -90.496169648560297, 30.439804500611359 ], [ -90.502630650729998, 30.449357502468462 ], [ -90.507923653212757, 30.473496507515151 ], [ -90.472466642766378, 30.455101504686809 ], [ -90.456679638519617, 30.45632850546248 ], [ -90.450279637285362, 30.468111508218762 ], [ -90.453373638592296, 30.47887151044571 ], [ -90.457859640455567, 30.493705513506814 ], [ -90.460158641406736, 30.501208515054813 ], [ -90.461023641767824, 30.504107515652574 ], [ -90.457472640834354, 30.504893515938011 ], [ -90.448390638455137, 30.50708351670632 ], [ -90.448329638254577, 30.502817515785932 ], [ -90.448297637853059, 30.493752513827623 ], [ -90.427390632163878, 30.493880514533053 ], [ -90.429047631964778, 30.478841511226797 ], [ -90.398084623527964, 30.478822512225964 ], [ -90.372855616650725, 30.478801513038345 ], [ -90.338540607359064, 30.480248514462048 ], [ -90.363906614899406, 30.49473051677553 ], [ -90.361712614825521, 30.506849519469025 ], [ -90.343911609935802, 30.506019519866467 ], [ -90.345359612447595, 30.55485753038321 ], [ -90.311785605548039, 30.606719542686392 ], [ -90.311709606162822, 30.621274545833828 ], [ -90.248699588740493, 30.61608354676947 ], [ -90.243769588737138, 30.646819553573909 ], [ -90.255754594890206, 30.712449567352699 ], [ -90.121847557248046, 30.688372566545311 ], [ -90.079918545444315, 30.680655566248586 ], [ -90.003362523904428, 30.667036565801943 ], [ -90.001762523455895, 30.666800565803332 ], [ -89.990781520390897, 30.665415565862126 ], [ -89.955861510825258, 30.665293566974398 ], [ -89.842335479755619, 30.6660205708313 ], [ -89.830467474455077, 30.618940560998706 ], [ -89.808148466182146, 30.56911955089566 ], [ -89.779164457154522, 30.544034546375705 ], [ -89.756573449035372, 30.499228537348827 ], [ -89.721410438948112, 30.48888853622547 ], [ -89.683636426999982, 30.45179252934749 ], [ -89.681676424387959, 30.402993518758731 ], [ -89.64516141204669, 30.348109507927507 ], [ -89.641585409185126, 30.303447498271403 ], [ -89.631619404504775, 30.257018488420421 ], [ -89.614748399125261, 30.239067485018055 ], [ -89.571912384940944, 30.180726473567258 ], [ -89.538640376434586, 30.195895477938254 ], [ -89.494978362985833, 30.160755471586281 ], [ -89.416716342176358, 30.177644477742628 ], [ -89.288399306911685, 30.178475481929311 ], [ -89.250045296642483, 30.185524484676531 ], [ -89.183674279461655, 30.212160492613059 ], [ -89.096481253515122, 30.165834485114775 ], [ -88.85491818558809, 30.135537485899956 ], [ -88.834352178076372, 30.090713476609675 ], [ -88.78367116147038, 30.026690463969143 ], [ -88.764500153963198, 29.971949452400555 ], [ -88.758393150122885, 29.918276440656214 ], [ -88.767260149486418, 29.840776423142231 ], [ -88.80182215545625, 29.750202401922081 ], [ -88.879240172805254, 29.647414376680519 ], [ -88.91266218063916, 29.61178536773339 ], [ -88.960209192406992, 29.577109358581275 ], [ -89.038879210810876, 29.492234337298601 ], [ -89.072300219193096, 29.47084333153413 ], [ -89.119456231687309, 29.458070327291253 ], [ -89.142078236815792, 29.429470320237321 ], [ -89.137617233750532, 29.381434309630318 ], [ -89.112164225155013, 29.339677301031912 ], [ -89.069431211671073, 29.294302292113073 ], [ -89.022620198030111, 29.274468289024448 ], [ -88.942059175050801, 29.253747286706012 ], [ -88.918315167849372, 29.236281283468159 ], [ -88.909156163971872, 29.200166275615103 ], [ -88.927814166029393, 29.117280256430927 ], [ -88.996907183882129, 29.08530924725974 ], [ -89.012693186103519, 29.02768523383433 ], [ -89.045643194413728, 29.006947228226068 ], [ -89.09606020592723, 28.942498212274614 ], [ -89.133289215337655, 28.919733206092324 ], [ -89.196541233465098, 28.939969208864575 ], [ -89.23490824573841, 28.987157218397428 ], [ -89.279609257673343, 28.977788215021377 ], [ -89.384732282644052, 28.871508188140005 ], [ -89.425702293286363, 28.855132183301407 ], [ -89.460217303016591, 28.862496183984913 ], [ -89.487645311441113, 28.887376188804119 ], [ -89.491849313763908, 28.919411195882265 ], [ -89.465741308627443, 28.97444220897891 ], [ -89.46500831262091, 29.087765234409058 ], [ -89.502324325490321, 29.158381249139588 ], [ -89.561665342870981, 29.188082254060784 ], [ -89.610432356629445, 29.198640255003511 ], [ -89.899669434091635, 29.155014236878049 ], [ -90.032330469547063, 29.135049228582265 ], [ -90.089097483507061, 29.094653217947609 ], [ -90.125141492400104, 29.069864211389135 ], [ -90.200701511720354, 29.036189201714308 ], [ -90.239067522048245, 29.033109199921434 ], [ -90.344324549561421, 29.00318319023209 ], [ -90.409637567021804, 28.995393186618465 ], [ -90.479852586584784, 29.008617187527289 ], [ -90.552552607372462, 29.036811191675884 ], [ -90.720770651317153, 28.992635177018943 ], [ -90.822653678645239, 28.98591617258371 ], [ -90.907085701675484, 28.99113717129044 ], [ -90.970292719278916, 29.005032172524764 ], [ -91.008764730495159, 29.026907176231447 ], [ -91.02303673587906, 29.06740318474197 ], [ -90.973047724390042, 29.120479197898643 ], [ -90.969165724558394, 29.152417205045953 ], [ -90.950746722063883, 29.217285219863633 ], [ -90.892494706042726, 29.210260220039238 ], [ -90.884168705100393, 29.244328227782638 ], [ -90.832592692586601, 29.281744237543005 ], [ -90.824441692061882, 29.325183247338305 ], [ -90.801504687334301, 29.36335425641208 ], [ -90.729775668731193, 29.384627263230783 ], [ -90.722571668553357, 29.430054273430276 ] ] ] } },
{ "type": "Feature", "properties": { "enacted_district": 2, "population": 776067.0, "voting_age_pop": 600004.0, "dem_votes": 72730.0, "rep_votes": 21360.0, "minority_pop": 421040.0, "dem_pct": 0.77298331302690682, "rep_pct": 0.2270166859102809 }, "geometry": { "type": "Polygon", "coordinates": [ [ [ -91.283466851249599, 30.189293421180977 ], [ -91.243774841198118, 30.204914425818934 ], [ -91.228795838438941, 30.235097432801012 ], [ -91.203980831776377, 30.2360464338037 ], [ -91.203947831871361, 30.238486434330461 ], [ -91.187939829015093, 30.272864442248508 ], [ -91.214586836401594, 30.277220442326101 ], [ -91.222362838255975, 30.271464440836265 ], [ -91.223198838605995, 30.274378441436955 ], [ -91.239566842786161, 30.268739439695185 ], [ -91.250493845528439, 30.263862438293231 ], [ -91.25262684620364, 30.266182438723913 ], [ -91.261536848732717, 30.269077439059437 ], [ -91.262014848884178, 30.269601439156876 ], [ -91.291008855840616, 30.24922543383828 ], [ -91.316540864073616, 30.280568439753822 ], [ -91.325407869349277, 30.347522453847763 ], [ -91.311290864458115, 30.322477448928659 ], [ -91.278454857988379, 30.377929461901601 ], [ -91.254008851545919, 30.381619463488732 ], [ -91.280147859222424, 30.395871465696978 ], [ -91.233773846301887, 30.386756465250517 ], [ -91.227696845015601, 30.394951467207811 ], [ -91.218764843078517, 30.405956469861422 ], [ -91.228020845733042, 30.409494470319256 ], [ -91.222838844639355, 30.416555472003719 ], [ -91.210969842102159, 30.431980475701984 ], [ -91.21144484226366, 30.432749475851253 ], [ -91.243062851150782, 30.440636476510917 ], [ -91.245255852185238, 30.450779478614319 ], [ -91.226582847170704, 30.451500479379547 ], [ -91.225130847147199, 30.459963481242362 ], [ -91.224236847024599, 30.462693481856444 ], [ -91.218564845502158, 30.462913482089547 ], [ -91.211745843673299, 30.463236482381603 ], [ -91.211391843350242, 30.45803048127706 ], [ -91.205783841845886, 30.458289481515944 ], [ -91.20280284079314, 30.452631480399329 ], [ -91.20214084061196, 30.452561480405947 ], [ -91.196119838989844, 30.452704480633795 ], [ -91.195911838359095, 30.439498477806954 ], [ -91.187392836066778, 30.439730478134837 ], [ -91.178881833935563, 30.443637479251255 ], [ -91.180536834595301, 30.448501480241031 ], [ -91.175646833668878, 30.457591482351393 ], [ -91.196212839237361, 30.457795481723121 ], [ -91.19675484030212, 30.478850486221415 ], [ -91.197210841650602, 30.506869492213536 ], [ -91.209313845628074, 30.522994495271597 ], [ -91.208884846002817, 30.534178497681346 ], [ -91.204461846087284, 30.563295504062449 ], [ -91.213007849151197, 30.580394507441284 ], [ -91.202002847609521, 30.612878514755387 ], [ -91.171418839309496, 30.612206515622525 ], [ -91.163852837236405, 30.611605515744685 ], [ -91.16540783730666, 30.603675513995594 ], [ -91.168376837431921, 30.588331510613312 ], [ -91.168803837450923, 30.586128510127448 ], [ -91.169098837461959, 30.584575509785576 ], [ -91.170873837535837, 30.575356507752257 ], [ -91.170571837450865, 30.575281507746229 ], [ -91.150115831926755, 30.57547850846311 ], [ -91.157604833222095, 30.558879504660471 ], [ -91.155805832503674, 30.553600503588974 ], [ -91.1364348267617, 30.542170501776649 ], [ -91.110081819047039, 30.52883649978348 ], [ -91.137523826310996, 30.52518149809843 ], [ -91.1233748223041, 30.521089497685953 ], [ -91.121827821793644, 30.518989497285947 ], [ -91.113634819419701, 30.515404496786044 ], [ -91.085326811277682, 30.504378495348401 ], [ -91.087128811681978, 30.502483494882593 ], [ -91.089703811555964, 30.48362749075012 ], [ -91.101410814587979, 30.480492489694527 ], [ -91.112741817486878, 30.476679488504857 ], [ -91.112665817462016, 30.476572488484798 ], [ -91.108875816205881, 30.471285487473711 ], [ -91.09580681187164, 30.452942483961039 ], [ -91.112017816207356, 30.451792483185351 ], [ -91.122846819119843, 30.451407482748735 ], [ -91.127410820348757, 30.451273482571601 ], [ -91.139038823478998, 30.450915482114205 ], [ -91.139173823646999, 30.453951482762427 ], [ -91.143993824944033, 30.4537884825696 ], [ -91.154776827847158, 30.453492482153973 ], [ -91.155767828113355, 30.453462482115267 ], [ -91.164539830474183, 30.453201481772069 ], [ -91.165885830652641, 30.448928480811237 ], [ -91.165723830389965, 30.443897479736162 ], [ -91.170312831625836, 30.443792479563783 ], [ -91.170201831426439, 30.43990447873324 ], [ -91.168825830995019, 30.438533478483674 ], [ -91.169119830818516, 30.432651477211525 ], [ -91.168623830438634, 30.426983476011017 ], [ -91.17157383130764, 30.42862447626716 ], [ -91.182712834422318, 30.430996476412258 ], [ -91.180102833496406, 30.425941475412127 ], [ -91.178212832807006, 30.421827474591005 ], [ -91.176431832127307, 30.417264473669199 ], [ -91.199061838462441, 30.422284474008993 ], [ -91.205712839640555, 30.407996470724747 ], [ -91.21281284108656, 30.39709646815334 ], [ -91.231572845310779, 30.377592463353803 ], [ -91.233913845844199, 30.375297462785458 ], [ -91.237117846454325, 30.369396461413515 ], [ -91.235813845026783, 30.344498456106809 ], [ -91.174424828425401, 30.344192458032165 ], [ -91.142110818790883, 30.32329845458365 ], [ -91.142310818698604, 30.319898453845092 ], [ -91.137911817392876, 30.317199453406761 ], [ -91.124809813679761, 30.313213452971961 ], [ -91.092845805349754, 30.320561455587647 ], [ -91.0669707982766, 30.318875456059928 ], [ -91.021019785952859, 30.321494458108827 ], [ -91.044914789446537, 30.251971442349035 ], [ -91.059129791638043, 30.213089433504159 ], [ -91.040082786292544, 30.208564433137489 ], [ -91.023714783182996, 30.239619440365413 ], [ -90.988922773791046, 30.240223441611956 ], [ -90.969568768568038, 30.24064244232277 ], [ -90.954325764130886, 30.233369441240875 ], [ -90.947072762135036, 30.232639441315783 ], [ -90.92790075694748, 30.232778441959866 ], [ -90.92068375499376, 30.23282544220109 ], [ -90.920650754531579, 30.222151439895732 ], [ -90.920597754353523, 30.218277439059673 ], [ -90.920603754043356, 30.210927437471167 ], [ -90.903934749533704, 30.211101438041471 ], [ -90.915695751821715, 30.189859433072495 ], [ -90.920200753019273, 30.189324432812953 ], [ -90.954771761048136, 30.157732424877778 ], [ -90.922422751940445, 30.149518424130974 ], [ -90.957022759788941, 30.113334415199191 ], [ -90.953865758712624, 30.10808141416258 ], [ -90.915570748560313, 30.113290416505393 ], [ -90.869350736404314, 30.122020419863244 ], [ -90.759588707545703, 30.143581428020291 ], [ -90.707915693945296, 30.153661431847041 ], [ -90.642116676615046, 30.166453436710935 ], [ -90.631910676149644, 30.221195448910805 ], [ -90.592026664767118, 30.20832944739055 ], [ -90.596303665920686, 30.208121447208612 ], [ -90.581664660732486, 30.179418441444692 ], [ -90.548581651266403, 30.168177440052723 ], [ -90.546818648413861, 30.111521427794752 ], [ -90.537441645828039, 30.110663427904509 ], [ -90.49863163507942, 30.10601142811629 ], [ -90.504407636089496, 30.092560425007431 ], [ -90.502911635418997, 30.086240423678817 ], [ -90.501805634799965, 30.078591422048881 ], [ -90.500745634299705, 30.07348742097086 ], [ -90.490208631478154, 30.074567421537548 ], [ -90.48769863119044, 30.084052423681278 ], [ -90.490048631838263, 30.084256423651823 ], [ -90.487370631495764, 30.093539425757481 ], [ -90.486218631534243, 30.101981427631291 ], [ -90.476720628821639, 30.098893427258183 ], [ -90.470540627057957, 30.096926427024759 ], [ -90.461098624376959, 30.094222426733118 ], [ -90.441632618848857, 30.088681426139392 ], [ -90.481455628785895, 30.067086420184093 ], [ -90.480255628427557, 30.066312420052625 ], [ -90.47819262762988, 30.060607418874874 ], [ -90.467793623602475, 30.03171441290597 ], [ -90.474243625342837, 30.031358412626115 ], [ -90.454484618494163, 29.995728405475287 ], [ -90.451451617665441, 29.995637405550319 ], [ -90.415128607648896, 29.992431405985592 ], [ -90.397130602056563, 29.97559840287304 ], [ -90.396840601860063, 29.972729402255389 ], [ -90.363095593284527, 29.987612406558316 ], [ -90.377560596797807, 29.977263403846781 ], [ -90.381812597819007, 29.973948402990068 ], [ -90.3811265975758, 29.972567402709771 ], [ -90.380055597198037, 29.970494402290832 ], [ -90.396129601099716, 29.958939399266139 ], [ -90.383046597043034, 29.946866397035855 ], [ -90.374209594451514, 29.94235439632471 ], [ -90.344931586169565, 29.934787395580884 ], [ -90.33504558344768, 29.934061395729383 ], [ -90.323436581213201, 29.956696401038947 ], [ -90.322736581043642, 29.957221401175307 ], [ -90.317136579689077, 29.961388402260539 ], [ -90.3012215750732, 29.954543401258796 ], [ -90.279538569716024, 29.967976404870235 ], [ -90.280062570833493, 29.991711410043301 ], [ -90.279500571302265, 30.006802413358809 ], [ -90.274663569998594, 30.007180413592053 ], [ -90.274678570171474, 30.0112624144835 ], [ -90.267178568151365, 30.011847414845999 ], [ -90.265301568081483, 30.022570417247504 ], [ -90.262921567426247, 30.022397417283752 ], [ -90.262234566831154, 30.012521415147539 ], [ -90.259270566032995, 30.01275641529099 ], [ -90.25551356502028, 30.0130244154671 ], [ -90.245740562276197, 30.011111415353668 ], [ -90.245221562066362, 30.009440415005017 ], [ -90.242078561214925, 30.009572415132023 ], [ -90.243306561432433, 30.006713414468415 ], [ -90.245534561685446, 29.998118412519887 ], [ -90.246701561853641, 29.994464411684682 ], [ -90.247655561999736, 29.991704411051749 ], [ -90.249371562229115, 29.985888409726417 ], [ -90.235348558229958, 29.981610409227681 ], [ -90.235936558298135, 29.979371408719416 ], [ -90.231755557150336, 29.979180408808137 ], [ -90.225262555362434, 29.978757408917676 ], [ -90.221295554270526, 29.978493408983073 ], [ -90.216222552708913, 29.974168408194465 ], [ -90.218747553404199, 29.974335408152569 ], [ -90.222462554427338, 29.97458140809065 ], [ -90.226239555467856, 29.974833408028527 ], [ -90.228978556222202, 29.975011407982137 ], [ -90.238354558324119, 29.963927405266055 ], [ -90.234463557164077, 29.961516404859708 ], [ -90.231045556145716, 29.959397404502223 ], [ -90.230275555867834, 29.957741404163507 ], [ -90.229443555566604, 29.9559434037958 ], [ -90.218677551705596, 29.933321399178471 ], [ -90.206753548042997, 29.923253397343061 ], [ -90.206425547948001, 29.923125397325929 ], [ -90.196294545275563, 29.9253363981239 ], [ -90.184163542233421, 29.931861399928565 ], [ -90.169147538648716, 29.944356403131263 ], [ -90.169063538628805, 29.944440403152107 ], [ -90.157170535773005, 29.953950405603457 ], [ -90.150677534088416, 29.956073406270217 ], [ -90.140079530862479, 29.94790940481024 ], [ -90.138979530174623, 29.938409402762908 ], [ -90.134658529160873, 29.942459403784419 ], [ -90.130238527792315, 29.938485403051153 ], [ -90.128944527397294, 29.937469402868075 ], [ -90.131934528058537, 29.933670401943186 ], [ -90.139279529705163, 29.924909399796057 ], [ -90.138579529265314, 29.91881039848024 ], [ -90.132479527364495, 29.913010397398168 ], [ -90.127433525899363, 29.910864397083415 ], [ -90.125921525470758, 29.910472397044288 ], [ -90.122029524374796, 29.909640396982105 ], [ -90.120479524191396, 29.91551039831705 ], [ -90.11914452403748, 29.92066739948871 ], [ -90.121843524799019, 29.92128439954087 ], [ -90.121528524748044, 29.922148399739648 ], [ -90.120870524643166, 29.923981400162045 ], [ -90.119820524462881, 29.926585400765255 ], [ -90.113799522787403, 29.925794400778297 ], [ -90.113060522694965, 29.928475401388912 ], [ -90.112516522629136, 29.930505401850276 ], [ -90.111525522512864, 29.934269402706683 ], [ -90.111275522481662, 29.93519740291724 ], [ -90.111004522448553, 29.936189403143413 ], [ -90.110317522365634, 29.938759403728096 ], [ -90.116585524161678, 29.940832403988161 ], [ -90.113990523660206, 29.945890405176517 ], [ -90.113228523376918, 29.94404640479646 ], [ -90.110212522855463, 29.951429406508034 ], [ -90.110469522929165, 29.951526406521328 ], [ -90.113898523952599, 29.953670406884878 ], [ -90.114159524089445, 29.955268407226768 ], [ -90.116866524727655, 29.952798406601246 ], [ -90.118791525151522, 29.950317405998295 ], [ -90.120696525572924, 29.947910405411641 ], [ -90.121343525718117, 29.947132405221105 ], [ -90.123240526136286, 29.94470140462931 ], [ -90.125150526558045, 29.942273404038808 ], [ -90.130399528164233, 29.946512404804672 ], [ -90.137607530335117, 29.951494405672555 ], [ -90.136298530086918, 29.954160406297554 ], [ -90.137372530733202, 29.962807408157623 ], [ -90.130746528970604, 29.963924408607788 ], [ -90.128616528502164, 29.966678409277485 ], [ -90.127667528311463, 29.968348409673009 ], [ -90.14539853319954, 29.969544409384227 ], [ -90.152096535043597, 29.969954409266094 ], [ -90.152341534819087, 29.962825407697391 ], [ -90.156834536050098, 29.962949407584382 ], [ -90.157117536127842, 29.962960407578137 ], [ -90.162297537547403, 29.963111407450153 ], [ -90.162144537638895, 29.966366408167936 ], [ -90.161931537755393, 29.970620409105628 ], [ -90.161816537905963, 29.975072410084245 ], [ -90.160649537586522, 29.975043410114459 ], [ -90.15478253597108, 29.974686410218077 ], [ -90.14319353276116, 29.973540410327796 ], [ -90.139195531659936, 29.973267410392065 ], [ -90.125836527969739, 29.972209410575545 ], [ -90.124775527828064, 29.975816411397801 ], [ -90.119958526428874, 29.973743411094169 ], [ -90.112312524488857, 29.977328412116812 ], [ -90.110096523657106, 29.971789410972153 ], [ -90.109899523612839, 29.972043411033749 ], [ -90.106005522798526, 29.978090412479169 ], [ -90.104200522254047, 29.976838412261529 ], [ -90.100616521176818, 29.97441641184157 ], [ -90.099526520850233, 29.973721411723407 ], [ -90.097639520284602, 29.972492411513247 ], [ -90.09473151962456, 29.975746412316202 ], [ -90.097314520400801, 29.97749841261945 ], [ -90.094187519676794, 29.980656413408074 ], [ -90.091665519085439, 29.983036414008101 ], [ -90.090405518730677, 29.982756413986309 ], [ -90.089406518496943, 29.983711414226324 ], [ -90.087296518148761, 29.989266415508578 ], [ -90.084927517803621, 29.996619417192303 ], [ -90.082876517405779, 30.000591418126181 ], [ -90.084887518387447, 30.011110420367281 ], [ -90.083042518285424, 30.020870422561327 ], [ -90.079429517306025, 30.021044422712073 ], [ -90.075631516277042, 30.021263422878455 ], [ -90.070804514965147, 30.021413423061588 ], [ -90.074238516307901, 30.031246425107639 ], [ -90.061994513054287, 30.033436425968823 ], [ -90.035247505674604, 30.031665426414222 ], [ -90.01229649966713, 30.038080428534261 ], [ -90.008076498577182, 30.039606429000031 ], [ -90.002522497146074, 30.041713429634783 ], [ -89.99995349649312, 30.042928429981423 ], [ -89.996907495706637, 30.044022430315401 ], [ -89.992413494559671, 30.045998430888805 ], [ -89.989055493706417, 30.047567431337175 ], [ -89.98076149160724, 30.051643432488252 ], [ -89.97518549020667, 30.054662433323202 ], [ -89.970212488965529, 30.057533434107775 ], [ -89.960278486514767, 30.06396143582538 ], [ -89.95516248534949, 30.069641437228885 ], [ -89.94850048365538, 30.072730438113854 ], [ -89.944674482739913, 30.075905438929031 ], [ -89.882517468623092, 30.14564945614563 ], [ -89.831549452635386, 30.096491446972379 ], [ -89.815521448282738, 30.097363447663732 ], [ -89.743920431054875, 30.155037462546023 ], [ -89.71593942336807, 30.15460746332802 ], [ -89.68871841668772, 30.173485468319491 ], [ -89.625356398311155, 30.149432465026521 ], [ -89.679036411248347, 30.106198453860362 ], [ -89.683235411173143, 30.076411447188399 ], [ -89.727457422729501, 30.062661442793154 ], [ -89.73332742267192, 30.022055433691193 ], [ -89.768703433203441, 30.042545437094159 ], [ -89.812326445228109, 30.044422436150647 ], [ -89.859290456385438, 30.003022425604762 ], [ -89.879704461251833, 29.985448421113961 ], [ -89.915506471567511, 29.998188422799437 ], [ -89.929799475046082, 29.987684420051405 ], [ -89.945370479087941, 29.982406418411308 ], [ -89.953043481136007, 29.981170417901502 ], [ -89.960134483270252, 29.985953418731022 ], [ -89.99868049330469, 29.973708414849757 ], [ -90.000799493722241, 29.969754413917464 ], [ -90.006413494787878, 29.958293411229587 ], [ -90.012107495840809, 29.945985408352868 ], [ -90.005181493788584, 29.942070407708655 ], [ -89.998617491826209, 29.937937407004412 ], [ -89.991937489835237, 29.933855406315228 ], [ -89.989238489034179, 29.932311406059657 ], [ -89.985056487804073, 29.930178405720955 ], [ -89.983923487474797, 29.929688405648559 ], [ -89.980217486401088, 29.928188405433708 ], [ -89.977685485676318, 29.927378405334288 ], [ -89.972006484046176, 29.92546140508826 ], [ -89.960707480891486, 29.923851405083944 ], [ -89.957162479928982, 29.924012405228883 ], [ -89.941072475551252, 29.924524405837591 ], [ -89.936064474169328, 29.924210405923247 ], [ -89.916815468344581, 29.910396403482778 ], [ -89.911616466604784, 29.90255140191827 ], [ -89.910270466161137, 29.900705401554585 ], [ -89.90465746422673, 29.890851399561409 ], [ -89.902993463209199, 29.876958396557697 ], [ -89.910713464952877, 29.867870394321589 ], [ -89.917592466784839, 29.866666393845168 ], [ -89.935071472619001, 29.89271039903301 ], [ -89.987271487386167, 29.905009400127124 ], [ -89.993864488677872, 29.892470397169717 ], [ -90.002278491194446, 29.897811398083611 ], [ -90.008061492681776, 29.895533397404375 ], [ -90.015492494165869, 29.882094394224922 ], [ -90.01772449463094, 29.878509393368553 ], [ -90.0235114956849, 29.865524390338017 ], [ -90.034132497871582, 29.847854386129399 ], [ -90.041053499654609, 29.845214385337066 ], [ -90.057944503930187, 29.836878382986832 ], [ -90.069012506205212, 29.818389378584943 ], [ -90.068501505395957, 29.801770374947981 ], [ -90.06742550417006, 29.778605369887376 ], [ -90.075688506155061, 29.771855368150941 ], [ -90.081364507568566, 29.768479367234868 ], [ -90.10016351310702, 29.778626368891377 ], [ -90.099210513497241, 29.794793372473546 ], [ -90.098096514145482, 29.818415377697796 ], [ -90.109364517937721, 29.836163381249527 ], [ -90.108014517897445, 29.844289383076031 ], [ -90.109062518504203, 29.852200384780133 ], [ -90.116744520431794, 29.848050383633129 ], [ -90.120884521825033, 29.854558384933618 ], [ -90.167836534068144, 29.840554380415597 ], [ -90.173207535006156, 29.827529377392818 ], [ -90.17251353387536, 29.804221372297249 ], [ -90.211293541484636, 29.73050935491997 ], [ -90.228162544543963, 29.692033345947944 ], [ -90.315970568478207, 29.69245334336679 ], [ -90.361546581485484, 29.70745534527051 ], [ -90.371983586406202, 29.759244356311797 ], [ -90.443068606891018, 29.787630360349137 ], [ -90.468048614325326, 29.803479363049249 ], [ -90.476311617439805, 29.824880367477427 ], [ -90.479909619332744, 29.847382372287683 ], [ -90.529606634376478, 29.8850023789693 ], [ -90.600758653834717, 29.888070377430441 ], [ -90.627103661275157, 29.895047378133913 ], [ -90.65631766896972, 29.889251375962008 ], [ -90.690200678806406, 29.904870378312285 ], [ -90.731859690124722, 29.905242377095782 ], [ -90.785770705421015, 29.921699378997953 ], [ -90.795449707456683, 29.907378375578812 ], [ -90.885754731842553, 29.905353372320462 ], [ -90.885457730621638, 29.877567366286115 ], [ -90.909811737200741, 29.877200365446996 ], [ -90.925051739410165, 29.830382354786884 ], [ -90.95422474770416, 29.84011735599886 ], [ -90.959581749373683, 29.845498357002288 ], [ -90.963696751200274, 29.862905360660097 ], [ -90.968381752729456, 29.869275361898964 ], [ -90.976889756307656, 29.900324368380957 ], [ -90.947229749064434, 29.919347373441173 ], [ -90.983674760550301, 29.958612380824238 ], [ -91.022464770845644, 29.953803378562881 ], [ -91.030181772999313, 29.955410378669729 ], [ -91.045660777379766, 29.960078379195711 ], [ -91.051097778896164, 29.961187379264722 ], [ -91.067321783307577, 29.961778378883334 ], [ -91.123996798644086, 29.962193377190733 ], [ -91.138429801892656, 29.946506373338369 ], [ -91.1497238071222, 29.998918384332701 ], [ -91.090056791186697, 30.003483387203843 ], [ -91.089113793408984, 30.062807400074455 ], [ -91.10600279797292, 30.062754399528146 ], [ -91.106564800046058, 30.108524409405955 ], [ -91.090102796968566, 30.141115416972063 ], [ -91.140540811750057, 30.168220421214443 ], [ -91.151442814214562, 30.156820418405751 ], [ -91.155153815870705, 30.172256421618044 ], [ -91.174170821213323, 30.177043422042782 ], [ -91.203681827222439, 30.130643411089352 ], [ -91.245911838989457, 30.139255411598743 ], [ -91.276283846645455, 30.126400407857307 ], [ -91.284607850642047, 30.167755416504477 ], [ -91.283466851249599, 30.189293421180977 ] ] ] } },
{ "type": "Feature", "properties": { "enacted_district": 3, "population": 776275.0, "voting_age_pop": 586488.0, "dem_votes": 28368.0, "rep_votes": 60724.0, "minority_pop": 193492.0, "dem_pct": 0.31841242724552998, "rep_pct": 0.68158757163203476 }, "geometry": { "type": "Polygon", "coordinates": [ [ [ -93.487760419196476, 29.717816250096639 ], [ -93.686734470580944, 29.694817238911977 ], [ -93.770153491490476, 29.670830231199123 ], [ -93.779323491442256, 29.611694218423807 ], [ -93.814357500009621, 29.596581214125447 ], [ -93.837418509935716, 29.689890233080153 ], [ -93.89847652937496, 29.771582248327309 ], [ -93.928814538403842, 29.797085252713583 ], [ -93.922750537733606, 29.818813257473213 ], [ -93.859902522997359, 29.85992626813621 ], [ -93.830380516716914, 29.894363276323435 ], [ -93.790093510089719, 29.986569296984506 ], [ -93.73974049847476, 30.02399230647686 ], [ -93.721304494855474, 30.052354313028253 ], [ -93.725916497198796, 30.078474318352601 ], [ -93.692855490976015, 30.135218331328598 ], [ -93.700823494426018, 30.166231337559019 ], [ -93.720937501567093, 30.208466345728304 ], [ -93.703550499235362, 30.259326356936644 ], [ -93.704584500852846, 30.289726363252857 ], [ -93.729052507596606, 30.296710363893933 ], [ -93.764258518343155, 30.330234369710457 ], [ -93.75741551924844, 30.39081838256589 ], [ -93.741685515657096, 30.402980385628386 ], [ -93.526317458945201, 30.402816392838179 ], [ -93.486203449196523, 30.421353398058496 ], [ -93.48630445165162, 30.475459409351135 ], [ -93.486331452337495, 30.490528412494697 ], [ -93.399472429402635, 30.490263415373398 ], [ -93.384428424102936, 30.460733409710858 ], [ -93.38524642172078, 30.402663397540088 ], [ -93.283145394757327, 30.402891401009025 ], [ -93.232873381469403, 30.402989402712443 ], [ -93.131230354575706, 30.403063406126691 ], [ -93.131161355471505, 30.423596410438392 ], [ -93.065392338083996, 30.424351412797087 ], [ -93.03497333067304, 30.438950416880257 ], [ -93.014151325104038, 30.437852417346871 ], [ -92.938290304990915, 30.438063419928 ], [ -92.920607300300802, 30.438111420529189 ], [ -92.876774288652342, 30.437857421940077 ], [ -92.79123226592688, 30.43783842479149 ], [ -92.77398726358652, 30.488223435976543 ], [ -92.722385249867997, 30.488318437723681 ], [ -92.714293247716554, 30.488333437997753 ], [ -92.688199240774878, 30.488372438878539 ], [ -92.630327225353881, 30.488017440739068 ], [ -92.632031225503155, 30.481187439241605 ], [ -92.597580216309595, 30.480757440301275 ], [ -92.564300207432936, 30.480541441366523 ], [ -92.493265188495741, 30.480504443728716 ], [ -92.423673169909847, 30.480026445946617 ], [ -92.412881167031898, 30.48007344631564 ], [ -92.389183160703581, 30.480009447091128 ], [ -92.357807152334502, 30.480207448177847 ], [ -92.357121152150881, 30.480211448200706 ], [ -92.244801122136835, 30.480198451933621 ], [ -92.244256120068101, 30.436683442729073 ], [ -92.218477113179034, 30.436786443604628 ], [ -92.207246110180478, 30.436892443998858 ], [ -92.176450101940318, 30.436857445010876 ], [ -92.176308100777035, 30.411282439587328 ], [ -92.176065100237196, 30.400476437300636 ], [ -92.175899098529456, 30.362523429244469 ], [ -92.158560093013406, 30.342450425548861 ], [ -92.142190086733336, 30.298822416805084 ], [ -92.089221073934894, 30.330514425284409 ], [ -92.061326068328754, 30.373203435283727 ], [ -92.052807066303799, 30.379080436813755 ], [ -92.042625063463106, 30.376501436600115 ], [ -92.011460054856116, 30.370620436373301 ], [ -91.988724048673959, 30.368603436689689 ], [ -91.978190047547798, 30.407408445296682 ], [ -91.937911036206401, 30.395040443989256 ], [ -91.930524034294322, 30.396624444569134 ], [ -91.925487033014662, 30.398272445085791 ], [ -91.869279018763805, 30.417240450974944 ], [ -91.812716002572998, 30.394265447936288 ], [ -91.694305971079842, 30.401753453418305 ], [ -91.722645980913001, 30.452331463281116 ], [ -91.74218298654732, 30.461047464495557 ], [ -91.756214991950486, 30.498138471936443 ], [ -91.701344977181407, 30.497752473667163 ], [ -91.640083958284578, 30.442678463936403 ], [ -91.62903795248792, 30.377938450467088 ], [ -91.644851956111594, 30.363450446852923 ], [ -91.625488950501676, 30.35421444550996 ], [ -91.621060947393062, 30.309943436181879 ], [ -91.562765928779442, 30.241954423503824 ], [ -91.508273914037744, 30.240302424910343 ], [ -91.475282904677144, 30.229236423599989 ], [ -91.489854907603117, 30.205859418108854 ], [ -91.468099900067514, 30.166544410360036 ], [ -91.464827897331602, 30.122835401062886 ], [ -91.463903896231244, 30.102687396756245 ], [ -91.388846875995881, 30.10245039910173 ], [ -91.368840868764863, 30.058829390336253 ], [ -91.269090841878878, 30.05931339360983 ], [ -91.224235828357678, 30.025565387742095 ], [ -91.23635183059848, 30.000899382026425 ], [ -91.255234834469235, 29.971462375063759 ], [ -91.471958892258201, 29.95630936495013 ], [ -91.413564874400805, 29.904998355707729 ], [ -91.373647860733001, 29.834406341687167 ], [ -91.378541861272041, 29.81541333742053 ], [ -91.382404860928901, 29.781634329982463 ], [ -91.352353852215273, 29.766557327648226 ], [ -91.298589837658724, 29.76497132897417 ], [ -91.229403818343727, 29.748927327636 ], [ -91.181962804736955, 29.729171324811055 ], [ -91.177691803530081, 29.727834324652733 ], [ -91.187711805819703, 29.717586322114283 ], [ -91.186110804985802, 29.707664320006231 ], [ -91.179194803035159, 29.705599319770503 ], [ -91.176518801946017, 29.696541317882723 ], [ -91.172908801354382, 29.70601232005443 ], [ -91.137551790744325, 29.679671315411365 ], [ -91.105254780545039, 29.643017308420109 ], [ -91.082616773779819, 29.626819305583066 ], [ -91.136526787655839, 29.609771300216018 ], [ -91.1780537988638, 29.609708298931057 ], [ -91.221123809333704, 29.580950291347619 ], [ -91.254183819583844, 29.614240297585436 ], [ -91.239970817571077, 29.659468307864159 ], [ -91.292480831177841, 29.64575330326608 ], [ -91.328616841326465, 29.655874304354708 ], [ -91.307285836891865, 29.688418312083257 ], [ -91.309661837579483, 29.68956931225998 ], [ -91.31981184038608, 29.69130331232364 ], [ -91.373622855168193, 29.698260312172085 ], [ -91.417913862443584, 29.582918285754182 ], [ -91.464962866836956, 29.374662238979663 ], [ -91.500118876794801, 29.387446240706165 ], [ -91.500119874673004, 29.333382228918136 ], [ -91.59186990034884, 29.359380231823117 ], [ -91.644049914998476, 29.375560233771168 ], [ -91.699998929406718, 29.360094228716648 ], [ -91.723413935819082, 29.363423228733129 ], [ -91.777495951611556, 29.396089234196687 ], [ -91.840939967199205, 29.360195224479167 ], [ -91.897657982984597, 29.375224226025558 ], [ -91.913212988930326, 29.420212235310252 ], [ -91.96483700351132, 29.439397237894969 ], [ -91.983873009454641, 29.460718241930255 ], [ -92.029856022364143, 29.475966243822786 ], [ -92.04562202777592, 29.505811249791837 ], [ -92.078056037479286, 29.531494254343983 ], [ -92.146672055838863, 29.532042252350617 ], [ -92.223468074844604, 29.494718241935765 ], [ -92.308439097016887, 29.482339236656689 ], [ -92.405022123480677, 29.500294237551845 ], [ -92.617312181053379, 29.527134236764756 ], [ -92.665795194372976, 29.537880237567663 ], [ -92.806763233768621, 29.586391243573647 ], [ -93.014190292286543, 29.672847255527827 ], [ -93.125156323025678, 29.706214259127709 ], [ -93.228636351223287, 29.726688260200451 ], [ -93.287360366631319, 29.724336257839575 ], [ -93.342822380049199, 29.695090249880124 ], [ -93.38725239254336, 29.71377625243267 ], [ -93.487760419196476, 29.717816250096639 ] ] ] } },
{ "type": "Feature", "properties": { "enacted_district": 4, "population": 776333.0, "voting_age_pop": 591095.0, "dem_votes": 37100.0, "rep_votes": 53917.0, "minority_pop": 247560.0, "dem_pct": 0.40761615917068661, "rep_pct": 0.59238383973061748 }, "geometry": { "type": "Polygon", "coordinates": [ [ [ -93.970832649270562, 31.91997368850193 ], [ -93.998835658677123, 31.959086695331266 ], [ -94.04272667232776, 31.999276701760671 ], [ -94.0427066760342, 32.069966715980435 ], [ -94.042738680705284, 32.158100733680136 ], [ -94.042604682689998, 32.196070741301732 ], [ -94.042838688986876, 32.312469764605289 ], [ -94.042880690914686, 32.348013771712203 ], [ -94.042907697572844, 32.47045079615885 ], [ -94.043264700169857, 32.51620480526519 ], [ -94.043021702493647, 32.559664813930006 ], [ -94.042878704795839, 32.602094822379073 ], [ -94.04301570875154, 32.672813836430031 ], [ -94.043133723682757, 32.93772688890423 ], [ -94.042974728282317, 33.019016904958086 ], [ -93.951647704196617, 33.01957590877997 ], [ -93.814604667943485, 33.019312914287902 ], [ -93.640488621822655, 33.01935992134338 ], [ -93.520999590075135, 33.01860892601988 ], [ -93.491119582141494, 33.018642927231369 ], [ -93.462304574484961, 33.018599928384525 ], [ -93.425248564628461, 33.018439929845343 ], [ -93.392923556027242, 33.01830593112124 ], [ -93.238652514957522, 33.018063937276388 ], [ -93.119718483245521, 33.017855942007088 ], [ -93.036544461040833, 33.017673945302711 ], [ -92.958474440162121, 33.017164948325032 ], [ -92.733198379744522, 33.014451956771815 ], [ -92.724746377477203, 33.014395957097648 ], [ -92.711554373941198, 33.014352957613859 ], [ -92.692081368715236, 33.014214958362082 ], [ -92.523673323452087, 33.012536964719814 ], [ -92.488477313980738, 33.012169966042265 ], [ -92.439807300877604, 33.011638967865586 ], [ -92.344867275300246, 33.010677971432578 ], [ -92.068936200822378, 33.007995981787559 ], [ -92.080276201080139, 32.957408971105899 ], [ -92.072619197239177, 32.925237964891068 ], [ -92.082646197074723, 32.873083953929452 ], [ -92.057396188706846, 32.844613949140168 ], [ -92.052734184726603, 32.79473993919455 ], [ -92.061860185603976, 32.765642932927825 ], [ -92.065185184186674, 32.723008924130902 ], [ -92.088736188753927, 32.690104916526096 ], [ -92.137753201166078, 32.675470911654976 ], [ -92.138163200487639, 32.660851908664689 ], [ -92.183801211279885, 32.633142901266091 ], [ -92.18616821183906, 32.631697900881392 ], [ -92.219602219747117, 32.611497895482543 ], [ -92.251395226939565, 32.586219889114901 ], [ -92.312637243211967, 32.582721886046166 ], [ -92.314162243621738, 32.582724885987993 ], [ -92.378620260933246, 32.582690883497982 ], [ -92.397285265954238, 32.582866882813384 ], [ -92.415234270771705, 32.582859882120168 ], [ -92.420138276800543, 32.670114899637149 ], [ -92.478572292504737, 32.67050989744952 ], [ -92.519005303365944, 32.670812895940294 ], [ -92.51906230608256, 32.720436905982091 ], [ -92.536074310667004, 32.720843905401409 ], [ -92.599299329523461, 32.755727909983605 ], [ -92.690711354217257, 32.759481907162666 ], [ -92.725413363505325, 32.759448905796695 ], [ -92.827982390941074, 32.759437901770589 ], [ -92.828380388590503, 32.714659892733657 ], [ -92.861450396081295, 32.690049886479564 ], [ -92.86661239294672, 32.607232869572151 ], [ -92.880932395580203, 32.585270864580608 ], [ -92.880036393843085, 32.557615859028843 ], [ -92.879592388743717, 32.465123840341136 ], [ -92.879467388114278, 32.454022838098282 ], [ -92.776988360721603, 32.453616841960645 ], [ -92.775314354860527, 32.351968821397392 ], [ -92.775455354410525, 32.342763819521977 ], [ -92.774282352798565, 32.318236814582114 ], [ -92.774742351031819, 32.282433807284519 ], [ -92.774022348769961, 32.243089799305132 ], [ -92.815350354798113, 32.14741877825282 ], [ -92.939098387828437, 32.147925773684193 ], [ -92.912769378493223, 32.103425765614325 ], [ -92.897191371378099, 32.046289754549392 ], [ -92.887899367067845, 32.010775747647727 ], [ -92.901056369402724, 31.988000742503836 ], [ -92.873704359882325, 31.944562734646119 ], [ -92.887795362994353, 31.931977731547352 ], [ -92.908374364336083, 31.850756714161104 ], [ -92.942251373537616, 31.854273713626636 ], [ -92.948603373432036, 31.818899706148617 ], [ -92.966806376375118, 31.781304697774441 ], [ -92.968609374319399, 31.731011687396624 ], [ -92.973824374607517, 31.709143682719223 ], [ -92.97353537452048, 31.708927682685477 ], [ -92.892209352865081, 31.708821685646484 ], [ -92.870878347169821, 31.708533686368963 ], [ -92.848102341090396, 31.708322687159697 ], [ -92.667727293035782, 31.709403693979606 ], [ -92.646589284794516, 31.65730168401295 ], [ -92.566510263912235, 31.667536689037881 ], [ -92.541239254175096, 31.607364677526743 ], [ -92.534436251628875, 31.592618674725017 ], [ -92.518097246181043, 31.570712670784395 ], [ -92.535095250720005, 31.570616670150823 ], [ -92.539492252243463, 31.577688671454716 ], [ -92.573338260441403, 31.560511666680483 ], [ -92.562055256350845, 31.53864866256551 ], [ -92.5548112537208, 31.524496659897405 ], [ -92.54193325002052, 31.519202659264906 ], [ -92.536302247750797, 31.503601656237375 ], [ -92.604187265635915, 31.498533652747088 ], [ -92.60889326590376, 31.478345648398985 ], [ -92.608933265916207, 31.478375648403738 ], [ -92.641302274113656, 31.469320645366818 ], [ -92.635951268981358, 31.393283629808952 ], [ -92.6627552759671, 31.389868628143947 ], [ -92.669026278308579, 31.403624630769528 ], [ -92.694672285324316, 31.407245630601963 ], [ -92.706239290527364, 31.45068863917988 ], [ -92.698731290540422, 31.491886647970286 ], [ -92.718905297178154, 31.517481652533164 ], [ -92.789795313355739, 31.462039638523787 ], [ -92.846843327154716, 31.43351863058043 ], [ -92.871494332299406, 31.404459623691409 ], [ -92.913334341666726, 31.368198614698183 ], [ -92.947271350670761, 31.367728613386017 ], [ -92.98146635874744, 31.34686960785222 ], [ -92.915699340179302, 31.32457460559403 ], [ -92.879712329912493, 31.310251603913017 ], [ -92.879634328839714, 31.288469599405762 ], [ -92.846420319307924, 31.274085597607151 ], [ -92.829364313166437, 31.240753591302241 ], [ -92.829242311885324, 31.214702585902412 ], [ -92.829116310897803, 31.194756581766914 ], [ -92.828598306654683, 31.108497563864812 ], [ -92.828175304005683, 31.054869552723275 ], [ -92.824048299102685, 30.97388053599818 ], [ -92.82387629524348, 30.892076518937884 ], [ -92.7897042861334, 30.891644520027636 ], [ -92.661401252300038, 30.898704525929748 ], [ -92.597804235224515, 30.896006527556665 ], [ -92.502097209854881, 30.899499531583423 ], [ -92.482537205308759, 30.914072535309941 ], [ -92.471955204289998, 30.953006543831524 ], [ -92.431155194226207, 30.970945548998049 ], [ -92.380216181984721, 31.000379556925154 ], [ -92.344710171182314, 30.972248552256374 ], [ -92.280744153739434, 30.965076552958045 ], [ -92.280737153173476, 30.952917550406205 ], [ -92.280722152514102, 30.938766547435403 ], [ -92.238287139005763, 30.89216353910086 ], [ -92.237800136858496, 30.848285529887981 ], [ -92.212599130127685, 30.848614530817407 ], [ -92.135998109663205, 30.849685533656913 ], [ -92.029986081234384, 30.849467537223159 ], [ -91.981313068173634, 30.849422538870986 ], [ -91.949043059510046, 30.849358539955769 ], [ -91.855702034386297, 30.848179542879031 ], [ -91.815264023515354, 30.848112544238152 ], [ -91.807301019688154, 30.811074536672169 ], [ -91.768765008162077, 30.785394532536991 ], [ -91.757948003246156, 30.740995523491321 ], [ -91.736289995985757, 30.709115517456937 ], [ -91.735169994754315, 30.688398513096548 ], [ -91.756985995006033, 30.562556485623652 ], [ -91.749479992273322, 30.546430482441416 ], [ -91.732828986642076, 30.520319477434462 ], [ -91.756214991950486, 30.498138471936443 ], [ -91.74218298654732, 30.461047464495557 ], [ -91.722645980913001, 30.452331463281116 ], [ -91.694305971079842, 30.401753453418305 ], [ -91.812716002572998, 30.394265447936288 ], [ -91.869279018763805, 30.417240450974944 ], [ -91.925487033014662, 30.398272445085791 ], [ -91.930524034294322, 30.396624444569134 ], [ -91.937911036206401, 30.395040443989256 ], [ -91.978190047547798, 30.407408445296682 ], [ -91.988724048673959, 30.368603436689689 ], [ -92.011460054856116, 30.370620436373301 ], [ -92.042625063463106, 30.376501436600115 ], [ -92.052807066303799, 30.379080436813755 ], [ -92.061326068328754, 30.373203435283727 ], [ -92.089221073934894, 30.330514425284409 ], [ -92.142190086733336, 30.298822416805084 ], [ -92.158560093013406, 30.342450425548861 ], [ -92.175899098529456, 30.362523429244469 ], [ -92.176065100237196, 30.400476437300636 ], [ -92.176308100777035, 30.411282439587328 ], [ -92.176450101940318, 30.436857445010876 ], [ -92.207246110180478, 30.436892443998858 ], [ -92.218477113179034, 30.436786443604628 ], [ -92.244256120068101, 30.436683442729073 ], [ -92.244801122136835, 30.480198451933621 ], [ -92.357121152150881, 30.480211448200706 ], [ -92.357807152334502, 30.480207448177847 ], [ -92.389183160703581, 30.480009447091128 ], [ -92.412881167031898, 30.48007344631564 ], [ -92.423673169909847, 30.480026445946617 ], [ -92.493265188495741, 30.480504443728716 ], [ -92.564300207432936, 30.480541441366523 ], [ -92.597580216309595, 30.480757440301275 ], [ -92.632031225503155, 30.481187439241605 ], [ -92.630327225353881, 30.488017440739068 ], [ -92.688199240774878, 30.488372438878539 ], [ -92.714293247716554, 30.488333437997753 ], [ -92.722385249867997, 30.488318437723681 ], [ -92.77398726358652, 30.488223435976543 ], [ -92.79123226592688, 30.43783842479149 ], [ -92.876774288652342, 30.437857421940077 ], [ -92.920607300300802, 30.438111420529189 ], [ -92.938290304990915, 30.438063419928 ], [ -93.014151325104038, 30.437852417346871 ], [ -93.03497333067304, 30.438950416880257 ], [ -93.065392338083996, 30.424351412797087 ], [ -93.131161355471505, 30.423596410438392 ], [ -93.131230354575706, 30.403063406126691 ], [ -93.232873381469403, 30.402989402712443 ], [ -93.283145394757327, 30.402891401009025 ], [ -93.38524642172078, 30.402663397540088 ], [ -93.384428424102936, 30.460733409710858 ], [ -93.399472429402635, 30.490263415373398 ], [ -93.486331452337495, 30.490528412494697 ], [ -93.48630445165162, 30.475459409351135 ], [ -93.486203449196523, 30.421353398058496 ], [ -93.526317458945201, 30.402816392838179 ], [ -93.741685515657096, 30.402980385628386 ], [ -93.726112512807376, 30.430725391931372 ], [ -93.698141505815514, 30.438885394574783 ], [ -93.716608513178883, 30.494429405510751 ], [ -93.706339511145941, 30.509232408938303 ], [ -93.738794521125342, 30.540980414434237 ], [ -93.713788516668657, 30.587589424968307 ], [ -93.679389508181686, 30.600028428726262 ], [ -93.683106511024263, 30.640768437057098 ], [ -93.631351499097519, 30.677877446534996 ], [ -93.608881495076858, 30.719122455864692 ], [ -93.619040498743658, 30.740547459957387 ], [ -93.592107492715641, 30.763680465682491 ], [ -93.553632485892507, 30.835145481823357 ], [ -93.558602488777041, 30.868827488624099 ], [ -93.552091489371961, 30.918124499050496 ], [ -93.527100483810997, 30.940090504466216 ], [ -93.565436496311236, 30.990584513556055 ], [ -93.509221483485206, 31.032987524288252 ], [ -93.527174490139259, 31.073194531952129 ], [ -93.563275500642661, 31.093597534881521 ], [ -93.543924497494658, 31.134503543996015 ], [ -93.552530502215163, 31.185410554169518 ], [ -93.589125510934494, 31.165894548850421 ], [ -93.607017517507401, 31.204277556105811 ], [ -93.596274515871798, 31.229041561578725 ], [ -93.614408522201998, 31.260874567466868 ], [ -93.659291535076918, 31.282111570213484 ], [ -93.673844540954505, 31.323860578247963 ], [ -93.671628543776364, 31.393242592535692 ], [ -93.7046845537607, 31.418905596584658 ], [ -93.708209555810399, 31.441562601087732 ], [ -93.744410566607755, 31.466819604927988 ], [ -93.711320560152998, 31.512480615456269 ], [ -93.7417415686254, 31.521487616180551 ], [ -93.785034580261396, 31.525967615508684 ], [ -93.8207705912926, 31.558226620768288 ], [ -93.839422598264207, 31.599205628420965 ], [ -93.81689859349828, 31.622406633970883 ], [ -93.823175597703738, 31.672898644000849 ], [ -93.795482592038482, 31.705124651573527 ], [ -93.836890605247035, 31.750176659176784 ], [ -93.827294603427603, 31.764080662354328 ], [ -93.839349608461418, 31.800335669252831 ], [ -93.874842618943447, 31.822319672376292 ], [ -93.879067621186437, 31.844292676664381 ], [ -93.898470628870285, 31.894104686007296 ], [ -93.970832649270562, 31.91997368850193 ] ] ] } },
{ "type": "Feature", "properties": { "enacted_district": 5, "population": 776277.0, "voting_age_pop": 597389.0, "dem_votes": 33109.0, "rep_votes": 55331.0, "minority_pop": 237245.0, "dem_pct": 0.37436680192857663, "rep_pct": 0.62563319694071318 }, "geometry": { "type": "Polygon", "coordinates": [ [ [ -92.829242311885324, 31.214702585902412 ], [ -92.829364313166437, 31.240753591302241 ], [ -92.846420319307924, 31.274085597607151 ], [ -92.879634328839714, 31.288469599405762 ], [ -92.879712329912493, 31.310251603913017 ], [ -92.915699340179302, 31.32457460559403 ], [ -92.98146635874744, 31.34686960785222 ], [ -92.947271350670761, 31.367728613386017 ], [ -92.913334341666726, 31.368198614698183 ], [ -92.871494332299406, 31.404459623691409 ], [ -92.846843327154716, 31.43351863058043 ], [ -92.789795313355739, 31.462039638523787 ], [ -92.718905297178154, 31.517481652533164 ], [ -92.698731290540422, 31.491886647970286 ], [ -92.706239290527364, 31.45068863917988 ], [ -92.694672285324316, 31.407245630601963 ], [ -92.669026278308579, 31.403624630769528 ], [ -92.6627552759671, 31.389868628143947 ], [ -92.635951268981358, 31.393283629808952 ], [ -92.641302274113656, 31.469320645366818 ], [ -92.608933265916207, 31.478375648403738 ], [ -92.60889326590376, 31.478345648398985 ], [ -92.604187265635915, 31.498533652747088 ], [ -92.536302247750797, 31.503601656237375 ], [ -92.54193325002052, 31.519202659264906 ], [ -92.5548112537208, 31.524496659897405 ], [ -92.562055256350845, 31.53864866256551 ], [ -92.573338260441403, 31.560511666680483 ], [ -92.539492252243463, 31.577688671454716 ], [ -92.535095250720005, 31.570616670150823 ], [ -92.518097246181043, 31.570712670784395 ], [ -92.534436251628875, 31.592618674725017 ], [ -92.541239254175096, 31.607364677526743 ], [ -92.566510263912235, 31.667536689037881 ], [ -92.646589284794516, 31.65730168401295 ], [ -92.667727293035782, 31.709403693979606 ], [ -92.848102341090396, 31.708322687159697 ], [ -92.870878347169821, 31.708533686368963 ], [ -92.892209352865081, 31.708821685646484 ], [ -92.97353537452048, 31.708927682685477 ], [ -92.973824374607517, 31.709143682719223 ], [ -92.968609374319399, 31.731011687396624 ], [ -92.966806376375118, 31.781304697774441 ], [ -92.948603373432036, 31.818899706148617 ], [ -92.942251373537616, 31.854273713626636 ], [ -92.908374364336083, 31.850756714161104 ], [ -92.887795362994353, 31.931977731547352 ], [ -92.873704359882325, 31.944562734646119 ], [ -92.901056369402724, 31.988000742503836 ], [ -92.887899367067845, 32.010775747647727 ], [ -92.897191371378099, 32.046289754549392 ], [ -92.912769378493223, 32.103425765614325 ], [ -92.939098387828437, 32.147925773684193 ], [ -92.815350354798113, 32.14741877825282 ], [ -92.774022348769961, 32.243089799305132 ], [ -92.774742351031819, 32.282433807284519 ], [ -92.774282352798565, 32.318236814582114 ], [ -92.775455354410525, 32.342763819521977 ], [ -92.775314354860527, 32.351968821397392 ], [ -92.776988360721603, 32.453616841960645 ], [ -92.879467388114278, 32.454022838098282 ], [ -92.879592388743717, 32.465123840341136 ], [ -92.880036393843085, 32.557615859028843 ], [ -92.880932395580203, 32.585270864580608 ], [ -92.86661239294672, 32.607232869572151 ], [ -92.861450396081295, 32.690049886479564 ], [ -92.828380388590503, 32.714659892733657 ], [ -92.827982390941074, 32.759437901770589 ], [ -92.725413363505325, 32.759448905796695 ], [ -92.690711354217257, 32.759481907162666 ], [ -92.599299329523461, 32.755727909983605 ], [ -92.536074310667004, 32.720843905401409 ], [ -92.51906230608256, 32.720436905982091 ], [ -92.519005303365944, 32.670812895940294 ], [ -92.478572292504737, 32.67050989744952 ], [ -92.420138276800543, 32.670114899637149 ], [ -92.415234270771705, 32.582859882120168 ], [ -92.397285265954238, 32.582866882813384 ], [ -92.378620260933246, 32.582690883497982 ], [ -92.314162243621738, 32.582724885987993 ], [ -92.312637243211967, 32.582721886046166 ], [ -92.251395226939565, 32.586219889114901 ], [ -92.219602219747117, 32.611497895482543 ], [ -92.18616821183906, 32.631697900881392 ], [ -92.183801211279885, 32.633142901266091 ], [ -92.138163200487639, 32.660851908664689 ], [ -92.137753201166078, 32.675470911654976 ], [ -92.088736188753927, 32.690104916526096 ], [ -92.065185184186674, 32.723008924130902 ], [ -92.061860185603976, 32.765642932927825 ], [ -92.052734184726603, 32.79473993919455 ], [ -92.057396188706846, 32.844613949140168 ], [ -92.082646197074723, 32.873083953929452 ], [ -92.072619197239177, 32.925237964891068 ], [ -92.080276201080139, 32.957408971105899 ], [ -92.068936200822378, 33.007995981787559 ], [ -91.800300128215042, 33.007367992219379 ], [ -91.627528081397074, 33.006763998864088 ], [ -91.435783029341721, 33.00613200622211 ], [ -91.322606998559635, 33.005618010525247 ], [ -91.30547999389222, 33.005421011151526 ], [ -91.265036982874562, 33.005099012657844 ], [ -91.166666956054556, 33.004288016312813 ], [ -91.201847963282205, 32.961218006141983 ], [ -91.212842964146844, 32.922108997715625 ], [ -91.163882949594083, 32.899481994971993 ], [ -91.13130994221234, 32.926924001850196 ], [ -91.135100946137527, 32.980114012592821 ], [ -91.086807932770085, 32.976272013675683 ], [ -91.064809924069763, 32.926470004322752 ], [ -91.070607923603603, 32.888663996347184 ], [ -91.105636931512421, 32.858401988791769 ], [ -91.143564941103961, 32.844743984532805 ], [ -91.161204944227023, 32.813549977456162 ], [ -91.161027943729806, 32.805205975750177 ], [ -91.165819942494196, 32.757846965841566 ], [ -91.060771912274404, 32.727499963609304 ], [ -91.063951911832078, 32.702930958430905 ], [ -91.126206926878723, 32.667140948696435 ], [ -91.153694932281681, 32.627968939586061 ], [ -91.121162921151736, 32.584811931922403 ], [ -91.049807902909777, 32.607190939234783 ], [ -91.025774898444595, 32.646577948267407 ], [ -91.003550890578765, 32.61227694203172 ], [ -91.030996896530795, 32.583352935024344 ], [ -91.070226906118179, 32.562563929253791 ], [ -91.057711901201117, 32.533782923780237 ], [ -90.987674880283876, 32.498486919113603 ], [ -91.000111882826516, 32.482295915296696 ], [ -91.049312897070124, 32.498544916813231 ], [ -91.093747911814958, 32.549132925593753 ], [ -91.116713915494884, 32.500143914612899 ], [ -91.093428906928438, 32.457391906648752 ], [ -91.027411887742645, 32.433947904267434 ], [ -90.993868879489497, 32.450856909021837 ], [ -90.965992870329487, 32.420659903807 ], [ -90.994085877109399, 32.403866899279187 ], [ -91.004711878109077, 32.3672498912915 ], [ -90.986677872400662, 32.351765888749568 ], [ -90.912368851528797, 32.339459888951652 ], [ -90.889835847112806, 32.372938896740692 ], [ -90.877294843385684, 32.366950895963001 ], [ -90.916162850719445, 32.303587881357402 ], [ -90.947839858317124, 32.283491876008476 ], [ -90.983386864331393, 32.211772859781519 ], [ -91.034307879705835, 32.24155386409825 ], [ -91.061413885909062, 32.218655858338614 ], [ -91.083713892371321, 32.226455859136564 ], [ -91.124048902551436, 32.211109854460524 ], [ -91.1648859128628, 32.195748849763469 ], [ -91.174582913539396, 32.157316841420979 ], [ -91.162827909097274, 32.132699836734815 ], [ -91.110995894608578, 32.124649836962242 ], [ -91.053560878985977, 32.124417839020211 ], [ -91.049712879607966, 32.157357846019352 ], [ -91.00291186711722, 32.162057848715428 ], [ -91.030815872610361, 32.120655839069471 ], [ -91.038612873599106, 32.098258834117537 ], [ -91.080013883889805, 32.079159828623354 ], [ -91.098713887420914, 32.048360821521371 ], [ -91.075913879641575, 32.016832815776958 ], [ -91.106913886688275, 31.989362808917956 ], [ -91.164415901961519, 31.982562805407969 ], [ -91.179907905563937, 31.970515802332184 ], [ -91.201015908230687, 31.909164788763626 ], [ -91.233908915583783, 31.87761278098554 ], [ -91.266990923863077, 31.863692776882708 ], [ -91.24562991655938, 31.833170771279061 ], [ -91.283217925887314, 31.815767766287479 ], [ -91.294718931217844, 31.860465775207111 ], [ -91.345219944076376, 31.843866769917181 ], [ -91.363519946039474, 31.783368756625951 ], [ -91.348119940627996, 31.75816875191418 ], [ -91.287425924867321, 31.77196975698082 ], [ -91.279794921461601, 31.744756751561901 ], [ -91.3693809458304, 31.746908748797409 ], [ -91.38025994810414, 31.73326074555397 ], [ -91.397120951592157, 31.71136974037228 ], [ -91.400820948152599, 31.620470721217419 ], [ -91.463822965185457, 31.620370718950554 ], [ -91.497670975555494, 31.645376722973229 ], [ -91.514745978415917, 31.609417714842721 ], [ -91.486523969677961, 31.586571711066817 ], [ -91.422721952938659, 31.597070715535946 ], [ -91.411500948364875, 31.565335709284447 ], [ -91.443921956025306, 31.542471703340492 ], [ -91.518079975374263, 31.528159697711057 ], [ -91.513371970069002, 31.444401680313391 ], [ -91.472072956648915, 31.397081671828428 ], [ -91.472547955536925, 31.371074666345173 ], [ -91.504761963947615, 31.364985663935524 ], [ -91.532341972601316, 31.390280668282852 ], [ -91.548470978983559, 31.432673676614893 ], [ -91.578339985436756, 31.399072668511685 ], [ -91.546389976034504, 31.382768666211565 ], [ -91.548218974780966, 31.346089658440626 ], [ -91.510054963088336, 31.316827653622692 ], [ -91.518583963425058, 31.275288644582886 ], [ -91.558689973630436, 31.262181640426039 ], [ -91.641258996123966, 31.266922638544557 ], [ -91.644361995425157, 31.23441963160025 ], [ -91.595034980598527, 31.201974626485484 ], [ -91.589051977887479, 31.178591621766433 ], [ -91.624222985271615, 31.133734611093463 ], [ -91.62520498470704, 31.115968607313658 ], [ -91.564155965963721, 31.066835599045717 ], [ -91.564402964739799, 31.038970593149436 ], [ -91.636947982466182, 30.999421582305249 ], [ -91.396520917591118, 30.999049590442947 ], [ -91.348157904526474, 30.999083592099321 ], [ -91.176145858001362, 30.99908559795659 ], [ -91.042177821703802, 30.998942602477634 ], [ -90.922688789317036, 30.999475606642832 ], [ -90.825834763012153, 30.99936660989826 ], [ -90.667678720015559, 30.999479615266683 ], [ -90.567200692672643, 30.999738618711408 ], [ -90.456632662535696, 30.999674622421061 ], [ -90.347321632746656, 31.000444626260503 ], [ -90.194397590984579, 31.000758631459551 ], [ -90.148373578410286, 31.001022633057943 ], [ -90.073132557831514, 31.001213635618377 ], [ -90.009085540307055, 31.001458637812402 ], [ -89.928453518213487, 31.001455640505409 ], [ -89.863703500482757, 31.001975642778007 ], [ -89.728152463299892, 31.002436647393132 ], [ -89.735691463765008, 30.966578639400019 ], [ -89.755953468324606, 30.944124633877038 ], [ -89.744794464138536, 30.918938628803755 ], [ -89.773440471049483, 30.89755062323233 ], [ -89.797338473843766, 30.812597604067292 ], [ -89.81490447828773, 30.804115601653994 ], [ -89.832931481542033, 30.765738592752697 ], [ -89.830437480684495, 30.761783591978148 ], [ -89.831444478926258, 30.715401581895367 ], [ -89.84639748265198, 30.706857579555116 ], [ -89.846379482563123, 30.704947579141049 ], [ -89.842335479755619, 30.6660205708313 ], [ -89.955861510825258, 30.665293566974398 ], [ -89.990781520390897, 30.665415565862126 ], [ -90.001762523455895, 30.666800565803332 ], [ -90.003362523904428, 30.667036565801943 ], [ -90.079918545444315, 30.680655566248586 ], [ -90.121847557248046, 30.688372566545311 ], [ -90.255754594890206, 30.712449567352699 ], [ -90.243769588737138, 30.646819553573909 ], [ -90.248699588740493, 30.61608354676947 ], [ -90.311709606162822, 30.621274545833828 ], [ -90.311785605548039, 30.606719542686392 ], [ -90.345359612447595, 30.55485753038321 ], [ -90.343911609935802, 30.506019519866467 ], [ -90.361712614825521, 30.506849519469025 ], [ -90.363906614899406, 30.49473051677553 ], [ -90.338540607359064, 30.480248514462048 ], [ -90.372855616650725, 30.478801513038345 ], [ -90.398084623527964, 30.478822512225964 ], [ -90.429047631964778, 30.478841511226797 ], [ -90.427390632163878, 30.493880514533053 ], [ -90.448297637853059, 30.493752513827623 ], [ -90.448329638254577, 30.502817515785932 ], [ -90.448390638455137, 30.50708351670632 ], [ -90.457472640834354, 30.504893515938011 ], [ -90.461023641767824, 30.504107515652574 ], [ -90.460158641406736, 30.501208515054813 ], [ -90.457859640455567, 30.493705513506814 ], [ -90.453373638592296, 30.47887151044571 ], [ -90.450279637285362, 30.468111508218762 ], [ -90.456679638519617, 30.45632850546248 ], [ -90.472466642766378, 30.455101504686809 ], [ -90.507923653212757, 30.473496507515151 ], [ -90.502630650729998, 30.449357502468462 ], [ -90.496169648560297, 30.439804500611359 ], [ -90.522490655670637, 30.438577499494667 ], [ -90.52756965704512, 30.438400499291525 ], [ -90.546887662010207, 30.431614497200165 ], [ -90.54959366318208, 30.441743499301737 ], [ -90.552859664985363, 30.462926503774487 ], [ -90.558234667138834, 30.478924507055769 ], [ -90.566882670593245, 30.504333512261319 ], [ -90.566905671545925, 30.52613551696675 ], [ -90.567040672368506, 30.544206520860808 ], [ -90.567037673800542, 30.577058527945624 ], [ -90.567145676722916, 30.643094542169582 ], [ -90.567131677022942, 30.650020543661224 ], [ -90.634600695372527, 30.649874541411137 ], [ -90.651850700064358, 30.649885540846199 ], [ -90.763324730356558, 30.649824537161415 ], [ -90.852667754602322, 30.649569534159848 ], [ -90.863863757633723, 30.649423533759169 ], [ -90.877218761255364, 30.649386533310462 ], [ -90.910706770339658, 30.64939053220467 ], [ -90.848773756641123, 30.719463549279567 ], [ -90.972672790051675, 30.715008544212655 ], [ -91.053109811721285, 30.712166540931577 ], [ -91.078980818687398, 30.711252539875105 ], [ -91.107645826403242, 30.710240538705168 ], [ -91.144974836448753, 30.708922537181671 ], [ -91.169442843030524, 30.708057536182107 ], [ -91.190024848565159, 30.707330535340951 ], [ -91.254741865956447, 30.704917532669636 ], [ -91.289816874007315, 30.672890524665871 ], [ -91.297663875089199, 30.649553519422842 ], [ -91.310066878636562, 30.653966519952711 ], [ -91.330875884465897, 30.658682520267973 ], [ -91.317110879816241, 30.637712516249007 ], [ -91.365277890648045, 30.588637504171285 ], [ -91.364971889724259, 30.569596500113096 ], [ -91.397560898487257, 30.568894498885513 ], [ -91.415025901732875, 30.535645491205425 ], [ -91.415021901712365, 30.535203491111002 ], [ -91.414820900613122, 30.511432486036242 ], [ -91.481739918639803, 30.511034483746837 ], [ -91.485160918958286, 30.497287480697096 ], [ -91.516860927500801, 30.497280479651646 ], [ -91.526034929970123, 30.497239479340191 ], [ -91.533778931934961, 30.494467478493274 ], [ -91.701344977181407, 30.497752473667163 ], [ -91.756214991950486, 30.498138471936443 ], [ -91.732828986642076, 30.520319477434462 ], [ -91.749479992273322, 30.546430482441416 ], [ -91.756985995006033, 30.562556485623652 ], [ -91.735169994754315, 30.688398513096548 ], [ -91.736289995985757, 30.709115517456937 ], [ -91.757948003246156, 30.740995523491321 ], [ -91.768765008162077, 30.785394532536991 ], [ -91.807301019688154, 30.811074536672169 ], [ -91.815264023515354, 30.848112544238152 ], [ -91.855702034386297, 30.848179542879031 ], [ -91.949043059510046, 30.849358539955769 ], [ -91.981313068173634, 30.849422538870986 ], [ -92.029986081234384, 30.849467537223159 ], [ -92.135998109663205, 30.849685533656913 ], [ -92.212599130127685, 30.848614530817407 ], [ -92.237800136858496, 30.848285529887981 ], [ -92.238287139005763, 30.89216353910086 ], [ -92.280722152514102, 30.938766547435403 ], [ -92.280737153173476, 30.952917550406205 ], [ -92.280744153739434, 30.965076552958045 ], [ -92.344710171182314, 30.972248552256374 ], [ -92.380216181984721, 31.000379556925154 ], [ -92.431155194226207, 30.970945548998049 ], [ -92.471955204289998, 30.953006543831524 ], [ -92.482537205308759, 30.914072535309941 ], [ -92.502097209854881, 30.899499531583423 ], [ -92.597804235224515, 30.896006527556665 ], [ -92.661401252300038, 30.898704525929748 ], [ -92.7897042861334, 30.891644520027636 ], [ -92.82387629524348, 30.892076518937884 ], [ -92.824048299102685, 30.97388053599818 ], [ -92.828175304005683, 31.054869552723275 ], [ -92.828598306654683, 31.108497563864812 ], [ -92.829116310897803, 31.194756581766914 ], [ -92.829242311885324, 31.214702585902412 ] ] ] } },
{ "type": "Feature", "properties": { "enacted_district": 6, "population": 776537.0, "voting_age_pop": 594013.0, "dem_votes": 32042.0, "rep_votes": 60263.0, "minority_pop": 207810.0, "dem_pct": 0.34713179096784375, "rep_pct": 0.6528682079487913 }, "geometry": { "type": "Polygon", "coordinates": [ [ [ -91.221123809333704, 29.580950291347619 ], [ -91.1780537988638, 29.609708298931057 ], [ -91.136526787655839, 29.609771300216018 ], [ -91.082616773779819, 29.626819305583066 ], [ -91.105254780545039, 29.643017308420109 ], [ -91.137551790744325, 29.679671315411365 ], [ -91.172908801354382, 29.70601232005443 ], [ -91.176518801946017, 29.696541317882723 ], [ -91.179194803035159, 29.705599319770503 ], [ -91.186110804985802, 29.707664320006231 ], [ -91.187711805819703, 29.717586322114283 ], [ -91.177691803530081, 29.727834324652733 ], [ -91.181962804736955, 29.729171324811055 ], [ -91.229403818343727, 29.748927327636 ], [ -91.298589837658724, 29.76497132897417 ], [ -91.352353852215273, 29.766557327648226 ], [ -91.382404860928901, 29.781634329982463 ], [ -91.378541861272041, 29.81541333742053 ], [ -91.373647860733001, 29.834406341687167 ], [ -91.413564874400805, 29.904998355707729 ], [ -91.471958892258201, 29.95630936495013 ], [ -91.255234834469235, 29.971462375063759 ], [ -91.23635183059848, 30.000899382026425 ], [ -91.224235828357678, 30.025565387742095 ], [ -91.269090841878878, 30.05931339360983 ], [ -91.368840868764863, 30.058829390336253 ], [ -91.388846875995881, 30.10245039910173 ], [ -91.463903896231244, 30.102687396756245 ], [ -91.464827897331602, 30.122835401062886 ], [ -91.468099900067514, 30.166544410360036 ], [ -91.489854907603117, 30.205859418108854 ], [ -91.475282904677144, 30.229236423599989 ], [ -91.508273914037744, 30.240302424910343 ], [ -91.562765928779442, 30.241954423503824 ], [ -91.621060947393062, 30.309943436181879 ], [ -91.625488950501676, 30.35421444550996 ], [ -91.644851956111594, 30.363450446852923 ], [ -91.62903795248792, 30.377938450467088 ], [ -91.640083958284578, 30.442678463936403 ], [ -91.701344977181407, 30.497752473667163 ], [ -91.533778931934961, 30.494467478493274 ], [ -91.526034929970123, 30.497239479340191 ], [ -91.516860927500801, 30.497280479651646 ], [ -91.485160918958286, 30.497287480697096 ], [ -91.481739918639803, 30.511034483746837 ], [ -91.414820900613122, 30.511432486036242 ], [ -91.415021901712365, 30.535203491111002 ], [ -91.415025901732875, 30.535645491205425 ], [ -91.397560898487257, 30.568894498885513 ], [ -91.364971889724259, 30.569596500113096 ], [ -91.365277890648045, 30.588637504171285 ], [ -91.317110879816241, 30.637712516249007 ], [ -91.330875884465897, 30.658682520267973 ], [ -91.310066878636562, 30.653966519952711 ], [ -91.297663875089199, 30.649553519422842 ], [ -91.289816874007315, 30.672890524665871 ], [ -91.254741865956447, 30.704917532669636 ], [ -91.190024848565159, 30.707330535340951 ], [ -91.169442843030524, 30.708057536182107 ], [ -91.144974836448753, 30.708922537181671 ], [ -91.107645826403242, 30.710240538705168 ], [ -91.078980818687398, 30.711252539875105 ], [ -91.053109811721285, 30.712166540931577 ], [ -90.972672790051675, 30.715008544212655 ], [ -90.848773756641123, 30.719463549279567 ], [ -90.910706770339658, 30.64939053220467 ], [ -90.877218761255364, 30.649386533310462 ], [ -90.863863757633723, 30.649423533759169 ], [ -90.852667754602322, 30.649569534159848 ], [ -90.763324730356558, 30.649824537161415 ], [ -90.651850700064358, 30.649885540846199 ], [ -90.634600695372527, 30.649874541411137 ], [ -90.567131677022942, 30.650020543661224 ], [ -90.567145676722916, 30.643094542169582 ], [ -90.567037673800542, 30.577058527945624 ], [ -90.567040672368506, 30.544206520860808 ], [ -90.566905671545925, 30.52613551696675 ], [ -90.566882670593245, 30.504333512261319 ], [ -90.558234667138834, 30.478924507055769 ], [ -90.552859664985363, 30.462926503774487 ], [ -90.54959366318208, 30.441743499301737 ], [ -90.546887662010207, 30.431614497200165 ], [ -90.521446654344516, 30.414340494285707 ], [ -90.519954653932643, 30.414224494308943 ], [ -90.489354643091005, 30.355551482592361 ], [ -90.485831638788383, 30.276997465674853 ], [ -90.401851616279203, 30.285366470173184 ], [ -90.322316595172623, 30.298722475613083 ], [ -90.304105590044955, 30.294879475358975 ], [ -90.160641548350242, 30.23434246674751 ], [ -90.156261545278483, 30.189618457136675 ], [ -90.259894572457185, 30.16341544815095 ], [ -90.279225572973459, 30.049123422611501 ], [ -90.279247572953196, 30.048484422471024 ], [ -90.279439572770244, 30.042798421223651 ], [ -90.279574572011597, 30.023524417010066 ], [ -90.279500571302265, 30.006802413358809 ], [ -90.280062570833493, 29.991711410043301 ], [ -90.279538569716024, 29.967976404870235 ], [ -90.3012215750732, 29.954543401258796 ], [ -90.317136579689077, 29.961388402260539 ], [ -90.322736581043642, 29.957221401175307 ], [ -90.323436581213201, 29.956696401038947 ], [ -90.33504558344768, 29.934061395729383 ], [ -90.344931586169565, 29.934787395580884 ], [ -90.374209594451514, 29.94235439632471 ], [ -90.383046597043034, 29.946866397035855 ], [ -90.396129601099716, 29.958939399266139 ], [ -90.380055597198037, 29.970494402290832 ], [ -90.3811265975758, 29.972567402709771 ], [ -90.381812597819007, 29.973948402990068 ], [ -90.377560596797807, 29.977263403846781 ], [ -90.363095593284527, 29.987612406558316 ], [ -90.396840601860063, 29.972729402255389 ], [ -90.397130602056563, 29.97559840287304 ], [ -90.415128607648896, 29.992431405985592 ], [ -90.451451617665441, 29.995637405550319 ], [ -90.454484618494163, 29.995728405475287 ], [ -90.474243625342837, 30.031358412626115 ], [ -90.467793623602475, 30.03171441290597 ], [ -90.47819262762988, 30.060607418874874 ], [ -90.480255628427557, 30.066312420052625 ], [ -90.481455628785895, 30.067086420184093 ], [ -90.441632618848857, 30.088681426139392 ], [ -90.461098624376959, 30.094222426733118 ], [ -90.470540627057957, 30.096926427024759 ], [ -90.476720628821639, 30.098893427258183 ], [ -90.486218631534243, 30.101981427631291 ], [ -90.487370631495764, 30.093539425757481 ], [ -90.490048631838263, 30.084256423651823 ], [ -90.48769863119044, 30.084052423681278 ], [ -90.490208631478154, 30.074567421537548 ], [ -90.500745634299705, 30.07348742097086 ], [ -90.501805634799965, 30.078591422048881 ], [ -90.502911635418997, 30.086240423678817 ], [ -90.504407636089496, 30.092560425007431 ], [ -90.49863163507942, 30.10601142811629 ], [ -90.537441645828039, 30.110663427904509 ], [ -90.546818648413861, 30.111521427794752 ], [ -90.548581651266403, 30.168177440052723 ], [ -90.581664660732486, 30.179418441444692 ], [ -90.596303665920686, 30.208121447208612 ], [ -90.592026664767118, 30.20832944739055 ], [ -90.631910676149644, 30.221195448910805 ], [ -90.642116676615046, 30.166453436710935 ], [ -90.707915693945296, 30.153661431847041 ], [ -90.759588707545703, 30.143581428020291 ], [ -90.869350736404314, 30.122020419863244 ], [ -90.915570748560313, 30.113290416505393 ], [ -90.953865758712624, 30.10808141416258 ], [ -90.957022759788941, 30.113334415199191 ], [ -90.922422751940445, 30.149518424130974 ], [ -90.954771761048136, 30.157732424877778 ], [ -90.920200753019273, 30.189324432812953 ], [ -90.915695751821715, 30.189859433072495 ], [ -90.903934749533704, 30.211101438041471 ], [ -90.920603754043356, 30.210927437471167 ], [ -90.920597754353523, 30.218277439059673 ], [ -90.920650754531579, 30.222151439895732 ], [ -90.92068375499376, 30.23282544220109 ], [ -90.92790075694748, 30.232778441959866 ], [ -90.947072762135036, 30.232639441315783 ], [ -90.954325764130886, 30.233369441240875 ], [ -90.969568768568038, 30.24064244232277 ], [ -90.988922773791046, 30.240223441611956 ], [ -91.023714783182996, 30.239619440365413 ], [ -91.040082786292544, 30.208564433137489 ], [ -91.059129791638043, 30.213089433504159 ], [ -91.044914789446537, 30.251971442349035 ], [ -91.021019785952859, 30.321494458108827 ], [ -91.0669707982766, 30.318875456059928 ], [ -91.092845805349754, 30.320561455587647 ], [ -91.124809813679761, 30.313213452971961 ], [ -91.137911817392876, 30.317199453406761 ], [ -91.142310818698604, 30.319898453845092 ], [ -91.142110818790883, 30.32329845458365 ], [ -91.174424828425401, 30.344192458032165 ], [ -91.235813845026783, 30.344498456106809 ], [ -91.237117846454325, 30.369396461413515 ], [ -91.233913845844199, 30.375297462785458 ], [ -91.231572845310779, 30.377592463353803 ], [ -91.21281284108656, 30.39709646815334 ], [ -91.205712839640555, 30.407996470724747 ], [ -91.199061838462441, 30.422284474008993 ], [ -91.176431832127307, 30.417264473669199 ], [ -91.178212832807006, 30.421827474591005 ], [ -91.180102833496406, 30.425941475412127 ], [ -91.182712834422318, 30.430996476412258 ], [ -91.17157383130764, 30.42862447626716 ], [ -91.168623830438634, 30.426983476011017 ], [ -91.169119830818516, 30.432651477211525 ], [ -91.168825830995019, 30.438533478483674 ], [ -91.170201831426439, 30.43990447873324 ], [ -91.170312831625836, 30.443792479563783 ], [ -91.165723830389965, 30.443897479736162 ], [ -91.165885830652641, 30.448928480811237 ], [ -91.164539830474183, 30.453201481772069 ], [ -91.155767828113355, 30.453462482115267 ], [ -91.154776827847158, 30.453492482153973 ], [ -91.143993824944033, 30.4537884825696 ], [ -91.139173823646999, 30.453951482762427 ], [ -91.139038823478998, 30.450915482114205 ], [ -91.127410820348757, 30.451273482571601 ], [ -91.122846819119843, 30.451407482748735 ], [ -91.112017816207356, 30.451792483185351 ], [ -91.09580681187164, 30.452942483961039 ], [ -91.108875816205881, 30.471285487473711 ], [ -91.112665817462016, 30.476572488484798 ], [ -91.112741817486878, 30.476679488504857 ], [ -91.101410814587979, 30.480492489694527 ], [ -91.089703811555964, 30.48362749075012 ], [ -91.087128811681978, 30.502483494882593 ], [ -91.085326811277682, 30.504378495348401 ], [ -91.113634819419701, 30.515404496786044 ], [ -91.121827821793644, 30.518989497285947 ], [ -91.1233748223041, 30.521089497685953 ], [ -91.137523826310996, 30.52518149809843 ], [ -91.110081819047039, 30.52883649978348 ], [ -91.1364348267617, 30.542170501776649 ], [ -91.155805832503674, 30.553600503588974 ], [ -91.157604833222095, 30.558879504660471 ], [ -91.150115831926755, 30.57547850846311 ], [ -91.170571837450865, 30.575281507746229 ], [ -91.170873837535837, 30.575356507752257 ], [ -91.169098837461959, 30.584575509785576 ], [ -91.168803837450923, 30.586128510127448 ], [ -91.168376837431921, 30.588331510613312 ], [ -91.16540783730666, 30.603675513995594 ], [ -91.163852837236405, 30.611605515744685 ], [ -91.171418839309496, 30.612206515622525 ], [ -91.202002847609521, 30.612878514755387 ], [ -91.213007849151197, 30.580394507441284 ], [ -91.204461846087284, 30.563295504062449 ], [ -91.208884846002817, 30.534178497681346 ], [ -91.209313845628074, 30.522994495271597 ], [ -91.197210841650602, 30.506869492213536 ], [ -91.19675484030212, 30.478850486221415 ], [ -91.196212839237361, 30.457795481723121 ], [ -91.175646833668878, 30.457591482351393 ], [ -91.180536834595301, 30.448501480241031 ], [ -91.178881833935563, 30.443637479251255 ], [ -91.187392836066778, 30.439730478134837 ], [ -91.195911838359095, 30.439498477806954 ], [ -91.196119838989844, 30.452704480633795 ], [ -91.20214084061196, 30.452561480405947 ], [ -91.20280284079314, 30.452631480399329 ], [ -91.205783841845886, 30.458289481515944 ], [ -91.211391843350242, 30.45803048127706 ], [ -91.211745843673299, 30.463236482381603 ], [ -91.218564845502158, 30.462913482089547 ], [ -91.224236847024599, 30.462693481856444 ], [ -91.225130847147199, 30.459963481242362 ], [ -91.226582847170704, 30.451500479379547 ], [ -91.245255852185238, 30.450779478614319 ], [ -91.243062851150782, 30.440636476510917 ], [ -91.21144484226366, 30.432749475851253 ], [ -91.210969842102159, 30.431980475701984 ], [ -91.222838844639355, 30.416555472003719 ], [ -91.228020845733042, 30.409494470319256 ], [ -91.218764843078517, 30.405956469861422 ], [ -91.227696845015601, 30.394951467207811 ], [ -91.233773846301887, 30.386756465250517 ], [ -91.280147859222424, 30.395871465696978 ], [ -91.254008851545919, 30.381619463488732 ], [ -91.278454857988379, 30.377929461901601 ], [ -91.311290864458115, 30.322477448928659 ], [ -91.325407869349277, 30.347522453847763 ], [ -91.316540864073616, 30.280568439753822 ], [ -91.291008855840616, 30.24922543383828 ], [ -91.262014848884178, 30.269601439156876 ], [ -91.261536848732717, 30.269077439059437 ], [ -91.25262684620364, 30.266182438723913 ], [ -91.250493845528439, 30.263862438293231 ], [ -91.239566842786161, 30.268739439695185 ], [ -91.223198838605995, 30.274378441436955 ], [ -91.222362838255975, 30.271464440836265 ], [ -91.214586836401594, 30.277220442326101 ], [ -91.187939829015093, 30.272864442248508 ], [ -91.203947831871361, 30.238486434330461 ], [ -91.203980831776377, 30.2360464338037 ], [ -91.228795838438941, 30.235097432801012 ], [ -91.243774841198118, 30.204914425818934 ], [ -91.283466851249599, 30.189293421180977 ], [ -91.284607850642047, 30.167755416504477 ], [ -91.276283846645455, 30.126400407857307 ], [ -91.245911838989457, 30.139255411598743 ], [ -91.203681827222439, 30.130643411089352 ], [ -91.174170821213323, 30.177043422042782 ], [ -91.155153815870705, 30.172256421618044 ], [ -91.151442814214562, 30.156820418405751 ], [ -91.140540811750057, 30.168220421214443 ], [ -91.090102796968566, 30.141115416972063 ], [ -91.106564800046058, 30.108524409405955 ], [ -91.10600279797292, 30.062754399528146 ], [ -91.089113793408984, 30.062807400074455 ], [ -91.090056791186697, 30.003483387203843 ], [ -91.1497238071222, 29.998918384332701 ], [ -91.138429801892656, 29.946506373338369 ], [ -91.123996798644086, 29.962193377190733 ], [ -91.067321783307577, 29.961778378883334 ], [ -91.051097778896164, 29.961187379264722 ], [ -91.045660777379766, 29.960078379195711 ], [ -91.030181772999313, 29.955410378669729 ], [ -91.022464770845644, 29.953803378562881 ], [ -90.983674760550301, 29.958612380824238 ], [ -90.947229749064434, 29.919347373441173 ], [ -90.976889756307656, 29.900324368380957 ], [ -90.968381752729456, 29.869275361898964 ], [ -90.963696751200274, 29.862905360660097 ], [ -90.959581749373683, 29.845498357002288 ], [ -90.95422474770416, 29.84011735599886 ], [ -90.925051739410165, 29.830382354786884 ], [ -90.909811737200741, 29.877200365446996 ], [ -90.885457730621638, 29.877567366286115 ], [ -90.885754731842553, 29.905353372320462 ], [ -90.795449707456683, 29.907378375578812 ], [ -90.785770705421015, 29.921699378997953 ], [ -90.731859690124722, 29.905242377095782 ], [ -90.690200678806406, 29.904870378312285 ], [ -90.65631766896972, 29.889251375962008 ], [ -90.627103661275157, 29.895047378133913 ], [ -90.600758653834717, 29.888070377430441 ], [ -90.529606634376478, 29.8850023789693 ], [ -90.479909619332744, 29.847382372287683 ], [ -90.476311617439805, 29.824880367477427 ], [ -90.524958628942258, 29.782388356682219 ], [ -90.505213622934065, 29.766497353811204 ], [ -90.534276629665243, 29.737537346579064 ], [ -90.511862622205086, 29.7034743398047 ], [ -90.528178625745483, 29.681197334423963 ], [ -90.542105629372458, 29.677289333141974 ], [ -90.562270635868302, 29.702688338090223 ], [ -90.581939641724119, 29.715474340287805 ], [ -90.598859645700841, 29.700092336402108 ], [ -90.613982650217125, 29.710306338174924 ], [ -90.606999649141486, 29.73070134285199 ], [ -90.631221655849018, 29.733969342823723 ], [ -90.66026866389096, 29.737896342790027 ], [ -90.698958674547598, 29.741855342466113 ], [ -90.720902680939005, 29.752720344165475 ], [ -90.728041682033719, 29.731881339392821 ], [ -90.71210767732876, 29.722385337807559 ], [ -90.698468673460681, 29.718182337307216 ], [ -90.703864673674005, 29.687092330342782 ], [ -90.692317669890343, 29.670846327141643 ], [ -90.70783767388086, 29.66538532547251 ], [ -90.739215682789833, 29.675394326702605 ], [ -90.756375686832484, 29.660192322852694 ], [ -90.752761685268766, 29.645600319771447 ], [ -90.740093681606524, 29.639907318911625 ], [ -90.738878681205961, 29.638110318556137 ], [ -90.736069680277723, 29.633942317729268 ], [ -90.734656679466113, 29.6232323154283 ], [ -90.733802679035335, 29.618226314358697 ], [ -90.744482681657843, 29.611402312538676 ], [ -90.743406681173084, 29.606548311509037 ], [ -90.746059681851236, 29.605524311204473 ], [ -90.741709680259859, 29.595162309067582 ], [ -90.734561678206461, 29.592270308651049 ], [ -90.729934676890565, 29.590720308452415 ], [ -90.726648675751917, 29.584485307186647 ], [ -90.743244680424496, 29.588840307635948 ], [ -90.742183680224642, 29.59104830815161 ], [ -90.758490684982803, 29.599563309520946 ], [ -90.760615684932006, 29.583799306003758 ], [ -90.779101689747378, 29.578912304371968 ], [ -90.778243688810903, 29.561219300523792 ], [ -90.777726687657434, 29.535634294933747 ], [ -90.796533692742443, 29.53538529430973 ], [ -90.791277690505538, 29.514846289967263 ], [ -90.813486694689246, 29.46839327911195 ], [ -90.762598680625004, 29.461266279080466 ], [ -90.722571668553357, 29.430054273430276 ], [ -90.729775668731193, 29.384627263230783 ], [ -90.801504687334301, 29.36335425641208 ], [ -90.824441692061882, 29.325183247338305 ], [ -90.832592692586601, 29.281744237543005 ], [ -90.884168705100393, 29.244328227782638 ], [ -90.892494706042726, 29.210260220039238 ], [ -90.950746722063883, 29.217285219863633 ], [ -90.969165724558394, 29.152417205045953 ], [ -90.973047724390042, 29.120479197898643 ], [ -91.006059733290556, 29.119999196825106 ], [ -91.118392764486245, 29.142775198532998 ], [ -91.149364773695922, 29.165089202523447 ], [ -91.207850789700259, 29.171164202131077 ], [ -91.292686813522977, 29.196182205108208 ], [ -91.354277831786177, 29.239611212790425 ], [ -91.421133852234846, 29.302833224618471 ], [ -91.500119874673004, 29.333382228918136 ], [ -91.500118876794801, 29.387446240706165 ], [ -91.464962866836956, 29.374662238979663 ], [ -91.417913862443584, 29.582918285754182 ], [ -91.373622855168193, 29.698260312172085 ], [ -91.31981184038608, 29.69130331232364 ], [ -91.309661837579483, 29.68956931225998 ], [ -91.307285836891865, 29.688418312083257 ], [ -91.328616841326465, 29.655874304354708 ], [ -91.292480831177841, 29.64575330326608 ], [ -91.239970817571077, 29.659468307864159 ], [ -91.254183819583844, 29.614240297585436 ], [ -91.221123809333704, 29.580950291347619 ] ] ] } }
]
}
