{
"type": "FeatureCollection",
"name": "louisiana_optimized_districts_headcount",
"crs": { "type": "name", "properties": { "name": "urn:ogc:def:crs:OGC:1.3:CRS84" } },
"features": [
{ "type": "Feature", "properties": { "district_id": 0, "voting_age_pop": 562753, "lib_votes": 0, "grn_votes": 0, "con_votes": 0, "ref_votes": 0, "total_pop": 749260, "dem_votes_sum": 155149, "rep_votes_sum": 180195, "lib_votes_sum": 0, "grn_votes_sum": 0, "con_votes_sum": 0, "ref_votes_sum": 0, "minority_pop_sum": 552202, "dem_pct": 0.46265625745503125, "rep_pct": 0.53734374254496875, "lib_pct": 0.0, "grn_pct": 0.0, "con_pct": 0.0, "ref_pct": 0.0, "minority_pct": 0.736996503216507, "compactness": 0.15187487982149975 }, "geometry": { "type": "Polygon", "coordinates": [ [ [ -90.460243, 30.032012 ], [ -90.474006, 30.062379 ], [ -90.515586, 30.070768 ], [ -90.533454, 30.100883 ], [ -90.546211, 30.101175 ], [ -90.546035, 30.077421 ], [ -90.559454, 30.077167 ], [ -90.559938, 30.097134 ], [ -90.575126, 30.099472 ], [ -90.587677, 30.125686 ], [ -90.587615, 30.151185 ], [ -90.600212, 30.145374 ], [ -90.609052, 30.157296 ], [ -90.602104, 30.201164 ], [ -90.592021, 30.208324 ], [ -90.558638, 30.193737 ], [ -90.487166, 30.262396 ], [ -90.322311, 30.298717 ], [ -90.342362, 30.300391 ], [ -90.35151, 30.316065 ], [ -90.366695, 30.305268 ], [ -90.395718, 30.318221 ], [ -90.405542, 30.310041 ], [ -90.43044, 30.403073 ], [ -90.461349, 30.411592 ], [ -90.459252, 30.436312 ], [ -90.519732, 30.414232 ], [ -90.57777, 30.42535 ], [ -90.60574, 30.40331 ], [ -90.610237, 30.370317 ], [ -90.649622, 30.372875 ], [ -90.659499, 30.411316 ], [ -90.677287, 30.42441 ], [ -90.67444, 30.500331 ], [ -90.6931, 30.5296 ], [ -90.626071, 30.618475 ], [ -90.645852, 30.689662 ], [ -90.626979, 30.731228 ], [ -90.638149, 30.824487 ], [ -90.510094, 30.828493 ], [ -90.4971, 30.819208 ], [ -90.497772, 30.777055 ], [ -90.470048, 30.795209 ], [ -90.417866, 30.804446 ], [ -90.414221, 30.843457 ], [ -90.389425, 30.862947 ], [ -90.49523, 30.876049 ], [ -90.496172, 30.942347 ], [ -90.518155, 30.955402 ], [ -90.528939, 30.916996 ], [ -90.566841, 30.891901 ], [ -90.567195, 30.999733 ], [ -89.729616, 31.003927 ], [ -89.737149, 30.976081 ], [ -89.727072, 30.967395 ], [ -89.756513, 30.942861 ], [ -89.744789, 30.918933 ], [ -89.764202, 30.911906 ], [ -89.758719, 30.897319 ], [ -89.77341, 30.897693 ], [ -89.771722, 30.854677 ], [ -89.79247, 30.850386 ], [ -89.781502, 30.818945 ], [ -89.798654, 30.820855 ], [ -89.804632, 30.802511 ], [ -89.815738, 30.803353 ], [ -89.803466, 30.791141 ], [ -89.819154, 30.795233 ], [ -89.835124, 30.771092 ], [ -89.833167, 30.753314 ], [ -89.822459, 30.754628 ], [ -89.828692, 30.738089 ], [ -89.816075, 30.738908 ], [ -89.836698, 30.735063 ], [ -89.825634, 30.727374 ], [ -89.830981, 30.715529 ], [ -89.842529, 30.720418 ], [ -89.835294, 30.691793 ], [ -89.847201, 30.670038 ], [ -89.837835, 30.671917 ], [ -89.852203, 30.661684 ], [ -89.814002, 30.638246 ], [ -89.830711, 30.617221 ], [ -89.813919, 30.607717 ], [ -89.807952, 30.567653 ], [ -89.786865, 30.569053 ], [ -89.803977, 30.560522 ], [ -89.792205, 30.548345 ], [ -89.803919, 30.549349 ], [ -89.779159, 30.544029 ], [ -89.757484, 30.499553 ], [ -89.724822, 30.492129 ], [ -89.683403, 30.451536 ], [ -89.683837, 30.40582 ], [ -89.657249, 30.356632 ], [ -89.629592, 30.33896 ], [ -89.62619, 30.314291 ], [ -89.647514, 30.290534 ], [ -89.614044, 30.244773 ], [ -89.615737, 30.223371 ], [ -89.571907, 30.180721 ], [ -89.53334, 30.194881 ], [ -89.504735, 30.157923 ], [ -89.586772, 30.138814 ], [ -89.625054, 30.153493 ], [ -89.678163, 30.108283 ], [ -89.683363, 30.076117 ], [ -89.729586, 30.060222 ], [ -89.722017, 30.023169 ], [ -89.782533, 30.045369 ], [ -89.83016, 30.033362 ], [ -89.861173, 29.988795 ], [ -89.89148, 29.983759 ], [ -89.875267, 29.969966 ], [ -89.909195, 29.963742 ], [ -89.922268, 29.935465 ], [ -89.899374, 29.914967 ], [ -89.907784, 29.897151 ], [ -89.880161, 29.902307 ], [ -89.877067, 29.875159 ], [ -89.918998, 29.866712 ], [ -89.968101, 29.880275 ], [ -89.999656, 29.822076 ], [ -90.018678, 29.831107 ], [ -90.010877, 29.857537 ], [ -89.999349, 29.864871 ], [ -90.020668, 29.881017 ], [ -90.018297, 29.906829 ], [ -90.043739, 29.898008 ], [ -90.044141, 29.883012 ], [ -90.075393, 29.903736 ], [ -90.072512, 29.938506 ], [ -90.058372, 29.943004 ], [ -90.092953, 29.969221 ], [ -90.09166, 29.983031 ], [ -90.124775, 29.975791 ], [ -90.122957, 30.000071 ], [ -90.134361, 30.001834 ], [ -90.118541, 30.029845 ], [ -90.105456, 30.191801 ], [ -90.277855, 30.230888 ], [ -90.460243, 30.032012 ] ], [ [ -90.427356619408201, 30.49627617690955 ], [ -90.427361, 30.495889 ], [ -90.427369914637609, 30.495489822345469 ], [ -90.427356619408201, 30.49627617690955 ] ], [ [ -90.427349, 30.496817 ], [ -90.427347, 30.496958 ], [ -90.42734656410255, 30.497012923096968 ], [ -90.427349, 30.496876 ], [ -90.427349, 30.496817 ], [ -90.427353, 30.496643 ], [ -90.427354, 30.496585 ], [ -90.427354665465586, 30.496491834837798 ], [ -90.427349, 30.496817 ] ], [ [ -90.427346, 30.497084 ], [ -90.427348, 30.497205 ], [ -90.427346, 30.497084 ], [ -90.427346, 30.497084 ] ], [ [ -90.427345057084182, 30.499778101952291 ], [ -90.427349, 30.498514 ], [ -90.427354, 30.49951 ], [ -90.427349, 30.499647 ], [ -90.427345057084182, 30.499778101952291 ] ], [ [ -90.427347, 30.500058000000106 ], [ -90.427347, 30.500058 ], [ -90.427345, 30.49978 ], [ -90.427347, 30.500058000000106 ] ], [ [ -90.427348020866404, 30.500369918122953 ], [ -90.427349, 30.500949 ], [ -90.427347001990185, 30.501985967095006 ], [ -90.427348020866404, 30.500369918122953 ] ], [ [ -90.427354004703247, 30.503592466372279 ], [ -90.427351, 30.502333 ], [ -90.427347078170442, 30.502125143038153 ], [ -90.427354004703247, 30.503592466372279 ] ], [ [ -90.427361, 30.504801 ], [ -90.427358055062925, 30.505659001781471 ], [ -90.427358006526177, 30.504431306218603 ], [ -90.427361, 30.504801 ] ], [ [ -90.42735, 30.50645 ], [ -90.42735, 30.50645 ], [ -90.427348026142226, 30.506683902147845 ], [ -90.42735, 30.50645 ] ], [ [ -90.427345297205107, 30.508931726463423 ], [ -90.427359, 30.507933 ], [ -90.427359, 30.507997 ], [ -90.427345297205107, 30.508931726463423 ] ], [ [ -90.427345, 30.508952 ], [ -90.427368, 30.510551 ], [ -90.427372, 30.510663 ], [ -90.427367, 30.509929 ], [ -90.427345, 30.508952 ] ], [ [ -90.423834, 30.511619 ], [ -90.423834, 30.511619 ], [ -90.42378856099343, 30.511630726195467 ], [ -90.423834, 30.511619 ] ], [ [ -90.423589, 30.511684 ], [ -90.423589, 30.511684 ], [ -90.423581714088854, 30.511686015252121 ], [ -90.423589, 30.511684 ] ], [ [ -90.423244, 30.511768 ], [ -90.423244, 30.511768 ], [ -90.423235705900751, 30.511770103869601 ], [ -90.423244, 30.511768 ] ], [ [ -90.42154, 30.512092 ], [ -90.42154, 30.512092 ], [ -90.421502256219995, 30.512095612441446 ], [ -90.42154, 30.512092 ] ], [ [ -90.421075, 30.512124 ], [ -90.421075, 30.512124 ], [ -90.421070896808118, 30.512124341932637 ], [ -90.421075, 30.512124 ] ], [ [ -90.416236, 30.512169 ], [ -90.416236, 30.512169 ], [ -90.416073371916809, 30.512170227381777 ], [ -90.416236, 30.512169 ] ], [ [ -90.415177, 30.512178 ], [ -90.415177, 30.512178 ], [ -90.415175923055273, 30.512178010256598 ], [ -90.415177, 30.512178 ] ], [ [ -90.413917, 30.51219 ], [ -90.413917, 30.51219 ], [ -90.413842772148215, 30.512190945577725 ], [ -90.413917, 30.51219 ] ], [ [ -90.408541462517846, 30.512233019711282 ], [ -90.408913, 30.512231 ], [ -90.409055148258716, 30.512229936546692 ], [ -90.408913, 30.512231 ], [ -90.408543, 30.512233 ], [ -90.408541462517846, 30.512233019711282 ] ], [ [ -90.404871, 30.51227 ], [ -90.404871, 30.51227 ], [ -90.40486268189072, 30.512270042223903 ], [ -90.404871, 30.51227 ] ], [ [ -90.402208, 30.512285 ], [ -90.402208, 30.512285 ], [ -90.402201035567259, 30.512285069721784 ], [ -90.402208, 30.512285 ] ], [ [ -90.400489, 30.5123 ], [ -90.400489, 30.5123 ], [ -90.400466183662147, 30.512300175510273 ], [ -90.400489, 30.5123 ] ], [ [ -90.399945, 30.512304 ], [ -90.399945, 30.512304 ], [ -90.399905923422324, 30.512304398740561 ], [ -90.399945, 30.512304 ] ], [ [ -90.398704, 30.512322 ], [ -90.398704, 30.512322 ], [ -90.398698630169648, 30.512322091014074 ], [ -90.398704, 30.512322 ] ], [ [ -90.395814, 30.512321 ], [ -90.395814, 30.512321 ], [ -90.395509427401905, 30.512320499880762 ], [ -90.395814, 30.512321 ] ], [ [ -90.390585, 30.512347 ], [ -90.391073, 30.512343 ], [ -90.391131366960479, 30.512342812324878 ], [ -90.391073, 30.512343 ], [ -90.390585, 30.512347 ], [ -90.39048955638637, 30.512345495258376 ], [ -90.390585, 30.512347 ] ], [ [ -90.388389, 30.512339 ], [ -90.388389, 30.512339 ], [ -90.388389448851584, 30.512338998441468 ], [ -90.388389, 30.512339 ] ], [ [ -90.38825, 30.512339 ], [ -90.388248840869906, 30.512339002773022 ], [ -90.38825, 30.512339 ], [ -90.38825, 30.512339 ] ], [ [ -90.387576, 30.512341 ], [ -90.387709237320678, 30.512340889584621 ], [ -90.387575999999896, 30.512341 ], [ -90.387576, 30.512341 ] ], [ [ -90.387225, 30.512341 ], [ -90.387212, 30.512341111111098 ], [ -90.387575999999896, 30.512341 ], [ -90.387225, 30.512341 ] ], [ [ -90.38599, 30.512345 ], [ -90.38599, 30.512345 ], [ -90.385912, 30.512345 ], [ -90.38599, 30.512345 ] ], [ [ -90.38568, 30.512345 ], [ -90.385676982924636, 30.512345039182776 ], [ -90.385912, 30.512345 ], [ -90.38568, 30.512345 ] ], [ [ -90.385221, 30.512347 ], [ -90.385221, 30.512347 ], [ -90.385059395217581, 30.512346293273545 ], [ -90.385221, 30.512347 ] ], [ [ -90.383128, 30.512349 ], [ -90.383627263820813, 30.512348602947633 ], [ -90.383128, 30.512349 ], [ -90.383128, 30.512349 ] ], [ [ -90.382843, 30.512349 ], [ -90.382727516919104, 30.51234863684564 ], [ -90.383128, 30.512349 ], [ -90.382843, 30.512349 ] ], [ [ -90.381572, 30.512347 ], [ -90.381572, 30.512347 ], [ -90.381497699828628, 30.512346296843802 ], [ -90.381572, 30.512347 ] ], [ [ -90.378824958475803, 30.512144866067057 ], [ -90.379449, 30.5123 ], [ -90.37947975579084, 30.51230353514903 ], [ -90.378824958475803, 30.512144866067057 ] ], [ [ -90.376282, 30.510915 ], [ -90.376282, 30.510915 ], [ -90.376153157018507, 30.510845379612121 ], [ -90.376282, 30.510915 ] ], [ [ -90.375142980865874, 30.510270617417387 ], [ -90.37596, 30.510739 ], [ -90.375965502290995, 30.51074227163279 ], [ -90.375142980865874, 30.510270617417387 ] ], [ [ -90.371859, 30.508459 ], [ -90.371859, 30.508459 ], [ -90.371738560355297, 30.508403358367275 ], [ -90.371859, 30.508459 ] ], [ [ -90.370634, 30.507931 ], [ -90.370616274106709, 30.507925663430761 ], [ -90.370634, 30.507931 ], [ -90.370634, 30.507931 ] ], [ [ -90.368034, 30.507325 ], [ -90.368033999999895, 30.507324999999891 ], [ -90.367638847369903, 30.507286791865045 ], [ -90.368034, 30.507325 ] ], [ [ -90.366745, 30.507214 ], [ -90.366745, 30.507214 ], [ -90.366084, 30.507169000010386 ], [ -90.366745, 30.507214 ] ], [ [ -90.361756, 30.506847 ], [ -90.361756, 30.506847 ], [ -90.361707, 30.506844 ], [ -90.361756, 30.506847 ] ], [ [ -90.397492, 30.478817 ], [ -90.396210399627236, 30.478817 ], [ -90.397492, 30.478817 ], [ -90.397492, 30.478817 ] ], [ [ -90.391087, 30.478818 ], [ -90.391087, 30.478818 ], [ -90.390280590926437, 30.478818841763111 ], [ -90.391087, 30.478818 ] ], [ [ -90.389486596619832, 30.478812999732217 ], [ -90.377436, 30.478805 ], [ -90.384807, 30.47881 ], [ -90.389486596619832, 30.478812999732217 ] ], [ [ -90.374201, 30.478796 ], [ -90.374201, 30.478796 ], [ -90.374257416954094, 30.478796397302478 ], [ -90.374201, 30.478796 ] ], [ [ -89.98738, 29.904422 ], [ -89.98738, 29.904422 ], [ -89.987301508817779, 29.904822718505482 ], [ -89.98738, 29.904422 ] ], [ [ -89.987487, 29.903211 ], [ -89.987612908254533, 29.90195776078442 ], [ -89.987451514629399, 29.903641027721687 ], [ -89.987487, 29.903211 ] ], [ [ -89.988496788191824, 29.895184661867674 ], [ -89.988296, 29.897115 ], [ -89.988346, 29.896712 ], [ -89.988496788191824, 29.895184661867674 ] ], [ [ -89.98855, 29.894806 ], [ -89.989183, 29.889388 ], [ -89.989183, 29.889388 ], [ -89.988743, 29.893068 ], [ -89.98855, 29.894806 ], [ -89.988504514011339, 29.895117903959882 ], [ -89.98855, 29.894806 ] ], [ [ -89.994184, 29.892679 ], [ -89.994184, 29.892679 ], [ -89.9940215, 29.892572000057424 ], [ -89.994184, 29.892679 ] ], [ [ -89.996436, 29.894147 ], [ -89.996436, 29.894147 ], [ -89.996288335934096, 29.894050630110584 ], [ -89.996436, 29.894147 ] ], [ [ -90.002273, 29.897806 ], [ -90.002484, 29.892794 ], [ -90.002483999999896, 29.892794 ], [ -90.002273, 29.897806 ] ], [ [ -90.008121370954953, 29.895384694218873 ], [ -90.008753, 29.894001 ], [ -90.009427824589181, 29.892444728218909 ], [ -90.008121370954953, 29.895384694218873 ] ], [ [ -90.013251, 29.886308 ], [ -90.013356535418993, 29.886110312593285 ], [ -90.013251, 29.886308 ], [ -90.011969999999849, 29.888211 ], [ -90.010333900845723, 29.89073639315993 ], [ -90.013251, 29.886308 ] ], [ [ -90.013747, 29.885374 ], [ -90.01374699999981, 29.885374 ], [ -90.0136114399414, 29.885630948135432 ], [ -90.013747, 29.885374 ] ], [ [ -90.014937, 29.883104 ], [ -90.014937, 29.883104 ], [ -90.014728034382458, 29.883503412649262 ], [ -90.014937, 29.883104 ] ], [ [ -90.015296, 29.882419 ], [ -90.015487, 29.882089 ], [ -90.015246387444989, 29.882513610060442 ], [ -90.015296, 29.882419 ] ], [ [ -90.01561, 29.882044 ], [ -90.01561, 29.882044 ], [ -90.015492100113164, 29.882087134105326 ], [ -90.01561, 29.882044 ] ], [ [ -90.015893, 29.881446 ], [ -90.016590200110628, 29.880358371570733 ], [ -90.01571891195421, 29.881812336757022 ], [ -90.015893, 29.881446 ] ], [ [ -90.017577, 29.878802 ], [ -90.017608200201835, 29.878755763352746 ], [ -90.017401237095882, 29.87908345613652 ], [ -90.017577, 29.878802 ] ], [ [ -89.999332, 29.864858 ], [ -89.999268392586487, 29.864810544439983 ], [ -89.999281, 29.86482 ], [ -89.999331999999896, 29.864858 ], [ -89.99934409207404, 29.864867246880298 ], [ -89.999332, 29.864858 ] ], [ [ -89.999113, 29.864694 ], [ -89.999113, 29.864694 ], [ -89.999168587930612, 29.864735690963069 ], [ -89.999113, 29.864694 ] ], [ [ -89.991439073854664, 29.859570127062081 ], [ -89.997853, 29.863746 ], [ -89.99769, 29.863623 ], [ -89.997024, 29.863124 ], [ -89.996858, 29.863 ], [ -89.996683, 29.862873 ], [ -89.996158, 29.862492 ], [ -89.995984, 29.862366 ], [ -89.994349, 29.861113 ], [ -89.994179, 29.86099 ], [ -89.99384, 29.860745 ], [ -89.993661, 29.860642 ], [ -89.99348, 29.860539 ], [ -89.992972, 29.86025 ], [ -89.992209, 29.859896 ], [ -89.991439073854664, 29.859570127062081 ] ], [ [ -89.991179012826365, 29.859459450842035 ], [ -89.988899, 29.858493 ], [ -89.987997911808421, 29.8581147433427 ], [ -89.991179012826365, 29.859459450842035 ] ], [ [ -89.987479, 29.857896 ], [ -89.987479, 29.857896 ], [ -89.987655426323926, 29.857969811016098 ], [ -89.987479, 29.857896 ] ], [ [ -89.987340790339175, 29.857834453326461 ], [ -89.98605, 29.857085 ], [ -89.985476, 29.856268 ], [ -89.987340790339175, 29.857834453326461 ] ], [ [ -90.008099, 29.85628 ], [ -90.007742228529153, 29.856105048870667 ], [ -90.009224891500608, 29.856700122008831 ], [ -90.008099, 29.85628 ] ], [ [ -90.001189, 29.853349 ], [ -90.001041561141008, 29.853287490414306 ], [ -90.00123625400586, 29.853368073454476 ], [ -90.001189, 29.853349 ] ], [ [ -89.99674, 29.847416 ], [ -89.997281983013366, 29.846885756868723 ], [ -89.99638609208273, 29.847767862530286 ], [ -89.99674, 29.847416 ] ], [ [ -90.001533, 29.841001 ], [ -90.001570441982309, 29.841012814220853 ], [ -89.999952, 29.843753 ], [ -90.001533, 29.841001 ] ], [ [ -89.998692, 29.843649 ], [ -89.998122671108092, 29.84422924143464 ], [ -89.998968263702139, 29.84336900303261 ], [ -89.998692, 29.843649 ] ], [ [ -89.994304069255364, 29.845057558640452 ], [ -89.994659, 29.844721 ], [ -89.994360999999898, 29.845003 ], [ -89.994304069255364, 29.845057558640452 ] ], [ [ -89.992405, 29.846832 ], [ -89.992085, 29.847161 ], [ -89.991877999999801, 29.847358 ], [ -89.991720213530726, 29.847504516109488 ], [ -89.992405, 29.846832 ] ], [ [ -89.991399, 29.847805 ], [ -89.991399, 29.847805 ], [ -89.991453535773616, 29.847753653481075 ], [ -89.991399, 29.847805 ] ], [ [ -89.990347, 29.848719 ], [ -89.990144922166209, 29.848893820996274 ], [ -89.991327, 29.847871 ], [ -89.990347, 29.848719 ] ], [ [ -89.989189999999894, 29.849692 ], [ -89.98919, 29.849692 ], [ -89.989518948342052, 29.849420063785711 ], [ -89.989189999999894, 29.849692 ] ], [ [ -89.988282, 29.850481 ], [ -89.988282, 29.850481 ], [ -89.988307197639656, 29.850457848344753 ], [ -89.988282, 29.850481 ] ], [ [ -89.987171, 29.851772 ], [ -89.986235, 29.85306 ], [ -89.988000261503842, 29.850783935259436 ], [ -89.987171, 29.851772 ] ], [ [ -89.98617, 29.853147 ], [ -89.986138333333329, 29.853190400132053 ], [ -89.986235, 29.85306 ], [ -89.98617, 29.853147 ] ], [ [ -89.98546, 29.854223 ], [ -89.985435463918861, 29.854288265997919 ], [ -89.98554773652495, 29.854064327772893 ], [ -89.98546, 29.854223 ] ], [ [ -89.985312999999891, 29.854623 ], [ -89.985278714285712, 29.854785857164991 ], [ -89.985396509421264, 29.85439313390378 ], [ -89.985312999999891, 29.854623 ] ], [ [ -89.985468349959106, 29.856247479320849 ], [ -89.985249, 29.855357 ], [ -89.985271984382393, 29.854833457453061 ], [ -89.985468349959106, 29.856247479320849 ] ], [ [ -89.980782, 29.902669 ], [ -89.980914982726432, 29.902734194080939 ], [ -89.980766737791143, 29.902660899291607 ], [ -89.980782, 29.902669 ] ], [ [ -89.978722, 29.901902 ], [ -89.9791946185927, 29.902007170693633 ], [ -89.978711860395421, 29.901899902150848 ], [ -89.978722, 29.901902 ] ], [ [ -89.977858, 29.901708 ], [ -89.977858, 29.901708 ], [ -89.977835, 29.901818 ], [ -89.977858, 29.901708 ] ], [ [ -89.97719, 29.90205 ], [ -89.977807368534712, 29.901825729082429 ], [ -89.97715165044491, 29.902119726467344 ], [ -89.97719, 29.90205 ] ], [ [ -89.977073, 29.902334 ], [ -89.977139039918569, 29.902148507498342 ], [ -89.976981800643102, 29.902599823151501 ], [ -89.977073, 29.902334 ] ], [ [ -89.976968242205984, 29.902623867162514 ], [ -89.976907999999881, 29.902702 ], [ -89.976475456046913, 29.902871236448092 ], [ -89.976968242205984, 29.902623867162514 ] ], [ [ -89.975028, 29.903436 ], [ -89.975467029342525, 29.903264955827726 ], [ -89.974424639882841, 29.903676302587812 ], [ -89.975028, 29.903436 ] ], [ [ -89.973463, 29.904055 ], [ -89.97397429658038, 29.903854278891995 ], [ -89.973292297993964, 29.904127323776827 ], [ -89.973463, 29.904055 ] ], [ [ -89.972805, 29.90435 ], [ -89.972805, 29.90435 ], [ -89.972812143814451, 29.904346556580876 ], [ -89.972805, 29.90435 ] ], [ [ -89.961112, 29.902898 ], [ -89.9619475, 29.903022000077154 ], [ -89.960760469923514, 29.902854268231671 ], [ -89.961112, 29.902898 ] ], [ [ -89.953208, 29.900382 ], [ -89.953333693085426, 29.900391546310683 ], [ -89.952856584580701, 29.900251414982101 ], [ -89.953208, 29.900382 ] ], [ [ -89.950874, 29.899457 ], [ -89.950874, 29.899457 ], [ -89.950813, 29.899459 ], [ -89.950874, 29.899457 ] ], [ [ -89.950233, 29.899169 ], [ -89.950241668103857, 29.899173334052541 ], [ -89.949810224300705, 29.898980487705749 ], [ -89.950233, 29.899169 ] ], [ [ -89.943211, 29.896217 ], [ -89.943236917376808, 29.896228545015447 ], [ -89.943160122702508, 29.896194943373981 ], [ -89.943211, 29.896217 ] ], [ [ -89.936576, 29.893444 ], [ -89.936576, 29.893444 ], [ -89.936577882509596, 29.893458354139124 ], [ -89.936576, 29.893444 ] ], [ [ -89.932807, 29.889473 ], [ -89.932807, 29.889473 ], [ -89.932823496056471, 29.889496288556003 ], [ -89.932807, 29.889473 ] ], [ [ -89.93286, 29.889413 ], [ -89.932816077114836, 29.889462724023481 ], [ -89.932864418890674, 29.889368258740017 ], [ -89.93286, 29.889413 ] ], [ [ -89.920095, 29.870831 ], [ -89.920167, 29.870986400282412 ], [ -89.919601285714279, 29.870003861714828 ], [ -89.920095, 29.870831 ] ], [ [ -89.985619, 29.904586 ], [ -89.985635648506459, 29.904597689378114 ], [ -89.985507370197865, 29.904507224506272 ], [ -89.985619, 29.904586 ] ], [ [ -89.985024, 29.90415 ], [ -89.985024, 29.90415 ], [ -89.985136043368087, 29.904235168160493 ], [ -89.985024, 29.90415 ] ] ] } },
{ "type": "Feature", "properties": { "district_id": 1, "voting_age_pop": 580959, "lib_votes": 0, "grn_votes": 0, "con_votes": 0, "ref_votes": 0, "total_pop": 773338, "dem_votes_sum": 150173, "rep_votes_sum": 194781, "lib_votes_sum": 0, "grn_votes_sum": 0, "con_votes_sum": 0, "ref_votes_sum": 0, "minority_pop_sum": 540153, "dem_pct": 0.43534210358482578, "rep_pct": 0.56465789641517417, "lib_pct": 0.0, "grn_pct": 0.0, "con_pct": 0.0, "ref_pct": 0.0, "minority_pct": 0.69846949199444486, "compactness": 0.17990096774566103 }, "geometry": { "type": "Polygon", "coordinates": [ [ [ -91.279165, 30.125905 ], [ -91.301295, 30.140044 ], [ -91.323478, 30.138665 ], [ -91.323864, 30.127162 ], [ -91.351991, 30.164986 ], [ -91.464822, 30.12283 ], [ -91.471797, 30.186266 ], [ -91.490295, 30.201568 ], [ -91.475303, 30.229491 ], [ -91.56276, 30.241949 ], [ -91.588039, 30.257113 ], [ -91.589959, 30.277047 ], [ -91.621055, 30.309938 ], [ -91.625483, 30.354209 ], [ -91.644643, 30.363501 ], [ -91.782997, 30.325728 ], [ -91.792523, 30.305958 ], [ -91.832383, 30.313786 ], [ -91.82942, 30.35975 ], [ -91.801629, 30.361326 ], [ -91.81271, 30.39426 ], [ -91.678896, 30.394731 ], [ -91.718679, 30.448898 ], [ -91.739685, 30.453044 ], [ -91.756193, 30.497738 ], [ -91.58337, 30.497005 ], [ -91.583656, 30.48259 ], [ -91.525855, 30.497063 ], [ -91.538036, 30.510241 ], [ -91.528081, 30.50941 ], [ -91.529382, 30.53226 ], [ -91.576761, 30.554535 ], [ -91.544258, 30.576361 ], [ -91.538636, 30.60576 ], [ -91.618054, 30.600859 ], [ -91.734395, 30.690915 ], [ -91.73871, 30.724894 ], [ -91.719023, 30.738939 ], [ -91.706352, 30.774062 ], [ -91.654804, 30.805108 ], [ -91.608694, 30.807852 ], [ -91.594397, 30.821792 ], [ -91.619546, 30.841502 ], [ -91.559064, 30.839794 ], [ -91.563605, 30.883332 ], [ -91.611609, 30.899701 ], [ -91.614608, 30.9176 ], [ -91.549308, 30.916228 ], [ -91.515476, 30.872403 ], [ -91.499907, 30.873281 ], [ -91.45224, 30.92198 ], [ -91.470802, 30.960105 ], [ -91.431624, 30.939398 ], [ -91.425501, 30.959883 ], [ -91.406003, 30.965148 ], [ -91.413392, 30.915105 ], [ -91.391301, 30.91043 ], [ -91.388453, 30.953219 ], [ -91.379409, 30.970128 ], [ -91.351073, 30.977531 ], [ -91.348152, 30.999078 ], [ -90.567195, 30.999733 ], [ -90.566841, 30.891901 ], [ -90.528939, 30.916996 ], [ -90.518155, 30.955402 ], [ -90.496172, 30.942347 ], [ -90.503036, 30.885147 ], [ -90.49523, 30.876049 ], [ -90.389425, 30.862947 ], [ -90.414221, 30.843457 ], [ -90.417866, 30.804446 ], [ -90.470048, 30.795209 ], [ -90.497772, 30.777055 ], [ -90.4971, 30.819208 ], [ -90.510094, 30.828493 ], [ -90.638149, 30.824487 ], [ -90.626979, 30.731228 ], [ -90.645852, 30.689662 ], [ -90.626071, 30.618475 ], [ -90.693101, 30.529636 ], [ -90.67444, 30.500331 ], [ -90.677253, 30.424306 ], [ -90.659448, 30.411217 ], [ -90.651599, 30.374196 ], [ -90.617902, 30.367865 ], [ -90.60574, 30.40331 ], [ -90.57818, 30.42518 ], [ -90.519732, 30.414232 ], [ -90.459252, 30.436312 ], [ -90.461349, 30.411592 ], [ -90.43044, 30.403073 ], [ -90.405542, 30.310041 ], [ -90.395718, 30.318221 ], [ -90.366695, 30.305268 ], [ -90.35151, 30.316065 ], [ -90.342362, 30.300391 ], [ -90.322311, 30.298717 ], [ -90.487166, 30.262396 ], [ -90.558638, 30.193737 ], [ -90.632811, 30.221409 ], [ -90.653709, 30.096256 ], [ -90.670761, 30.093986 ], [ -90.66117, 30.050798 ], [ -90.692344, 30.045927 ], [ -90.721054, 30.10445 ], [ -90.75872, 30.099264 ], [ -90.750999, 30.078817 ], [ -90.78511, 30.052886 ], [ -90.78751, 30.005879 ], [ -90.817939, 29.981039 ], [ -90.842757, 30.052825 ], [ -90.868957, 30.066995 ], [ -90.869262, 30.121713 ], [ -90.921088, 30.114988 ], [ -90.953911, 30.082201 ], [ -90.98339, 30.094322 ], [ -90.97671, 30.110049 ], [ -90.95386, 30.108076 ], [ -90.971797, 30.147529 ], [ -90.954766, 30.157727 ], [ -90.986474, 30.184826 ], [ -91.006871, 30.170532 ], [ -91.003379, 30.141264 ], [ -91.046422, 30.116717 ], [ -91.001717, 30.102793 ], [ -91.013616, 30.096889 ], [ -90.997712, 30.074227 ], [ -91.089329, 30.076593 ], [ -91.090051, 30.003478 ], [ -91.126073, 30.015357 ], [ -91.149429, 29.998913 ], [ -91.20424, 30.003198 ], [ -91.176746, 30.040347 ], [ -91.22339, 30.025681 ], [ -91.22051, 30.044501 ], [ -91.278223, 30.077718 ], [ -91.279165, 30.125905 ] ] ] } },
{ "type": "Feature", "properties": { "district_id": 2, "voting_age_pop": 578319, "lib_votes": 0, "grn_votes": 0, "con_votes": 0, "ref_votes": 0, "total_pop": 747620, "dem_votes_sum": 147659, "rep_votes_sum": 172749, "lib_votes_sum": 0, "grn_votes_sum": 0, "con_votes_sum": 0, "ref_votes_sum": 0, "minority_pop_sum": 515769, "dem_pct": 0.46084679533594669, "rep_pct": 0.53915320466405336, "lib_pct": 0.0, "grn_pct": 0.0, "con_pct": 0.0, "ref_pct": 0.0, "minority_pct": 0.68988122308124444, "compactness": 0.20349741780813094 }, "geometry": { "type": "Polygon", "coordinates": [ [ [ -90.441922, 29.001655 ], [ -90.552547, 29.036806 ], [ -90.746858, 28.988595 ], [ -90.932105, 28.994319 ], [ -90.993453, 29.01497 ], [ -91.020756, 29.046065 ], [ -91.012069, 29.090538 ], [ -90.960372, 29.111064 ], [ -90.969234, 29.118382 ], [ -91.080174, 29.133106 ], [ -91.159817, 29.168422 ], [ -91.256861, 29.183668 ], [ -91.318698, 29.208357 ], [ -91.354272, 29.239606 ], [ -91.352963, 29.331499 ], [ -91.340644, 29.329966 ], [ -91.349847, 29.322608 ], [ -91.33826, 29.308928 ], [ -91.291821, 29.311357 ], [ -91.269338, 29.358217 ], [ -91.235419, 29.374072 ], [ -91.213419, 29.417498 ], [ -91.196664, 29.411696 ], [ -91.192088, 29.426368 ], [ -91.119103, 29.458321 ], [ -91.102186, 29.454637 ], [ -91.06473, 29.484426 ], [ -90.822068, 29.451502 ], [ -90.813481, 29.468388 ], [ -90.762593, 29.461261 ], [ -90.722566, 29.430049 ], [ -90.720512, 29.442745 ], [ -90.702848, 29.439291 ], [ -90.697805, 29.487028 ], [ -90.656118, 29.469528 ], [ -90.645523, 29.502238 ], [ -90.677241, 29.538022 ], [ -90.68292, 29.57096 ], [ -90.719828, 29.56956 ], [ -90.771191, 29.60682 ], [ -90.734818, 29.589286 ], [ -90.729929, 29.590715 ], [ -90.771945, 29.615905 ], [ -90.760091, 29.630212 ], [ -90.771391, 29.651912 ], [ -90.752649, 29.631658 ], [ -90.707832, 29.66538 ], [ -90.765152, 29.693859 ], [ -90.784292, 29.744609 ], [ -90.804692, 29.749509 ], [ -90.778518, 29.780745 ], [ -90.80593, 29.798089 ], [ -90.795065, 29.839802 ], [ -90.753988, 29.858336 ], [ -90.719548, 29.855233 ], [ -90.729745, 29.877493 ], [ -90.773949, 29.884368 ], [ -90.795406, 29.907242 ], [ -90.885589, 29.905353 ], [ -90.883605, 29.924934 ], [ -90.846115, 29.921569 ], [ -90.846893, 29.945409 ], [ -90.887855, 30.00707 ], [ -90.856239, 30.057508 ], [ -90.842757, 30.052825 ], [ -90.817939, 29.981039 ], [ -90.78751, 30.005879 ], [ -90.78511, 30.052886 ], [ -90.750999, 30.078817 ], [ -90.75872, 30.099264 ], [ -90.721054, 30.10445 ], [ -90.692344, 30.045927 ], [ -90.66117, 30.050798 ], [ -90.670761, 30.093986 ], [ -90.653709, 30.096256 ], [ -90.632811, 30.221409 ], [ -90.592021, 30.208324 ], [ -90.612792, 30.179277 ], [ -90.601425, 30.17789 ], [ -90.609052, 30.157296 ], [ -90.600212, 30.145374 ], [ -90.592254, 30.147678 ], [ -90.588806, 30.151481 ], [ -90.587615, 30.151185 ], [ -90.587677, 30.125686 ], [ -90.575126, 30.099472 ], [ -90.559938, 30.097134 ], [ -90.559454, 30.077167 ], [ -90.546035, 30.077421 ], [ -90.546211, 30.101175 ], [ -90.533454, 30.100883 ], [ -90.515586, 30.070768 ], [ -90.474006, 30.062379 ], [ -90.467836, 30.03127 ], [ -90.449133, 30.032863 ], [ -90.277855, 30.230888 ], [ -90.105456, 30.191801 ], [ -90.118541, 30.029845 ], [ -90.134361, 30.001834 ], [ -90.122957, 30.000071 ], [ -90.124775, 29.975791 ], [ -90.09166, 29.983031 ], [ -90.092953, 29.969221 ], [ -90.058372, 29.943004 ], [ -90.072512, 29.938506 ], [ -90.075393, 29.903736 ], [ -90.044141, 29.883012 ], [ -90.043739, 29.898008 ], [ -90.018297, 29.906829 ], [ -90.020668, 29.881017 ], [ -89.999349, 29.864871 ], [ -90.018678, 29.831107 ], [ -89.999656, 29.822076 ], [ -89.968101, 29.880275 ], [ -89.918998, 29.866712 ], [ -89.877067, 29.875159 ], [ -89.880161000000101, 29.902307 ], [ -89.907784, 29.897151 ], [ -89.899374, 29.914967 ], [ -89.922268, 29.935465 ], [ -89.909194999999841, 29.963742 ], [ -89.875267, 29.969966 ], [ -89.890721, 29.984444 ], [ -89.861832, 29.988274 ], [ -89.857925, 30.00768 ], [ -89.811695, 30.044608 ], [ -89.717678, 30.025272 ], [ -89.729586, 30.060222 ], [ -89.683363, 30.076117 ], [ -89.678162999999898, 30.108283 ], [ -89.625054, 30.153493 ], [ -89.575331, 30.139796 ], [ -89.421578, 30.177003 ], [ -89.260976999999855, 30.181998 ], [ -89.183668999999881, 30.212155 ], [ -89.074653, 30.154294 ], [ -89.033967, 30.184584 ], [ -89.005916, 30.162977 ], [ -88.971908999999883, 30.156954 ], [ -88.90033, 30.16998 ], [ -88.875025, 30.102495 ], [ -88.824862, 30.080362 ], [ -88.783665999999883, 30.026685 ], [ -88.760150999999823, 29.944553 ], [ -88.762723, 29.866988 ], [ -88.801817, 29.750197 ], [ -88.869937, 29.657099 ], [ -89.052859, 29.480001 ], [ -89.119451, 29.458065 ], [ -89.142073, 29.429465 ], [ -89.137612, 29.381429 ], [ -89.077228, 29.301105 ], [ -88.942054, 29.253742 ], [ -88.908812, 29.210226 ], [ -88.921713, 29.124971 ], [ -88.996902, 29.085304 ], [ -89.012688, 29.02768 ], [ -89.045638, 29.006942 ], [ -89.105091, 28.933008 ], [ -89.133284, 28.919728 ], [ -89.169067, 28.922574 ], [ -89.234903, 28.987152 ], [ -89.279604, 28.977783 ], [ -89.400993, 28.860631 ], [ -89.462478, 28.863649 ], [ -89.492858, 28.90796 ], [ -89.465736, 28.974437 ], [ -89.468673, 29.107461 ], [ -89.520469, 29.172187 ], [ -89.610427, 29.198635 ], [ -90.032325, 29.135044 ], [ -90.125136, 29.069859 ], [ -90.210078, 29.033082 ], [ -90.344319, 29.003178 ], [ -90.441922, 29.001655 ] ], [ [ -90.399307, 30.074766 ], [ -90.396681120273016, 30.072990355848095 ], [ -90.399307, 30.074766 ], [ -90.399307, 30.074766 ] ], [ [ -90.375236, 30.060571 ], [ -90.375236, 30.060571 ], [ -90.375208378842856, 30.060550162993579 ], [ -90.375236, 30.060571 ] ], [ [ -90.373199, 30.058971 ], [ -90.373847, 30.059095 ], [ -90.373199, 30.058971 ], [ -90.373199, 30.058971 ] ], [ [ -90.371154, 30.057464 ], [ -90.371166613916657, 30.05757917059848 ], [ -90.371154, 30.057464 ], [ -90.371154, 30.057464 ] ], [ [ -90.370407, 30.057262 ], [ -90.370139629266518, 30.057581745512657 ], [ -90.370735, 30.057254 ], [ -90.370407, 30.057262 ] ], [ [ -90.368156, 30.056783 ], [ -90.368194, 30.05702 ], [ -90.367880999999841, 30.056335 ], [ -90.368156, 30.056783 ] ], [ [ -90.363813320885683, 29.987839341371178 ], [ -90.363746, 29.987953 ], [ -90.363746, 29.987953 ], [ -90.363813320885683, 29.987839341371178 ] ], [ [ -90.364799, 29.986175 ], [ -90.364799, 29.986175 ], [ -90.363937890447602, 29.987629006074453 ], [ -90.364799, 29.986175 ] ], [ [ -90.365905, 29.986282 ], [ -90.365634419528064, 29.986172449569779 ], [ -90.365905, 29.986282 ], [ -90.365905, 29.986282 ] ], [ [ -90.367847, 29.984756 ], [ -90.374737157373858, 29.978927115572635 ], [ -90.366884663883553, 29.985569995884585 ], [ -90.367847, 29.984756 ] ], [ [ -90.375915017126545, 29.977930370225788 ], [ -90.376172904797642, 29.977711602790638 ], [ -90.376132, 29.977746 ], [ -90.375915017126545, 29.977930370225788 ] ], [ [ -90.376296, 29.977647 ], [ -90.377630288026396, 29.976642070547513 ], [ -90.376281998571912, 29.9776526005714 ], [ -90.376296, 29.977647 ] ], [ [ -90.377784, 29.976242 ], [ -90.375943, 29.972872 ], [ -90.375870844746416, 29.97273908250256 ], [ -90.375942999999893, 29.972872 ], [ -90.377784, 29.976242 ], [ -90.377869469775177, 29.976404951754542 ], [ -90.377784, 29.976242 ] ], [ [ -90.375778, 29.972568 ], [ -90.375778, 29.972568 ], [ -90.375785202704819, 29.972581279990052 ], [ -90.375778, 29.972568 ] ], [ [ -90.379337878901211, 29.969302838372379 ], [ -90.376853, 29.971162 ], [ -90.378036, 29.9703 ], [ -90.379337878901211, 29.969302838372379 ] ], [ [ -90.379577, 29.969552 ], [ -90.379577, 29.969552 ], [ -90.379432, 29.969261 ], [ -90.379577, 29.969552 ] ], [ [ -90.378013, 29.967731 ], [ -90.378013, 29.967731 ], [ -90.378053377892599, 29.967667404879418 ], [ -90.378013, 29.967731 ] ], [ [ -90.376892, 29.968835 ], [ -90.376892, 29.968835 ], [ -90.376905272131779, 29.968826966868193 ], [ -90.376892, 29.968835 ] ], [ [ -90.374855, 29.96976 ], [ -90.374855, 29.96976 ], [ -90.375201572691651, 29.96965340116687 ], [ -90.374855, 29.96976 ] ], [ [ -90.374549, 29.969835 ], [ -90.374549, 29.969835 ], [ -90.374649420235258, 29.969810444692204 ], [ -90.374549, 29.969835 ] ], [ [ -90.371109, 29.969713 ], [ -90.37281, 29.969848 ], [ -90.3712, 29.96972 ], [ -90.371109, 29.969713 ] ], [ [ -90.370803, 29.969688 ], [ -90.370666710498242, 29.969676986707192 ], [ -90.371109, 29.969713 ], [ -90.370803, 29.969688 ] ], [ [ -90.370117, 29.969633 ], [ -90.37011699999988, 29.969633 ], [ -90.370398512030562, 29.969655497889548 ], [ -90.370117, 29.969633 ] ], [ [ -90.369071, 29.969638 ], [ -90.369071, 29.969638 ], [ -90.369589051718435, 29.969609742633754 ], [ -90.369071, 29.969638 ] ], [ [ -90.367744, 29.97009 ], [ -90.367744, 29.97009 ], [ -90.367952289938174, 29.969988395181932 ], [ -90.367744, 29.97009 ] ], [ [ -90.3666026453688, 29.969782095766668 ], [ -90.367538, 29.96919 ], [ -90.368070806870293, 29.968977106226514 ], [ -90.3666026453688, 29.969782095766668 ] ], [ [ -90.368644, 29.968826 ], [ -90.368644, 29.968826 ], [ -90.36857616265651, 29.968842115213246 ], [ -90.368644, 29.968826 ] ], [ [ -90.369461, 29.968593 ], [ -90.369460999999887, 29.968593 ], [ -90.369485197974242, 29.968715900280998 ], [ -90.369461, 29.968593 ] ], [ [ -90.368522, 29.96676 ], [ -90.36795, 29.9657 ], [ -90.367638513601079, 29.965138183268227 ], [ -90.368521999999885, 29.96676 ], [ -90.368995, 29.967716 ], [ -90.369016793663675, 29.967755909697392 ], [ -90.368522, 29.96676 ] ], [ [ -90.367347, 29.964912 ], [ -90.367347, 29.964912 ], [ -90.368320898068816, 29.962709863608023 ], [ -90.367347, 29.964912 ] ], [ [ -90.368396966132849, 29.962538258469454 ], [ -90.368995, 29.961151 ], [ -90.368524, 29.960984 ], [ -90.368644, 29.960748 ], [ -90.368904, 29.960153 ], [ -90.368957, 29.960029 ], [ -90.369033, 29.959779 ], [ -90.369438, 29.958984 ], [ -90.369676496494264, 29.958398093115346 ], [ -90.369033, 29.959779 ], [ -90.368523999999866, 29.960984 ], [ -90.368396966132849, 29.962538258469454 ] ], [ [ -90.370735, 29.95594 ], [ -90.370734999999897, 29.95594 ], [ -90.37036600951842, 29.956810089037962 ], [ -90.370735, 29.95594 ] ], [ [ -90.370853, 29.955661 ], [ -90.370853, 29.955661 ], [ -90.370842200000013, 29.955692000019308 ], [ -90.370853, 29.955661 ] ], [ [ -90.371551, 29.955907 ], [ -90.371615272888363, 29.955737073068263 ], [ -90.371536, 29.956064 ], [ -90.371551, 29.955907 ] ], [ [ -90.371986, 29.954765 ], [ -90.371986, 29.954765 ], [ -90.371662176145151, 29.955613919869904 ], [ -90.371986, 29.954765 ] ], [ [ -90.373124726544546, 29.951763657793006 ], [ -90.372795, 29.952596 ], [ -90.372886, 29.952369 ], [ -90.373124726544546, 29.951763657793006 ] ], [ [ -90.373603, 29.950483 ], [ -90.373602999999889, 29.950483 ], [ -90.37343241953343, 29.950924742706675 ], [ -90.373603, 29.950483 ] ], [ [ -90.373855, 29.949827 ], [ -90.373779, 29.949361 ], [ -90.373781723151254, 29.949188355298613 ], [ -90.373779, 29.949361 ], [ -90.373855, 29.949827 ] ], [ [ -90.373832, 29.948938 ], [ -90.373831999999894, 29.948938 ], [ -90.37380371125397, 29.949070219194034 ], [ -90.373832, 29.948938 ] ], [ [ -90.370931786997545, 29.947490759891316 ], [ -90.372772, 29.94815 ], [ -90.372093, 29.947866 ], [ -90.370931786997545, 29.947490759891316 ] ], [ [ -90.371133, 29.94703 ], [ -90.371133, 29.94703 ], [ -90.370983606403399, 29.947299899006122 ], [ -90.371133, 29.94703 ] ], [ [ -90.371978, 29.945392 ], [ -90.373737, 29.942106 ], [ -90.371811285011077, 29.945745379473884 ], [ -90.371978, 29.945392 ] ], [ [ -90.464683, 29.998279 ], [ -90.44711299999986, 29.995416 ], [ -90.450347, 29.995681 ], [ -90.454808, 29.995746 ], [ -90.455932, 29.996017 ], [ -90.457534, 29.996318 ], [ -90.460372, 29.997234 ], [ -90.464683, 29.998279 ] ], [ [ -90.427668771669289, 29.994297998301015 ], [ -90.437034, 29.994335 ], [ -90.440263490120742, 29.994502125322285 ], [ -90.437034, 29.994335 ], [ -90.427668771669289, 29.994297998301015 ] ], [ [ -90.42131, 29.993961 ], [ -90.414103683228603, 29.992078002943657 ], [ -90.427665, 29.994298 ], [ -90.42131, 29.993961 ] ], [ [ -90.407691, 29.989547 ], [ -90.397399, 29.978265 ], [ -90.413378399610068, 29.991830541354446 ], [ -90.407691, 29.989547 ] ], [ [ -90.397193, 29.976276 ], [ -90.397349162539726, 29.977783806038303 ], [ -90.397193, 29.976276 ], [ -90.397193, 29.976276 ] ], [ [ -90.392623, 29.976762 ], [ -90.392829, 29.977664 ], [ -90.394221467738831, 29.977221118234031 ], [ -90.392623, 29.976762 ] ], [ [ -90.391606, 29.97783 ], [ -90.391920068690098, 29.977500182778094 ], [ -90.391329993823234, 29.978129391050597 ], [ -90.391606, 29.97783 ] ], [ [ -90.38698, 29.982356 ], [ -90.388437, 29.98129 ], [ -90.386886393242335, 29.982424854999895 ], [ -90.38698, 29.982356 ] ], [ [ -90.38655, 29.982633 ], [ -90.386270462724084, 29.982692839600567 ], [ -90.386337, 29.982822 ], [ -90.38655, 29.982633 ] ], [ [ -90.385902, 29.981979 ], [ -90.385902, 29.981979 ], [ -90.385414, 29.981019 ], [ -90.385902, 29.981979 ] ], [ [ -90.384429, 29.981626 ], [ -90.384461400564277, 29.981605534614314 ], [ -90.384429, 29.981626 ], [ -90.384429, 29.981626 ] ], [ [ -90.382789, 29.983036 ], [ -90.382675717234505, 29.983123946525936 ], [ -90.383018723972313, 29.98281936619847 ], [ -90.382789, 29.983036 ] ], [ [ -90.382034, 29.983621 ], [ -90.381820303283973, 29.983764139866842 ], [ -90.382166697262193, 29.98351850286706 ], [ -90.382034, 29.983621 ] ], [ [ -90.380958, 29.984453 ], [ -90.381135860070088, 29.984288380364031 ], [ -90.381096, 29.984324 ], [ -90.380958, 29.984453 ], [ -90.380678147425428, 29.984701942089806 ], [ -90.380958, 29.984453 ] ], [ [ -90.37815, 29.986869 ], [ -90.377980605042083, 29.986994889155447 ], [ -90.378692511688257, 29.986412067135031 ], [ -90.37815, 29.986869 ] ], [ [ -90.37789118044843, 29.987060274977853 ], [ -90.3768, 29.987798 ], [ -90.377365, 29.987493 ], [ -90.37789118044843, 29.987060274977853 ] ], [ [ -90.375076, 29.988502 ], [ -90.375608543466157, 29.988296543461896 ], [ -90.374892673523831, 29.988622030124823 ], [ -90.375076, 29.988502 ] ], [ [ -90.373283, 29.988954 ], [ -90.373057008148294, 29.989054360618184 ], [ -90.374090583572084, 29.988943890338522 ], [ -90.373283, 29.988954 ] ], [ [ -90.372779, 29.989305 ], [ -90.372701860855088, 29.989416141328345 ], [ -90.372855094792541, 29.989220538818508 ], [ -90.372779, 29.989305 ] ], [ [ -90.372627, 29.989524 ], [ -90.372627, 29.989524 ], [ -90.372614133715302, 29.989532883870599 ], [ -90.372627, 29.989524 ] ], [ [ -90.372131, 29.989843 ], [ -90.372018394096358, 29.989977757991372 ], [ -90.372222384949879, 29.989788693394743 ], [ -90.372131, 29.989843 ] ], [ [ -90.371871, 29.990208 ], [ -90.37186041877662, 29.990256320941644 ], [ -90.371881103690271, 29.990161901919368 ], [ -90.371871, 29.990208 ] ], [ [ -90.369079, 29.989458 ], [ -90.37184099999989, 29.990345 ], [ -90.365753551342763, 29.988519543980878 ], [ -90.369079, 29.989458 ] ], [ [ -90.384414, 29.947622 ], [ -90.395262999999872, 29.956634 ], [ -90.391118942445146, 29.960036518194112 ], [ -90.395263, 29.956634 ], [ -90.384414, 29.947622 ] ], [ [ -90.386306, 29.96527 ], [ -90.386306, 29.96527 ], [ -90.386707544167933, 29.965634778264498 ], [ -90.386306, 29.96527 ] ], [ [ -90.385979, 29.965542 ], [ -90.385573, 29.96588 ], [ -90.385412503176596, 29.966013640831882 ], [ -90.385979, 29.965542 ] ], [ [ -90.384727, 29.966573 ], [ -90.384864, 29.966461 ], [ -90.384669136589451, 29.966620027266483 ], [ -90.384727, 29.966573 ] ], [ [ -90.383904, 29.967242 ], [ -90.383904, 29.967242 ], [ -90.383942300346533, 29.967210606276257 ], [ -90.383904, 29.967242 ] ], [ [ -90.382632230618142, 29.968276717237558 ], [ -90.382405, 29.968464 ], [ -90.38225304490345, 29.96858933536037 ], [ -90.382405, 29.968464 ], [ -90.382581, 29.968319 ], [ -90.382632230618142, 29.968276717237558 ] ], [ [ -90.381854, 29.968918 ], [ -90.381918542366506, 29.968864983072582 ], [ -90.381772409482011, 29.968985400878466 ], [ -90.381854, 29.968918 ] ], [ [ -90.381574, 29.969149 ], [ -90.381639858092683, 29.969094736659045 ], [ -90.381006, 29.969617 ], [ -90.381574, 29.969149 ] ], [ [ -90.380818332820752, 29.969772238536805 ], [ -90.380531, 29.97001 ], [ -90.380287903696285, 29.970252085796858 ], [ -90.380818332820752, 29.969772238536805 ] ], [ [ -90.389734313860217, 29.961007114091547 ], [ -90.389659, 29.961922 ], [ -90.389632, 29.961799 ], [ -90.389495, 29.961175 ], [ -90.389734313860217, 29.961007114091547 ] ], [ [ -90.387512646374049, 29.965240865510239 ], [ -90.389937999999859, 29.963245 ], [ -90.389423999999877, 29.963667 ], [ -90.388059, 29.96479 ], [ -90.387786, 29.965015 ], [ -90.387731, 29.965061 ], [ -90.387512646374049, 29.965240865510239 ] ], [ [ -90.377998, 29.966451 ], [ -90.377998, 29.966451 ], [ -90.377997236923719, 29.966449495966593 ], [ -90.377998, 29.966451 ] ], [ [ -90.381584, 29.950477 ], [ -90.381371208651444, 29.951002449091845 ], [ -90.382202130316955, 29.948942932855815 ], [ -90.381584, 29.950477 ] ], [ [ -90.380682, 29.952482 ], [ -90.380681598707511, 29.952482865948713 ], [ -90.38068204291416, 29.952481907466353 ], [ -90.380682, 29.952482 ] ], [ [ -90.380377540994118, 29.953138444476739 ], [ -90.380289, 29.95333 ], [ -90.380335, 29.95323 ], [ -90.380377540994118, 29.953138444476739 ] ], [ [ -90.378623, 29.959415 ], [ -90.378606, 29.959453500022335 ], [ -90.378831650091996, 29.959017348168427 ], [ -90.378623, 29.959415 ] ], [ [ -90.378187014352463, 29.960383971295663 ], [ -90.378092, 29.960574 ], [ -90.377889462854412, 29.960977640659628 ], [ -90.378187014352463, 29.960383971295663 ] ], [ [ -90.376731, 29.963262 ], [ -90.376720740740225, 29.963281004867206 ], [ -90.376846010467887, 29.963040578419463 ], [ -90.376731, 29.963262 ] ], [ [ -90.463783, 30.000156 ], [ -90.464514294345037, 29.998630847719504 ], [ -90.464286, 30.001459 ], [ -90.463783, 30.000156 ] ], [ [ -90.464070541535946, 30.001271541301435 ], [ -90.46405, 30.001256 ], [ -90.46405, 30.001256 ], [ -90.464070541535946, 30.001271541301435 ] ], [ [ -90.463829, 30.001132 ], [ -90.46377342949198, 30.001113697021164 ], [ -90.464011547803878, 30.00123442502327 ], [ -90.463829, 30.001132 ] ], [ [ -90.463110999999827, 30.001016 ], [ -90.463028217807718, 30.001036695548077 ], [ -90.463378, 30.001012 ], [ -90.463110999999827, 30.001016 ] ], [ [ -90.462944, 30.001092 ], [ -90.463027, 30.001037 ], [ -90.462907572842582, 30.001148975811478 ], [ -90.462944, 30.001092 ] ], [ [ -90.462905, 30.001153 ], [ -90.462629417501546, 30.002073049238351 ], [ -90.462829, 30.001701 ], [ -90.462905, 30.001153 ] ], [ [ -90.462631, 30.00242 ], [ -90.46247549542656, 30.002544945552724 ], [ -90.462591269994917, 30.002233441742945 ], [ -90.462631, 30.00242 ] ], [ [ -90.462081, 30.002466 ], [ -90.462028166110088, 30.002422455592125 ], [ -90.462081, 30.002466 ], [ -90.462081, 30.002466 ] ], [ [ -90.46199, 30.002391 ], [ -90.461988285131511, 30.002385626746538 ], [ -90.46199, 30.002391 ], [ -90.46199, 30.002391 ] ], [ [ -90.462417, 30.00155 ], [ -90.462425055242747, 30.001516458534635 ], [ -90.462385028943459, 30.001601392757625 ], [ -90.462417, 30.00155 ] ], [ [ -90.462196, 30.000942 ], [ -90.462196, 30.000942 ], [ -90.462126346916847, 30.00093229424284 ], [ -90.462196, 30.000942 ] ], [ [ -90.460273, 30.000551 ], [ -90.459891999999897, 30.002264 ], [ -90.459892, 30.002264 ], [ -90.460273, 30.000551 ] ], [ [ -90.457763, 30.001657 ], [ -90.457000449779059, 30.001597470064432 ], [ -90.458382437466454, 30.001816421254013 ], [ -90.457763, 30.001657 ] ], [ [ -90.455856, 30.001611 ], [ -90.455417728221306, 30.002121217670915 ], [ -90.456108538220889, 30.001599384741702 ], [ -90.455856, 30.001611 ] ], [ [ -90.454071, 30.003053 ], [ -90.453963216427994, 30.003185656722245 ], [ -90.454154932333154, 30.003018735502334 ], [ -90.454071, 30.003053 ] ], [ [ -90.453927783811181, 30.003260670806846 ], [ -90.453521, 30.004724 ], [ -90.453712, 30.004039 ], [ -90.453927783811181, 30.003260670806846 ] ], [ [ -90.452415, 30.010761 ], [ -90.450964999999854, 30.018352 ], [ -90.448151196828235, 30.021557109092345 ], [ -90.452415, 30.010761 ] ], [ [ -90.445396, 30.024436 ], [ -90.445396, 30.024436 ], [ -90.447948867729707, 30.02157968136337 ], [ -90.445396, 30.024436 ] ], [ [ -90.442121799780153, 30.027926680273538 ], [ -90.438423, 30.032447 ], [ -90.438140035744325, 30.032982184890816 ], [ -90.442121799780153, 30.027926680273538 ] ], [ [ -90.435005, 30.036378 ], [ -90.434946810039747, 30.036444330576032 ], [ -90.435022684210523, 30.036358000007546 ], [ -90.435005, 30.036378 ] ], [ [ -90.434104, 30.037401 ], [ -90.434030419578363, 30.03777567927553 ], [ -90.434646133542856, 30.036786123133172 ], [ -90.434104, 30.037401 ] ], [ [ -90.432937, 30.039054 ], [ -90.432175609044748, 30.039930484505863 ], [ -90.433488251752195, 30.038414327669443 ], [ -90.432937, 30.039054 ] ], [ [ -90.427570228608985, 30.045275807142339 ], [ -90.412239, 30.063016 ], [ -90.420585, 30.053388 ], [ -90.427570228608985, 30.045275807142339 ] ], [ [ -90.407218, 30.068807 ], [ -90.40552598654169, 30.070782028162814 ], [ -90.412236061517902, 30.063019389214723 ], [ -90.407218, 30.068807 ] ], [ [ -90.402663999999874, 30.074096 ], [ -90.40259491927452, 30.074137335194781 ], [ -90.403976600525425, 30.072584087958482 ], [ -90.402663999999874, 30.074096 ] ], [ [ -90.40126, 30.073286 ], [ -90.401074429487281, 30.073183213136257 ], [ -90.401313333333334, 30.073320333345237 ], [ -90.40126, 30.073286 ] ], [ [ -90.399208, 30.072412 ], [ -90.399208, 30.072412 ], [ -90.399482, 30.072158 ], [ -90.399208, 30.072412 ] ], [ [ -90.399055, 30.074346 ], [ -90.398774227591502, 30.072859200165741 ], [ -90.399244, 30.074661000167119 ], [ -90.399055, 30.074346 ] ], [ [ -90.367744, 30.057014 ], [ -90.367811845634918, 30.057024964953136 ], [ -90.367454, 30.057109 ], [ -90.367744, 30.057014 ] ], [ [ -90.366584, 30.057243 ], [ -90.366584, 30.057243 ], [ -90.3669353169022, 30.057188889142619 ], [ -90.366584, 30.057243 ] ], [ [ -90.363807, 30.057636 ], [ -90.363807, 30.057636 ], [ -90.364319608006184, 30.057453278458471 ], [ -90.363807, 30.057636 ] ], [ [ -90.355822595062762, 30.055946347648806 ], [ -90.355796, 30.055942 ], [ -90.355796, 30.055942 ], [ -90.355822595062762, 30.055946347648806 ] ], [ [ -90.355513666666667, 30.055980000014575 ], [ -90.354949, 30.056056 ], [ -90.354949, 30.056056 ], [ -90.355513666666667, 30.055980000014575 ] ], [ [ -90.344963, 30.054056 ], [ -90.345721245697973, 30.054002954022291 ], [ -90.344709311255116, 30.054015164077288 ], [ -90.344963, 30.054056 ] ], [ [ -90.342102, 30.053873 ], [ -90.342731094703808, 30.053893396776417 ], [ -90.33919372760657, 30.053809561222728 ], [ -90.342102, 30.053873 ] ], [ [ -90.328783999999885, 30.053661 ], [ -90.328323127524271, 30.053846998075482 ], [ -90.328399, 30.053834 ], [ -90.328784, 30.053661 ], [ -90.329309057372342, 30.053498821548803 ], [ -90.328783999999885, 30.053661 ] ], [ [ -90.326461, 30.052984 ], [ -90.326399138833168, 30.052632736692253 ], [ -90.326461, 30.052984 ], [ -90.326327, 30.053289 ], [ -90.326343, 30.053522 ], [ -90.326345909020844, 30.053526247173448 ], [ -90.326461, 30.052984 ] ], [ [ -90.326042999999885, 30.053434 ], [ -90.326043, 30.053434 ], [ -90.325895, 30.052271 ], [ -90.326042999999885, 30.053434 ] ], [ [ -90.325540999999873, 30.054042 ], [ -90.325541, 30.054042 ], [ -90.32582084210118, 30.053770861305292 ], [ -90.325540999999873, 30.054042 ] ], [ [ -90.324327616611399, 30.054562963205687 ], [ -90.319390999999882, 30.055489 ], [ -90.318930845302333, 30.055731933346689 ], [ -90.324327616611399, 30.054562963205687 ] ], [ [ -90.317251, 30.056164 ], [ -90.317251, 30.056164 ], [ -90.3177711578399, 30.056032430748001 ], [ -90.317251, 30.056164 ] ], [ [ -90.366905, 29.954946 ], [ -90.366905, 29.954946 ], [ -90.36657633316446, 29.955476175302728 ], [ -90.366905, 29.954946 ] ], [ [ -90.364374402727918, 29.959016411494339 ], [ -90.364814, 29.958408 ], [ -90.365969618632064, 29.956472941322644 ], [ -90.364374402727918, 29.959016411494339 ] ], [ [ -90.362594, 29.960853 ], [ -90.360796570612209, 29.962059876446453 ], [ -90.36361607973204, 29.959921108212381 ], [ -90.362594, 29.960853 ] ], [ [ -90.358987267423942, 29.962861860946155 ], [ -90.360099, 29.962419 ], [ -90.360220687477025, 29.962358605356123 ], [ -90.358987267423942, 29.962861860946155 ] ], [ [ -90.356803, 29.963466 ], [ -90.356803, 29.963466 ], [ -90.354700187320944, 29.963779164448404 ], [ -90.356803, 29.963466 ] ], [ [ -90.354053011729832, 29.963869110124836 ], [ -90.340522, 29.965728 ], [ -90.339263, 29.965898 ], [ -90.338838849090749, 29.965976048902508 ], [ -90.354053011729832, 29.963869110124836 ] ], [ [ -90.335401669684927, 29.966715023277384 ], [ -90.337593, 29.966203 ], [ -90.338359375035921, 29.966063728301162 ], [ -90.335401669684927, 29.966715023277384 ] ], [ [ -90.333976, 29.967103 ], [ -90.333976, 29.967103 ], [ -90.333221544180759, 29.967341858656013 ], [ -90.333976, 29.967103 ] ], [ [ -90.330589, 29.968286 ], [ -90.331118775667434, 29.968073947984909 ], [ -90.328926, 29.969015 ], [ -90.330589, 29.968286 ] ], [ [ -90.347603, 29.935071 ], [ -90.347603, 29.935071 ], [ -90.344926, 29.934782 ], [ -90.347603, 29.935071 ] ], [ [ -90.35928762386186, 29.937637367687067 ], [ -90.369051, 29.940656 ], [ -90.372612, 29.941624 ], [ -90.35928762386186, 29.937637367687067 ] ], [ [ -90.35088399999988, 29.935526 ], [ -90.350884, 29.935526 ], [ -90.350854654018249, 29.935520497629003 ], [ -90.35088399999988, 29.935526 ] ], [ [ -90.363494, 29.952346 ], [ -90.363289219606145, 29.952259062295891 ], [ -90.363738729943165, 29.952440370187002 ], [ -90.363494, 29.952346 ] ], [ [ -90.349711474977781, 29.94646594584464 ], [ -90.348615, 29.94596 ], [ -90.349512, 29.946349 ], [ -90.349711474977781, 29.94646594584464 ] ], [ [ -90.344200410286888, 29.938539839360384 ], [ -90.344259, 29.938077 ], [ -90.344215, 29.93847 ], [ -90.344200410286888, 29.938539839360384 ] ], [ [ -90.329944038753624, 29.970947085851506 ], [ -90.333421883987015, 29.977587264876881 ], [ -90.331588, 29.974067 ], [ -90.329944038753624, 29.970947085851506 ] ], [ [ -90.338867, 29.98081 ], [ -90.338867, 29.98081 ], [ -90.339554071101674, 29.981009397055701 ], [ -90.338867, 29.98081 ] ], [ [ -90.341789, 29.981658 ], [ -90.341789, 29.981658 ], [ -90.34177954218859, 29.981704859171163 ], [ -90.341789, 29.981658 ] ], [ [ -90.341659, 29.982184 ], [ -90.341659, 29.982184 ], [ -90.341652902104087, 29.982208301938886 ], [ -90.341659, 29.982184 ] ], [ [ -90.341583, 29.98249 ], [ -90.341583, 29.98249 ], [ -90.34151242491015, 29.982780027639649 ], [ -90.341583, 29.98249 ] ], [ [ -90.340423, 29.98726 ], [ -90.340423, 29.98726 ], [ -90.340304456318094, 29.987733998406728 ], [ -90.340423, 29.98726 ] ], [ [ -90.334922000000105, 30.007678 ], [ -90.334922, 30.007678 ], [ -90.334411234322545, 30.009590004578762 ], [ -90.334922000000105, 30.007678 ] ], [ [ -90.333244, 30.017429 ], [ -90.333244, 30.017429 ], [ -90.33316484726906, 30.018195225989512 ], [ -90.333244, 30.017429 ] ], [ [ -90.332443, 30.021541 ], [ -90.332443, 30.021541 ], [ -90.332256241711164, 30.022030621846557 ], [ -90.332443, 30.021541 ] ], [ [ -90.330986, 30.025587 ], [ -90.330986, 30.025587 ], [ -90.330993201509884, 30.025631191103688 ], [ -90.330986, 30.025587 ] ], [ [ -90.331207, 30.02588 ], [ -90.331207, 30.02588 ], [ -90.331222869060014, 30.025919672657096 ], [ -90.331207, 30.02588 ] ], [ [ -90.331222, 30.026027 ], [ -90.331222, 30.026027 ], [ -90.331185994663812, 30.026054477756727 ], [ -90.331222, 30.026027 ] ], [ [ -90.330859044033545, 30.025943507987748 ], [ -90.330955, 30.025957 ], [ -90.330871, 30.025939 ], [ -90.330859044033545, 30.025943507987748 ] ], [ [ -90.330543, 30.026176 ], [ -90.330656243354085, 30.026124231616905 ], [ -90.330543, 30.026176 ], [ -90.330543, 30.026176 ] ], [ [ -90.33049, 30.026243 ], [ -90.33049, 30.026243 ], [ -90.330489839460455, 30.026245588701691 ], [ -90.33049, 30.026243 ] ], [ [ -90.330398, 30.026424 ], [ -90.330398, 30.026424 ], [ -90.330462285530984, 30.026384204197523 ], [ -90.330398, 30.026424 ] ], [ [ -90.330223, 30.026792 ], [ -90.330223, 30.026792 ], [ -90.330233545272975, 30.026858626976175 ], [ -90.330223, 30.026792 ] ], [ [ -90.330123, 30.027074 ], [ -90.330140575586739, 30.027053399120057 ], [ -90.330123, 30.027074 ], [ -90.330123, 30.027074 ] ], [ [ -90.323763, 30.040958 ], [ -90.323763, 30.040958 ], [ -90.323548304299749, 30.041357364297124 ], [ -90.323763, 30.040958 ] ], [ [ -90.321782, 30.045179 ], [ -90.321782, 30.045179 ], [ -90.320915303548375, 30.047065883438691 ], [ -90.321782, 30.045179 ] ], [ [ -90.318439, 30.052487 ], [ -90.318439, 30.052487 ], [ -90.3182976396063, 30.052797426836321 ], [ -90.318439, 30.052487 ] ] ] } },
{ "type": "Feature", "properties": { "district_id": 3, "voting_age_pop": 580756, "lib_votes": 0, "grn_votes": 0, "con_votes": 0, "ref_votes": 0, "total_pop": 769986, "dem_votes_sum": 126911, "rep_votes_sum": 193922, "lib_votes_sum": 0, "grn_votes_sum": 0, "con_votes_sum": 0, "ref_votes_sum": 0, "minority_pop_sum": 544814, "dem_pct": 0.39556716422562516, "rep_pct": 0.60443283577437479, "lib_pct": 0.0, "grn_pct": 0.0, "con_pct": 0.0, "ref_pct": 0.0, "minority_pct": 0.70756351414181562, "compactness": 0.24288432717052147 }, "geometry": { "type": "Polygon", "coordinates": [ [ [ -93.841165, 32.156052 ], [ -93.884031, 32.158838 ], [ -93.889044, 32.232367 ], [ -93.951085, 32.195545 ], [ -94.042598, 32.196005 ], [ -94.042964, 33.019219 ], [ -91.166073, 33.004106 ], [ -91.21282, 32.936076 ], [ -91.201612, 32.909889 ], [ -91.170235, 32.899391 ], [ -91.145076, 32.905493 ], [ -91.131304, 32.926918 ], [ -91.135517, 32.979657 ], [ -91.111757, 32.98836 ], [ -91.086802, 32.976266 ], [ -91.064804, 32.926464 ], [ -91.070602, 32.888658 ], [ -91.105631, 32.858396 ], [ -91.142604, 32.845528 ], [ -91.157781, 32.823255 ], [ -91.165889, 32.755615 ], [ -91.15861, 32.743449 ], [ -91.056999, 32.72558 ], [ -91.063946, 32.702925 ], [ -91.118258, 32.674075 ], [ -91.153689, 32.627963 ], [ -91.169416, 32.640898 ], [ -91.18232, 32.629095 ], [ -91.201804, 32.629112 ], [ -91.201572, 32.638502 ], [ -91.235028, 32.625926 ], [ -91.235381, 32.663805 ], [ -91.252053, 32.64054 ], [ -91.289579, 32.626579 ], [ -91.292917, 32.611919 ], [ -91.298835, 32.62894 ], [ -91.349493, 32.646577 ], [ -91.394207, 32.629105 ], [ -91.405492, 32.62031 ], [ -91.397559, 32.608918 ], [ -91.444731, 32.584415 ], [ -91.431043, 32.559973 ], [ -91.440997, 32.54309 ], [ -91.468635, 32.534748 ], [ -91.477869, 32.508074 ], [ -91.561633, 32.508409 ], [ -91.561604, 32.497531 ], [ -91.578536, 32.497373 ], [ -91.579241, 32.463822 ], [ -91.597536, 32.465249 ], [ -91.609133, 32.442365 ], [ -91.579622, 32.449481 ], [ -91.578847, 32.386226 ], [ -91.598528, 32.381228 ], [ -91.617433, 32.352193 ], [ -91.613209, 32.325871 ], [ -91.635417, 32.319981 ], [ -91.63608, 32.294094 ], [ -91.655398, 32.279714 ], [ -91.645345, 32.265529 ], [ -91.663115, 32.264594 ], [ -91.702662, 32.229616 ], [ -91.720881, 32.193703 ], [ -91.725428, 32.205236 ], [ -91.800635, 32.208385 ], [ -91.800598, 32.223564 ], [ -91.771539, 32.248052 ], [ -91.763781, 32.291649 ], [ -91.815875, 32.319702 ], [ -91.869553, 32.320335 ], [ -91.861197, 32.356205 ], [ -91.879804, 32.350957 ], [ -91.887654, 32.315907 ], [ -91.902205, 32.313827 ], [ -91.89838, 32.300399 ], [ -91.934075, 32.27178 ], [ -91.919779, 32.218657 ], [ -91.897992, 32.202371 ], [ -91.894885, 32.16358 ], [ -91.9425, 32.175474 ], [ -91.979868, 32.166148 ], [ -91.975255, 32.20429 ], [ -92.0081, 32.191598 ], [ -91.977725, 32.217256 ], [ -91.983087, 32.224296 ], [ -92.000132, 32.211686 ], [ -91.99118, 32.225499 ], [ -92.007477, 32.231052 ], [ -91.986159, 32.250833 ], [ -92.001439, 32.256171 ], [ -91.993367, 32.276795 ], [ -92.106385, 32.276632 ], [ -92.106115, 32.258552 ], [ -92.152628, 32.258645 ], [ -92.164744, 32.276697 ], [ -92.311851, 32.277441 ], [ -92.307653, 32.229304 ], [ -92.278119, 32.20139 ], [ -92.234251, 32.186104 ], [ -92.216851, 32.135919 ], [ -92.178463, 32.134618 ], [ -92.188447, 32.103896 ], [ -92.173784, 32.078643 ], [ -92.24967, 32.078192 ], [ -92.272674, 32.063384 ], [ -92.311911, 32.076304 ], [ -92.312634, 31.936567 ], [ -92.34082, 31.971314 ], [ -92.448738, 31.967342 ], [ -92.487485, 32.001832 ], [ -92.526352, 31.973636 ], [ -92.534486, 32.007573 ], [ -92.567381, 32.017675 ], [ -92.580271, 31.999127 ], [ -92.564074, 31.99496 ], [ -92.585588, 31.994033 ], [ -92.586443, 31.973481 ], [ -92.592466, 31.981644 ], [ -92.619262, 31.970896 ], [ -92.596928, 31.946691 ], [ -92.610451, 31.932918 ], [ -92.632612, 31.937991 ], [ -92.653062, 31.927593 ], [ -92.653604, 31.943048 ], [ -92.729328, 31.936711 ], [ -92.745531, 31.947746 ], [ -92.760014, 31.930437 ], [ -92.801126, 31.924113 ], [ -92.848736, 31.942494 ], [ -92.887789, 31.931972 ], [ -92.904464, 31.94952 ], [ -92.931583, 31.950576 ], [ -92.927759, 31.910507 ], [ -92.966404, 31.873502 ], [ -92.98889, 31.875952 ], [ -93.03458, 31.955014 ], [ -93.100923, 31.963539 ], [ -93.115654, 31.944611 ], [ -93.090389, 31.923389 ], [ -93.118064, 31.914137 ], [ -93.124058, 31.892703 ], [ -93.133567, 31.894378 ], [ -93.124543, 31.887573 ], [ -93.192972, 31.887273 ], [ -93.238039, 31.902357 ], [ -93.262694, 31.933696 ], [ -93.288661, 31.916971 ], [ -93.282258, 31.941908 ], [ -93.305819, 31.946932 ], [ -93.310633, 31.966533 ], [ -93.346392, 31.966533 ], [ -93.355882, 31.990449 ], [ -93.3465, 32.022059 ], [ -93.381368, 32.08699 ], [ -93.322424, 32.076166 ], [ -93.332566, 32.109444 ], [ -93.288334, 32.160108 ], [ -93.301197, 32.196792 ], [ -93.293923, 32.217827 ], [ -93.311933, 32.235751 ], [ -93.61469, 32.237526 ], [ -93.614314, 32.269745 ], [ -93.632856, 32.287925 ], [ -93.643491, 32.269996 ], [ -93.690766, 32.251624 ], [ -93.695621, 32.281863 ], [ -93.74798, 32.281965 ], [ -93.718293, 32.227386 ], [ -93.815245, 32.229214 ], [ -93.814654, 32.191585 ], [ -93.836817, 32.193347 ], [ -93.841165, 32.156052 ] ] ] } },
{ "type": "Feature", "properties": { "district_id": 4, "voting_age_pop": 552075, "lib_votes": 0, "grn_votes": 0, "con_votes": 0, "ref_votes": 0, "total_pop": 738489, "dem_votes_sum": 90469, "rep_votes_sum": 210905, "lib_votes_sum": 0, "grn_votes_sum": 0, "con_votes_sum": 0, "ref_votes_sum": 0, "minority_pop_sum": 401537, "dem_pct": 0.3001884701400917, "rep_pct": 0.69981152985990824, "lib_pct": 0.0, "grn_pct": 0.0, "con_pct": 0.0, "ref_pct": 0.0, "minority_pct": 0.54372780095573525, "compactness": 0.080790088110291078 }, "geometry": { "type": "Polygon", "coordinates": [ [ [ -93.339294, 29.695085 ], [ -93.432758, 29.71853 ], [ -93.711547, 29.690347 ], [ -93.770147, 29.670825 ], [ -93.77036, 29.623924 ], [ -93.814351, 29.596576 ], [ -93.837412, 29.689885 ], [ -93.928808, 29.79708 ], [ -93.91636, 29.824968 ], [ -93.838374, 29.882853 ], [ -93.788599, 29.988836 ], [ -93.741078, 30.021571 ], [ -93.717884, 30.065554 ], [ -93.711074, 30.054391 ], [ -93.699516, 30.058578 ], [ -93.734085, 30.08613 ], [ -93.724005, 30.082626 ], [ -93.70121, 30.137458 ], [ -93.688205, 30.141357 ], [ -93.697737, 30.152946 ], [ -93.709508, 30.146672 ], [ -93.699953, 30.175529 ], [ -93.721259, 30.209611 ], [ -93.703099, 30.238459 ], [ -93.704584, 30.289949 ], [ -93.742424, 30.301139 ], [ -93.751676, 30.329347 ], [ -93.765829, 30.332745 ], [ -93.750979, 30.359899 ], [ -93.757668, 30.390441 ], [ -93.722749, 30.419557 ], [ -93.726106, 30.43072 ], [ -93.718051, 30.422579 ], [ -93.697578, 30.442233 ], [ -93.717421, 30.483822 ], [ -93.707683, 30.521337 ], [ -93.740253, 30.539569 ], [ -93.713782, 30.587584 ], [ -93.678949, 30.593637 ], [ -93.682972, 30.641251 ], [ -93.629887, 30.679935 ], [ -93.617229, 30.71858 ], [ -93.605391, 30.717159 ], [ -93.617719, 30.728897 ], [ -93.614346, 30.760195 ], [ -93.592101, 30.763675 ], [ -93.583775, 30.801779 ], [ -93.56298, 30.806009 ], [ -93.554433, 30.823524 ], [ -93.568717, 30.844182 ], [ -93.558616, 30.869424 ], [ -93.57408, 30.884529 ], [ -93.549202, 30.897439 ], [ -93.558562, 30.913238 ], [ -93.526013, 30.937535 ], [ -93.531758, 30.958217 ], [ -93.573537, 30.971206 ], [ -93.564299, 30.9897 ], [ -93.578207, 30.999995 ], [ -93.566561, 31.013057 ], [ -93.539184, 31.008212 ], [ -93.508039, 31.031532 ], [ -93.531628, 31.053627 ], [ -93.518912, 31.061863 ], [ -93.527645, 31.07451 ], [ -93.552205, 31.078931 ], [ -93.549262, 31.090412 ], [ -93.563746, 31.094522 ], [ -93.539366, 31.115207 ], [ -93.5487, 31.155839 ], [ -93.536481, 31.158471 ], [ -93.532545, 31.183314 ], [ -93.549984, 31.186627 ], [ -93.589119, 31.165889 ], [ -93.607243, 31.204806 ], [ -93.596273, 31.22951 ], [ -93.618107, 31.232685 ], [ -93.620343, 31.271025 ], [ -93.642516, 31.269508 ], [ -93.687278, 31.306068 ], [ -93.668439, 31.353012 ], [ -93.639222, 31.37202 ], [ -93.670999, 31.366221 ], [ -93.674117, 31.397681 ], [ -93.704879, 31.410881 ], [ -93.692526, 31.438201 ], [ -93.709512, 31.442025 ], [ -93.703934, 31.455493 ], [ -93.749476, 31.46869 ], [ -93.752387, 31.48274 ], [ -93.722596, 31.492769 ], [ -93.711046, 31.512161 ], [ -93.742693, 31.515694 ], [ -93.747437, 31.530682 ], [ -93.787687, 31.527344 ], [ -93.834918, 31.586212 ], [ -93.838057, 31.606795 ], [ -93.818717, 31.614556 ], [ -93.82717, 31.620276 ], [ -93.811516, 31.647435 ], [ -93.826462, 31.666919 ], [ -93.794462, 31.70332 ], [ -93.816694, 31.707917 ], [ -93.81493, 31.728688 ], [ -93.836884, 31.750171 ], [ -93.823443, 31.775098 ], [ -93.837693, 31.780817 ], [ -93.839343, 31.80033 ], [ -93.873253, 31.814886 ], [ -93.889396, 31.8559 ], [ -93.881678, 31.868581 ], [ -93.901676, 31.87457 ], [ -93.900616, 31.896788 ], [ -93.93119, 31.891495 ], [ -93.928651, 31.912645 ], [ -93.97171, 31.920386 ], [ -94.018514, 31.992432 ], [ -94.042327, 31.992971 ], [ -94.042598, 32.196005 ], [ -93.951085, 32.195545 ], [ -93.889044, 32.232367 ], [ -93.884031, 32.158838 ], [ -93.841165, 32.156052 ], [ -93.836817, 32.193347 ], [ -93.814654, 32.191585 ], [ -93.815245, 32.229214 ], [ -93.718293, 32.227386 ], [ -93.74798, 32.281965 ], [ -93.695621, 32.281863 ], [ -93.690766, 32.251624 ], [ -93.643491, 32.269996 ], [ -93.632856, 32.287925 ], [ -93.614314, 32.269745 ], [ -93.61469, 32.237526 ], [ -93.311933, 32.235751 ], [ -93.293923, 32.217827 ], [ -93.301197, 32.196792 ], [ -93.288334, 32.160108 ], [ -93.332566, 32.109444 ], [ -93.322424, 32.076166 ], [ -93.381368, 32.08699 ], [ -93.3465, 32.022059 ], [ -93.355882, 31.990449 ], [ -93.346392, 31.966533 ], [ -93.310633, 31.966533 ], [ -93.305819, 31.946932 ], [ -93.282258, 31.941908 ], [ -93.288661, 31.916971 ], [ -93.262694, 31.933696 ], [ -93.238039, 31.902357 ], [ -93.192972, 31.887273 ], [ -93.124543, 31.887573 ], [ -93.133567, 31.894378 ], [ -93.124058, 31.892703 ], [ -93.118064, 31.914137 ], [ -93.090389, 31.923389 ], [ -93.115654, 31.944611 ], [ -93.100923, 31.963539 ], [ -93.03458, 31.955014 ], [ -92.98889, 31.875952 ], [ -92.966404, 31.873502 ], [ -92.927759, 31.910507 ], [ -92.931583, 31.950576 ], [ -92.904464, 31.94952 ], [ -92.887789, 31.931972 ], [ -92.848736, 31.942494 ], [ -92.801126, 31.924113 ], [ -92.760014, 31.930437 ], [ -92.745531, 31.947746 ], [ -92.729328, 31.936711 ], [ -92.653604, 31.943048 ], [ -92.653062, 31.927593 ], [ -92.632612, 31.937991 ], [ -92.610451, 31.932918 ], [ -92.596928, 31.946691 ], [ -92.619262, 31.970896 ], [ -92.592466, 31.981644 ], [ -92.586443, 31.973481 ], [ -92.585588, 31.994033 ], [ -92.564074, 31.99496 ], [ -92.580271, 31.999127 ], [ -92.567381, 32.017675 ], [ -92.534486, 32.007573 ], [ -92.526352, 31.973636 ], [ -92.487485, 32.001832 ], [ -92.448738, 31.967342 ], [ -92.34082, 31.971314 ], [ -92.312634, 31.936567 ], [ -92.311911, 32.076304 ], [ -92.272674, 32.063384 ], [ -92.24967, 32.078192 ], [ -92.173784, 32.078643 ], [ -92.188447, 32.103896 ], [ -92.178463, 32.134618 ], [ -92.216851, 32.135919 ], [ -92.234251, 32.186104 ], [ -92.278119, 32.20139 ], [ -92.307653, 32.229304 ], [ -92.311851, 32.277441 ], [ -92.164744, 32.276697 ], [ -92.152628, 32.258645 ], [ -92.106115, 32.258552 ], [ -92.106385, 32.276632 ], [ -91.993367, 32.276795 ], [ -92.001439, 32.256171 ], [ -91.986159, 32.250833 ], [ -92.007477, 32.231052 ], [ -91.99118, 32.225499 ], [ -92.000132, 32.211686 ], [ -91.983087, 32.224296 ], [ -91.977725, 32.217256 ], [ -92.0081, 32.191598 ], [ -91.975255, 32.20429 ], [ -91.979868, 32.166148 ], [ -91.9425, 32.175474 ], [ -91.894885, 32.16358 ], [ -91.897992, 32.202371 ], [ -91.919779, 32.218657 ], [ -91.934075, 32.27178 ], [ -91.89838, 32.300399 ], [ -91.902205, 32.313827 ], [ -91.887654, 32.315907 ], [ -91.879804, 32.350957 ], [ -91.861197, 32.356205 ], [ -91.869553, 32.320335 ], [ -91.815875, 32.319702 ], [ -91.763781, 32.291649 ], [ -91.771539, 32.248052 ], [ -91.800598, 32.223564 ], [ -91.800635, 32.208385 ], [ -91.725428, 32.205236 ], [ -91.720881, 32.193703 ], [ -91.702662, 32.229616 ], [ -91.663115, 32.264594 ], [ -91.645345, 32.265529 ], [ -91.655398, 32.279714 ], [ -91.63608, 32.294094 ], [ -91.635417, 32.319981 ], [ -91.613209, 32.325871 ], [ -91.617433, 32.352193 ], [ -91.598528, 32.381228 ], [ -91.578847, 32.386226 ], [ -91.579622, 32.449481 ], [ -91.609133, 32.442365 ], [ -91.597536, 32.465249 ], [ -91.579241, 32.463822 ], [ -91.578589, 32.497307 ], [ -91.561604, 32.497531 ], [ -91.561633, 32.508409 ], [ -91.477869, 32.508074 ], [ -91.468635, 32.534748 ], [ -91.440997, 32.54309 ], [ -91.431043, 32.559973 ], [ -91.444731, 32.584415 ], [ -91.397559, 32.608918 ], [ -91.405492, 32.62031 ], [ -91.39508, 32.628655 ], [ -91.349493, 32.646577 ], [ -91.298835, 32.62894 ], [ -91.292917, 32.611919 ], [ -91.289579, 32.626579 ], [ -91.252053, 32.64054 ], [ -91.235381, 32.663805 ], [ -91.235028, 32.625926 ], [ -91.201572, 32.638502 ], [ -91.201804, 32.629112 ], [ -91.18232, 32.629095 ], [ -91.16924, 32.640872 ], [ -91.119854, 32.584795 ], [ -91.049796, 32.607186 ], [ -91.038419, 32.63644 ], [ -91.019115, 32.643845 ], [ -91.006158, 32.607189 ], [ -91.080411, 32.556468 ], [ -91.057706, 32.533777 ], [ -90.994867, 32.508611 ], [ -90.988505, 32.490559 ], [ -91.001506, 32.48214 ], [ -91.038106, 32.49044 ], [ -91.093742, 32.549127 ], [ -91.115708, 32.48234 ], [ -91.051407, 32.437842 ], [ -91.028206, 32.433742 ], [ -90.995487, 32.450885 ], [ -90.969587, 32.439492 ], [ -90.965987, 32.420654 ], [ -90.99408, 32.403861 ], [ -91.001406, 32.379444 ], [ -90.993625, 32.354047 ], [ -90.912363, 32.339454 ], [ -90.890712, 32.372246 ], [ -90.877289, 32.366945 ], [ -90.928881, 32.293849 ], [ -90.949781, 32.283056 ], [ -90.964149, 32.296872 ], [ -90.979475, 32.293702 ], [ -90.982985, 32.270294 ], [ -90.969403, 32.25252 ], [ -90.994944, 32.193141 ], [ -91.002906, 32.22305 ], [ -91.039007, 32.242348 ], [ -91.061408, 32.21865 ], [ -91.083708, 32.22645 ], [ -91.108509, 32.20815 ], [ -91.133587, 32.213431 ], [ -91.164171, 32.196888 ], [ -91.174552, 32.154978 ], [ -91.162822, 32.132694 ], [ -91.053555, 32.124412 ], [ -91.058307, 32.180951 ], [ -91.002906, 32.162052 ], [ -91.005606, 32.141551 ], [ -91.035207, 32.100453 ], [ -91.081108, 32.078353 ], [ -91.080908, 32.047855 ], [ -91.103708, 32.050255 ], [ -91.135709, 32.080654 ], [ -91.15851, 32.072854 ], [ -91.15381, 32.050655 ], [ -91.091408, 32.036054 ], [ -91.075908, 32.016827 ], [ -91.102808, 31.990957 ], [ -91.16441, 31.982557 ], [ -91.18481, 31.965557 ], [ -91.19321, 31.935658 ], [ -91.182277, 31.915814 ], [ -91.267712, 31.86266 ], [ -91.244995, 31.832188 ], [ -91.254311, 31.813662 ], [ -91.283212, 31.815762 ], [ -91.294013, 31.86046 ], [ -91.345214, 31.843861 ], [ -91.365614, 31.760763 ], [ -91.278512, 31.772063 ], [ -91.261511, 31.765463 ], [ -91.265611, 31.752064 ], [ -91.369375, 31.746903 ], [ -91.397915, 31.709364 ], [ -91.401015, 31.620365 ], [ -91.436216, 31.612465 ], [ -91.49613, 31.64531 ], [ -91.514111, 31.632411 ], [ -91.516567, 31.611818 ], [ -91.486518, 31.586566 ], [ -91.424949, 31.597056 ], [ -91.403915, 31.589766 ], [ -91.409815, 31.567066 ], [ -91.442416, 31.543266 ], [ -91.522536, 31.522078 ], [ -91.51513, 31.449206 ], [ -91.472067, 31.397076 ], [ -91.472542, 31.371069 ], [ -91.516367, 31.370503 ], [ -91.540647, 31.430758 ], [ -91.565179, 31.423447 ], [ -91.578334, 31.399067 ], [ -91.568953, 31.377629 ], [ -91.546207, 31.38248 ], [ -91.548967, 31.347255 ], [ -91.50866, 31.315131 ], [ -91.512085, 31.284177 ], [ -91.553905, 31.26305 ], [ -91.637672, 31.26768 ], [ -91.654681, 31.253662 ], [ -91.588939, 31.188959 ], [ -91.626862, 31.118771 ], [ -91.559907, 31.054119 ], [ -91.578413, 31.02403 ], [ -91.636942, 30.999416 ], [ -91.348152, 30.999078 ], [ -91.351073, 30.977531 ], [ -91.379409, 30.970128 ], [ -91.388453, 30.953219 ], [ -91.39117, 30.910511 ], [ -91.413392, 30.915105 ], [ -91.401571, 30.959096 ], [ -91.406003, 30.965148 ], [ -91.425501, 30.959883 ], [ -91.431624, 30.939398 ], [ -91.470891, 30.960025 ], [ -91.45224, 30.92198 ], [ -91.499907, 30.873281 ], [ -91.515476, 30.872403 ], [ -91.549308, 30.916228 ], [ -91.613955, 30.918146 ], [ -91.611609, 30.899701 ], [ -91.563605, 30.883332 ], [ -91.559064, 30.839794 ], [ -91.619546, 30.841502 ], [ -91.594397, 30.821792 ], [ -91.608694, 30.807852 ], [ -91.654804, 30.805108 ], [ -91.708238, 30.772385 ], [ -91.719023, 30.738939 ], [ -91.73871, 30.724894 ], [ -91.731492, 30.669772 ], [ -91.748341, 30.668295 ], [ -91.753248, 30.645018 ], [ -91.770096, 30.665612 ], [ -91.798329, 30.653741 ], [ -91.791081, 30.694488 ], [ -91.770572, 30.69335 ], [ -91.772623, 30.70266 ], [ -91.809777, 30.761575 ], [ -91.85123, 30.759102 ], [ -91.84157, 30.772389 ], [ -91.863904, 30.798898 ], [ -91.846897, 30.826311 ], [ -91.852585, 30.841641 ], [ -91.867408, 30.846242 ], [ -91.9168, 30.816095 ], [ -91.943746, 30.817562 ], [ -91.940605, 30.80134 ], [ -91.956981, 30.794607 ], [ -91.993997, 30.794669 ], [ -91.990763, 30.772997 ], [ -92.058293, 30.795229 ], [ -92.086516, 30.776162 ], [ -92.125852, 30.799432 ], [ -92.124878, 30.849942 ], [ -92.237698, 30.84821 ], [ -92.238219, 30.892208 ], [ -92.280716, 30.938761 ], [ -92.3146, 30.918893 ], [ -92.304496, 30.903855 ], [ -92.34887, 30.859245 ], [ -92.35156, 30.816592 ], [ -92.386425, 30.804317 ], [ -92.379038, 30.839993 ], [ -92.389755, 30.850868 ], [ -92.431544, 30.848379 ], [ -92.45892, 30.870033 ], [ -92.433828, 30.894423 ], [ -92.455498, 30.886123 ], [ -92.482531, 30.914067 ], [ -92.519018, 30.893072 ], [ -92.548091, 30.90313 ], [ -92.789698, 30.891639 ], [ -92.789757, 30.817679 ], [ -92.927628, 30.817902 ], [ -92.94105, 30.828574 ], [ -92.938718, 30.856281 ], [ -92.901699, 30.876823 ], [ -92.978453, 30.878175 ], [ -92.977146, 30.751571 ], [ -93.092628, 30.804674 ], [ -93.08726, 30.82965 ], [ -93.150445, 30.833596 ], [ -93.150352, 30.802956 ], [ -93.181535, 30.807179 ], [ -93.170191, 30.773167 ], [ -93.183662, 30.765841 ], [ -93.183708, 30.737658 ], [ -93.166996, 30.737674 ], [ -93.173337, 30.695243 ], [ -93.136033, 30.676234 ], [ -93.148941, 30.659864 ], [ -93.142612, 30.625809 ], [ -93.173317, 30.616785 ], [ -93.171142, 30.594633 ], [ -93.047765, 30.59833 ], [ -93.015275, 30.568614 ], [ -93.002914, 30.529887 ], [ -93.019836, 30.516092 ], [ -93.022549, 30.483899 ], [ -93.04503, 30.466598 ], [ -93.037327, 30.440192 ], [ -93.014173, 30.437725 ], [ -93.042755, 30.410597 ], [ -93.087674, 30.394186 ], [ -93.089517, 30.381968 ], [ -93.030955, 30.37939 ], [ -93.030736, 30.275209 ], [ -92.878368, 30.275628 ], [ -92.877878, 30.21702 ], [ -92.817273, 30.217431 ], [ -92.817342, 30.146564 ], [ -92.774604, 30.15143 ], [ -92.732675, 30.179118 ], [ -92.723681, 30.231478 ], [ -92.659214, 30.231588 ], [ -92.665349, 30.185687 ], [ -92.629943, 30.18545 ], [ -92.607896, 30.160402 ], [ -92.628578, 30.134815 ], [ -92.624476, 30.089711 ], [ -92.55391, 30.115603 ], [ -92.484671, 30.064787 ], [ -92.408349, 30.053721 ], [ -92.411689, 29.949209 ], [ -92.308503, 29.948547 ], [ -92.308874, 29.970432 ], [ -92.283603, 29.969714 ], [ -92.258587, 29.99151 ], [ -92.259643, 30.005336 ], [ -92.274973, 30.005828 ], [ -92.241914, 30.006086 ], [ -92.241862, 30.020627 ], [ -92.253641, 30.020598 ], [ -92.233018, 30.035237 ], [ -92.243816, 30.035344 ], [ -92.242561, 30.108218 ], [ -92.175294, 30.108358 ], [ -92.175675, 30.159226 ], [ -92.10523, 30.166903 ], [ -92.130978, 30.094006 ], [ -92.107812, 30.094074 ], [ -92.114158, 30.120228 ], [ -92.088421, 30.128299 ], [ -92.072848, 30.080963 ], [ -92.023322, 30.0496 ], [ -92.023227, 30.021289 ], [ -92.045914, 30.02099 ], [ -92.06533, 30.004459 ], [ -92.07339, 29.969895 ], [ -92.056578, 29.965514 ], [ -92.073838, 29.943256 ], [ -92.069992, 29.926696 ], [ -92.092434, 29.916264 ], [ -92.072945, 29.88296 ], [ -92.089706, 29.882785 ], [ -92.092885, 29.842679 ], [ -92.072061, 29.832825 ], [ -92.074361, 29.804871 ], [ -91.972585, 29.837032 ], [ -91.969648, 29.816888 ], [ -91.981875, 29.638815 ], [ -92.009765, 29.598395 ], [ -92.040559, 29.583003 ], [ -92.045616, 29.505806 ], [ -92.07805, 29.531489 ], [ -92.133447, 29.533864 ], [ -92.231657, 29.491894 ], [ -92.29367, 29.481496 ], [ -92.55982, 29.518179 ], [ -92.705013, 29.549669 ], [ -93.000513, 29.668278 ], [ -93.188092, 29.720799 ], [ -93.279218, 29.726026 ], [ -93.339294, 29.695085 ] ], [ [ -92.070863818012128, 31.099152546669423 ], [ -92.072446, 31.098539 ], [ -92.07163999999986, 31.09885 ], [ -92.070863818012128, 31.099152546669423 ] ], [ [ -92.074865, 31.097613 ], [ -92.074865, 31.097613 ], [ -92.074111062842164, 31.097906574180804 ], [ -92.074865, 31.097613 ] ], [ [ -92.075702527989577, 31.09729186800266 ], [ -92.07621, 31.09706 ], [ -92.07654838535268, 31.096895912327689 ], [ -92.075702527989577, 31.09729186800266 ] ], [ [ -92.076947, 31.096726 ], [ -92.07694699999989, 31.096726 ], [ -92.076938928874284, 31.096727899088418 ], [ -92.076947, 31.096726 ] ], [ [ -92.077369, 31.096687 ], [ -92.077496688897625, 31.096679942890916 ], [ -92.077306494217012, 31.096691299339742 ], [ -92.077369, 31.096687 ] ], [ [ -92.07982, 31.09657 ], [ -92.07982, 31.09657 ], [ -92.079797646960415, 31.096583970652375 ], [ -92.07982, 31.09657 ] ], [ [ -92.07989, 31.096337 ], [ -92.07989, 31.09601 ], [ -92.079874755837182, 31.096469087074446 ], [ -92.07989, 31.096337 ] ], [ [ -92.079893, 31.093936 ], [ -92.079893, 31.093936 ], [ -92.079893893624742, 31.093982468565539 ], [ -92.079893, 31.093936 ] ], [ [ -92.07991, 31.09263 ], [ -92.07991, 31.091463334709442 ], [ -92.07989, 31.09371 ], [ -92.07991, 31.09263 ] ], [ [ -92.08003, 31.08934 ], [ -92.0799, 31.09005 ], [ -92.07998, 31.08963 ], [ -92.08003, 31.08934 ] ], [ [ -92.08003, 31.08934 ], [ -92.08016, 31.08851 ], [ -92.080181068010944, 31.088264206673589 ], [ -92.08016, 31.08851 ], [ -92.080036999999891, 31.089289 ], [ -92.08003, 31.08934 ] ], [ [ -92.08019, 31.087747 ], [ -92.080182734164993, 31.087435642361367 ], [ -92.08019, 31.088091166791337 ], [ -92.08019, 31.087747 ] ], [ [ -92.080176921435978, 31.087181795943494 ], [ -92.08012, 31.08497 ], [ -92.080099645387818, 31.084298298922928 ], [ -92.080176921435978, 31.087181795943494 ] ], [ [ -92.08009, 31.08388 ], [ -92.080089999999871, 31.08388 ], [ -92.08009, 31.083967500005709 ], [ -92.08009, 31.08388 ] ], [ [ -92.08005, 31.08223 ], [ -92.08002, 31.08122 ], [ -92.08001, 31.08022 ], [ -92.080007744554834, 31.080174891181024 ], [ -92.08002, 31.08122 ], [ -92.08005, 31.08223 ], [ -92.08006, 31.08316 ], [ -92.080070794436566, 31.083433234364993 ], [ -92.08005, 31.08223 ] ], [ [ -92.07993, 31.07964 ], [ -92.079844744066108, 31.079565335264423 ], [ -92.079969849056624, 31.079699773584991 ], [ -92.07993, 31.07964 ] ], [ [ -92.077247880584707, 31.079132554369977 ], [ -92.07946, 31.07946 ], [ -92.07902, 31.07939 ], [ -92.07765, 31.07919 ], [ -92.077247880584707, 31.079132554369977 ] ], [ [ -92.07701, 31.07909 ], [ -92.07685, 31.0789 ], [ -92.07688, 31.07837 ], [ -92.07702, 31.07705 ], [ -92.077051335904471, 31.076692560274179 ], [ -92.07701, 31.07909 ] ], [ [ -92.077113, 31.075996 ], [ -92.077269, 31.074258 ], [ -92.077119, 31.074239 ], [ -92.076546, 31.074165 ], [ -92.076380382887876, 31.07414392565159 ], [ -92.077113, 31.075996 ] ], [ [ -92.074136606993804, 31.073858368214044 ], [ -92.062508, 31.07239 ], [ -92.059722, 31.072039 ], [ -92.074136606993804, 31.073858368214044 ] ], [ [ -92.06338, 31.10814 ], [ -92.063034643971946, 31.107118342909725 ], [ -92.063756, 31.109369 ], [ -92.06338, 31.10814 ] ], [ [ -92.06309, 31.10704 ], [ -92.06316, 31.10694 ], [ -92.063099999999835, 31.107025 ], [ -92.06309, 31.10704 ] ], [ [ -92.0632105853838, 31.10678001347458 ], [ -92.063259999999886, 31.10656 ], [ -92.063218, 31.106745 ], [ -92.0632105853838, 31.10678001347458 ] ], [ [ -92.063339999999812, 31.10623 ], [ -92.06334, 31.10623 ], [ -92.063434649951574, 31.105918263081129 ], [ -92.063339999999812, 31.10623 ] ], [ [ -92.063608110302823, 31.105370694156949 ], [ -92.063549, 31.10556 ], [ -92.063528429248549, 31.10563487754164 ], [ -92.063608110302823, 31.105370694156949 ] ], [ [ -92.063629531225317, 31.105302802163127 ], [ -92.06379, 31.10444 ], [ -92.063819632940366, 31.104246907946024 ], [ -92.063699999999898, 31.10486 ], [ -92.063629531225317, 31.105302802163127 ] ], [ [ -92.06394, 31.10343 ], [ -92.06391, 31.10368 ], [ -92.063826359728665, 31.104204396400768 ], [ -92.06394, 31.10343 ] ], [ [ -92.063943, 31.103314 ], [ -92.06395, 31.10312 ], [ -92.06394, 31.10343 ], [ -92.063943, 31.103314 ] ], [ [ -92.063716066159785, 31.101914318946264 ], [ -92.063847, 31.102589 ], [ -92.06384, 31.10253 ], [ -92.06378, 31.10213 ], [ -92.063716066159785, 31.101914318946264 ] ], [ [ -92.063752253801766, 31.101850202413196 ], [ -92.0637, 31.10186 ], [ -92.0637, 31.10186 ], [ -92.063752253801766, 31.101850202413196 ] ], [ [ -92.064902490730148, 31.101458825784462 ], [ -92.06431, 31.10168 ], [ -92.064047286570286, 31.101758814033548 ], [ -92.064902490730148, 31.101458825784462 ] ] ] } },
{ "type": "Feature", "properties": { "district_id": 5, "voting_age_pop": 556854, "lib_votes": 0, "grn_votes": 0, "con_votes": 0, "ref_votes": 0, "total_pop": 750105, "dem_votes_sum": 106662, "rep_votes_sum": 223547, "lib_votes_sum": 0, "grn_votes_sum": 0, "con_votes_sum": 0, "ref_votes_sum": 0, "minority_pop_sum": 418431, "dem_pct": 0.3230136065340436, "rep_pct": 0.67698639346595646, "lib_pct": 0.0, "grn_pct": 0.0, "con_pct": 0.0, "ref_pct": 0.0, "minority_pct": 0.55782990381346609, "compactness": 0.13530950281292575 }, "geometry": { "type": "Polygon", "coordinates": [ [ [ -92.408349, 30.053721 ], [ -92.484671, 30.064787 ], [ -92.55391, 30.115603 ], [ -92.624476, 30.089711 ], [ -92.628578, 30.134815 ], [ -92.607896, 30.160402 ], [ -92.629943, 30.18545 ], [ -92.665349, 30.185687 ], [ -92.659214, 30.231588 ], [ -92.723681, 30.231478 ], [ -92.732675, 30.179118 ], [ -92.774604, 30.15143 ], [ -92.817342, 30.146564 ], [ -92.817273, 30.217431 ], [ -92.877878, 30.21702 ], [ -92.878368, 30.275628 ], [ -93.030736, 30.275209 ], [ -93.030955, 30.37939 ], [ -93.089675, 30.382276 ], [ -93.087674, 30.394186 ], [ -93.042755, 30.410597 ], [ -93.014173, 30.437725 ], [ -93.037327, 30.440192 ], [ -93.04503, 30.466598 ], [ -93.022549, 30.483899 ], [ -93.019836, 30.516092 ], [ -93.002914, 30.529887 ], [ -93.015275, 30.568614 ], [ -93.047765, 30.59833 ], [ -93.171142, 30.594633 ], [ -93.173317, 30.616785 ], [ -93.142612, 30.625809 ], [ -93.148941, 30.659864 ], [ -93.136033, 30.676234 ], [ -93.173337, 30.695243 ], [ -93.166996, 30.737674 ], [ -93.183708, 30.737658 ], [ -93.183662, 30.765841 ], [ -93.170191, 30.773167 ], [ -93.181592, 30.80697 ], [ -93.150352, 30.802956 ], [ -93.150445, 30.833596 ], [ -93.08726, 30.82965 ], [ -93.092628, 30.804674 ], [ -92.977146, 30.751571 ], [ -92.978453, 30.878175 ], [ -92.901699, 30.876823 ], [ -92.938718, 30.856281 ], [ -92.94105, 30.828574 ], [ -92.927628, 30.817902 ], [ -92.789757, 30.817679 ], [ -92.789698, 30.891639 ], [ -92.548091, 30.90313 ], [ -92.519018, 30.893072 ], [ -92.482531, 30.914067 ], [ -92.455498, 30.886123 ], [ -92.433828, 30.894423 ], [ -92.45892, 30.870033 ], [ -92.431544, 30.848379 ], [ -92.389755, 30.850868 ], [ -92.379038, 30.839993 ], [ -92.388415, 30.804037 ], [ -92.35156, 30.816592 ], [ -92.34887, 30.859245 ], [ -92.304496, 30.903855 ], [ -92.3146, 30.918893 ], [ -92.280716, 30.938761 ], [ -92.238219, 30.892208 ], [ -92.237698, 30.84821 ], [ -92.124878, 30.849942 ], [ -92.125852, 30.799432 ], [ -92.086516, 30.776162 ], [ -92.058293, 30.795229 ], [ -91.990763, 30.772997 ], [ -91.993997, 30.794669 ], [ -91.956981, 30.794607 ], [ -91.940605, 30.80134 ], [ -91.943746, 30.817562 ], [ -91.906443, 30.81953 ], [ -91.860476, 30.845855 ], [ -91.846766, 30.832865 ], [ -91.863904, 30.798898 ], [ -91.84157, 30.772389 ], [ -91.85123, 30.759102 ], [ -91.809777, 30.761575 ], [ -91.772623, 30.70266 ], [ -91.770572, 30.69335 ], [ -91.791081, 30.694488 ], [ -91.79809, 30.653443 ], [ -91.770096, 30.665612 ], [ -91.752633, 30.645334 ], [ -91.726285, 30.690341 ], [ -91.618054, 30.600859 ], [ -91.538636, 30.60576 ], [ -91.544258, 30.576361 ], [ -91.576761, 30.554535 ], [ -91.529382, 30.53226 ], [ -91.528081, 30.50941 ], [ -91.538036, 30.510241 ], [ -91.525855, 30.497063 ], [ -91.583656, 30.48259 ], [ -91.58337, 30.497005 ], [ -91.756193, 30.497738 ], [ -91.739685, 30.453044 ], [ -91.718679, 30.448898 ], [ -91.678896, 30.394731 ], [ -91.81271, 30.39426 ], [ -91.801629, 30.361326 ], [ -91.82942, 30.35975 ], [ -91.832383, 30.313786 ], [ -91.792523, 30.305958 ], [ -91.782997, 30.325728 ], [ -91.644643, 30.363501 ], [ -91.625483, 30.354209 ], [ -91.621055, 30.309938 ], [ -91.589959, 30.277047 ], [ -91.588039, 30.257113 ], [ -91.56276, 30.241949 ], [ -91.475303, 30.229491 ], [ -91.490295, 30.201568 ], [ -91.471797, 30.186266 ], [ -91.464822, 30.12283 ], [ -91.349329, 30.164267 ], [ -91.323864, 30.127162 ], [ -91.323478, 30.138665 ], [ -91.301295, 30.140044 ], [ -91.276278, 30.126395 ], [ -91.278223, 30.077718 ], [ -91.22051, 30.044501 ], [ -91.22339, 30.025681 ], [ -91.176746, 30.040347 ], [ -91.196988, 29.999675 ], [ -91.149429, 29.998913 ], [ -91.126073, 30.015357 ], [ -91.090051, 30.003478 ], [ -91.089329, 30.076593 ], [ -90.997712, 30.074227 ], [ -91.013616, 30.096889 ], [ -91.001717, 30.102793 ], [ -91.046422, 30.116717 ], [ -91.003379, 30.141264 ], [ -91.006871, 30.170532 ], [ -90.986474, 30.184826 ], [ -90.954766, 30.157727 ], [ -90.971797, 30.147529 ], [ -90.95386, 30.108076 ], [ -90.97671, 30.110049 ], [ -90.98339, 30.094322 ], [ -90.968232, 30.084745 ], [ -90.947546, 30.084182 ], [ -90.921088, 30.114988 ], [ -90.869262, 30.121713 ], [ -90.868957, 30.066995 ], [ -90.850347, 30.05945 ], [ -90.886459, 30.023479 ], [ -90.88639, 29.994127 ], [ -90.846893, 29.945409 ], [ -90.846115, 29.921569 ], [ -90.883605, 29.924934 ], [ -90.885589, 29.905353 ], [ -90.795406, 29.907242 ], [ -90.773949, 29.884368 ], [ -90.729745, 29.877493 ], [ -90.719548, 29.855233 ], [ -90.753988, 29.858336 ], [ -90.795065, 29.839802 ], [ -90.80593, 29.798089 ], [ -90.778518, 29.780745 ], [ -90.804692, 29.749509 ], [ -90.784292, 29.744609 ], [ -90.765152, 29.693859 ], [ -90.707832, 29.66538 ], [ -90.752649, 29.631658 ], [ -90.771391, 29.651912 ], [ -90.760091, 29.630212 ], [ -90.771945, 29.615905 ], [ -90.729929, 29.590715 ], [ -90.771191, 29.60682 ], [ -90.719828, 29.56956 ], [ -90.68292, 29.57096 ], [ -90.646237, 29.491472 ], [ -90.656118, 29.469528 ], [ -90.697805, 29.487028 ], [ -90.702848, 29.439291 ], [ -90.720512, 29.442745 ], [ -90.722566, 29.430049 ], [ -90.762593, 29.461261 ], [ -90.813481, 29.468388 ], [ -90.822068, 29.451502 ], [ -91.06473, 29.484426 ], [ -91.102186, 29.454637 ], [ -91.119103, 29.458321 ], [ -91.192088, 29.426368 ], [ -91.196664, 29.411696 ], [ -91.213419, 29.417498 ], [ -91.235419, 29.374072 ], [ -91.269338, 29.358217 ], [ -91.291821, 29.311357 ], [ -91.33826, 29.308928 ], [ -91.349847, 29.322608 ], [ -91.340644, 29.329966 ], [ -91.352963, 29.331499 ], [ -91.354272, 29.239606 ], [ -91.421128, 29.302828 ], [ -91.644044, 29.375555 ], [ -91.712193, 29.360626 ], [ -91.77749, 29.396084 ], [ -91.832768, 29.362562 ], [ -91.875032, 29.361992 ], [ -91.906348, 29.387404 ], [ -91.913207, 29.420207 ], [ -92.022754, 29.470636 ], [ -92.044378, 29.499325 ], [ -92.042892, 29.578134 ], [ -92.009765, 29.598395 ], [ -91.980701, 29.643738 ], [ -91.969648, 29.816888 ], [ -91.972585, 29.837032 ], [ -92.074361, 29.804871 ], [ -92.072061, 29.832825 ], [ -92.092885, 29.842679 ], [ -92.089706, 29.882785 ], [ -92.072945, 29.88296 ], [ -92.092434, 29.916264 ], [ -92.069992, 29.926696 ], [ -92.073838, 29.943256 ], [ -92.056578, 29.965514 ], [ -92.07339, 29.969895 ], [ -92.06533, 30.004459 ], [ -92.045914, 30.02099 ], [ -92.023227, 30.021289 ], [ -92.023322, 30.0496 ], [ -92.072848, 30.080963 ], [ -92.088421, 30.128299 ], [ -92.114158, 30.120228 ], [ -92.107812, 30.094074 ], [ -92.130978, 30.094006 ], [ -92.10523, 30.166903 ], [ -92.175675, 30.159226 ], [ -92.175294, 30.108358 ], [ -92.242561, 30.108218 ], [ -92.243816, 30.035344 ], [ -92.233018, 30.035237 ], [ -92.253641, 30.020598 ], [ -92.241862, 30.020627 ], [ -92.241914, 30.006086 ], [ -92.274973, 30.005828 ], [ -92.259643, 30.005336 ], [ -92.258587, 29.99151 ], [ -92.283603, 29.969714 ], [ -92.308874, 29.970432 ], [ -92.308503, 29.948547 ], [ -92.411689, 29.949209 ], [ -92.40504, 30.040286 ], [ -92.408349, 30.053721 ] ] ] } }
]
}
