{
"type": "FeatureCollection",
"name": "maine_optimized_districts_county",
"crs": { "type": "name", "properties": { "name": "urn:ogc:def:crs:OGC:1.3:CRS84" } },
"features": [
{ "type": "Feature", "properties": { "district_id": 0, "voting_age_pop": 543808, "lib_votes": 0, "grn_votes": 0, "con_votes": 0, "ref_votes": 0, "total_pop": 680113, "dem_votes_sum": 158062, "rep_votes_sum": 181032, "lib_votes_sum": 0, "grn_votes_sum": 0, "con_votes_sum": 0, "ref_votes_sum": 0, "minority_pop_sum": 36654, "dem_pct": 0.46613033554117739, "rep_pct": 0.53386966445882267, "lib_pct": 0.0, "grn_pct": 0.0, "con_pct": 0.0, "ref_pct": 0.0, "minority_pct": 0.053893985264213448, "compactness": 0.20957752264985685 }, "geometry": { "type": "MultiPolygon", "coordinates": [ [ [ [ -69.993792420921281, 44.180594301333336 ], [ -70.060497972643219, 44.191775141140319 ], [ -70.055464937049933, 44.199091802971758 ], [ -70.07574709612166, 44.206168130488031 ], [ -70.074464475490089, 44.298470637910796 ], [ -70.132619418843234, 44.371380417534446 ], [ -70.18361410044561, 44.368811970777053 ], [ -70.187903186727908, 44.343167693623172 ], [ -70.265222588275435, 44.362913445689834 ], [ -70.276751874245249, 44.407533798681172 ], [ -70.304263248161703, 44.410409914111654 ], [ -70.330660260188182, 44.435556275183643 ], [ -70.360326019103923, 44.475750581657024 ], [ -70.34891376968433, 44.484956176215846 ], [ -70.423772460347536, 44.519274810199228 ], [ -70.505847533448915, 44.530393522776791 ], [ -70.546875666449225, 44.555835587518267 ], [ -70.592329727593935, 44.616013842370251 ], [ -70.655334504748481, 44.590802070232307 ], [ -70.769228457277848, 44.732227829919829 ], [ -70.773902364773477, 44.839776934229157 ], [ -70.796412096898919, 44.925876525835307 ], [ -70.928561935615903, 44.910186082923182 ], [ -70.947514692765409, 45.00163504444712 ], [ -71.058247175921949, 44.990514831902239 ], [ -71.083923738308044, 45.305451121434032 ], [ -71.008487367546806, 45.319243194189127 ], [ -71.010618855169355, 45.347677283118294 ], [ -70.984996730524145, 45.33190951717819 ], [ -70.95156089522682, 45.338822949649838 ], [ -70.917949432032941, 45.311695010170034 ], [ -70.921480132054697, 45.27937425194505 ], [ -70.897002644870241, 45.241873534797001 ], [ -70.857420794608018, 45.229183981075153 ], [ -70.836714158248611, 45.236261158341442 ], [ -70.848926465276364, 45.26304174183403 ], [ -70.831954294524948, 45.27895098925265 ], [ -70.83553605001272, 45.293804471396157 ], [ -70.808441873717101, 45.311821232402679 ], [ -70.819930989168213, 45.340663879187431 ], [ -70.802715608533532, 45.367126593881636 ], [ -70.825662925292733, 45.400179601210944 ], [ -70.798207294575164, 45.426480600649811 ], [ -70.754500891720681, 45.428389192324076 ], [ -70.712111862496783, 45.390574435807203 ], [ -70.67818450783524, 45.394282572420721 ], [ -70.651884442345306, 45.377041393306008 ], [ -70.634891660527686, 45.383492393225801 ], [ -70.621461931910133, 45.402501199317008 ], [ -70.635744250822071, 45.413000085136773 ], [ -70.629916260640641, 45.426342350619741 ], [ -70.650683900145978, 45.444915241427253 ], [ -70.681155621426157, 45.452175795129243 ], [ -70.692094548270475, 45.474656876553645 ], [ -70.716400537123079, 45.486495298902867 ], [ -70.722427049633623, 45.513867222587876 ], [ -70.677282064968679, 45.551979492630068 ], [ -70.687720138852171, 45.569355376341676 ], [ -70.644875224358557, 45.606785865644859 ], [ -70.591133466996098, 45.63028829024087 ], [ -70.558200471125758, 45.666647212495938 ], [ -70.526031135771248, 45.666455978465251 ], [ -70.465551796412541, 45.706473939874876 ], [ -70.439176317566222, 45.703888516862186 ], [ -70.40049404869157, 45.719742810535763 ], [ -70.384015287446488, 45.734245990175239 ], [ -70.416971162922849, 45.795533335044873 ], [ -70.396232615844227, 45.798668920604818 ], [ -70.370804785524214, 45.83522720289767 ], [ -70.307795990757356, 45.858908516202703 ], [ -70.258826420147912, 45.891190196945452 ], [ -70.263038605968447, 45.924040745983746 ], [ -70.239136180249915, 45.943914585992694 ], [ -70.275615655505376, 45.966806416551499 ], [ -70.316109780233148, 45.963143011977074 ], [ -70.28398465623431, 45.99544661396164 ], [ -70.302773440730405, 45.998987126009645 ], [ -70.318037602155741, 46.019027004379595 ], [ -70.278355718315893, 46.056419797231008 ], [ -70.310855085187555, 46.063886421356408 ], [ -70.301910916487969, 46.082574310969314 ], [ -70.285952353480411, 46.099923036151793 ], [ -70.252897393172731, 46.100344190795283 ], [ -70.236240078925093, 46.145148722281931 ], [ -70.292240694499483, 46.191429165243825 ], [ -70.231687546388613, 46.291026248444027 ], [ -70.205927390710357, 46.299688848014796 ], [ -70.20898903593654, 46.329527299698448 ], [ -70.191224347045392, 46.350233531644776 ], [ -70.126939916795209, 46.370864889611532 ], [ -70.096752796147442, 46.409542594725906 ], [ -70.056537840625666, 46.415555083899967 ], [ -69.997212591661921, 46.695401972767613 ], [ -69.224496319963521, 47.459853978363292 ], [ -69.1223062951088, 47.442763750508746 ], [ -69.090492365663096, 47.424198737667552 ], [ -69.063079646701638, 47.434083501653703 ], [ -69.052817365556905, 47.422346182948317 ], [ -69.043387314408818, 47.426786196278684 ], [ -69.030682646265646, 47.407408382911498 ], [ -69.054924465965726, 47.377579478841518 ], [ -69.050817144182105, 47.256491737354629 ], [ -68.900084534147354, 47.177718751342127 ], [ -68.811528578711545, 47.215130863917302 ], [ -68.717023686790824, 47.240541418812896 ], [ -68.687235843312124, 47.244432274902316 ], [ -68.659876600669406, 47.236098302704868 ], [ -68.617277566080247, 47.243446108221626 ], [ -68.577815713568356, 47.287628950096121 ], [ -68.549931342357723, 47.282101333104855 ], [ -68.518657606535641, 47.295755191083153 ], [ -68.47481216057588, 47.297159846194674 ], [ -68.448899995089363, 47.282001947158179 ], [ -68.377968555572977, 47.287379834784467 ], [ -68.384641562756386, 47.326032155207706 ], [ -68.363064055222978, 47.354708739719221 ], [ -68.234512682423698, 47.355294531929019 ], [ -68.214575258075854, 47.33960161170608 ], [ -68.154879953364926, 47.325184594058982 ], [ -68.135927516286642, 47.295632145948694 ], [ -67.957275697840359, 47.199594179008599 ], [ -67.882894643126832, 47.104317197449156 ], [ -67.790327548439009, 47.067201824474502 ], [ -67.781209882073256, 45.943588887803159 ], [ -67.75072479181452, 45.917509160969843 ], [ -67.803778108620961, 45.882740705965048 ], [ -67.796945235592432, 45.86013144786299 ], [ -67.755256329883466, 45.823349220617274 ], [ -67.778040345885287, 45.819229855338627 ], [ -67.806120966644258, 45.794891827587158 ], [ -67.806143982811832, 45.755315768182385 ], [ -67.781795855646521, 45.731116594391253 ], [ -67.80962208027259, 45.729573773266146 ], [ -67.802933666379161, 45.696088247703891 ], [ -67.818007844803034, 45.693819481992342 ], [ -67.803502505338059, 45.677696400281206 ], [ -67.744381376705562, 45.672993429409722 ], [ -67.72722320126222, 45.662668500058281 ], [ -67.717957043780103, 45.66764139945078 ], [ -67.734632381426366, 45.688979458015275 ], [ -67.709465888170143, 45.6813801801907 ], [ -67.675156272855176, 45.630933172689765 ], [ -67.645562717372599, 45.613281675596824 ], [ -67.638891052002478, 45.625074684546171 ], [ -67.608505429846588, 45.606197980590366 ], [ -67.51921619710042, 45.587568246702325 ], [ -67.499005808258389, 45.586642851177032 ], [ -67.49333358485282, 45.60129837768045 ], [ -67.449977210854158, 45.602464402118244 ], [ -67.423285869322498, 45.571567436797977 ], [ -67.434954843412498, 45.528216541832883 ], [ -67.416261660103586, 45.501355886311245 ], [ -67.450155988089392, 45.510345014285996 ], [ -67.45136239736334, 45.498916377635723 ], [ -67.463598889254996, 45.508379872966486 ], [ -67.465232912883607, 45.496155734026708 ], [ -67.5037051226779, 45.48666144658015 ], [ -67.473671906726736, 45.424452398138811 ], [ -67.419286462606678, 45.377121627945563 ], [ -67.434535165213376, 45.36489628756631 ], [ -67.428871934073896, 45.344227799659564 ], [ -67.4569703259329, 45.325158848975271 ], [ -67.460311916416714, 45.300017863404754 ], [ -67.489631752075312, 45.282122899263676 ], [ -67.439288309267766, 45.226297915434237 ], [ -67.429102724352092, 45.193338353555923 ], [ -67.400448938755432, 45.17760173138408 ], [ -67.404936103082008, 45.159967209505155 ], [ -67.340923854386304, 45.125091559583268 ], [ -67.295880858042693, 45.147967673080892 ], [ -67.302689131540532, 45.160783985332117 ], [ -67.283535686354696, 45.191823451687 ], [ -67.227193545037778, 45.163462440350301 ], [ -67.20511306953955, 45.171516024623976 ], [ -67.15887109739235, 45.162034562619127 ], [ -67.112587012344974, 45.112570451137259 ], [ -67.021641323021328, 44.953925476210351 ], [ -66.968843337478816, 44.910418763505 ], [ -66.98216476438111, 44.867220001415895 ], [ -66.974768571529481, 44.84151400196631 ], [ -66.885444048312436, 44.794208352976852 ], [ -66.902228293723695, 44.776428075796041 ], [ -66.952269380548103, 44.760421467626607 ], [ -67.140855301404386, 44.608267525979628 ], [ -67.235872156532537, 44.558141254685061 ], [ -67.30082044967601, 44.549858124390532 ], [ -67.335983660043695, 44.522697511452641 ], [ -67.443396914590949, 44.505279772252116 ], [ -67.444228009527833, 44.481127946372453 ], [ -67.473027526669028, 44.448341704648584 ], [ -67.567584828880797, 44.397211280554629 ], [ -67.627413664093709, 44.383473985633607 ], [ -67.674641418038448, 44.394637182172801 ], [ -67.715329242342463, 44.386499911567341 ], [ -67.774750136518605, 44.411311958731211 ], [ -67.805569959777117, 44.391012962670722 ], [ -67.795262022966412, 44.361163718840416 ], [ -67.823728552850582, 44.327037789044873 ], [ -67.874443011481347, 44.316925342817179 ], [ -67.925177982470387, 44.341433916993317 ], [ -67.999446365393553, 44.280195164239814 ], [ -68.128280099789237, 44.264253289422768 ], [ -68.122626297023331, 44.226041391386019 ], [ -68.170749714964103, 44.190113675041168 ], [ -68.18006313110061, 44.118434108537862 ], [ -68.223908807978049, 44.091946517513229 ], [ -68.263136537276623, 44.090617173386235 ], [ -68.303483267950469, 44.056180290291898 ], [ -68.368796667403998, 44.045220002471638 ], [ -68.436843760571733, 44.053233076524592 ], [ -68.484945243029429, 44.02830895727535 ], [ -68.54727685675303, 43.968623121279194 ], [ -68.585076823279906, 43.954311416242305 ], [ -68.659586480127089, 43.947989568564026 ], [ -68.707190923813343, 43.963828205871152 ], [ -68.81553697226677, 43.952187766841249 ], [ -68.878599439321832, 43.970139751124812 ], [ -68.980641292508707, 43.95939381995197 ], [ -68.938732814174656, 43.912564760116865 ], [ -68.899195130922664, 43.934375028843569 ], [ -68.862493927899365, 43.938987122115748 ], [ -68.822877384953387, 43.925499190396238 ], [ -68.804347803299748, 43.902977864092776 ], [ -68.780811725501152, 43.931058009697949 ], [ -68.735168942288851, 43.943723955368114 ], [ -68.695994812760006, 43.934861445658314 ], [ -68.673291746670159, 43.916372877248243 ], [ -68.663789329815231, 43.893926218684328 ], [ -68.675395729299652, 43.862824993883741 ], [ -68.71275384313833, 43.83839880912543 ], [ -68.749473443667483, 43.832533712919201 ], [ -68.785324945343746, 43.804339269074489 ], [ -68.786139719477518, 43.768365932130912 ], [ -68.805361716887532, 43.745985093550551 ], [ -68.836166822093418, 43.733585483685623 ], [ -68.912906718981318, 43.74441589770538 ], [ -68.94983621905061, 43.780169991338738 ], [ -68.999483013611368, 43.791642896835853 ], [ -69.024295833259174, 43.819844772582726 ], [ -69.022785017804239, 43.842507590967237 ], [ -69.055895006616595, 43.858914528513644 ], [ -69.083005819006615, 43.825647165907732 ], [ -69.149825750622782, 43.795735980576239 ], [ -69.197199192671377, 43.795992699868755 ], [ -69.236554811048094, 43.825626078268741 ], [ -69.262341266578872, 43.815373002435543 ], [ -69.242535822041901, 43.799759120978656 ], [ -69.233380277267258, 43.762313151597453 ], [ -69.252479309327242, 43.733239465688598 ], [ -69.297855714443415, 43.707694078762991 ], [ -69.345918398795945, 43.707230087168284 ], [ -69.384360653253651, 43.731755582372287 ], [ -69.397210194521691, 43.763369361308371 ], [ -69.387279672967978, 43.799013652862712 ], [ -69.409270589563377, 43.810817545070279 ], [ -69.505785340160401, 43.778454101125654 ], [ -69.519090543362182, 43.732123505235379 ], [ -69.550938045977944, 43.707141580585287 ], [ -69.617288056956752, 43.699815445491474 ], [ -69.664745504998493, 43.711749647234591 ], [ -69.719209734184119, 43.661745008920256 ], [ -69.785621082700189, 43.657904343697226 ], [ -69.763599553408127, 43.733457180323143 ], [ -69.8049854383558, 43.816071421258961 ], [ -69.79542051700551, 43.87849362207227 ], [ -69.810475710881718, 43.882570037263015 ], [ -69.833626632186892, 43.868051640725021 ], [ -69.828598480131063, 43.888661585923337 ], [ -69.841766416635139, 43.887516418232217 ], [ -69.831342802113682, 43.904740153612295 ], [ -69.874657040681328, 43.953589871373552 ], [ -69.864769680133648, 43.975296104018376 ], [ -69.880301859405876, 43.984568144528026 ], [ -69.889171022115249, 43.966591490232631 ], [ -69.910889986331341, 43.987236506656593 ], [ -69.935304120285338, 43.991378937959816 ], [ -69.897782813629377, 44.107661633847187 ], [ -70.027385553350612, 44.130576831875253 ], [ -69.993792420921281, 44.180594301333336 ] ], [ [ -69.646713486430528, 45.863937273942938 ], [ -69.674430924727147, 45.862246938768664 ], [ -69.683432849463372, 45.850960715799211 ], [ -69.697884828161861, 45.885723577233215 ], [ -69.738133225769346, 45.883130527753806 ], [ -69.724535891806966, 45.865787962048699 ], [ -69.711533478466976, 45.860784341712851 ], [ -69.704265316081177, 45.846135897065736 ], [ -69.712075298019954, 45.832235541961587 ], [ -69.720033652182465, 45.834917358318755 ], [ -69.725804921470242, 45.834381308141786 ], [ -69.708637874832846, 45.811496924757122 ], [ -69.722824991759325, 45.783303418211446 ], [ -69.737910107568837, 45.782540934152621 ], [ -69.726361862229808, 45.762309303490099 ], [ -69.736775530616228, 45.754632493858757 ], [ -69.751440628989073, 45.765913919760976 ], [ -69.768522510347211, 45.761322425936633 ], [ -69.783157937862882, 45.784773437161483 ], [ -69.801994164529276, 45.786190892856702 ], [ -69.800044919775743, 45.783648359775576 ], [ -69.784137680544546, 45.782251020014868 ], [ -69.789547820048654, 45.777861916531201 ], [ -69.782099565635164, 45.769632479621237 ], [ -69.79465551149589, 45.75747134531926 ], [ -69.788137626000662, 45.746864093014452 ], [ -69.81742762447152, 45.746941809750467 ], [ -69.833105127578108, 45.738592855439819 ], [ -69.791525029375975, 45.728317073174956 ], [ -69.815096470543494, 45.721418731047983 ], [ -69.790244245843198, 45.710342321913139 ], [ -69.78275690763229, 45.690583024011268 ], [ -69.756194638025548, 45.679632370855522 ], [ -69.738630855227143, 45.679310737961799 ], [ -69.744201614541026, 45.652213408091946 ], [ -69.722695695795693, 45.657486500435951 ], [ -69.691849251222877, 45.645125705613204 ], [ -69.716321226913848, 45.647639150610011 ], [ -69.718405776583211, 45.639853762737225 ], [ -69.701593803238282, 45.62781598679959 ], [ -69.719286868748938, 45.614632061469848 ], [ -69.721172079441047, 45.603422958192454 ], [ -69.714770720256098, 45.585357681306597 ], [ -69.683778211613657, 45.586816543378831 ], [ -69.69817077587274, 45.560081931543323 ], [ -69.678960790373125, 45.532519425189257 ], [ -69.6597235940243, 45.516862210518511 ], [ -69.653821071093333, 45.515437968671456 ], [ -69.664926617247716, 45.506804786432951 ], [ -69.662586518555472, 45.502587850593507 ], [ -69.649628105286865, 45.508630036133646 ], [ -69.652432896650865, 45.503991967452478 ], [ -69.652539893780542, 45.500822954564853 ], [ -69.650697176711404, 45.500099873365727 ], [ -69.658493670983461, 45.49991567614105 ], [ -69.661524912648588, 45.492683738760995 ], [ -69.658985377985431, 45.497662554613761 ], [ -69.653286960157359, 45.497906812728225 ], [ -69.644520241396108, 45.501093514671339 ], [ -69.643367015408316, 45.503057764185861 ], [ -69.60986829191458, 45.496643691276411 ], [ -69.625022484248532, 45.493627401175793 ], [ -69.628194583512467, 45.485040895646641 ], [ -69.627697560418866, 45.479714930698663 ], [ -69.620291442830165, 45.469899095328998 ], [ -69.595187125129186, 45.474281225331247 ], [ -69.596796654770927, 45.489534313966089 ], [ -69.570096562199083, 45.512835130138726 ], [ -69.593332284558144, 45.522253482809546 ], [ -69.606643541101235, 45.520792894505995 ], [ -69.616585226399962, 45.533818261881883 ], [ -69.610946452771358, 45.53541475098725 ], [ -69.610157109248007, 45.541440694950346 ], [ -69.613287720348296, 45.539929749742996 ], [ -69.613344300287352, 45.540973570403274 ], [ -69.600158327380726, 45.543014846754424 ], [ -69.580088522103239, 45.550665926647305 ], [ -69.574900276545009, 45.540327421832231 ], [ -69.547579982008514, 45.532513690835785 ], [ -69.548829596671908, 45.541454775102963 ], [ -69.566963425924811, 45.561096537423261 ], [ -69.57076518102609, 45.561464650120897 ], [ -69.573425615701993, 45.559457594048219 ], [ -69.57631675406067, 45.564015576809666 ], [ -69.548963003859186, 45.575676125843934 ], [ -69.552427197389761, 45.576046469783584 ], [ -69.550042443560159, 45.582241677750297 ], [ -69.550755693063536, 45.582346253367334 ], [ -69.552339644981345, 45.581006458317141 ], [ -69.552919773542357, 45.582772348376842 ], [ -69.544893663331692, 45.582221349055217 ], [ -69.538823179003401, 45.577052053623845 ], [ -69.53475722435779, 45.576873139002544 ], [ -69.531044329343615, 45.580153327930212 ], [ -69.529506186353331, 45.578918327623889 ], [ -69.530783752519895, 45.576347106135373 ], [ -69.52948213797626, 45.575678073519548 ], [ -69.524236846557031, 45.582007476550366 ], [ -69.527956994812342, 45.590514296836574 ], [ -69.511617819050088, 45.581988182873907 ], [ -69.509437318942545, 45.600566986599063 ], [ -69.582433375848694, 45.625812383665661 ], [ -69.593078987505621, 45.616014080127343 ], [ -69.587895287653794, 45.623804199349053 ], [ -69.615210832221976, 45.635073553437635 ], [ -69.597589016239098, 45.646764783801906 ], [ -69.600355528166176, 45.657591867392178 ], [ -69.593950502508903, 45.6529943849388 ], [ -69.587088783076865, 45.65394794480666 ], [ -69.571670904264181, 45.664615688036768 ], [ -69.568683301200835, 45.677713370915683 ], [ -69.547661336144017, 45.683986167345807 ], [ -69.556850196360458, 45.694450237109692 ], [ -69.540744106236204, 45.698852506400321 ], [ -69.567180749875234, 45.725168699885408 ], [ -69.572485897021934, 45.717352050685818 ], [ -69.573629702027532, 45.708818046062959 ], [ -69.58706195631305, 45.711886598269949 ], [ -69.588262671833292, 45.691048005409854 ], [ -69.593189924954643, 45.699159285550714 ], [ -69.603801841074159, 45.698923678452907 ], [ -69.613661521502536, 45.668488752333516 ], [ -69.638399495010205, 45.679235246285344 ], [ -69.677285318632045, 45.663160784370739 ], [ -69.671063160136569, 45.703579856495729 ], [ -69.680652936652535, 45.706371886216829 ], [ -69.684835389463188, 45.70354763445831 ], [ -69.685398964899306, 45.696217576706502 ], [ -69.681254436743842, 45.688168606613672 ], [ -69.686421730701866, 45.681882082198157 ], [ -69.71889552344895, 45.700471621095289 ], [ -69.730361797039919, 45.694039799987287 ], [ -69.731198146074092, 45.686793263799643 ], [ -69.748716104360085, 45.695689649846358 ], [ -69.75288185221099, 45.712808856435835 ], [ -69.734715800309573, 45.710244882725938 ], [ -69.730101072153374, 45.697938830254408 ], [ -69.718059949595755, 45.701457966875999 ], [ -69.723106566624665, 45.73450860417055 ], [ -69.693271726907824, 45.76467506267138 ], [ -69.672293292013322, 45.776352860076543 ], [ -69.653475581927694, 45.769243460289857 ], [ -69.648480348753736, 45.770086487882757 ], [ -69.643815665296884, 45.766940112003894 ], [ -69.638313230605974, 45.766790970240919 ], [ -69.652834444267896, 45.785115379818997 ], [ -69.646349286474376, 45.792447314742397 ], [ -69.634696821667134, 45.786900705713691 ], [ -69.642760939349586, 45.832673487299012 ], [ -69.624165577643964, 45.838942004501099 ], [ -69.617502766753361, 45.856758891259879 ], [ -69.639524838615884, 45.873491333560679 ], [ -69.646713486430528, 45.863937273942938 ] ], [ [ -67.813736454498013, 45.267702654127675 ], [ -67.830642268273408, 45.260482359818326 ], [ -67.846473856472883, 45.280439311910385 ], [ -67.890819477467758, 45.274350610580868 ], [ -67.80025690530573, 45.246075270383393 ], [ -67.796295580790471, 45.253840186758495 ], [ -67.75241670869174, 45.257748324982614 ], [ -67.703152089925169, 45.215481943134932 ], [ -67.690281329276914, 45.231336262853603 ], [ -67.679356915563176, 45.2266725952691 ], [ -67.689760862768551, 45.24373212566767 ], [ -67.721256660450109, 45.244057597457015 ], [ -67.748237433774122, 45.29444226231135 ], [ -67.762296842878726, 45.29218185779208 ], [ -67.760677713802238, 45.258628931626099 ], [ -67.813736454498013, 45.267702654127675 ] ] ], [ [ [ -69.737201885066455, 45.657578328675669 ], [ -69.73677205120967, 45.659547799343379 ], [ -69.734969576561539, 45.659163371265201 ], [ -69.737201885066455, 45.657578328675669 ] ] ], [ [ [ -69.762901033021819, 45.683764183388 ], [ -69.762928295549017, 45.683466972851235 ], [ -69.763156807967263, 45.683627462104987 ], [ -69.762901033021819, 45.683764183388 ] ] ], [ [ [ -69.729439372345865, 45.693910678880151 ], [ -69.729051549869382, 45.693625129197144 ], [ -69.729753189734424, 45.693598146463685 ], [ -69.729439372345865, 45.693910678880151 ] ] ], [ [ [ -69.797906171429105, 45.724192811005459 ], [ -69.798099173085532, 45.723957465447917 ], [ -69.798225757165625, 45.724202890724264 ], [ -69.797906171429105, 45.724192811005459 ] ] ], [ [ [ -69.777734699317378, 45.741570928573502 ], [ -69.75565756486705, 45.7252971516603 ], [ -69.766736945858327, 45.71315324989812 ], [ -69.77681368009091, 45.721676452936286 ], [ -69.777734699317378, 45.741570928573502 ] ] ], [ [ [ -69.810052629930993, 45.738745129193646 ], [ -69.810071455427206, 45.738380464124575 ], [ -69.810212671687808, 45.738451468980131 ], [ -69.810052629930993, 45.738745129193646 ] ] ], [ [ [ -69.81859123696033, 45.739035298636004 ], [ -69.818796587143424, 45.739150839029222 ], [ -69.81859761187151, 45.739224271129146 ], [ -69.81859123696033, 45.739035298636004 ] ] ], [ [ [ -69.787980012702576, 45.744970523167858 ], [ -69.787565471394288, 45.745288408446463 ], [ -69.787272815753695, 45.744903392433748 ], [ -69.787980012702576, 45.744970523167858 ] ] ], [ [ [ -69.814798867244662, 45.746051510357958 ], [ -69.814894619616027, 45.745812307952448 ], [ -69.815187898227009, 45.745895723011699 ], [ -69.814798867244662, 45.746051510357958 ] ] ], [ [ [ -69.787127955748417, 45.749517281874766 ], [ -69.787413733024493, 45.749582820137412 ], [ -69.787229905633126, 45.749710095808688 ], [ -69.787127955748417, 45.749517281874766 ] ] ], [ [ [ -69.784226294055003, 45.750486816590374 ], [ -69.784208207037508, 45.750801967335271 ], [ -69.784063226929945, 45.750519438459044 ], [ -69.784226294055003, 45.750486816590374 ] ] ], [ [ [ -69.790032264304003, 45.751333389652473 ], [ -69.79029202150862, 45.751291091515888 ], [ -69.790197212032524, 45.751377254512377 ], [ -69.790032264304003, 45.751333389652473 ] ] ], [ [ [ -69.789263707769294, 45.754272950141598 ], [ -69.789411725475773, 45.754141415658545 ], [ -69.789668753022198, 45.754360157006353 ], [ -69.789263707769294, 45.754272950141598 ] ] ], [ [ [ -69.790848602281002, 45.75869485839366 ], [ -69.790790688714907, 45.758861772192425 ], [ -69.790731456721218, 45.758821680594004 ], [ -69.790848602281002, 45.75869485839366 ] ] ], [ [ [ -69.783745476762107, 45.766538448917522 ], [ -69.783974046941609, 45.765870826288896 ], [ -69.784431988933292, 45.766056698485066 ], [ -69.783745476762107, 45.766538448917522 ] ] ], [ [ [ -69.781059972936049, 45.769356067457508 ], [ -69.780908327184065, 45.768569540080641 ], [ -69.78222606722133, 45.768992559910608 ], [ -69.781059972936049, 45.769356067457508 ] ] ], [ [ [ -69.780578724484499, 45.770583455650673 ], [ -69.780858985610763, 45.770419526509741 ], [ -69.780907326560651, 45.770513704662555 ], [ -69.780578724484499, 45.770583455650673 ] ] ], [ [ [ -69.782534830036127, 45.771528651183836 ], [ -69.781505777266403, 45.771261173491652 ], [ -69.782705935796812, 45.77111794780464 ], [ -69.782534830036127, 45.771528651183836 ] ] ], [ [ [ -69.782528950023121, 45.774269414069977 ], [ -69.782573906228905, 45.774408617353927 ], [ -69.782371833856004, 45.774387498575166 ], [ -69.782528950023121, 45.774269414069977 ] ] ], [ [ [ -69.785912631334867, 45.777193922870843 ], [ -69.787501023751943, 45.777808535568333 ], [ -69.785811374084631, 45.77779766927096 ], [ -69.785912631334867, 45.777193922870843 ] ] ], [ [ [ -69.726756590017573, 45.777882550659044 ], [ -69.726277187077486, 45.777615579465362 ], [ -69.726760515266264, 45.777472994968122 ], [ -69.726756590017573, 45.777882550659044 ] ] ], [ [ [ -69.726171165030252, 45.778273304617599 ], [ -69.726284808648046, 45.77804756441369 ], [ -69.726381917410521, 45.778096450998788 ], [ -69.726171165030252, 45.778273304617599 ] ] ], [ [ [ -69.786198512646166, 45.778830088374242 ], [ -69.786179722903654, 45.778551195462207 ], [ -69.786415719655125, 45.778639576667516 ], [ -69.786198512646166, 45.778830088374242 ] ] ], [ [ [ -69.788206282939868, 45.783528126008321 ], [ -69.788020089199293, 45.783124380252403 ], [ -69.788157162859648, 45.783037926207633 ], [ -69.788206282939868, 45.783528126008321 ] ] ], [ [ [ -69.794072428658225, 45.783496507646475 ], [ -69.794549438806243, 45.783200669196752 ], [ -69.794996559893079, 45.783404575218945 ], [ -69.794072428658225, 45.783496507646475 ] ] ], [ [ [ -69.799435262444504, 45.784197168324695 ], [ -69.798770569750388, 45.784017300976437 ], [ -69.798873476797539, 45.783791564654358 ], [ -69.799435262444504, 45.784197168324695 ] ] ], [ [ [ -69.786627810547301, 45.784088048780959 ], [ -69.786634065876456, 45.784218516877864 ], [ -69.786499533851426, 45.784142936138842 ], [ -69.786627810547301, 45.784088048780959 ] ] ], [ [ [ -69.786064558607762, 45.784343946086999 ], [ -69.785381754471913, 45.784159625107648 ], [ -69.786112065610922, 45.784262611057784 ], [ -69.786064558607762, 45.784343946086999 ] ] ], [ [ [ -69.7922420184494, 45.784742310738842 ], [ -69.792104103204366, 45.78414472170941 ], [ -69.792401801418848, 45.784840212253251 ], [ -69.7922420184494, 45.784742310738842 ] ] ], [ [ [ -69.785965787536654, 45.784524637942376 ], [ -69.786138045505709, 45.784595458477241 ], [ -69.785874495491697, 45.784579270163682 ], [ -69.785965787536654, 45.784524637942376 ] ] ], [ [ [ -69.796026516406002, 45.78467550451699 ], [ -69.796171209101288, 45.784503482868097 ], [ -69.796375014088923, 45.784700076239304 ], [ -69.796026516406002, 45.78467550451699 ] ] ], [ [ [ -69.797235030444611, 45.784847090461966 ], [ -69.796659203820965, 45.784725098922259 ], [ -69.796719382445787, 45.784490662691795 ], [ -69.797235030444611, 45.784847090461966 ] ] ], [ [ [ -69.732257843362589, 45.878078516447573 ], [ -69.7335280410732, 45.877840855236791 ], [ -69.733813004690816, 45.878136044009018 ], [ -69.732257843362589, 45.878078516447573 ] ] ], [ [ [ -69.625742370322143, 45.489689955006249 ], [ -69.62610608233679, 45.489633954100476 ], [ -69.625943818686977, 45.489859872410335 ], [ -69.625742370322143, 45.489689955006249 ] ] ], [ [ [ -69.651142904940301, 45.500979446386118 ], [ -69.65082056447541, 45.500706746748023 ], [ -69.65112537162122, 45.500777019703655 ], [ -69.651142904940301, 45.500979446386118 ] ] ], [ [ [ -69.651877482981561, 45.501618837392087 ], [ -69.651873020208825, 45.501371331439522 ], [ -69.652041330162604, 45.501397373320223 ], [ -69.651877482981561, 45.501618837392087 ] ] ], [ [ [ -69.645193451054169, 45.502075340080857 ], [ -69.645394346436575, 45.502083205410536 ], [ -69.645348277416289, 45.502182480053641 ], [ -69.645193451054169, 45.502075340080857 ] ] ], [ [ [ -69.649100934143476, 45.508011954041088 ], [ -69.649317260489738, 45.507794700966073 ], [ -69.649374087176398, 45.507969898206596 ], [ -69.649100934143476, 45.508011954041088 ] ] ], [ [ [ -69.648775498664179, 45.508099315445328 ], [ -69.648981876030007, 45.508269164601245 ], [ -69.648749161787293, 45.508139968322951 ], [ -69.648775498664179, 45.508099315445328 ] ] ], [ [ [ -69.656582200883037, 45.508491263639492 ], [ -69.656776113118838, 45.508584658936073 ], [ -69.656717051372823, 45.50866601049681 ], [ -69.656582200883037, 45.508491263639492 ] ] ], [ [ [ -69.649156307872857, 45.509105277736296 ], [ -69.649311109359118, 45.509207910887334 ], [ -69.649168314954366, 45.509244727021681 ], [ -69.649156307872857, 45.509105277736296 ] ] ], [ [ [ -69.655722314667017, 45.511817618853385 ], [ -69.65606761799441, 45.511649114362839 ], [ -69.655948306898495, 45.511951338211638 ], [ -69.655722314667017, 45.511817618853385 ] ] ], [ [ [ -69.642605350258023, 45.517819401561297 ], [ -69.618968163191909, 45.513818416873768 ], [ -69.618220049693022, 45.50366469449277 ], [ -69.642605350258023, 45.517819401561297 ] ] ], [ [ [ -69.652808784834463, 45.513116968177449 ], [ -69.652480479675447, 45.512646284922205 ], [ -69.652632016739801, 45.51256890875549 ], [ -69.652808784834463, 45.513116968177449 ] ] ], [ [ [ -69.65913554892299, 45.518071755074722 ], [ -69.659400954196244, 45.518151235126993 ], [ -69.659296384681966, 45.518241849895844 ], [ -69.65913554892299, 45.518071755074722 ] ] ], [ [ [ -69.647182749735819, 45.520790931009202 ], [ -69.647403897205592, 45.520744673172473 ], [ -69.647299055057289, 45.520848780125689 ], [ -69.647182749735819, 45.520790931009202 ] ] ], [ [ [ -69.64660810960261, 45.520857192202868 ], [ -69.645799501549064, 45.521527848884645 ], [ -69.646034958042421, 45.520738920185501 ], [ -69.64660810960261, 45.520857192202868 ] ] ], [ [ [ -69.665351750426623, 45.601452965658638 ], [ -69.645313713059096, 45.592953968006654 ], [ -69.663783813164969, 45.57725838282304 ], [ -69.651125615577399, 45.550953674394599 ], [ -69.676978326125521, 45.565686630135282 ], [ -69.678489842878534, 45.594966981611343 ], [ -69.665351750426623, 45.601452965658638 ] ] ], [ [ [ -69.65622643066267, 45.579664815750945 ], [ -69.655548264251664, 45.579628206766458 ], [ -69.656175053301496, 45.5795525999253 ], [ -69.65622643066267, 45.579664815750945 ] ] ], [ [ [ -69.649424598870411, 45.59644556257642 ], [ -69.649767607320811, 45.596205083903669 ], [ -69.649902931568761, 45.596334830317012 ], [ -69.649424598870411, 45.59644556257642 ] ] ], [ [ [ -69.702444605384557, 45.599894253241679 ], [ -69.702699470439384, 45.599735168409282 ], [ -69.702744026748178, 45.599869908279281 ], [ -69.702444605384557, 45.599894253241679 ] ] ], [ [ [ -69.71737703238712, 45.600454025165313 ], [ -69.717576053018206, 45.600349263772053 ], [ -69.717572163368899, 45.600484304862206 ], [ -69.71737703238712, 45.600454025165313 ] ] ], [ [ [ -69.718958730148543, 45.601749226579884 ], [ -69.718984551953341, 45.601857075921295 ], [ -69.718871157192353, 45.601826284308558 ], [ -69.718958730148543, 45.601749226579884 ] ] ], [ [ [ -69.71053579085104, 45.602675022678092 ], [ -69.71156718544259, 45.601655992561064 ], [ -69.712208135381871, 45.602052541333371 ], [ -69.71053579085104, 45.602675022678092 ] ] ], [ [ [ -69.709920608152586, 45.602255801066725 ], [ -69.709656545543751, 45.602351953073217 ], [ -69.709880254482684, 45.602233548473556 ], [ -69.709920608152586, 45.602255801066725 ] ] ], [ [ [ -69.706205735419459, 45.602908896204049 ], [ -69.705268895356028, 45.602145099623812 ], [ -69.70544586048571, 45.601972988163254 ], [ -69.706205735419459, 45.602908896204049 ] ] ], [ [ [ -69.712522816013418, 45.602536632295788 ], [ -69.712867697362327, 45.60252548052874 ], [ -69.712449820889532, 45.602721608701032 ], [ -69.712522816013418, 45.602536632295788 ] ] ], [ [ [ -69.707859759510484, 45.604298312099409 ], [ -69.708563302503421, 45.604095927836056 ], [ -69.708536024110771, 45.604316622045801 ], [ -69.707859759510484, 45.604298312099409 ] ] ], [ [ [ -69.701313917672934, 45.60472572850037 ], [ -69.701862386806255, 45.604425327545158 ], [ -69.702392770641765, 45.604795609317499 ], [ -69.701313917672934, 45.60472572850037 ] ] ], [ [ [ -69.706866185697592, 45.605785127088851 ], [ -69.706065783991022, 45.605839582448951 ], [ -69.705850797590756, 45.605057823796031 ], [ -69.706866185697592, 45.605785127088851 ] ] ], [ [ [ -69.704446812894417, 45.606610158665148 ], [ -69.704667835509284, 45.606626797439567 ], [ -69.704497851324433, 45.606717856579493 ], [ -69.704446812894417, 45.606610158665148 ] ] ], [ [ [ -69.704504105455598, 45.607505403716722 ], [ -69.70478549091402, 45.607382154804014 ], [ -69.704854291460109, 45.607435736184073 ], [ -69.704504105455598, 45.607505403716722 ] ] ], [ [ [ -69.703342159617449, 45.607589072933948 ], [ -69.70371059486304, 45.607600304456213 ], [ -69.703356231644506, 45.607624990206553 ], [ -69.703342159617449, 45.607589072933948 ] ] ], [ [ [ -69.684426690428168, 45.626844515767971 ], [ -69.683833272061861, 45.627199106526035 ], [ -69.683854328834798, 45.626523910281804 ], [ -69.684426690428168, 45.626844515767971 ] ] ], [ [ [ -69.686361561939194, 45.629551193585016 ], [ -69.686462480921051, 45.631184256472082 ], [ -69.685452581376353, 45.628818572978957 ], [ -69.686361561939194, 45.629551193585016 ] ] ], [ [ [ -69.706093855177954, 45.636528169514847 ], [ -69.704979290630405, 45.636409042741477 ], [ -69.705478740976986, 45.636045925692407 ], [ -69.706093855177954, 45.636528169514847 ] ] ], [ [ [ -69.702940306308449, 45.638581832052004 ], [ -69.70239243271601, 45.638634704386874 ], [ -69.70249746428955, 45.637958992339847 ], [ -69.702940306308449, 45.638581832052004 ] ] ], [ [ [ -69.697038356375657, 45.640103149340675 ], [ -69.697335996973649, 45.640047326394154 ], [ -69.697293855153262, 45.640173597518924 ], [ -69.697038356375657, 45.640103149340675 ] ] ], [ [ [ -69.702632272571549, 45.639312801476393 ], [ -69.705084805390044, 45.640665831695124 ], [ -69.703704735273277, 45.641605938028093 ], [ -69.702632272571549, 45.639312801476393 ] ] ], [ [ [ -69.714846017312283, 45.643336949599529 ], [ -69.714365174394203, 45.643934018381557 ], [ -69.714274687625718, 45.642935480800368 ], [ -69.714846017312283, 45.643336949599529 ] ] ], [ [ [ -69.690894878644443, 45.651067584961652 ], [ -69.687252193342133, 45.648951840465095 ], [ -69.686081473068043, 45.644840957091986 ], [ -69.689931681213068, 45.646572949155342 ], [ -69.690894878644443, 45.651067584961652 ] ], [ [ -69.688552648832029, 45.649659582237909 ], [ -69.689744567106587, 45.649625390149438 ], [ -69.688469390361774, 45.649574575360312 ], [ -69.688552648832029, 45.649659582237909 ] ] ], [ [ [ -69.679194056427491, 45.667676897891859 ], [ -69.6793139532369, 45.66757267574377 ], [ -69.679298119537137, 45.667689780488487 ], [ -69.679194056427491, 45.667676897891859 ] ] ], [ [ [ -69.704095402794763, 45.672337109988071 ], [ -69.702791873761242, 45.672691670276336 ], [ -69.703981208705613, 45.672189298348741 ], [ -69.704095402794763, 45.672337109988071 ] ] ], [ [ [ -69.645847231002506, 45.674755956050632 ], [ -69.645533449363143, 45.674510207344518 ], [ -69.645863589989006, 45.674503840954664 ], [ -69.645847231002506, 45.674755956050632 ] ] ], [ [ [ -69.707397169597627, 45.675214993827773 ], [ -69.704926410803807, 45.674037652281136 ], [ -69.706361972977191, 45.673907271520875 ], [ -69.707397169597627, 45.675214993827773 ] ] ], [ [ [ -69.700616846582534, 45.675198273246771 ], [ -69.704088662579821, 45.674870897182174 ], [ -69.698875957146683, 45.67717112644057 ], [ -69.700616846582534, 45.675198273246771 ] ] ], [ [ [ -69.638908949275219, 45.678728350750617 ], [ -69.639135256994862, 45.678551568017355 ], [ -69.639140053931754, 45.678691054594147 ], [ -69.638908949275219, 45.678728350750617 ] ] ], [ [ [ -69.639399588560792, 45.678613094061269 ], [ -69.639403141290899, 45.678784089717304 ], [ -69.639251802800345, 45.678708431084068 ], [ -69.639399588560792, 45.678613094061269 ] ] ], [ [ [ -69.684104772885092, 45.680833876404634 ], [ -69.682793199413055, 45.680949733168369 ], [ -69.684148214158711, 45.680644598120786 ], [ -69.684104772885092, 45.680833876404634 ] ] ], [ [ [ -69.70889951627332, 45.687901400356424 ], [ -69.708733693704843, 45.687672907420911 ], [ -69.708968382015485, 45.687792962764242 ], [ -69.70889951627332, 45.687901400356424 ] ] ], [ [ [ -69.678914373049125, 45.688209541223245 ], [ -69.678265308154877, 45.688100884122889 ], [ -69.678573103106487, 45.687932542357927 ], [ -69.678914373049125, 45.688209541223245 ] ] ], [ [ [ -69.715657796326013, 45.694816919184824 ], [ -69.715381265798058, 45.694440616593155 ], [ -69.716074560013027, 45.694544283280962 ], [ -69.715657796326013, 45.694816919184824 ] ] ], [ [ [ -69.718682038935839, 45.697939228769748 ], [ -69.718962924772882, 45.697743943404056 ], [ -69.718995789915937, 45.697865247895329 ], [ -69.718682038935839, 45.697939228769748 ] ] ], [ [ [ -69.67634160422277, 45.702806163053189 ], [ -69.675976544182149, 45.702326778380332 ], [ -69.676602987754137, 45.702278066811303 ], [ -69.67634160422277, 45.702806163053189 ] ] ], [ [ [ -69.682106416092708, 45.703482953972149 ], [ -69.680763945100367, 45.702982414555727 ], [ -69.680555469305574, 45.702376101539606 ], [ -69.682106416092708, 45.703482953972149 ] ] ], [ [ [ -69.684099678910414, 45.703624048887256 ], [ -69.683953263129425, 45.70323788990617 ], [ -69.684284871335294, 45.703469926623931 ], [ -69.684099678910414, 45.703624048887256 ] ] ], [ [ [ -69.67520395017516, 45.703640966816891 ], [ -69.675471388045054, 45.703747396745015 ], [ -69.675220623556484, 45.703825387040609 ], [ -69.67520395017516, 45.703640966816891 ] ] ], [ [ [ -69.677360216245518, 45.703983736253633 ], [ -69.67755555672322, 45.704036582876824 ], [ -69.677322400560513, 45.704109972937907 ], [ -69.677360216245518, 45.703983736253633 ] ] ], [ [ [ -69.682589753367196, 45.704011114208001 ], [ -69.681591962125054, 45.704093576664548 ], [ -69.682832973497128, 45.703775641042327 ], [ -69.682589753367196, 45.704011114208001 ] ] ], [ [ [ -69.681662180286466, 45.705510790552154 ], [ -69.681722231690685, 45.705298912835943 ], [ -69.681820705823597, 45.705374833097096 ], [ -69.681662180286466, 45.705510790552154 ] ] ], [ [ [ -69.647387035494049, 45.773134931591656 ], [ -69.64757847866602, 45.772971830144542 ], [ -69.647719274838096, 45.773155548562436 ], [ -69.647387035494049, 45.773134931591656 ] ] ], [ [ [ -69.647833811503133, 45.773258409238707 ], [ -69.647938057691462, 45.773374826532972 ], [ -69.647802938649889, 45.773438596842169 ], [ -69.647833811503133, 45.773258409238707 ] ] ], [ [ [ -69.647174309078494, 45.773856194146376 ], [ -69.647029506242092, 45.773951519995634 ], [ -69.647062718130485, 45.773834323490057 ], [ -69.647174309078494, 45.773856194146376 ] ] ], [ [ [ -69.72565373210972, 45.777925563401823 ], [ -69.725959614668369, 45.777955122746093 ], [ -69.725730706751676, 45.778064585558937 ], [ -69.72565373210972, 45.777925563401823 ] ] ], [ [ [ -69.721989962744601, 45.77822329785878 ], [ -69.721563543480315, 45.778914545350013 ], [ -69.721394486824991, 45.778866108978093 ], [ -69.721989962744601, 45.77822329785878 ] ] ], [ [ [ -69.637328458789028, 45.790207314212815 ], [ -69.637041682039538, 45.790550938858736 ], [ -69.637049499289787, 45.790001852234163 ], [ -69.637328458789028, 45.790207314212815 ] ] ], [ [ [ -69.690662903954916, 45.822236766798845 ], [ -69.690616908657745, 45.82258356598156 ], [ -69.690538011222969, 45.82228702160868 ], [ -69.690662903954916, 45.822236766798845 ] ] ], [ [ [ -69.689669170418085, 45.84942914429179 ], [ -69.686689375244839, 45.848565031080902 ], [ -69.690426567812992, 45.84750294251522 ], [ -69.689669170418085, 45.84942914429179 ] ] ], [ [ [ -69.689474825787912, 45.850280875690565 ], [ -69.691029462813461, 45.850784516628195 ], [ -69.6904460078093, 45.851904119671957 ], [ -69.689474825787912, 45.850280875690565 ] ] ], [ [ [ -69.688786054611512, 45.851968141627964 ], [ -69.688887476213509, 45.851706511086 ], [ -69.689089452971217, 45.851732295890173 ], [ -69.688786054611512, 45.851968141627964 ] ] ], [ [ [ -69.69069366503345, 45.852433656323129 ], [ -69.690777202338538, 45.852158634031952 ], [ -69.690905387186604, 45.852238863490122 ], [ -69.69069366503345, 45.852433656323129 ] ] ], [ [ [ -69.665835414385967, 45.852635217878309 ], [ -69.664537045349832, 45.853457334607967 ], [ -69.664547945104871, 45.853155747727797 ], [ -69.665835414385967, 45.852635217878309 ] ] ], [ [ [ -69.691712405413227, 45.853926094656664 ], [ -69.691203499802626, 45.853884169498762 ], [ -69.691727591766409, 45.853754989631049 ], [ -69.691712405413227, 45.853926094656664 ] ] ], [ [ [ -69.659681319412528, 45.858278281713574 ], [ -69.659594516375591, 45.85795026503358 ], [ -69.659803342425889, 45.857976057546288 ], [ -69.659681319412528, 45.858278281713574 ] ] ], [ [ [ -69.659298270878494, 45.858600014202658 ], [ -69.659379391464896, 45.858379030872953 ], [ -69.659502366948303, 45.858463825820586 ], [ -69.659298270878494, 45.858600014202658 ] ] ], [ [ [ -69.661362672565005, 45.858574584114713 ], [ -69.660992981069654, 45.858392209490475 ], [ -69.661106099071787, 45.858256547188098 ], [ -69.661362672565005, 45.858574584114713 ] ] ], [ [ [ -69.658015911205908, 45.860151004468896 ], [ -69.658322697529243, 45.860153740358456 ], [ -69.658176824867809, 45.86031208908814 ], [ -69.658015911205908, 45.860151004468896 ] ] ], [ [ [ -69.67240094775569, 45.860697300618526 ], [ -69.67241424706144, 45.860197690903099 ], [ -69.672738478042405, 45.860177781268121 ], [ -69.67240094775569, 45.860697300618526 ] ] ], [ [ [ -69.723305442542923, 45.875682883362202 ], [ -69.723608246119241, 45.875464954512651 ], [ -69.723390007665827, 45.875745353764934 ], [ -69.723305442542923, 45.875682883362202 ] ] ], [ [ [ -69.712429323337503, 45.881561071241393 ], [ -69.712557779971235, 45.882599834857899 ], [ -69.712186204967963, 45.882831665397703 ], [ -69.712429323337503, 45.881561071241393 ] ] ], [ [ [ -69.59626535202473, 45.475792303003601 ], [ -69.596537177235405, 45.47586289317298 ], [ -69.596389564805293, 45.475931172840454 ], [ -69.59626535202473, 45.475792303003601 ] ] ], [ [ [ -69.605385377173434, 45.477148515524974 ], [ -69.603975430158329, 45.477921078770237 ], [ -69.605384615917004, 45.477040505405633 ], [ -69.605385377173434, 45.477148515524974 ] ] ], [ [ [ -69.607760196368091, 45.47720791204133 ], [ -69.605141590219247, 45.478765517000156 ], [ -69.604551013816376, 45.478764145448125 ], [ -69.607760196368091, 45.47720791204133 ] ] ], [ [ [ -69.606650420795361, 45.478451475309264 ], [ -69.606503943346809, 45.478438751394442 ], [ -69.606586522998768, 45.478384305823177 ], [ -69.606650420795361, 45.478451475309264 ] ] ], [ [ [ -69.608937524842958, 45.478862360872135 ], [ -69.608287422293671, 45.47871730442985 ], [ -69.609024806058869, 45.478501847554234 ], [ -69.608937524842958, 45.478862360872135 ] ] ], [ [ [ -69.608267673742787, 45.480040581567273 ], [ -69.607979645208673, 45.479767580064795 ], [ -69.608277234175546, 45.479702988385228 ], [ -69.608267673742787, 45.480040581567273 ] ] ], [ [ [ -69.59845802753749, 45.479952880207584 ], [ -69.598978147488921, 45.480058168060737 ], [ -69.598420510657036, 45.480110597320994 ], [ -69.59845802753749, 45.479952880207584 ] ] ], [ [ [ -69.607646240381342, 45.480183407329577 ], [ -69.607531220825479, 45.480382043185479 ], [ -69.607452783453013, 45.480301453375873 ], [ -69.607646240381342, 45.480183407329577 ] ] ], [ [ [ -69.606478631538664, 45.480887205528148 ], [ -69.606256582598945, 45.48139695056841 ], [ -69.605878983669911, 45.481272937654829 ], [ -69.606478631538664, 45.480887205528148 ] ] ], [ [ [ -69.605416831331169, 45.481765952000721 ], [ -69.60552005162107, 45.481733900762016 ], [ -69.605480851230169, 45.481770108749338 ], [ -69.605416831331169, 45.481765952000721 ] ] ], [ [ [ -69.604911114967507, 45.481813636245192 ], [ -69.604799666291967, 45.48216077061398 ], [ -69.6044831747015, 45.481842906138702 ], [ -69.604911114967507, 45.481813636245192 ] ] ], [ [ [ -69.600099194026811, 45.483360212928616 ], [ -69.600009416019759, 45.483491205112863 ], [ -69.599970233877684, 45.483378894506295 ], [ -69.600099194026811, 45.483360212928616 ] ] ], [ [ [ -69.615483466297022, 45.48357539640179 ], [ -69.615672679322728, 45.48365538632666 ], [ -69.615497937489607, 45.483692332728822 ], [ -69.615483466297022, 45.48357539640179 ] ] ], [ [ [ -69.599779081075283, 45.48382995863853 ], [ -69.599598633326238, 45.483857908605081 ], [ -69.599701031815144, 45.483785361691943 ], [ -69.599779081075283, 45.48382995863853 ] ] ], [ [ [ -69.600177500532951, 45.484106902132368 ], [ -69.600690069770408, 45.484099708990044 ], [ -69.600613102686665, 45.484194622387115 ], [ -69.600177500532951, 45.484106902132368 ] ] ], [ [ [ -69.614120566150774, 45.484851895909514 ], [ -69.61336114231753, 45.484810968715458 ], [ -69.614113437455586, 45.484784425478779 ], [ -69.614120566150774, 45.484851895909514 ] ] ], [ [ [ -69.612589962301115, 45.485566704604743 ], [ -69.611993785402788, 45.485646411159358 ], [ -69.612391140117836, 45.485153720645428 ], [ -69.612589962301115, 45.485566704604743 ] ] ], [ [ [ -69.611766537742085, 45.48593116520685 ], [ -69.61154294266251, 45.485999871259338 ], [ -69.611732559108418, 45.485895342520763 ], [ -69.611766537742085, 45.48593116520685 ] ] ], [ [ [ -69.598244608747933, 45.486875898359379 ], [ -69.598204961418034, 45.486795096424792 ], [ -69.598297057615071, 45.48684412047777 ], [ -69.598244608747933, 45.486875898359379 ] ] ], [ [ [ -69.603284303437945, 45.486705373662019 ], [ -69.603873909591755, 45.487318837852328 ], [ -69.602864836800521, 45.48693261651912 ], [ -69.603284303437945, 45.486705373662019 ] ] ], [ [ [ -69.599978620837447, 45.487069328774318 ], [ -69.600218974824728, 45.487108572180162 ], [ -69.600217693013533, 45.487176086742835 ], [ -69.599978620837447, 45.487069328774318 ] ] ], [ [ [ -69.598764440060634, 45.487665277893022 ], [ -69.598595372961952, 45.487598655287186 ], [ -69.598670988114648, 45.487526249700011 ], [ -69.598764440060634, 45.487665277893022 ] ] ], [ [ [ -69.600886643326618, 45.487582124399935 ], [ -69.60110072147836, 45.487707011615505 ], [ -69.601034576720522, 45.48784237891681 ], [ -69.600886643326618, 45.487582124399935 ] ] ], [ [ [ -69.59930612675376, 45.488666064881009 ], [ -69.598711551273638, 45.488939218613453 ], [ -69.599057361030901, 45.488437840189576 ], [ -69.59930612675376, 45.488666064881009 ] ] ], [ [ [ -69.599773413010524, 45.489437712936848 ], [ -69.600502188534136, 45.48960040633596 ], [ -69.600329604460185, 45.489767834060054 ], [ -69.599773413010524, 45.489437712936848 ] ] ], [ [ [ -69.597398701782538, 45.490080238481653 ], [ -69.596339084681688, 45.490513331275459 ], [ -69.597654136602145, 45.489615343471321 ], [ -69.597398701782538, 45.490080238481653 ] ] ], [ [ [ -69.599036001330134, 45.491628864004063 ], [ -69.597611011831376, 45.490529184938282 ], [ -69.599226727994775, 45.489890639230438 ], [ -69.599036001330134, 45.491628864004063 ] ] ], [ [ [ -69.596311203513636, 45.491661123495163 ], [ -69.596055470860193, 45.491378920913405 ], [ -69.59610669926407, 45.491306641625116 ], [ -69.596311203513636, 45.491661123495163 ] ] ], [ [ [ -69.596749025428963, 45.491991879807891 ], [ -69.596730947384458, 45.492135992744814 ], [ -69.596640219571199, 45.491951942086708 ], [ -69.596749025428963, 45.491991879807891 ] ] ], [ [ [ -69.59940650449056, 45.492851079337676 ], [ -69.601237607996183, 45.492566918830548 ], [ -69.600644713738575, 45.492925584555984 ], [ -69.59940650449056, 45.492851079337676 ] ] ], [ [ [ -69.599951216862365, 45.493716830097632 ], [ -69.600068756594226, 45.493486683266759 ], [ -69.600501098876691, 45.493637429917129 ], [ -69.599951216862365, 45.493716830097632 ] ] ], [ [ [ -69.599379167490184, 45.493629821713739 ], [ -69.59932211778704, 45.493756137203782 ], [ -69.599282563286778, 45.493684335505151 ], [ -69.599379167490184, 45.493629821713739 ] ] ], [ [ [ -69.596358755358025, 45.49434772072108 ], [ -69.596431600292576, 45.494428352554777 ], [ -69.596344178093446, 45.494406302515145 ], [ -69.596358755358025, 45.49434772072108 ] ] ], [ [ [ -69.591121893785086, 45.49458646864867 ], [ -69.591149278020794, 45.494680835423942 ], [ -69.591083220987599, 45.49463617510856 ], [ -69.591121893785086, 45.49458646864867 ] ] ], [ [ [ -69.587966967282725, 45.503261853207604 ], [ -69.588376124942201, 45.502872696544209 ], [ -69.588517509320241, 45.502966479250254 ], [ -69.587966967282725, 45.503261853207604 ] ] ], [ [ [ -69.587240817436381, 45.503981178180524 ], [ -69.586985400880351, 45.503730458249954 ], [ -69.587180932435203, 45.503684448506526 ], [ -69.587240817436381, 45.503981178180524 ] ] ], [ [ [ -69.584495057914864, 45.506916129273463 ], [ -69.584639600952428, 45.507198926123486 ], [ -69.584507398225369, 45.50725810824428 ], [ -69.584495057914864, 45.506916129273463 ] ] ], [ [ [ -69.590489378430107, 45.51262801903755 ], [ -69.590623725929333, 45.512735338843335 ], [ -69.590493072396029, 45.512790021062486 ], [ -69.590489378430107, 45.51262801903755 ] ] ], [ [ [ -69.592403257837219, 45.514638860373523 ], [ -69.59256434646953, 45.514701033572635 ], [ -69.592408201656355, 45.514728843236867 ], [ -69.592403257837219, 45.514638860373523 ] ] ], [ [ [ -69.578467260355652, 45.515430373927281 ], [ -69.578774783960725, 45.515298301747926 ], [ -69.57882470216002, 45.515406062236934 ], [ -69.578467260355652, 45.515430373927281 ] ] ], [ [ [ -69.590534118155148, 45.515719671937404 ], [ -69.590780612489709, 45.515722898809003 ], [ -69.590700622210846, 45.515840326126956 ], [ -69.590534118155148, 45.515719671937404 ] ] ], [ [ [ -69.597238539833128, 45.519757821425614 ], [ -69.597827589905805, 45.519876255097834 ], [ -69.597204330056499, 45.519852511065466 ], [ -69.597238539833128, 45.519757821425614 ] ] ], [ [ [ -69.599144002962021, 45.520364417265533 ], [ -69.599206396629583, 45.520512610124598 ], [ -69.599090282786392, 45.520468211805429 ], [ -69.599144002962021, 45.520364417265533 ] ] ], [ [ [ -69.613555944542924, 45.538240609952773 ], [ -69.613732864634969, 45.538167648161064 ], [ -69.613691559986577, 45.538307386877747 ], [ -69.613555944542924, 45.538240609952773 ] ] ], [ [ [ -69.610598717290856, 45.540857764735797 ], [ -69.610810532095925, 45.540937638433704 ], [ -69.610701093887016, 45.540996734187658 ], [ -69.610598717290856, 45.540857764735797 ] ] ], [ [ [ -69.562047703027105, 45.541966573779533 ], [ -69.562104322248942, 45.539855538692692 ], [ -69.562412501161361, 45.542662358993866 ], [ -69.562047703027105, 45.541966573779533 ] ] ], [ [ [ -69.606133546257055, 45.542344219707289 ], [ -69.606371861122, 45.542468970883348 ], [ -69.606086025535348, 45.542465986397694 ], [ -69.606133546257055, 45.542344219707289 ] ] ], [ [ [ -69.608092921937399, 45.542896373282886 ], [ -69.608366781906767, 45.542827407913691 ], [ -69.608391574876435, 45.542899284481848 ], [ -69.608092921937399, 45.542896373282886 ] ] ], [ [ [ -69.575904302628629, 45.543868786857352 ], [ -69.575369101522469, 45.544771593011255 ], [ -69.575112272979041, 45.543845775777072 ], [ -69.575904302628629, 45.543868786857352 ] ] ], [ [ [ -69.575257622958858, 45.545969295210881 ], [ -69.575114512105202, 45.545596473163904 ], [ -69.575341568574274, 45.545604329055557 ], [ -69.575257622958858, 45.545969295210881 ] ] ], [ [ [ -69.562941099418339, 45.547335813053543 ], [ -69.562456238345518, 45.546847643214967 ], [ -69.562692586928677, 45.546702461219191 ], [ -69.562941099418339, 45.547335813053543 ] ] ], [ [ [ -69.567659529694154, 45.547631998893145 ], [ -69.56842663613179, 45.547997228042583 ], [ -69.567544245968108, 45.547911606627572 ], [ -69.567659529694154, 45.547631998893145 ] ] ], [ [ [ -69.591621822149065, 45.54761392146861 ], [ -69.592289611875245, 45.548456559515401 ], [ -69.591382446493, 45.547921198215512 ], [ -69.591621822149065, 45.54761392146861 ] ] ], [ [ [ -69.584601772687506, 45.550057848243924 ], [ -69.583431931330267, 45.55044187296425 ], [ -69.583238843394625, 45.549965804376015 ], [ -69.584601772687506, 45.550057848243924 ] ] ], [ [ [ -69.571410594424279, 45.560232782297376 ], [ -69.571454129061721, 45.559985035684647 ], [ -69.571643727025062, 45.560281121653588 ], [ -69.571410594424279, 45.560232782297376 ] ] ], [ [ [ -69.576519251549982, 45.564707634345609 ], [ -69.576258182169937, 45.565141003412421 ], [ -69.575965084572886, 45.565065971849435 ], [ -69.576519251549982, 45.564707634345609 ] ] ], [ [ [ -69.575161558471819, 45.56579010365968 ], [ -69.575094822504241, 45.565529409495831 ], [ -69.575411377667351, 45.565626826828385 ], [ -69.575161558471819, 45.56579010365968 ] ] ], [ [ [ -69.572194483093739, 45.571264132320366 ], [ -69.572341002206983, 45.571060876007969 ], [ -69.572401848704516, 45.571294596146423 ], [ -69.572194483093739, 45.571264132320366 ] ] ], [ [ [ -69.619415763273381, 45.570891824718153 ], [ -69.621451092963696, 45.572019403482216 ], [ -69.619813892394376, 45.571987791144373 ], [ -69.619415763273381, 45.570891824718153 ] ] ], [ [ [ -69.582065890815358, 45.572501406343299 ], [ -69.581728411983946, 45.572089078969505 ], [ -69.582202628565341, 45.572091163569588 ], [ -69.582065890815358, 45.572501406343299 ] ] ], [ [ [ -69.571058753375041, 45.572259927979921 ], [ -69.571173499897753, 45.572398870254432 ], [ -69.57104291083192, 45.572435527249858 ], [ -69.571058753375041, 45.572259927979921 ] ] ], [ [ [ -69.573319265529989, 45.572739161283309 ], [ -69.573167694791891, 45.575359225190439 ], [ -69.571631278265571, 45.575240905886552 ], [ -69.573319265529989, 45.572739161283309 ] ] ], [ [ [ -69.610077961149784, 45.574231952957234 ], [ -69.61038384030266, 45.574221319728245 ], [ -69.610193526146205, 45.574325847396494 ], [ -69.610077961149784, 45.574231952957234 ] ] ], [ [ [ -69.570365780967393, 45.576601883771517 ], [ -69.570552139056275, 45.576731469767417 ], [ -69.570318411473295, 45.57671013344779 ], [ -69.570365780967393, 45.576601883771517 ] ] ], [ [ [ -69.56709121701364, 45.577617300954451 ], [ -69.566140906804421, 45.577315980802723 ], [ -69.567197641491745, 45.577486258675691 ], [ -69.56709121701364, 45.577617300954451 ] ] ], [ [ [ -69.557966628415116, 45.57896738244176 ], [ -69.558197380115558, 45.579132773065183 ], [ -69.558104191864359, 45.57926824545963 ], [ -69.557966628415116, 45.57896738244176 ] ] ], [ [ [ -69.629433311995101, 45.622210236748501 ], [ -69.576463056382778, 45.599568847815462 ], [ -69.571312626863246, 45.576363127478317 ], [ -69.597652691093359, 45.57022917220295 ], [ -69.640128831191234, 45.599045310637969 ], [ -69.644634064828097, 45.61592831104884 ], [ -69.629433311995101, 45.622210236748501 ] ] ], [ [ [ -69.571680023238258, 45.617725343215653 ], [ -69.571854704085737, 45.617796474792435 ], [ -69.571697905145584, 45.617828764747543 ], [ -69.571680023238258, 45.617725343215653 ] ] ], [ [ [ -69.57240104976637, 45.617798239951377 ], [ -69.572621721599816, 45.617819636432593 ], [ -69.572425476510091, 45.617874626600333 ], [ -69.57240104976637, 45.617798239951377 ] ] ], [ [ [ -69.572519010758938, 45.618873264141605 ], [ -69.573602925111132, 45.61864280289025 ], [ -69.573671033334335, 45.618835981460656 ], [ -69.572519010758938, 45.618873264141605 ] ] ], [ [ [ -69.580288939721768, 45.660526340689373 ], [ -69.580622813001625, 45.660461637160317 ], [ -69.580378375177119, 45.660602392147027 ], [ -69.580288939721768, 45.660526340689373 ] ] ], [ [ [ -69.603789226206288, 45.661340646250871 ], [ -69.604021562539657, 45.661235907824619 ], [ -69.603944329951091, 45.661402831730307 ], [ -69.603789226206288, 45.661340646250871 ] ] ], [ [ [ -69.577881362413393, 45.662127201659274 ], [ -69.577631384378776, 45.661925944066574 ], [ -69.577924605054946, 45.661924461107645 ], [ -69.577881362413393, 45.662127201659274 ] ] ], [ [ [ -69.574083169394044, 45.663838517195096 ], [ -69.575655791418896, 45.664316650673527 ], [ -69.573827371409067, 45.664244842189014 ], [ -69.574083169394044, 45.663838517195096 ] ] ], [ [ [ -69.6099171301002, 45.664084868176651 ], [ -69.610154398288046, 45.664101602972387 ], [ -69.610015987122708, 45.664174349223686 ], [ -69.6099171301002, 45.664084868176651 ] ] ], [ [ [ -69.609093555108032, 45.664417796291197 ], [ -69.609299541838126, 45.664398696092086 ], [ -69.609229419855239, 45.664480077137796 ], [ -69.609093555108032, 45.664417796291197 ] ] ], [ [ [ -69.609745692471336, 45.664625838318038 ], [ -69.609883924319121, 45.664499088039626 ], [ -69.609939441846095, 45.664624804052202 ], [ -69.609745692471336, 45.664625838318038 ] ] ], [ [ [ -69.608858713314589, 45.665994205749115 ], [ -69.612282748967644, 45.667726574884348 ], [ -69.610024382959097, 45.669637841036852 ], [ -69.608858713314589, 45.665994205749115 ] ] ], [ [ [ -69.618873065577844, 45.66969826198752 ], [ -69.618100569363989, 45.669571927794614 ], [ -69.618193656784456, 45.66946341536805 ], [ -69.618873065577844, 45.66969826198752 ] ] ], [ [ [ -69.612370552214315, 45.670885411876675 ], [ -69.611852182176847, 45.671252723884336 ], [ -69.612205036708772, 45.670791788859539 ], [ -69.612370552214315, 45.670885411876675 ] ] ], [ [ [ -69.570480775500542, 45.674500100728167 ], [ -69.569678887011904, 45.674873137809975 ], [ -69.570374839744787, 45.6742621075324 ], [ -69.570480775500542, 45.674500100728167 ] ] ], [ [ [ -69.609128943228342, 45.678368964723333 ], [ -69.609261583297425, 45.678093729251181 ], [ -69.609319530154835, 45.678367948383865 ], [ -69.609128943228342, 45.678368964723333 ] ] ], [ [ [ -69.573115314266147, 45.679810927360201 ], [ -69.572922792154003, 45.678718286475302 ], [ -69.574418806254329, 45.68010140925724 ], [ -69.573115314266147, 45.679810927360201 ] ] ], [ [ [ -69.609198108183094, 45.679565709898618 ], [ -69.607915887822685, 45.680180097376002 ], [ -69.608905148010251, 45.678896706502918 ], [ -69.609198108183094, 45.679565709898618 ] ] ], [ [ [ -69.580356735331222, 45.687038061211645 ], [ -69.580647411830142, 45.68705008459807 ], [ -69.580542306274538, 45.687131625496349 ], [ -69.580356735331222, 45.687038061211645 ] ] ], [ [ [ -69.596390270748273, 45.690542321852902 ], [ -69.596659665789744, 45.690437408199458 ], [ -69.596539287260526, 45.690591050296746 ], [ -69.596390270748273, 45.690542321852902 ] ] ], [ [ [ -69.597985241233971, 45.692577177830337 ], [ -69.598527486317906, 45.694797545858805 ], [ -69.597902211836256, 45.694917829936131 ], [ -69.597985241233971, 45.692577177830337 ] ] ], [ [ [ -69.595616932888021, 45.693723654608824 ], [ -69.594760341557262, 45.694209663950744 ], [ -69.594896286151965, 45.693592397716941 ], [ -69.595616932888021, 45.693723654608824 ] ] ], [ [ [ -69.593976692591113, 45.694951809704136 ], [ -69.594290735235319, 45.694891670177299 ], [ -69.594099324494181, 45.695009675707148 ], [ -69.593976692591113, 45.694951809704136 ] ] ], [ [ [ -69.596445787669794, 45.69493444456841 ], [ -69.596785518143207, 45.694874164970265 ], [ -69.596763865677445, 45.695027291424374 ], [ -69.596445787669794, 45.69493444456841 ] ] ], [ [ [ -69.596169441648101, 45.69544443520234 ], [ -69.59588326996267, 45.695256910589421 ], [ -69.596037783665309, 45.695179596549089 ], [ -69.596169441648101, 45.69544443520234 ] ] ], [ [ [ -69.600223204320599, 45.696026263747832 ], [ -69.599786523614156, 45.695916048486914 ], [ -69.599868480092965, 45.695848111911168 ], [ -69.600223204320599, 45.696026263747832 ] ] ], [ [ [ -69.59622534458974, 45.696474738363989 ], [ -69.596490370558939, 45.696333841981541 ], [ -69.59652677214973, 45.696473164875847 ], [ -69.59622534458974, 45.696474738363989 ] ] ], [ [ [ -69.5975386082049, 45.696692898046592 ], [ -69.596994939145048, 45.696524725325794 ], [ -69.59707676744938, 45.696330778826955 ], [ -69.5975386082049, 45.696692898046592 ] ] ], [ [ [ -69.596025406867625, 45.696772809198606 ], [ -69.595890025213109, 45.697480081842642 ], [ -69.59572619730983, 45.696756368127083 ], [ -69.596025406867625, 45.696772809198606 ] ] ], [ [ [ -69.581667195947503, 45.708034841924281 ], [ -69.581811026228564, 45.707696577994902 ], [ -69.582069523255157, 45.707807772409645 ], [ -69.581667195947503, 45.708034841924281 ] ] ], [ [ [ -69.574951403228667, 45.708077836598491 ], [ -69.574917942774405, 45.707789979736894 ], [ -69.575093462944594, 45.707915108685938 ], [ -69.574951403228667, 45.708077836598491 ] ] ], [ [ [ -69.585560088512338, 45.708901535228449 ], [ -69.585535313933306, 45.708528127429723 ], [ -69.58581909586789, 45.708522174040255 ], [ -69.585560088512338, 45.708901535228449 ] ] ], [ [ [ -69.572803002890439, 45.711013895671478 ], [ -69.572120531736843, 45.711885890045608 ], [ -69.572520570365569, 45.710799288257135 ], [ -69.572803002890439, 45.711013895671478 ] ] ], [ [ [ -69.56495504721255, 45.715440863890208 ], [ -69.565106038904958, 45.715602132526961 ], [ -69.56492637747904, 45.715544514914122 ], [ -69.56495504721255, 45.715440863890208 ] ] ], [ [ [ -69.566906698973895, 45.715782227727075 ], [ -69.567072495902707, 45.715659894949916 ], [ -69.567214611767639, 45.715776199027445 ], [ -69.566906698973895, 45.715782227727075 ] ] ], [ [ [ -69.570813265596811, 45.717211905677686 ], [ -69.570631948348705, 45.716834778626925 ], [ -69.571001544887196, 45.71693193995015 ], [ -69.570813265596811, 45.717211905677686 ] ] ], [ [ [ -69.564097536719046, 45.719166937179601 ], [ -69.563871373347339, 45.718758513653697 ], [ -69.56438596245394, 45.718818977449402 ], [ -69.564097536719046, 45.719166937179601 ] ] ], [ [ [ -69.537184621030107, 45.57852693961317 ], [ -69.537397720333203, 45.578611446097284 ], [ -69.537259823361552, 45.578684103777356 ], [ -69.537184621030107, 45.57852693961317 ] ] ], [ [ [ -69.538532372820555, 45.578768121901717 ], [ -69.538876826436464, 45.578766497533195 ], [ -69.538893597734258, 45.578928434946143 ], [ -69.538532372820555, 45.578768121901717 ] ] ], [ [ [ -69.538128075355161, 45.578837534793422 ], [ -69.538073192632353, 45.579004310354129 ], [ -69.53799694677005, 45.578905659166963 ], [ -69.538128075355161, 45.578837534793422 ] ] ], [ [ [ -69.533285695558234, 45.579881856991065 ], [ -69.534052505800858, 45.578460614404335 ], [ -69.534599228836811, 45.579133135304538 ], [ -69.533285695558234, 45.579881856991065 ] ] ], [ [ [ -69.539833647163292, 45.579801598362785 ], [ -69.539953933505942, 45.579981048400434 ], [ -69.539721200679793, 45.579896639467513 ], [ -69.539833647163292, 45.579801598362785 ] ] ], [ [ [ -69.535421887964318, 45.580389424776968 ], [ -69.535438793110018, 45.58052435987581 ], [ -69.535226203826056, 45.580493850768704 ], [ -69.535421887964318, 45.580389424776968 ] ] ], [ [ [ -69.540684942202532, 45.581273737032546 ], [ -69.54053185712479, 45.581224956818417 ], [ -69.540648343658106, 45.581174899990856 ], [ -69.540684942202532, 45.581273737032546 ] ] ], [ [ [ -69.527024629469636, 45.582071158589116 ], [ -69.527659324777844, 45.579696460345616 ], [ -69.52917742220211, 45.583447363086897 ], [ -69.527024629469636, 45.582071158589116 ] ] ], [ [ [ -69.542779472580321, 45.581560837661364 ], [ -69.543099391817407, 45.581505311049312 ], [ -69.543038435058193, 45.581622613120444 ], [ -69.542779472580321, 45.581560837661364 ] ] ], [ [ [ -69.557529357156767, 45.581651821244371 ], [ -69.557960258442392, 45.581519201775656 ], [ -69.557592244854774, 45.581773027992654 ], [ -69.557529357156767, 45.581651821244371 ] ] ], [ [ [ -69.550888644198722, 45.581810051088965 ], [ -69.551093351725171, 45.581566036333491 ], [ -69.551131118581566, 45.581741373909082 ], [ -69.550888644198722, 45.581810051088965 ] ] ], [ [ [ -69.543248075522996, 45.58263423035163 ], [ -69.542901025920301, 45.582410854917669 ], [ -69.543279075977779, 45.58235955293609 ], [ -69.543248075522996, 45.58263423035163 ] ] ], [ [ [ -69.532198958581702, 45.582465716623574 ], [ -69.532445474233143, 45.582482569911498 ], [ -69.532338622217353, 45.582663091741942 ], [ -69.532198958581702, 45.582465716623574 ] ] ], [ [ [ -69.5438062615099, 45.582321040470305 ], [ -69.545096231103187, 45.582539916796229 ], [ -69.54527628074689, 45.582642566451923 ], [ -69.544619598294162, 45.583001242689612 ], [ -69.5438062615099, 45.582321040470305 ] ] ], [ [ [ -69.543377090114873, 45.583052165610006 ], [ -69.54352044792617, 45.582673440204246 ], [ -69.543896108975616, 45.58274816172375 ], [ -69.543377090114873, 45.583052165610006 ] ] ], [ [ [ -69.543536106854617, 45.583258432377562 ], [ -69.543925444514841, 45.583297081972574 ], [ -69.54357292901058, 45.583379770823669 ], [ -69.543536106854617, 45.583258432377562 ] ] ], [ [ [ -69.532318530651494, 45.583419267637112 ], [ -69.532526465994167, 45.583422797203802 ], [ -69.532543680025896, 45.583548732008268 ], [ -69.532318530651494, 45.583419267637112 ] ] ], [ [ [ -69.546571053701399, 45.582942416794751 ], [ -69.545980378821511, 45.583993859241069 ], [ -69.544993748766998, 45.583913060937554 ], [ -69.546571053701399, 45.582942416794751 ] ] ], [ [ [ -69.551074913461747, 45.583775874787719 ], [ -69.551358090480889, 45.583567485119154 ], [ -69.551184441420205, 45.583833853836701 ], [ -69.551074913461747, 45.583775874787719 ] ] ], [ [ [ -69.555927019768077, 45.583878379043348 ], [ -69.5559279590762, 45.583608343238915 ], [ -69.556257000233018, 45.58362474349402 ], [ -69.555927019768077, 45.583878379043348 ] ] ], [ [ [ -69.540990540129627, 45.584314632309642 ], [ -69.541013205889797, 45.584422537083931 ], [ -69.540937422917978, 45.584373391311772 ], [ -69.540990540129627, 45.584314632309642 ] ] ], [ [ [ -69.543065592782312, 45.584106763362151 ], [ -69.542044032409038, 45.584516663373208 ], [ -69.541968582090149, 45.584377503910595 ], [ -69.543065592782312, 45.584106763362151 ] ] ], [ [ [ -69.530379152278428, 45.584593918293798 ], [ -69.530424713899379, 45.584242667383783 ], [ -69.530652068397004, 45.584606154165861 ], [ -69.530379152278428, 45.584593918293798 ] ] ], [ [ [ -69.540522733934637, 45.58486590924575 ], [ -69.540611939098895, 45.584977997931077 ], [ -69.540476201492368, 45.584942636187719 ], [ -69.540522733934637, 45.58486590924575 ] ] ], [ [ [ -69.548780352523394, 45.585213581777964 ], [ -69.548509093830873, 45.584755833116944 ], [ -69.549085772046055, 45.584861074798411 ], [ -69.548780352523394, 45.585213581777964 ] ] ], [ [ [ -69.545455620731602, 45.586435640298163 ], [ -69.543941378715871, 45.583868572101053 ], [ -69.544924895251157, 45.584124914048175 ], [ -69.545455620731602, 45.586435640298163 ] ] ], [ [ [ -69.547262924289882, 45.586453998509242 ], [ -69.547900211545354, 45.586198914603393 ], [ -69.548020289559361, 45.586229843940067 ], [ -69.547262924289882, 45.586453998509242 ] ] ], [ [ [ -69.534555742045924, 45.586622179777315 ], [ -69.534750008688903, 45.586661775981561 ], [ -69.534592316791546, 45.586761524213536 ], [ -69.534555742045924, 45.586622179777315 ] ] ], [ [ [ -69.516992115296361, 45.589560836685934 ], [ -69.513182025897834, 45.586513174741349 ], [ -69.514602972613389, 45.583707469124001 ], [ -69.516992115296361, 45.589560836685934 ] ] ], [ [ [ -69.543952617323185, 45.586856852417711 ], [ -69.544242825553951, 45.586625947211459 ], [ -69.544140711671417, 45.586878460029759 ], [ -69.543952617323185, 45.586856852417711 ] ] ], [ [ [ -69.534927416131524, 45.586908471233819 ], [ -69.535329493094764, 45.586978595770724 ], [ -69.535289546106867, 45.587032788995927 ], [ -69.534927416131524, 45.586908471233819 ] ] ], [ [ [ -69.548236275081848, 45.586935384791893 ], [ -69.548324786610408, 45.587056473551634 ], [ -69.548098059564765, 45.587017056183782 ], [ -69.548236275081848, 45.586935384791893 ] ] ], [ [ [ -69.539512269405293, 45.587566487491621 ], [ -69.539431954405828, 45.587337341153628 ], [ -69.539885258466526, 45.587443211758512 ], [ -69.539512269405293, 45.587566487491621 ] ] ], [ [ [ -69.548215061922107, 45.587390034674691 ], [ -69.548982993775297, 45.587714887963145 ], [ -69.547849067458472, 45.587859847248083 ], [ -69.548215061922107, 45.587390034674691 ] ] ], [ [ [ -69.53031022691053, 45.588037122314525 ], [ -69.530444542597806, 45.587793472503535 ], [ -69.530591710192851, 45.587936805108278 ], [ -69.53031022691053, 45.588037122314525 ] ] ], [ [ [ -69.516536546369792, 45.587807701188069 ], [ -69.516753967469967, 45.588013740952398 ], [ -69.516622985099602, 45.588059339303463 ], [ -69.516536546369792, 45.587807701188069 ] ] ], [ [ [ -69.549215090308195, 45.588550865709216 ], [ -69.548909210694902, 45.588201296752821 ], [ -69.549427529169236, 45.588315817164222 ], [ -69.549215090308195, 45.588550865709216 ] ] ], [ [ [ -69.529655622651745, 45.588634225490338 ], [ -69.529872953085473, 45.588484702878972 ], [ -69.529849434259688, 45.588709836135827 ], [ -69.529655622651745, 45.588634225490338 ] ] ], [ [ [ -69.51754212024602, 45.589729364339838 ], [ -69.517485913748544, 45.58958560295612 ], [ -69.517600361289212, 45.589702096563229 ], [ -69.51754212024602, 45.589729364339838 ] ] ], [ [ [ -69.519121251062487, 45.590104741726478 ], [ -69.518339390438683, 45.590558341145389 ], [ -69.518422476078314, 45.589225816056455 ], [ -69.519121251062487, 45.590104741726478 ] ] ], [ [ [ -69.513909467873276, 45.590326329629328 ], [ -69.513798434555383, 45.590407837173785 ], [ -69.513799503199721, 45.59034932497029 ], [ -69.513909467873276, 45.590326329629328 ] ] ], [ [ [ -69.525097385282095, 45.592588707491949 ], [ -69.520996605226699, 45.590667766743209 ], [ -69.520240632933721, 45.588632486225109 ], [ -69.525097385282095, 45.592588707491949 ] ] ], [ [ [ -69.512918656059, 45.592211989473768 ], [ -69.517239154680354, 45.591332913505909 ], [ -69.517413123229275, 45.593915413356427 ], [ -69.512918656059, 45.592211989473768 ] ] ], [ [ [ -69.551010671700482, 45.592768186635801 ], [ -69.551383873251226, 45.592379343026707 ], [ -69.551616138387701, 45.592490735076787 ], [ -69.551010671700482, 45.592768186635801 ] ] ], [ [ [ -69.518659790731434, 45.592591113293537 ], [ -69.521460490848014, 45.593041915270092 ], [ -69.52132050289346, 45.593587112601327 ], [ -69.518659790731434, 45.592591113293537 ] ] ], [ [ [ -69.525502788355197, 45.593527447338523 ], [ -69.525819265123801, 45.59365200498619 ], [ -69.525455276503664, 45.593631176430712 ], [ -69.525502788355197, 45.593527447338523 ] ] ], [ [ [ -69.517255222764618, 45.594870231922371 ], [ -69.517459414943147, 45.594941316009056 ], [ -69.517266065248918, 45.59496019365276 ], [ -69.517255222764618, 45.594870231922371 ] ] ], [ [ [ -69.520192995917753, 45.595531968279296 ], [ -69.519448712373773, 45.595679369132917 ], [ -69.519411781686102, 45.595585028446294 ], [ -69.520192995917753, 45.595531968279296 ] ] ], [ [ [ -69.515873719472054, 45.596312137067557 ], [ -69.515761970694939, 45.596447656505539 ], [ -69.515651654246923, 45.596389649881004 ], [ -69.515873719472054, 45.596312137067557 ] ] ], [ [ [ -69.524150698337209, 45.604600369854822 ], [ -69.524103813056954, 45.604299054014106 ], [ -69.524322698756379, 45.604437564743534 ], [ -69.524150698337209, 45.604600369854822 ] ] ], [ [ [ -69.536178510265131, 45.605125112790297 ], [ -69.536235047768088, 45.604791811254891 ], [ -69.536331561549503, 45.605079393046779 ], [ -69.536178510265131, 45.605125112790297 ] ] ], [ [ [ -69.5440146436503, 45.611064712222237 ], [ -69.54426119251211, 45.611113042279243 ], [ -69.543978844082432, 45.611258400805859 ], [ -69.5440146436503, 45.611064712222237 ] ] ] ] } },
{ "type": "Feature", "properties": { "district_id": 1, "voting_age_pop": 510020, "lib_votes": 0, "grn_votes": 0, "con_votes": 0, "ref_votes": 0, "total_pop": 648248, "dem_votes_sum": 196656, "rep_votes_sum": 153913, "lib_votes_sum": 0, "grn_votes_sum": 0, "con_votes_sum": 0, "ref_votes_sum": 0, "minority_pop_sum": 54673, "dem_pct": 0.56096232125487422, "rep_pct": 0.43903767874512578, "lib_pct": 0.0, "grn_pct": 0.0, "con_pct": 0.0, "ref_pct": 0.0, "minority_pct": 0.084339635448161809, "compactness": 0.34389034744699887 }, "geometry": { "type": "MultiPolygon", "coordinates": [ [ [ [ -70.809533709973252, 43.224885510841183 ], [ -70.906572174553162, 43.29205730551206 ], [ -70.89634345760733, 43.298570946640574 ], [ -70.931188212107799, 43.336562083981221 ], [ -70.955853200368566, 43.334026812551372 ], [ -70.972596934576941, 43.348398050494353 ], [ -70.987915514292268, 43.390222809956931 ], [ -70.986852058056911, 43.413805145152331 ], [ -70.960991053624809, 43.438405245016519 ], [ -70.961117959771116, 43.469215033815445 ], [ -70.976049853862875, 43.478448139068647 ], [ -70.954670494758645, 43.509325886310911 ], [ -70.963806785539163, 43.539400142836811 ], [ -70.950632271282586, 43.551312890125061 ], [ -70.972749403214095, 43.570323222342182 ], [ -70.989044955485681, 43.790173636424697 ], [ -71.058247175921949, 44.990514831902239 ], [ -70.947514692765409, 45.00163504444712 ], [ -70.928561935615903, 44.910186082923182 ], [ -70.796412096898919, 44.925876525835307 ], [ -70.773902364773477, 44.839776934229157 ], [ -70.769228457277848, 44.732227829919829 ], [ -70.655334504748481, 44.590802070232307 ], [ -70.592329727593935, 44.616013842370251 ], [ -70.546875666449225, 44.555835587518267 ], [ -70.505847533448915, 44.530393522776791 ], [ -70.423772460347536, 44.519274810199228 ], [ -70.34891376968433, 44.484956176215846 ], [ -70.360326019103923, 44.475750581657024 ], [ -70.330660260188182, 44.435556275183643 ], [ -70.304263248161703, 44.410409914111654 ], [ -70.276751874245249, 44.407533798681172 ], [ -70.265222588275435, 44.362913445689834 ], [ -70.187903186727908, 44.343167693623172 ], [ -70.18361410044561, 44.368811970777053 ], [ -70.128901886102241, 44.368200161081063 ], [ -70.074464475490089, 44.298470637910796 ], [ -70.07574709612166, 44.206168130488031 ], [ -70.055464937049933, 44.199091802971758 ], [ -70.060497972643219, 44.191775141140319 ], [ -69.993792420921281, 44.180594301333336 ], [ -70.027385553350612, 44.130576831875253 ], [ -69.897782813629377, 44.107661633847187 ], [ -69.935304120285338, 43.991378937959816 ], [ -69.910889986331341, 43.987236506656593 ], [ -69.889171022115249, 43.966591490232631 ], [ -69.880301859405876, 43.984568144528026 ], [ -69.864769680133648, 43.975296104018376 ], [ -69.874657040681328, 43.953589871373552 ], [ -69.831342802113682, 43.904740153612295 ], [ -69.841766416635139, 43.887516418232217 ], [ -69.828598480131063, 43.888661585923337 ], [ -69.833626632186892, 43.868051640725021 ], [ -69.810475710881718, 43.882570037263015 ], [ -69.796089051994826, 43.879681952281523 ], [ -69.8049854383558, 43.816071421258961 ], [ -69.763599553408127, 43.733457180323143 ], [ -69.785621082700189, 43.657904343697226 ], [ -69.808854304390351, 43.647342664546251 ], [ -69.855212270460285, 43.646946703703698 ], [ -70.155986281309481, 43.524442901573067 ], [ -70.280397188775439, 43.408736463938375 ], [ -70.318948520038958, 43.390141050179693 ], [ -70.367397046141207, 43.323317741353804 ], [ -70.421808456563411, 43.297495803421292 ], [ -70.493229818627526, 43.28682923523143 ], [ -70.52083071998581, 43.252104465854245 ], [ -70.506324850359377, 43.218831132787408 ], [ -70.521674898712504, 43.154884459122911 ], [ -70.486362410206993, 43.170264917653036 ], [ -70.440938473642461, 43.166640961290774 ], [ -70.407227560849066, 43.138439292420017 ], [ -70.404128667146665, 43.109356123637127 ], [ -70.421077876805711, 43.08665299119906 ], [ -70.459072113755312, 43.071478990595587 ], [ -70.493014073008553, 43.073044670255186 ], [ -70.52508109885477, 43.089280500284062 ], [ -70.540128141346344, 43.130550065090851 ], [ -70.582163943527931, 43.095488483979985 ], [ -70.599658684702064, 43.056943588321211 ], [ -70.552133737920869, 43.043046449534351 ], [ -70.528882562813024, 43.005768852172388 ], [ -70.540231381087906, 42.944032183138923 ], [ -70.569968693811774, 42.919089620927402 ], [ -70.61115177585009, 42.978989767774316 ], [ -70.701197305188927, 43.045240480234341 ], [ -70.706310238359876, 43.075339154793376 ], [ -70.756170239406345, 43.080072992103879 ], [ -70.82708059057731, 43.127411806504306 ], [ -70.828252690458385, 43.18780453499884 ], [ -70.809533709973252, 43.224885510841183 ] ] ], [ [ [ -70.38983458602938, 43.12428644957464 ], [ -70.387530851091483, 43.124944482200732 ], [ -70.388262707968224, 43.123826503525002 ], [ -70.38983458602938, 43.12428644957464 ] ] ] ] } }
]
}
