{
"type": "FeatureCollection",
"name": "maine_optimized_districts_all",
"crs": { "type": "name", "properties": { "name": "urn:ogc:def:crs:OGC:1.3:CRS84" } },
"features": [
{ "type": "Feature", "properties": { "opt_all": 1, "population": 679734.0, "voting_age_pop": 553091.0, "dem_votes": 172537.0, "rep_votes": 147574.0, "minority_pop": 53269.0, "dem_pct": 0.53899116227215205, "rep_pct": 0.46100883741545623 }, "geometry": { "type": "MultiPolygon", "coordinates": [ [ [ [ -70.451356000000828, 43.496403000003184 ], [ -70.463767000001624, 43.498646000002807 ], [ -70.488326000000484, 43.49888300000346 ], [ -70.515820000001625, 43.54546700000332 ], [ -70.547651000000869, 43.549998000003363 ], [ -70.492009000001175, 43.606769000002899 ], [ -70.478785000000769, 43.620800000003207 ], [ -70.468462000000784, 43.631319000003337 ], [ -70.490749000000477, 43.668795000003172 ], [ -70.546605000000781, 43.713160000002858 ], [ -70.612074000000703, 43.687099000002966 ], [ -70.633528000001007, 43.703913000002999 ], [ -70.652359000000502, 43.733521000003087 ], [ -70.668199000001025, 43.792531000002953 ], [ -70.766073000000915, 43.792416000002795 ], [ -70.782984000000482, 43.81414700000316 ], [ -70.729780000001327, 43.928330000003413 ], [ -70.715418000001634, 43.961815000003249 ], [ -70.848077000001581, 44.049522000002831 ], [ -70.858546000001652, 44.095269000003292 ], [ -70.739974000000657, 44.119405000003155 ], [ -70.695920000001493, 44.134217000003268 ], [ -70.624329000001026, 44.171036000003411 ], [ -70.607383000001249, 44.154404000003296 ], [ -70.595631000001291, 44.032057000003228 ], [ -70.544094000000712, 44.005647000003201 ], [ -70.48007800000083, 44.03207800000277 ], [ -70.459741000001088, 44.086278000003205 ], [ -70.451157000000748, 44.094549000003376 ], [ -70.39173500000075, 44.153562000003014 ], [ -70.325218000000604, 44.208399000002984 ], [ -70.28151100000153, 44.322394000003229 ], [ -70.265223000001612, 44.362913000002521 ], [ -70.276752000000855, 44.407534000002833 ], [ -70.23890400000063, 44.458942000003226 ], [ -70.199758000001566, 44.478262000002708 ], [ -70.129390000000484, 44.487217000002715 ], [ -70.042350000000553, 44.485235000003229 ], [ -69.930451000001625, 44.610852000002559 ], [ -69.818468000000891, 44.581312000002988 ], [ -69.792813000000436, 44.577330000002746 ], [ -69.744282000000865, 44.602607000002664 ], [ -69.66552500000148, 44.586402000002977 ], [ -69.626823000001565, 44.580491000002731 ], [ -69.609652000000835, 44.577875000003381 ], [ -69.605746000000806, 44.577264000002977 ], [ -69.587342000000959, 44.634076000003112 ], [ -69.61496700000086, 44.654623000002751 ], [ -69.632971000001632, 44.698763000003375 ], [ -69.603624000000437, 44.704620000002784 ], [ -69.483395000000471, 44.720271000003287 ], [ -69.47171200000156, 44.69289900000291 ], [ -69.460606000001405, 44.647054000002669 ], [ -69.372419000001528, 44.54458500000333 ], [ -69.445498000000427, 44.463839000003311 ], [ -69.506382000000428, 44.342870000002691 ], [ -69.409635000001145, 44.327998000003127 ], [ -69.394361000000998, 44.342934000002778 ], [ -69.346616000001262, 44.308337000003235 ], [ -69.170895000001039, 44.292552000002971 ], [ -69.121622000000897, 44.255644000002782 ], [ -69.028368000000455, 44.24900700000331 ], [ -69.055537695325754, 44.189230187603968 ], [ -69.081905000001612, 44.115495000002788 ], [ -69.101084153566731, 44.104395153774057 ], [ -69.104941907132201, 44.091712930303622 ], [ -69.129538598977547, 44.002804789846529 ], [ -69.282559052142233, 43.958104836536052 ], [ -69.368287039763388, 43.995135715711868 ], [ -69.543792084393843, 43.881577757920041 ], [ -69.571483175481688, 43.84413332692769 ], [ -69.600574893151048, 43.858360364385035 ], [ -69.685872000001268, 43.810123000003294 ], [ -69.686527286990056, 43.870579951647045 ], [ -69.672908645279861, 43.924481948598988 ], [ -69.674616688001819, 43.925506953900424 ], [ -69.702841500716872, 43.854657103983918 ], [ -69.767464393547215, 43.74307003849831 ], [ -69.887390287866538, 43.777052327588009 ], [ -69.994618000001196, 43.743537000002746 ], [ -69.947132119690451, 43.859698928189331 ], [ -69.992482739852406, 43.86680332472789 ], [ -70.023250895629218, 43.855968980257245 ], [ -70.142521798125429, 43.795053092282664 ], [ -70.178288313298339, 43.776191976611862 ], [ -70.197851460438571, 43.738015664324294 ], [ -70.245681052475163, 43.690401528876635 ], [ -70.252827118620857, 43.675252302415053 ], [ -70.242253524422352, 43.670909428709969 ], [ -70.241545432333552, 43.663201017965591 ], [ -70.23895075636969, 43.65799136838509 ], [ -70.221649083959733, 43.63393247011831 ], [ -70.211241921936704, 43.590193714071368 ], [ -70.271105240645255, 43.562005962579931 ], [ -70.328036910207416, 43.540550242632477 ], [ -70.353391937991574, 43.535405312746853 ], [ -70.368481844859531, 43.520266812067042 ], [ -70.384526601124008, 43.496734281201007 ], [ -70.377624598340844, 43.46124775894414 ], [ -70.407974000000777, 43.474631000003058 ], [ -70.43520200000161, 43.490135000003235 ], [ -70.451356000000828, 43.496403000003184 ] ] ], [ [ [ -70.151724000001238, 43.681689000003452 ], [ -70.173571000001076, 43.683734000003462 ], [ -70.146115000001117, 43.701635000003328 ], [ -70.151724000001238, 43.681689000003452 ] ] ], [ [ [ -68.911847000001458, 44.096399000003203 ], [ -68.806101000001462, 44.116779000003348 ], [ -68.772112000001457, 44.078886000003429 ], [ -68.870036000000638, 44.03174100000308 ], [ -68.911847000001458, 44.096399000003203 ] ] ] ] } },
{ "type": "Feature", "properties": { "opt_all": 2, "population": 682625.0, "voting_age_pop": 556994.0, "dem_votes": 132591.0, "rep_votes": 174317.0, "minority_pop": 39312.0, "dem_pct": 0.43202197387099001, "rep_pct": 0.56797802580317946 }, "geometry": { "type": "MultiPolygon", "coordinates": [ [ [ [ -70.969132334242389, 43.480159189893975 ], [ -70.975123330997533, 43.614409268068229 ], [ -70.979664013462653, 43.673214173614269 ], [ -70.989036761868547, 43.792153608736101 ], [ -70.992176142317007, 43.886261525379012 ], [ -70.994806719644004, 43.960049070167045 ], [ -71.002161997776071, 44.110619295246572 ], [ -71.014894888315951, 44.371428171733555 ], [ -71.083924000000678, 45.305451000002485 ], [ -70.835066926598415, 45.276743165191867 ], [ -70.825612000001129, 45.40030500000276 ], [ -70.552830829088052, 45.667828140026536 ], [ -70.240177000001722, 45.943729000002591 ], [ -70.317596000001387, 46.019492000003268 ], [ -70.207415000000736, 46.331316000002886 ], [ -70.056950000001649, 46.415155000002926 ], [ -70.023360928377571, 46.573520711720676 ], [ -69.997086000001076, 46.695230000002702 ], [ -69.22442000000072, 47.45968600000316 ], [ -69.035718000001395, 47.414435000002747 ], [ -69.041516000000371, 47.245639000002683 ], [ -68.907472000001576, 47.18490600000316 ], [ -68.69774516632863, 47.240745395789119 ], [ -68.461904921742857, 47.288998674009335 ], [ -68.353470332621939, 47.357233579486113 ], [ -68.178875803032767, 47.33033115541064 ], [ -67.921878904475136, 47.152267488947984 ], [ -67.789582209925982, 46.959222372746609 ], [ -67.789288198581175, 46.872183944246714 ], [ -67.788361385884784, 46.599914967789594 ], [ -67.785197722709768, 46.466598672446295 ], [ -67.781768812020033, 46.186166003446154 ], [ -67.781435596366904, 46.09618402957593 ], [ -67.805483142269395, 45.680240721215419 ], [ -67.429716000001321, 45.583773000002921 ], [ -67.499767000001427, 45.47805000000271 ], [ -67.487002343667129, 45.280523272875321 ], [ -67.340853412605227, 45.125444494429011 ], [ -67.30558078354575, 45.144807883210831 ], [ -67.122772893244431, 45.124766086767302 ], [ -67.038527982605032, 44.948071390668808 ], [ -66.985922859745898, 44.873948755805678 ], [ -66.976260000001147, 44.80831500000324 ], [ -67.18942700000126, 44.645533000003176 ], [ -67.299427024677925, 44.704533080292855 ], [ -67.326612779383169, 44.703487554958343 ], [ -67.441736241337935, 44.642465941715507 ], [ -67.643301662508676, 44.528450556152094 ], [ -67.809473174147257, 44.542584662955143 ], [ -67.982013830451635, 44.473357835407 ], [ -68.139880458193574, 44.48709220810408 ], [ -68.21165792397467, 44.518761792603414 ], [ -68.356640720690805, 44.426912948108125 ], [ -68.197256812136246, 44.309457743727677 ], [ -68.307586024628577, 44.296332087745043 ], [ -68.320417666134333, 44.224815625913131 ], [ -68.40942503982977, 44.327409757663695 ], [ -68.397155749493663, 44.373876815460129 ], [ -68.370598597928947, 44.422256491123065 ], [ -68.422872110245805, 44.473061628985135 ], [ -68.42945421893117, 44.497878239561985 ], [ -68.562212428081438, 44.333998130865758 ], [ -68.810275004894422, 44.378574666347873 ], [ -68.778815295683486, 44.497240878650217 ], [ -68.802340803160448, 44.524919714176434 ], [ -68.957901261129479, 44.428549543443573 ], [ -68.987497681764211, 44.39321103743319 ], [ -69.028368000000455, 44.24900700000331 ], [ -69.121622000000897, 44.255644000002782 ], [ -69.170895000001039, 44.292552000002971 ], [ -69.346616000001262, 44.308337000003235 ], [ -69.394361000000998, 44.342934000002778 ], [ -69.409635000001145, 44.327998000003127 ], [ -69.506382000000428, 44.342870000002691 ], [ -69.445498000000427, 44.463839000003311 ], [ -69.372419000001528, 44.54458500000333 ], [ -69.460606000001405, 44.647054000002669 ], [ -69.47171200000156, 44.69289900000291 ], [ -69.483395000000471, 44.720271000003287 ], [ -69.603624000000437, 44.704620000002784 ], [ -69.632971000001632, 44.698763000003375 ], [ -69.61496700000086, 44.654623000002751 ], [ -69.587342000000959, 44.634076000003112 ], [ -69.605746000000806, 44.577264000002977 ], [ -69.609652000000835, 44.577875000003381 ], [ -69.626823000001565, 44.580491000002731 ], [ -69.66552500000148, 44.586402000002977 ], [ -69.744282000000865, 44.602607000002664 ], [ -69.792813000000436, 44.577330000002746 ], [ -69.818468000000891, 44.581312000002988 ], [ -69.930451000001625, 44.610852000002559 ], [ -70.042350000000553, 44.485235000003229 ], [ -70.129390000000484, 44.487217000002715 ], [ -70.199758000001566, 44.478262000002708 ], [ -70.23890400000063, 44.458942000003226 ], [ -70.276752000000855, 44.407534000002833 ], [ -70.265223000001612, 44.362913000002521 ], [ -70.28151100000153, 44.322394000003229 ], [ -70.325218000000604, 44.208399000002984 ], [ -70.39173500000075, 44.153562000003014 ], [ -70.451157000000748, 44.094549000003376 ], [ -70.459741000001088, 44.086278000003205 ], [ -70.48007800000083, 44.03207800000277 ], [ -70.544094000000712, 44.005647000003201 ], [ -70.595631000001291, 44.032057000003228 ], [ -70.607383000001249, 44.154404000003296 ], [ -70.624329000001026, 44.171036000003411 ], [ -70.695920000001493, 44.134217000003268 ], [ -70.739974000000657, 44.119405000003155 ], [ -70.858546000001652, 44.095269000003292 ], [ -70.848077000001581, 44.049522000002831 ], [ -70.715418000001634, 43.961815000003249 ], [ -70.729780000001327, 43.928330000003413 ], [ -70.782984000000482, 43.81414700000316 ], [ -70.766073000000915, 43.792416000002795 ], [ -70.668199000001025, 43.792531000002953 ], [ -70.652359000000502, 43.733521000003087 ], [ -70.633528000001007, 43.703913000002999 ], [ -70.612074000000703, 43.687099000002966 ], [ -70.546605000000781, 43.713160000002858 ], [ -70.490749000000477, 43.668795000003172 ], [ -70.468462000000784, 43.631319000003337 ], [ -70.478785000000769, 43.620800000003207 ], [ -70.492009000001175, 43.606769000002899 ], [ -70.547651000000869, 43.549998000003363 ], [ -70.515820000001625, 43.54546700000332 ], [ -70.488326000000484, 43.49888300000346 ], [ -70.463767000001624, 43.498646000002807 ], [ -70.451356000000828, 43.496403000003184 ], [ -70.43520200000161, 43.490135000003235 ], [ -70.407974000000777, 43.474631000003058 ], [ -70.377624598340844, 43.46124775894414 ], [ -70.40148193559088, 43.400017864748868 ], [ -70.475413783857874, 43.346626724456925 ], [ -70.536702324199894, 43.335604575731267 ], [ -70.55612369868139, 43.319019440504768 ], [ -70.586255809797052, 43.267555057055702 ], [ -70.581468405777059, 43.229380984734739 ], [ -70.600214833980985, 43.184455145645323 ], [ -70.61996534376388, 43.161315739294736 ], [ -70.654911541953339, 43.09924935356868 ], [ -70.75259925750052, 43.079307025485917 ], [ -70.767841465876614, 43.093499949557874 ], [ -70.824815800000664, 43.179714600002669 ], [ -70.817828208163803, 43.237709844633343 ], [ -70.863759137965403, 43.265258305297181 ], [ -70.923594152286327, 43.324556401784477 ], [ -70.969132334242389, 43.480159189893975 ] ] ], [ [ [ -68.731618000001006, 44.222690000003027 ], [ -68.662542000000812, 44.269981000002723 ], [ -68.564856000001527, 44.205613000003183 ], [ -68.709055000001541, 44.157423000002666 ], [ -68.731618000001006, 44.222690000003027 ] ] ], [ [ [ -67.874361000001358, 44.374278000003152 ], [ -67.871328000000616, 44.374657000003147 ], [ -67.864208000000971, 44.368506000002839 ], [ -67.865977000001493, 44.366273000003297 ], [ -67.874361000001358, 44.374278000003152 ] ] ] ] } }
]
}
