{
"type": "FeatureCollection",
"name": "massachusetts_optimized_districts_all",
"crs": { "type": "name", "properties": { "name": "urn:ogc:def:crs:OGC:1.3:CRS84" } },
"features": [
{ "type": "Feature", "properties": { "opt_all": 1, "population": 782887.0, "voting_age_pop": 634691.0, "dem_votes": 207916.0, "rep_votes": 119642.0, "minority_pop": 176365.0, "dem_pct": 0.63474560211176478, "rep_pct": 0.36525439758294581 }, "geometry": { "type": "Polygon", "coordinates": [ [ [ -73.436758000000708, 42.050511000003105 ], [ -73.497018000000963, 42.049624000002957 ], [ -73.508210000001625, 42.086134000002666 ], [ -73.483232000001351, 42.154932000002589 ], [ -73.460206000001136, 42.217554000003119 ], [ -73.431305000000776, 42.296147000002819 ], [ -73.410855000000936, 42.35174600000262 ], [ -73.383661000001069, 42.425497000002608 ], [ -73.306984000001847, 42.632646000002957 ], [ -73.272976000001762, 42.723947000003328 ], [ -73.264827000001063, 42.745851000003242 ], [ -73.163641000001533, 42.743944000003417 ], [ -73.04843900000138, 42.741652000003313 ], [ -73.023015000001351, 42.741135000003304 ], [ -72.92682800000135, 42.739226000003192 ], [ -72.864319000001601, 42.737838000003144 ], [ -72.791078000001065, 42.736024000002885 ], [ -72.674693000000829, 42.732892000002671 ], [ -72.598656000000659, 42.730924000002894 ], [ -72.5167360000016, 42.728528000002719 ], [ -72.412036000001024, 42.725355000003233 ], [ -72.283045000001422, 42.721615000003027 ], [ -72.271956000001225, 42.674672000003056 ], [ -72.229480000001502, 42.662666000003057 ], [ -72.224932000001274, 42.638937000002798 ], [ -72.227763000000579, 42.616223000003345 ], [ -72.267064000001255, 42.60081300000342 ], [ -72.276568000001362, 42.573235000002775 ], [ -72.274100000001638, 42.562568000003374 ], [ -72.271352000001315, 42.547227000002977 ], [ -72.269111000001331, 42.533425000003007 ], [ -72.244868000000665, 42.513439000003409 ], [ -72.291288000001302, 42.479525000003278 ], [ -72.283259000001649, 42.441189000002751 ], [ -72.313556000001313, 42.405840000003167 ], [ -72.314253000001543, 42.343688000003333 ], [ -72.288734000001398, 42.352024000003127 ], [ -72.274639000001216, 42.301963000003369 ], [ -72.244543000001485, 42.306033000003417 ], [ -72.213973000001133, 42.294257000003206 ], [ -72.210798000001759, 42.294479000002958 ], [ -72.216514000000771, 42.259648000002898 ], [ -72.211079000001163, 42.251262000003443 ], [ -72.221218000001002, 42.245252000002679 ], [ -72.291567000001393, 42.23222100000276 ], [ -72.335968000000804, 42.220159000002894 ], [ -72.364603000001182, 42.203149000003123 ], [ -72.35821900000154, 42.189802000002722 ], [ -72.395478000001035, 42.185737000003499 ], [ -72.395250000001454, 42.184816000003238 ], [ -72.389049000001137, 42.152442000002701 ], [ -72.38050100000153, 42.108535000003059 ], [ -72.432475000001503, 42.118163000002639 ], [ -72.435921000001244, 42.107978000002838 ], [ -72.47380400000111, 42.103180000002929 ], [ -72.47108700000075, 42.089722000003029 ], [ -72.469939000000963, 42.08476400000275 ], [ -72.469248000001059, 42.081784000002877 ], [ -72.498404000000875, 42.073042000003085 ], [ -72.518562000000671, 42.072369000002624 ], [ -72.524589000001427, 42.034514000003014 ], [ -72.531549000000808, 42.034578000002888 ], [ -72.553077000000812, 42.032243000003014 ], [ -72.58216300000079, 42.024741000002777 ], [ -72.607978000001424, 42.031083000003129 ], [ -72.636976000001582, 42.03193300000293 ], [ -72.673099000000946, 42.035199000002677 ], [ -72.714561000001581, 42.036911000002988 ], [ -72.719281000001288, 42.036530000003069 ], [ -72.752062000001217, 42.029025000002811 ], [ -72.766733000001082, 42.003266000003286 ], [ -72.794866000000937, 42.000150000002947 ], [ -72.817053000001067, 41.997685000002654 ], [ -72.813784000001007, 42.036744000002834 ], [ -72.834966000001572, 42.037080000003456 ], [ -72.979038000001296, 42.038237000002809 ], [ -73.053288000001729, 42.039865000003445 ], [ -73.172121000001127, 42.043389000003017 ], [ -73.296327000001597, 42.047010000003439 ], [ -73.436758000000708, 42.050511000003105 ] ] ] } },
{ "type": "Feature", "properties": { "opt_all": 2, "population": 783991.0, "voting_age_pop": 623949.0, "dem_votes": 167521.0, "rep_votes": 151165.0, "minority_pop": 160818.0, "dem_pct": 0.52566162287465978, "rep_pct": 0.47433837681155167 }, "geometry": { "type": "Polygon", "coordinates": [ [ [ -72.135715000001483, 42.030222000003256 ], [ -72.198832000001019, 42.031021000002688 ], [ -72.27065700000125, 42.031615000003363 ], [ -72.299927000000594, 42.031852000003269 ], [ -72.366991000001036, 42.032705000002728 ], [ -72.458290000001014, 42.034325000003172 ], [ -72.479759000001266, 42.034269000002901 ], [ -72.524589000001427, 42.034514000003014 ], [ -72.518562000000671, 42.072369000002624 ], [ -72.498404000000875, 42.073042000003085 ], [ -72.469248000001059, 42.081784000002877 ], [ -72.469939000000963, 42.08476400000275 ], [ -72.47108700000075, 42.089722000003029 ], [ -72.47380400000111, 42.103180000002929 ], [ -72.435921000001244, 42.107978000002838 ], [ -72.432475000001503, 42.118163000002639 ], [ -72.38050100000153, 42.108535000003059 ], [ -72.389049000001137, 42.152442000002701 ], [ -72.395250000001454, 42.184816000003238 ], [ -72.395478000001035, 42.185737000003499 ], [ -72.35821900000154, 42.189802000002722 ], [ -72.364603000001182, 42.203149000003123 ], [ -72.335968000000804, 42.220159000002894 ], [ -72.291567000001393, 42.23222100000276 ], [ -72.221218000001002, 42.245252000002679 ], [ -72.211079000001163, 42.251262000003443 ], [ -72.216514000000771, 42.259648000002898 ], [ -72.210798000001759, 42.294479000002958 ], [ -72.213973000001133, 42.294257000003206 ], [ -72.244543000001485, 42.306033000003417 ], [ -72.274639000001216, 42.301963000003369 ], [ -72.288734000001398, 42.352024000003127 ], [ -72.314253000001543, 42.343688000003333 ], [ -72.313556000001313, 42.405840000003167 ], [ -72.283259000001649, 42.441189000002751 ], [ -72.291288000001302, 42.479525000003278 ], [ -72.244868000000665, 42.513439000003409 ], [ -72.269111000001331, 42.533425000003007 ], [ -72.271352000001315, 42.547227000002977 ], [ -72.274100000001638, 42.562568000003374 ], [ -72.276568000001362, 42.573235000002775 ], [ -72.267064000001255, 42.60081300000342 ], [ -72.227763000000579, 42.616223000003345 ], [ -72.224932000001274, 42.638937000002798 ], [ -72.229480000001502, 42.662666000003057 ], [ -72.271956000001225, 42.674672000003056 ], [ -72.283045000001422, 42.721615000003027 ], [ -72.126105000001658, 42.717604000003384 ], [ -72.111059000001006, 42.717206000002889 ], [ -72.077673000001042, 42.716200000002893 ], [ -71.981431000000953, 42.713229000003011 ], [ -71.898773000001086, 42.711312000003154 ], [ -71.857757000001683, 42.674982000003176 ], [ -71.858483000001613, 42.633815000003111 ], [ -71.834458000000936, 42.637787000002611 ], [ -71.775325000000592, 42.636663000002898 ], [ -71.775755000001325, 42.644230000002857 ], [ -71.732257000001212, 42.631454000002925 ], [ -71.701340000000769, 42.622426000003287 ], [ -71.664601000000786, 42.61159800000317 ], [ -71.672687000001545, 42.567092000003079 ], [ -71.678969000001018, 42.530430000003335 ], [ -71.635869000000653, 42.524024000003273 ], [ -71.619927000001496, 42.552502000002917 ], [ -71.593189000001033, 42.543834000003237 ], [ -71.580287000000737, 42.550467000003351 ], [ -71.538780000001694, 42.543030000002702 ], [ -71.529841000000616, 42.519841000002899 ], [ -71.560367000000639, 42.474350000003433 ], [ -71.543394000001356, 42.466452000003081 ], [ -71.548903000000891, 42.44730800000314 ], [ -71.550702000001436, 42.441067000002747 ], [ -71.559100000001024, 42.411943000003092 ], [ -71.579095000001658, 42.408239000002638 ], [ -71.603725000001134, 42.397962000002984 ], [ -71.604251000000659, 42.39770300000297 ], [ -71.580150000000714, 42.386998000003416 ], [ -71.603065000000598, 42.367267000002883 ], [ -71.624702000000809, 42.350465000003297 ], [ -71.618260000000859, 42.342589000002832 ], [ -71.603960000000768, 42.335341000003389 ], [ -71.585210000001496, 42.310952000003191 ], [ -71.537316000000743, 42.327969000002689 ], [ -71.511238000000617, 42.328805000002909 ], [ -71.486797000001616, 42.33018900000291 ], [ -71.486744000001693, 42.329937000002886 ], [ -71.486350000000911, 42.310449000003487 ], [ -71.497046000001419, 42.289829000002619 ], [ -71.499575000001172, 42.284992000002745 ], [ -71.500317000000877, 42.283576000003059 ], [ -71.522178000001162, 42.266454000002781 ], [ -71.536308000001441, 42.264726000002959 ], [ -71.550115000000886, 42.266023000002768 ], [ -71.577968000000766, 42.262444000003242 ], [ -71.608815000001087, 42.276615000003424 ], [ -71.624927000001392, 42.274284000002851 ], [ -71.654521000001452, 42.284120000003433 ], [ -71.67011500000072, 42.278763000003067 ], [ -71.672933000001663, 42.281799000003339 ], [ -71.697611000000649, 42.277324000003141 ], [ -71.691230000000772, 42.265029000002926 ], [ -71.711542000000989, 42.250202000002922 ], [ -71.724876000001515, 42.243095000002718 ], [ -71.7312370000013, 42.241286000002759 ], [ -71.733429000001024, 42.237975000002692 ], [ -71.745356000001095, 42.232750000002646 ], [ -71.761712000000557, 42.225577000002922 ], [ -71.750209000001675, 42.195883000003043 ], [ -71.76654000000137, 42.187572000003037 ], [ -71.766702000000606, 42.172528000003197 ], [ -71.749235000001192, 42.180201000002981 ], [ -71.72353500000068, 42.191484000002582 ], [ -71.718614000000642, 42.17296700000275 ], [ -71.691418000000738, 42.163108000002943 ], [ -71.692366000000746, 42.154296000003434 ], [ -71.694132000001105, 42.1211260000034 ], [ -71.679971000000648, 42.103396000002753 ], [ -71.65406200000092, 42.0963560000027 ], [ -71.627110000000897, 42.073345000003087 ], [ -71.624130000000918, 42.07201000000326 ], [ -71.623400000001325, 42.105134000003268 ], [ -71.592634000001112, 42.114238000002814 ], [ -71.591951000001089, 42.063695000002717 ], [ -71.563917000000558, 42.064056000002672 ], [ -71.563665000000583, 42.014276000003349 ], [ -71.591100000001489, 42.01364600000344 ], [ -71.680871000000721, 42.011530000003013 ], [ -71.755106000001675, 42.009857000002938 ], [ -71.799188000001337, 42.008053000003109 ], [ -71.804549000000748, 42.023556000003467 ], [ -71.845712000001541, 42.023994000003363 ], [ -71.883947000000816, 42.024394000002665 ], [ -71.920885000001576, 42.025070000003318 ], [ -71.993102000001187, 42.026928000003139 ], [ -72.034578000000806, 42.027304000002957 ], [ -72.099752000001601, 42.028770000003149 ], [ -72.135715000001483, 42.030222000003256 ] ] ] } },
{ "type": "Feature", "properties": { "opt_all": 3, "population": 781258.0, "voting_age_pop": 615527.0, "dem_votes": 209024.0, "rep_votes": 142888.0, "minority_pop": 175237.0, "dem_pct": 0.59396667331777075, "rep_pct": 0.40603332639806733 }, "geometry": { "type": "Polygon", "coordinates": [ [ [ -71.400861000001242, 42.286417000002686 ], [ -71.399590000001197, 42.281156000002653 ], [ -71.399391000001273, 42.280607000003272 ], [ -71.396198000001263, 42.2744190000031 ], [ -71.390365000001239, 42.271916000002761 ], [ -71.417069000000808, 42.257721000002952 ], [ -71.41929800000149, 42.257281000002891 ], [ -71.429273000000904, 42.262535000003417 ], [ -71.431129000001206, 42.263503000002792 ], [ -71.444215000001492, 42.270374000003308 ], [ -71.444617000001642, 42.270588000003187 ], [ -71.49142600000134, 42.288162000003496 ], [ -71.497046000001419, 42.289829000002619 ], [ -71.486350000000911, 42.310449000003487 ], [ -71.486744000001693, 42.329937000002886 ], [ -71.486797000001616, 42.33018900000291 ], [ -71.511238000000617, 42.328805000002909 ], [ -71.537316000000743, 42.327969000002689 ], [ -71.585210000001496, 42.310952000003191 ], [ -71.603960000000768, 42.335341000003389 ], [ -71.618260000000859, 42.342589000002832 ], [ -71.624702000000809, 42.350465000003297 ], [ -71.603065000000598, 42.367267000002883 ], [ -71.580150000000714, 42.386998000003416 ], [ -71.604251000000659, 42.39770300000297 ], [ -71.603725000001134, 42.397962000002984 ], [ -71.579095000001658, 42.408239000002638 ], [ -71.559100000001024, 42.411943000003092 ], [ -71.550702000001436, 42.441067000002747 ], [ -71.548903000000891, 42.44730800000314 ], [ -71.543394000001356, 42.466452000003081 ], [ -71.560367000000639, 42.474350000003433 ], [ -71.529841000000616, 42.519841000002899 ], [ -71.538780000001694, 42.543030000002702 ], [ -71.580287000000737, 42.550467000003351 ], [ -71.593189000001033, 42.543834000003237 ], [ -71.619927000001496, 42.552502000002917 ], [ -71.635869000000653, 42.524024000003273 ], [ -71.678969000001018, 42.530430000003335 ], [ -71.672687000001545, 42.567092000003079 ], [ -71.664601000000786, 42.61159800000317 ], [ -71.701340000000769, 42.622426000003287 ], [ -71.732257000001212, 42.631454000002925 ], [ -71.775755000001325, 42.644230000002857 ], [ -71.775325000000592, 42.636663000002898 ], [ -71.834458000000936, 42.637787000002611 ], [ -71.858483000001613, 42.633815000003111 ], [ -71.857757000001683, 42.674982000003176 ], [ -71.898773000001086, 42.711312000003154 ], [ -71.772554000001406, 42.708067000002842 ], [ -71.771265000001577, 42.708040000002626 ], [ -71.651884000000678, 42.704770000002576 ], [ -71.585858000001352, 42.703564000003361 ], [ -71.542538000001073, 42.702661000003111 ], [ -71.457691000001546, 42.700525000002976 ], [ -71.432336000001499, 42.700048000003342 ], [ -71.369729000000731, 42.698410000002816 ], [ -71.351635000000982, 42.697901000002695 ], [ -71.330447000001612, 42.697479000002907 ], [ -71.313491000000965, 42.697316000002886 ], [ -71.279071000000812, 42.711246000003229 ], [ -71.255147000001614, 42.736554000003437 ], [ -71.252420000001081, 42.725925000002739 ], [ -71.238179000001693, 42.669419000003366 ], [ -71.209942000001718, 42.700620000002985 ], [ -71.188862000001706, 42.696268000003386 ], [ -71.172533000001181, 42.678081000003267 ], [ -71.16572200000158, 42.679245000002652 ], [ -71.160911000000993, 42.680054000002855 ], [ -71.145563000000976, 42.680053000003348 ], [ -71.141809000000535, 42.655177000002986 ], [ -71.142077000001606, 42.654706000002754 ], [ -71.141908000000996, 42.634948000002801 ], [ -71.159805000000745, 42.626747000002936 ], [ -71.155721000001549, 42.615092000003251 ], [ -71.135456000001383, 42.599116000003178 ], [ -71.110996000001606, 42.601164000002797 ], [ -71.089365000001635, 42.603007000002947 ], [ -71.076167000000837, 42.604136000003038 ], [ -71.058766000001626, 42.609077000002927 ], [ -71.033998000001475, 42.585493000003289 ], [ -71.035460000001009, 42.570259000003489 ], [ -71.063260000001691, 42.564685000002768 ], [ -71.065110000001695, 42.561938000003138 ], [ -71.070978000001148, 42.555889000003418 ], [ -71.075150000001585, 42.531035000003193 ], [ -71.079745000001637, 42.526725000003026 ], [ -71.080103000000932, 42.526388000002633 ], [ -71.09108900000156, 42.5175810000027 ], [ -71.100727000000887, 42.502242000003058 ], [ -71.101786000000828, 42.502134000003181 ], [ -71.119760000001378, 42.500292000002801 ], [ -71.115644000000614, 42.489593000003168 ], [ -71.113168000001366, 42.478697000003095 ], [ -71.11205600000136, 42.473820000002952 ], [ -71.129145000001557, 42.471579000002698 ], [ -71.133926000000727, 42.469942000003307 ], [ -71.14600800000126, 42.465801000002699 ], [ -71.150544000001005, 42.464295000003418 ], [ -71.153032000000934, 42.462495000003329 ], [ -71.16434300000158, 42.459758000002907 ], [ -71.189635000001061, 42.449830000003224 ], [ -71.183979000001173, 42.444215000003105 ], [ -71.18237800000125, 42.443499000003271 ], [ -71.182277000001719, 42.436279000002926 ], [ -71.184768000001071, 42.433275000002794 ], [ -71.190445000000921, 42.427215000002981 ], [ -71.195676000001072, 42.422060000002752 ], [ -71.196009000000956, 42.421730000003372 ], [ -71.202612000000954, 42.414826000003032 ], [ -71.207603000001129, 42.409780000002705 ], [ -71.211261000001329, 42.406074000002853 ], [ -71.232919000001317, 42.413171000002869 ], [ -71.251538000001347, 42.419288000003469 ], [ -71.267230000001092, 42.424438000003285 ], [ -71.273865000001038, 42.410901000002852 ], [ -71.282825000000827, 42.399728000002803 ], [ -71.289724000001414, 42.401067000002698 ], [ -71.29952000000074, 42.401274000002587 ], [ -71.334569000001522, 42.396114000002989 ], [ -71.366340000001173, 42.412720000002686 ], [ -71.396264000000954, 42.42402000000321 ], [ -71.424686000001486, 42.400594000003153 ], [ -71.415458000001507, 42.383072000002677 ], [ -71.428285000001225, 42.377717000003358 ], [ -71.45397000000105, 42.385499000002859 ], [ -71.475498000001664, 42.380655000003195 ], [ -71.475505000001107, 42.380632000003267 ], [ -71.482487000000603, 42.35616600000305 ], [ -71.483298000001597, 42.353130000003411 ], [ -71.428574000001149, 42.345497000003043 ], [ -71.396717000000706, 42.341045000003078 ], [ -71.394948000001136, 42.338653000003049 ], [ -71.381804000000585, 42.328520000003401 ], [ -71.381656000001328, 42.328127000002766 ], [ -71.377687000000634, 42.314669000003107 ], [ -71.379763000001347, 42.311988000003339 ], [ -71.402125000000993, 42.291656000002845 ], [ -71.400861000001242, 42.286417000002686 ] ] ] } },
{ "type": "Feature", "properties": { "opt_all": 4, "population": 778074.0, "voting_age_pop": 609313.0, "dem_votes": 222828.0, "rep_votes": 153164.0, "minority_pop": 129684.0, "dem_pct": 0.5926402687842719, "rep_pct": 0.40735973094976496 }, "geometry": { "type": "Polygon", "coordinates": [ [ [ -71.563665000000583, 42.014276000003349 ], [ -71.563917000000558, 42.064056000002672 ], [ -71.591951000001089, 42.063695000002717 ], [ -71.592634000001112, 42.114238000002814 ], [ -71.623400000001325, 42.105134000003268 ], [ -71.624130000000918, 42.07201000000326 ], [ -71.627110000000897, 42.073345000003087 ], [ -71.65406200000092, 42.0963560000027 ], [ -71.679971000000648, 42.103396000002753 ], [ -71.694132000001105, 42.1211260000034 ], [ -71.692366000000746, 42.154296000003434 ], [ -71.691418000000738, 42.163108000002943 ], [ -71.718614000000642, 42.17296700000275 ], [ -71.72353500000068, 42.191484000002582 ], [ -71.749235000001192, 42.180201000002981 ], [ -71.766702000000606, 42.172528000003197 ], [ -71.76654000000137, 42.187572000003037 ], [ -71.750209000001675, 42.195883000003043 ], [ -71.761712000000557, 42.225577000002922 ], [ -71.745356000001095, 42.232750000002646 ], [ -71.733429000001024, 42.237975000002692 ], [ -71.7312370000013, 42.241286000002759 ], [ -71.724876000001515, 42.243095000002718 ], [ -71.711542000000989, 42.250202000002922 ], [ -71.691230000000772, 42.265029000002926 ], [ -71.697611000000649, 42.277324000003141 ], [ -71.672933000001663, 42.281799000003339 ], [ -71.67011500000072, 42.278763000003067 ], [ -71.654521000001452, 42.284120000003433 ], [ -71.624927000001392, 42.274284000002851 ], [ -71.608815000001087, 42.276615000003424 ], [ -71.577968000000766, 42.262444000003242 ], [ -71.550115000000886, 42.266023000002768 ], [ -71.536308000001441, 42.264726000002959 ], [ -71.522178000001162, 42.266454000002781 ], [ -71.500317000000877, 42.283576000003059 ], [ -71.499575000001172, 42.284992000002745 ], [ -71.497046000001419, 42.289829000002619 ], [ -71.49142600000134, 42.288162000003496 ], [ -71.444617000001642, 42.270588000003187 ], [ -71.444215000001492, 42.270374000003308 ], [ -71.431129000001206, 42.263503000002792 ], [ -71.429273000000904, 42.262535000003417 ], [ -71.41929800000149, 42.257281000002891 ], [ -71.417069000000808, 42.257721000002952 ], [ -71.390365000001239, 42.271916000002761 ], [ -71.396198000001263, 42.2744190000031 ], [ -71.399391000001273, 42.280607000003272 ], [ -71.399590000001197, 42.281156000002653 ], [ -71.400861000001242, 42.286417000002686 ], [ -71.402125000000993, 42.291656000002845 ], [ -71.379763000001347, 42.311988000003339 ], [ -71.377687000000634, 42.314669000003107 ], [ -71.381656000001328, 42.328127000002766 ], [ -71.381804000000585, 42.328520000003401 ], [ -71.394948000001136, 42.338653000003049 ], [ -71.396717000000706, 42.341045000003078 ], [ -71.428574000001149, 42.345497000003043 ], [ -71.483298000001597, 42.353130000003411 ], [ -71.482487000000603, 42.35616600000305 ], [ -71.475505000001107, 42.380632000003267 ], [ -71.475498000001664, 42.380655000003195 ], [ -71.45397000000105, 42.385499000002859 ], [ -71.428285000001225, 42.377717000003358 ], [ -71.415458000001507, 42.383072000002677 ], [ -71.424686000001486, 42.400594000003153 ], [ -71.396264000000954, 42.42402000000321 ], [ -71.366340000001173, 42.412720000002686 ], [ -71.334569000001522, 42.396114000002989 ], [ -71.29952000000074, 42.401274000002587 ], [ -71.289724000001414, 42.401067000002698 ], [ -71.282825000000827, 42.399728000002803 ], [ -71.273865000001038, 42.410901000002852 ], [ -71.267230000001092, 42.424438000003285 ], [ -71.251538000001347, 42.419288000003469 ], [ -71.232919000001317, 42.413171000002869 ], [ -71.211261000001329, 42.406074000002853 ], [ -71.196742000001166, 42.390544000002983 ], [ -71.194177000000764, 42.386031000003179 ], [ -71.199578000000614, 42.381436000003454 ], [ -71.205355000000637, 42.376526000002976 ], [ -71.208515000001, 42.373850000002832 ], [ -71.217061000001422, 42.366569000003423 ], [ -71.217190000001338, 42.366534000002815 ], [ -71.226229000000657, 42.36387200000339 ], [ -71.236588000000921, 42.360805000002834 ], [ -71.237621000000999, 42.360498000002835 ], [ -71.252444000000722, 42.356105000003033 ], [ -71.252926000001196, 42.355962000003125 ], [ -71.260385000000809, 42.353633000003448 ], [ -71.261344000001401, 42.343903000002662 ], [ -71.26091900000084, 42.340982000003123 ], [ -71.269958000001211, 42.328086000003267 ], [ -71.24919000000115, 42.323638000002639 ], [ -71.246146000001062, 42.321013000003362 ], [ -71.228035000000645, 42.316838000002768 ], [ -71.227543000001234, 42.315400000002931 ], [ -71.217017000000993, 42.306564000003199 ], [ -71.207881000001009, 42.297157000003146 ], [ -71.191247000001326, 42.282992000002736 ], [ -71.188212000001414, 42.280438000003123 ], [ -71.185307000001316, 42.279497000002948 ], [ -71.173342000001171, 42.27084900000262 ], [ -71.17132200000151, 42.265346000003042 ], [ -71.167393000001198, 42.262197000002722 ], [ -71.158584000000545, 42.255155000003192 ], [ -71.155958000001178, 42.256485000003437 ], [ -71.152118000000613, 42.258247000002918 ], [ -71.146127000000817, 42.252964000003182 ], [ -71.143869000001118, 42.241841000003127 ], [ -71.143498000000832, 42.24006500000322 ], [ -71.130771000001317, 42.227926000002896 ], [ -71.126377000001298, 42.239162000003063 ], [ -71.114563000001496, 42.245284000003309 ], [ -71.112057000001172, 42.246585000003115 ], [ -71.113009000000929, 42.258689000002661 ], [ -71.108405000000957, 42.261116000003312 ], [ -71.097899000001419, 42.262882000002989 ], [ -71.093908000001221, 42.267140000003216 ], [ -71.093736000001286, 42.267136000003191 ], [ -71.08775100000129, 42.269555000003187 ], [ -71.075246000000604, 42.270300000003168 ], [ -71.073264000001004, 42.270317000002976 ], [ -71.068140000000568, 42.271000000003227 ], [ -71.051943000001259, 42.259950000003322 ], [ -71.051271000000867, 42.247780000003466 ], [ -71.057970000001632, 42.237240000003069 ], [ -71.053246000001238, 42.229528000002873 ], [ -71.08016300000142, 42.218859000003143 ], [ -71.082727000001512, 42.204290000003141 ], [ -71.065118000000524, 42.20544800000313 ], [ -71.059360000000581, 42.191670000002802 ], [ -71.061450000001471, 42.186960000003118 ], [ -71.074353000001565, 42.175243000003192 ], [ -71.072597000001423, 42.170109000003393 ], [ -71.095040000001035, 42.192718000003275 ], [ -71.116820000000814, 42.180500000002965 ], [ -71.138290000001177, 42.17279000000282 ], [ -71.144960000001163, 42.158920000002745 ], [ -71.136720000001191, 42.154000000002704 ], [ -71.117453000000509, 42.142729000003435 ], [ -71.104070000000817, 42.145903000003308 ], [ -71.101689000000889, 42.135494000003014 ], [ -71.092560000001114, 42.131980000003104 ], [ -71.06832600000115, 42.125874000003066 ], [ -71.05651100000145, 42.153815000003007 ], [ -71.053927000001678, 42.151195000003 ], [ -71.035093000001694, 42.135634000002725 ], [ -71.02731400000053, 42.131072000003229 ], [ -71.021859000001328, 42.118745000003145 ], [ -71.025534000001301, 42.117293000002824 ], [ -71.044305000001387, 42.109878000003256 ], [ -71.057766000001664, 42.104570000003477 ], [ -71.061256000001023, 42.103194000003263 ], [ -71.067070000000939, 42.100880000003251 ], [ -71.080483000000697, 42.095539000003065 ], [ -71.078758000001386, 42.088274000003054 ], [ -71.07420600000134, 42.069116000003064 ], [ -71.07119700000105, 42.05645900000313 ], [ -71.069595000001669, 42.049704000002741 ], [ -71.060725000000858, 42.011171000003067 ], [ -71.054718000001017, 41.985057000002897 ], [ -71.054184000001214, 41.982716000003307 ], [ -71.042627000000721, 41.959516000002736 ], [ -71.052950000001601, 41.939746000002643 ], [ -71.072894000001583, 41.948995000002839 ], [ -71.079580000001329, 41.923020000002793 ], [ -71.092234000001312, 41.938416000003485 ], [ -71.100185000001389, 41.928962000003338 ], [ -71.12345400000082, 41.926392000002934 ], [ -71.155190000001411, 41.938464000002774 ], [ -71.125664000001592, 41.967082000003252 ], [ -71.100854000000638, 41.993151000003103 ], [ -71.156450000001314, 42.001042000003025 ], [ -71.158704000001165, 42.01262400000266 ], [ -71.190907000000976, 41.999579000003308 ], [ -71.168725000001487, 41.975634000002842 ], [ -71.187767000000719, 41.967053000003219 ], [ -71.198515000001137, 41.961596000003112 ], [ -71.221469000000951, 41.988577000002941 ], [ -71.259289000001118, 41.974216000003132 ], [ -71.243383000000989, 41.953845000003405 ], [ -71.281377000001484, 41.944300000003338 ], [ -71.283358000000945, 41.944669000003387 ], [ -71.291074000001544, 41.971861000002995 ], [ -71.268739000000721, 41.987300000002797 ], [ -71.288265000001132, 42.014462000003228 ], [ -71.303616000001384, 42.00858500000259 ], [ -71.326932000001207, 41.999647000002824 ], [ -71.342822000000723, 41.993546000003263 ], [ -71.361275000000859, 41.986470000003095 ], [ -71.381299000000737, 41.98508400000317 ], [ -71.381401000000565, 42.018798000002768 ], [ -71.414260000000766, 42.018499000003494 ], [ -71.458104000001313, 42.017798000002621 ], [ -71.49825900000134, 42.017272000002677 ], [ -71.527702000001298, 42.01509500000283 ], [ -71.553256000000687, 42.014514000003331 ], [ -71.563665000000583, 42.014276000003349 ] ] ] } },
{ "type": "Feature", "properties": { "opt_all": 5, "population": 778032.0, "voting_age_pop": 651888.0, "dem_votes": 229249.0, "rep_votes": 76135.0, "minority_pop": 259117.0, "dem_pct": 0.75069093313641477, "rep_pct": 0.24930906653612858 }, "geometry": { "type": "Polygon", "coordinates": [ [ [ -71.166699000001586, 42.34000900000278 ], [ -71.170003000001657, 42.344252000003301 ], [ -71.17189800000078, 42.346655000003409 ], [ -71.174265000000986, 42.349584000003439 ], [ -71.17393500000108, 42.353397000003362 ], [ -71.170397000001302, 42.357115000003255 ], [ -71.167625000001394, 42.360073000003318 ], [ -71.168040000001668, 42.360148000002887 ], [ -71.183271000000559, 42.359323000003279 ], [ -71.190231000001418, 42.360384000003052 ], [ -71.192215000001582, 42.365424000002832 ], [ -71.195206000001164, 42.367734000003075 ], [ -71.204486000001623, 42.365785000002745 ], [ -71.213283000001709, 42.364959000003495 ], [ -71.217061000001422, 42.366569000003423 ], [ -71.208515000001, 42.373850000002832 ], [ -71.205355000000637, 42.376526000002976 ], [ -71.199578000000614, 42.381436000003454 ], [ -71.194177000000764, 42.386031000003179 ], [ -71.196742000001166, 42.390544000002983 ], [ -71.211261000001329, 42.406074000002853 ], [ -71.207603000001129, 42.409780000002705 ], [ -71.202612000000954, 42.414826000003032 ], [ -71.196009000000956, 42.421730000003372 ], [ -71.195676000001072, 42.422060000002752 ], [ -71.190445000000921, 42.427215000002981 ], [ -71.184768000001071, 42.433275000002794 ], [ -71.182277000001719, 42.436279000002926 ], [ -71.18237800000125, 42.443499000003271 ], [ -71.183979000001173, 42.444215000003105 ], [ -71.189635000001061, 42.449830000003224 ], [ -71.16434300000158, 42.459758000002907 ], [ -71.153032000000934, 42.462495000003329 ], [ -71.150544000001005, 42.464295000003418 ], [ -71.14600800000126, 42.465801000002699 ], [ -71.133926000000727, 42.469942000003307 ], [ -71.129145000001557, 42.471579000002698 ], [ -71.11205600000136, 42.473820000002952 ], [ -71.113168000001366, 42.478697000003095 ], [ -71.115644000000614, 42.489593000003168 ], [ -71.119760000001378, 42.500292000002801 ], [ -71.101786000000828, 42.502134000003181 ], [ -71.100727000000887, 42.502242000003058 ], [ -71.09691300000128, 42.501889000003089 ], [ -71.086382000000782, 42.493976000002867 ], [ -71.075814000001415, 42.483573000003389 ], [ -71.078152000001126, 42.474020000003343 ], [ -71.070146000001046, 42.471864000003393 ], [ -71.061269000000706, 42.472651000003431 ], [ -71.053365000001136, 42.475925000003002 ], [ -71.052629000001389, 42.486057000003306 ], [ -71.041859000000585, 42.493292000002967 ], [ -71.040019000000967, 42.495800000003342 ], [ -71.042087000001388, 42.498271000003058 ], [ -71.035839000001616, 42.505192000003483 ], [ -71.011623000001478, 42.50164800000308 ], [ -71.002283000001654, 42.49430700000336 ], [ -71.001706000001548, 42.492790000002813 ], [ -70.991695000000689, 42.466431000002871 ], [ -70.989058000000981, 42.459659000003079 ], [ -70.979494000000855, 42.456196000002976 ], [ -70.96859400000146, 42.444396000002911 ], [ -70.95079300000053, 42.444296000002858 ], [ -70.959494000000731, 42.4074980000034 ], [ -70.980928000001029, 42.391395000002895 ], [ -70.986053000000524, 42.388116000003123 ], [ -70.99504700000098, 42.393566000003105 ], [ -71.000683000001189, 42.396817000002898 ], [ -71.013395000001367, 42.397398000003449 ], [ -71.017232000001101, 42.392472000002982 ], [ -71.018791000001414, 42.389544000003042 ], [ -71.022672000001606, 42.386265000002808 ], [ -71.031995000001189, 42.384597000002977 ], [ -71.033234000000675, 42.384910000003245 ], [ -71.0392620000015, 42.386831000002921 ], [ -71.044298000001248, 42.383209000003056 ], [ -71.055295000000726, 42.387097000003457 ], [ -71.05739500000108, 42.387297000003102 ], [ -71.066944000000518, 42.394755000002597 ], [ -71.073496000000574, 42.391796000003247 ], [ -71.078727000000796, 42.384306000003114 ], [ -71.073928000000976, 42.376157000003268 ], [ -71.072689000000622, 42.373222000002883 ], [ -71.064059000000583, 42.369001000003138 ], [ -71.07064400000165, 42.367949000003243 ], [ -71.075710000000839, 42.361463000003184 ], [ -71.076403000000639, 42.359956000002974 ], [ -71.079361000001327, 42.358267000002769 ], [ -71.083398000000955, 42.356925000002661 ], [ -71.087511000001314, 42.355557000003031 ], [ -71.094025000000812, 42.35372300000305 ], [ -71.087758000000676, 42.347300000003358 ], [ -71.089264000001293, 42.346887000003221 ], [ -71.092044000001707, 42.346850000003336 ], [ -71.098115000001457, 42.347637000002742 ], [ -71.099802000000537, 42.347651000002998 ], [ -71.106894000001247, 42.348588000003069 ], [ -71.113784000001559, 42.350780000002665 ], [ -71.118277000001015, 42.351326000003425 ], [ -71.121311000001342, 42.35167500000307 ], [ -71.124755000001429, 42.3512300000029 ], [ -71.129746000001703, 42.348850000003502 ], [ -71.132007000000698, 42.347773000003315 ], [ -71.135155000001376, 42.346023000003171 ], [ -71.137824000000791, 42.343876000002631 ], [ -71.138809000000819, 42.343087000002782 ], [ -71.139977000001352, 42.342140000002779 ], [ -71.146215000001078, 42.33863200000269 ], [ -71.150104000000781, 42.335282000002692 ], [ -71.157036000001369, 42.330390000003398 ], [ -71.167565000001588, 42.333441000002665 ], [ -71.166699000001586, 42.34000900000278 ] ] ] } },
{ "type": "Feature", "properties": { "opt_all": 6, "population": 783800.0, "voting_age_pop": 620035.0, "dem_votes": 199576.0, "rep_votes": 137625.0, "minority_pop": 185424.0, "dem_pct": 0.59186064080715639, "rep_pct": 0.40813935889628461 }, "geometry": { "type": "Polygon", "coordinates": [ [ [ -71.172533000001181, 42.678081000003267 ], [ -71.188862000001706, 42.696268000003386 ], [ -71.209942000001718, 42.700620000002985 ], [ -71.238179000001693, 42.669419000003366 ], [ -71.252420000001081, 42.725925000002739 ], [ -71.255147000001614, 42.736554000003437 ], [ -71.21654600000052, 42.744906000002977 ], [ -71.188134000001284, 42.738720000002857 ], [ -71.182756000001518, 42.751007000002666 ], [ -71.182398000001484, 42.79433000000261 ], [ -71.147939000000733, 42.816176000003054 ], [ -71.132805000001028, 42.821476000002683 ], [ -71.091236000001729, 42.81224000000293 ], [ -71.06441600000089, 42.806275000003069 ], [ -71.054005000001609, 42.833282000002797 ], [ -71.04492000000171, 42.848667000003047 ], [ -71.016339000000769, 42.861682000002766 ], [ -71.004902000000641, 42.863347000003422 ], [ -70.974719000000519, 42.867695000003074 ], [ -70.955658000001392, 42.873430000003125 ], [ -70.914631000001521, 42.886648000003277 ], [ -70.885602000001697, 42.882834000003363 ], [ -70.863696000001056, 42.870138000003081 ], [ -70.847718000001649, 42.860867000002855 ], [ -70.813832000001597, 42.872298000003376 ], [ -70.735005000000783, 42.874685000002671 ], [ -70.74883000000051, 42.858831000002645 ], [ -70.734874000001028, 42.824477000003114 ], [ -70.737225000001047, 42.787956000002815 ], [ -70.714324000001014, 42.731911000003429 ], [ -70.702580000000495, 42.724162000003027 ], [ -70.661314000000658, 42.736610000003431 ], [ -70.625943000000888, 42.739724000003037 ], [ -70.549306000000499, 42.724164000003121 ], [ -70.513934000000887, 42.680594000002934 ], [ -70.502143000001112, 42.624579000003429 ], [ -70.521793000000798, 42.593459000002611 ], [ -70.545374000001132, 42.57011900000348 ], [ -70.582709000000705, 42.553004000003291 ], [ -70.606290000001266, 42.531220000003167 ], [ -70.648072000001662, 42.405628000003269 ], [ -70.74948700000121, 42.400820000002881 ], [ -70.851436000001499, 42.393209000003381 ], [ -70.905993000000763, 42.438297000003047 ], [ -70.936611000001577, 42.456883000003458 ], [ -70.941593000000637, 42.455696000003066 ], [ -70.95079300000053, 42.444296000002858 ], [ -70.96859400000146, 42.444396000002911 ], [ -70.979494000000855, 42.456196000002976 ], [ -70.989058000000981, 42.459659000003079 ], [ -70.991695000000689, 42.466431000002871 ], [ -71.001706000001548, 42.492790000002813 ], [ -71.002283000001654, 42.49430700000336 ], [ -71.011623000001478, 42.50164800000308 ], [ -71.035839000001616, 42.505192000003483 ], [ -71.042087000001388, 42.498271000003058 ], [ -71.040019000000967, 42.495800000003342 ], [ -71.041859000000585, 42.493292000002967 ], [ -71.052629000001389, 42.486057000003306 ], [ -71.053365000001136, 42.475925000003002 ], [ -71.061269000000706, 42.472651000003431 ], [ -71.070146000001046, 42.471864000003393 ], [ -71.078152000001126, 42.474020000003343 ], [ -71.075814000001415, 42.483573000003389 ], [ -71.086382000000782, 42.493976000002867 ], [ -71.09691300000128, 42.501889000003089 ], [ -71.100727000000887, 42.502242000003058 ], [ -71.09108900000156, 42.5175810000027 ], [ -71.080103000000932, 42.526388000002633 ], [ -71.079745000001637, 42.526725000003026 ], [ -71.075150000001585, 42.531035000003193 ], [ -71.070978000001148, 42.555889000003418 ], [ -71.065110000001695, 42.561938000003138 ], [ -71.063260000001691, 42.564685000002768 ], [ -71.035460000001009, 42.570259000003489 ], [ -71.033998000001475, 42.585493000003289 ], [ -71.058766000001626, 42.609077000002927 ], [ -71.076167000000837, 42.604136000003038 ], [ -71.089365000001635, 42.603007000002947 ], [ -71.110996000001606, 42.601164000002797 ], [ -71.135456000001383, 42.599116000003178 ], [ -71.155721000001549, 42.615092000003251 ], [ -71.159805000000745, 42.626747000002936 ], [ -71.141908000000996, 42.634948000002801 ], [ -71.142077000001606, 42.654706000002754 ], [ -71.141809000000535, 42.655177000002986 ], [ -71.145563000000976, 42.680053000003348 ], [ -71.160911000000993, 42.680054000002855 ], [ -71.16572200000158, 42.679245000002652 ], [ -71.172533000001181, 42.678081000003267 ] ] ] } },
{ "type": "Feature", "properties": { "opt_all": 7, "population": 781876.0, "voting_age_pop": 647972.0, "dem_votes": 242319.0, "rep_votes": 69517.0, "minority_pop": 310248.0, "dem_pct": 0.77707192217156706, "rep_pct": 0.22292807750775148 }, "geometry": { "type": "Polygon", "coordinates": [ [ [ -71.17132200000151, 42.265346000003042 ], [ -71.173342000001171, 42.27084900000262 ], [ -71.185307000001316, 42.279497000002948 ], [ -71.188212000001414, 42.280438000003123 ], [ -71.191247000001326, 42.282992000002736 ], [ -71.207881000001009, 42.297157000003146 ], [ -71.217017000000993, 42.306564000003199 ], [ -71.227543000001234, 42.315400000002931 ], [ -71.228035000000645, 42.316838000002768 ], [ -71.246146000001062, 42.321013000003362 ], [ -71.24919000000115, 42.323638000002639 ], [ -71.269958000001211, 42.328086000003267 ], [ -71.26091900000084, 42.340982000003123 ], [ -71.261344000001401, 42.343903000002662 ], [ -71.260385000000809, 42.353633000003448 ], [ -71.252926000001196, 42.355962000003125 ], [ -71.252444000000722, 42.356105000003033 ], [ -71.237621000000999, 42.360498000002835 ], [ -71.236588000000921, 42.360805000002834 ], [ -71.226229000000657, 42.36387200000339 ], [ -71.217190000001338, 42.366534000002815 ], [ -71.217061000001422, 42.366569000003423 ], [ -71.213283000001709, 42.364959000003495 ], [ -71.204486000001623, 42.365785000002745 ], [ -71.195206000001164, 42.367734000003075 ], [ -71.192215000001582, 42.365424000002832 ], [ -71.190231000001418, 42.360384000003052 ], [ -71.183271000000559, 42.359323000003279 ], [ -71.168040000001668, 42.360148000002887 ], [ -71.167625000001394, 42.360073000003318 ], [ -71.170397000001302, 42.357115000003255 ], [ -71.17393500000108, 42.353397000003362 ], [ -71.174265000000986, 42.349584000003439 ], [ -71.17189800000078, 42.346655000003409 ], [ -71.170003000001657, 42.344252000003301 ], [ -71.166699000001586, 42.34000900000278 ], [ -71.167565000001588, 42.333441000002665 ], [ -71.157036000001369, 42.330390000003398 ], [ -71.150104000000781, 42.335282000002692 ], [ -71.146215000001078, 42.33863200000269 ], [ -71.139977000001352, 42.342140000002779 ], [ -71.138809000000819, 42.343087000002782 ], [ -71.137824000000791, 42.343876000002631 ], [ -71.135155000001376, 42.346023000003171 ], [ -71.132007000000698, 42.347773000003315 ], [ -71.129746000001703, 42.348850000003502 ], [ -71.124755000001429, 42.3512300000029 ], [ -71.121311000001342, 42.35167500000307 ], [ -71.118277000001015, 42.351326000003425 ], [ -71.113784000001559, 42.350780000002665 ], [ -71.106894000001247, 42.348588000003069 ], [ -71.099802000000537, 42.347651000002998 ], [ -71.098115000001457, 42.347637000002742 ], [ -71.092044000001707, 42.346850000003336 ], [ -71.089264000001293, 42.346887000003221 ], [ -71.087758000000676, 42.347300000003358 ], [ -71.094025000000812, 42.35372300000305 ], [ -71.087511000001314, 42.355557000003031 ], [ -71.083398000000955, 42.356925000002661 ], [ -71.079361000001327, 42.358267000002769 ], [ -71.076403000000639, 42.359956000002974 ], [ -71.075710000000839, 42.361463000003184 ], [ -71.07064400000165, 42.367949000003243 ], [ -71.064059000000583, 42.369001000003138 ], [ -71.072689000000622, 42.373222000002883 ], [ -71.073928000000976, 42.376157000003268 ], [ -71.078727000000796, 42.384306000003114 ], [ -71.073496000000574, 42.391796000003247 ], [ -71.066944000000518, 42.394755000002597 ], [ -71.05739500000108, 42.387297000003102 ], [ -71.055295000000726, 42.387097000003457 ], [ -71.044298000001248, 42.383209000003056 ], [ -71.0392620000015, 42.386831000002921 ], [ -71.033234000000675, 42.384910000003245 ], [ -71.031995000001189, 42.384597000002977 ], [ -71.022672000001606, 42.386265000002808 ], [ -71.018791000001414, 42.389544000003042 ], [ -71.017232000001101, 42.392472000002982 ], [ -71.013395000001367, 42.397398000003449 ], [ -71.000683000001189, 42.396817000002898 ], [ -70.99504700000098, 42.393566000003105 ], [ -70.986053000000524, 42.388116000003123 ], [ -70.980928000001029, 42.391395000002895 ], [ -70.959494000000731, 42.4074980000034 ], [ -70.95079300000053, 42.444296000002858 ], [ -70.941593000000637, 42.455696000003066 ], [ -70.936611000001577, 42.456883000003458 ], [ -70.905993000000763, 42.438297000003047 ], [ -70.851436000001499, 42.393209000003381 ], [ -70.74948700000121, 42.400820000002881 ], [ -70.648072000001662, 42.405628000003269 ], [ -70.658723000000506, 42.375098000002751 ], [ -70.675690000000628, 42.37509800000263 ], [ -70.729212000000658, 42.373848000002837 ], [ -70.851191000000782, 42.372499000002826 ], [ -70.894292000001357, 42.372399000002666 ], [ -70.905692000000812, 42.316999000003491 ], [ -70.960192000001186, 42.299498000003439 ], [ -70.966375000001619, 42.299733000002789 ], [ -70.975618000000935, 42.300084000003132 ], [ -70.988693000000637, 42.31359800000314 ], [ -71.018693000001164, 42.306198000002667 ], [ -71.028395000000927, 42.308799000002942 ], [ -71.037094000001147, 42.306598000003021 ], [ -71.041494000001279, 42.302098000003085 ], [ -71.036666000000622, 42.291383000003009 ], [ -71.037894000000549, 42.28489800000284 ], [ -71.034593000001578, 42.282068000003107 ], [ -71.032466000001307, 42.279092000002905 ], [ -71.029146000000566, 42.274819000002623 ], [ -71.025226000001666, 42.271100000003507 ], [ -71.020319000001606, 42.266536000003171 ], [ -71.028610000000668, 42.26534000000327 ], [ -71.026010000001349, 42.258860000003274 ], [ -71.02876000000154, 42.254720000002685 ], [ -71.03120000000105, 42.255530000003361 ], [ -71.031528000001089, 42.245062000003259 ], [ -71.057970000001632, 42.237240000003069 ], [ -71.051271000000867, 42.247780000003466 ], [ -71.051943000001259, 42.259950000003322 ], [ -71.068140000000568, 42.271000000003227 ], [ -71.073264000001004, 42.270317000002976 ], [ -71.075246000000604, 42.270300000003168 ], [ -71.08775100000129, 42.269555000003187 ], [ -71.093736000001286, 42.267136000003191 ], [ -71.093908000001221, 42.267140000003216 ], [ -71.097899000001419, 42.262882000002989 ], [ -71.108405000000957, 42.261116000003312 ], [ -71.113009000000929, 42.258689000002661 ], [ -71.112057000001172, 42.246585000003115 ], [ -71.114563000001496, 42.245284000003309 ], [ -71.126377000001298, 42.239162000003063 ], [ -71.130771000001317, 42.227926000002896 ], [ -71.143498000000832, 42.24006500000322 ], [ -71.143869000001118, 42.241841000003127 ], [ -71.146127000000817, 42.252964000003182 ], [ -71.152118000000613, 42.258247000002918 ], [ -71.155958000001178, 42.256485000003437 ], [ -71.158584000000545, 42.255155000003192 ], [ -71.167393000001198, 42.262197000002722 ], [ -71.17132200000151, 42.265346000003042 ] ] ] } },
{ "type": "Feature", "properties": { "opt_all": 8, "population": 780403.0, "voting_age_pop": 624207.0, "dem_votes": 193383.0, "rep_votes": 163300.0, "minority_pop": 162106.0, "dem_pct": 0.5421704985821667, "rep_pct": 0.45782950113747234 }, "geometry": { "type": "Polygon", "coordinates": [ [ [ -71.054184000001214, 41.982716000003307 ], [ -71.054718000001017, 41.985057000002897 ], [ -71.060725000000858, 42.011171000003067 ], [ -71.069595000001669, 42.049704000002741 ], [ -71.07119700000105, 42.05645900000313 ], [ -71.07420600000134, 42.069116000003064 ], [ -71.078758000001386, 42.088274000003054 ], [ -71.080483000000697, 42.095539000003065 ], [ -71.067070000000939, 42.100880000003251 ], [ -71.061256000001023, 42.103194000003263 ], [ -71.057766000001664, 42.104570000003477 ], [ -71.044305000001387, 42.109878000003256 ], [ -71.025534000001301, 42.117293000002824 ], [ -71.021859000001328, 42.118745000003145 ], [ -71.02731400000053, 42.131072000003229 ], [ -71.035093000001694, 42.135634000002725 ], [ -71.053927000001678, 42.151195000003 ], [ -71.05651100000145, 42.153815000003007 ], [ -71.06832600000115, 42.125874000003066 ], [ -71.092560000001114, 42.131980000003104 ], [ -71.101689000000889, 42.135494000003014 ], [ -71.104070000000817, 42.145903000003308 ], [ -71.117453000000509, 42.142729000003435 ], [ -71.136720000001191, 42.154000000002704 ], [ -71.144960000001163, 42.158920000002745 ], [ -71.138290000001177, 42.17279000000282 ], [ -71.116820000000814, 42.180500000002965 ], [ -71.095040000001035, 42.192718000003275 ], [ -71.072597000001423, 42.170109000003393 ], [ -71.074353000001565, 42.175243000003192 ], [ -71.061450000001471, 42.186960000003118 ], [ -71.059360000000581, 42.191670000002802 ], [ -71.065118000000524, 42.20544800000313 ], [ -71.082727000001512, 42.204290000003141 ], [ -71.08016300000142, 42.218859000003143 ], [ -71.053246000001238, 42.229528000002873 ], [ -71.057970000001632, 42.237240000003069 ], [ -71.031528000001089, 42.245062000003259 ], [ -71.03120000000105, 42.255530000003361 ], [ -71.02876000000154, 42.254720000002685 ], [ -71.026010000001349, 42.258860000003274 ], [ -71.028610000000668, 42.26534000000327 ], [ -71.020319000001606, 42.266536000003171 ], [ -71.025226000001666, 42.271100000003507 ], [ -71.029146000000566, 42.274819000002623 ], [ -71.032466000001307, 42.279092000002905 ], [ -71.034593000001578, 42.282068000003107 ], [ -71.037894000000549, 42.28489800000284 ], [ -71.036666000000622, 42.291383000003009 ], [ -71.041494000001279, 42.302098000003085 ], [ -71.037094000001147, 42.306598000003021 ], [ -71.028395000000927, 42.308799000002942 ], [ -71.018693000001164, 42.306198000002667 ], [ -70.988693000000637, 42.31359800000314 ], [ -70.975618000000935, 42.300084000003132 ], [ -70.966375000001619, 42.299733000002789 ], [ -70.960192000001186, 42.299498000003439 ], [ -70.905692000000812, 42.316999000003491 ], [ -70.894292000001357, 42.372399000002666 ], [ -70.851191000000782, 42.372499000002826 ], [ -70.729212000000658, 42.373848000002837 ], [ -70.675690000000628, 42.37509800000263 ], [ -70.658723000000506, 42.375098000002751 ], [ -70.690393000001478, 42.278999000003033 ], [ -70.684061000000526, 42.253836000003346 ], [ -70.64011300000162, 42.228372000003439 ], [ -70.636330000000825, 42.202903000002799 ], [ -70.642946000001217, 42.178185000003104 ], [ -70.608381000000904, 42.138479000003173 ], [ -70.32252200000093, 42.117915000002618 ], [ -70.337813000001148, 42.044484000002903 ], [ -70.355004000000648, 42.00010400000297 ], [ -70.499473000000947, 41.844117000003088 ], [ -70.525164000000686, 41.82152300000341 ], [ -70.537501000000475, 41.810675000003336 ], [ -70.547559000001186, 41.802056000002828 ], [ -70.581198000000839, 41.781625000003295 ], [ -70.632555000000636, 41.762904000002926 ], [ -70.625870000001626, 41.755199000003202 ], [ -70.632706000001107, 41.737759000003045 ], [ -70.639390000000787, 41.728018000002812 ], [ -70.643024000000565, 41.718276000002994 ], [ -70.676629000000815, 41.691129000003045 ], [ -70.690964000001443, 41.66045700000285 ], [ -70.699574000000766, 41.643719000003429 ], [ -70.729845000000608, 41.591558000003097 ], [ -70.752424000001454, 41.565851000002922 ], [ -70.81327400000103, 41.607960000002826 ], [ -70.842264000001066, 41.624457000002664 ], [ -70.85821200000106, 41.681167000002652 ], [ -70.859489000001261, 41.684736000002893 ], [ -70.86500300000057, 41.700164000002808 ], [ -70.886439000001076, 41.760232000003185 ], [ -70.907184000000669, 41.763543000003445 ], [ -70.921782000000775, 41.791244000002749 ], [ -70.947894000000957, 41.788157000003494 ], [ -70.987963000000789, 41.783415000002734 ], [ -71.026288000000662, 41.778888000003334 ], [ -71.023157000001049, 41.806176000002857 ], [ -71.036570000001618, 41.816525000002791 ], [ -71.007455000001372, 41.838485000003125 ], [ -70.996635000001518, 41.846495000002655 ], [ -70.98273900000062, 41.855409000002922 ], [ -70.973717000001272, 41.860879000003195 ], [ -70.987256000000627, 41.905808000003177 ], [ -70.993152000001615, 41.906445000002954 ], [ -70.997397000000859, 41.918399000003298 ], [ -70.996438000000509, 41.923778000003487 ], [ -70.999773000001255, 41.929671000002962 ], [ -71.042627000000721, 41.959516000002736 ], [ -71.054184000001214, 41.982716000003307 ] ] ] } },
{ "type": "Feature", "properties": { "opt_all": 9, "population": 779596.0, "voting_age_pop": 636141.0, "dem_votes": 182950.0, "rep_votes": 153418.0, "minority_pop": 115739.0, "dem_pct": 0.54389834926512082, "rep_pct": 0.45610165043758572 }, "geometry": { "type": "Polygon", "coordinates": [ [ [ -71.208292000001364, 41.690503000003162 ], [ -71.226082000001327, 41.71234500000314 ], [ -71.270835000001682, 41.756236000003511 ], [ -71.316366000000727, 41.775559000003199 ], [ -71.340495000001113, 41.797074000003455 ], [ -71.33932500000067, 41.8084610000029 ], [ -71.342932000001014, 41.829524000002898 ], [ -71.337818000001249, 41.873171000003296 ], [ -71.338787000000849, 41.898593000003402 ], [ -71.33978800000078, 41.898474000002786 ], [ -71.371090000001132, 41.894773000003426 ], [ -71.381439000000753, 41.914816000003349 ], [ -71.381398000000743, 41.952862000003343 ], [ -71.381299000000737, 41.98508400000317 ], [ -71.361275000000859, 41.986470000003095 ], [ -71.342822000000723, 41.993546000003263 ], [ -71.326932000001207, 41.999647000002824 ], [ -71.303616000001384, 42.00858500000259 ], [ -71.288265000001132, 42.014462000003228 ], [ -71.268739000000721, 41.987300000002797 ], [ -71.291074000001544, 41.971861000002995 ], [ -71.283358000000945, 41.944669000003387 ], [ -71.281377000001484, 41.944300000003338 ], [ -71.243383000000989, 41.953845000003405 ], [ -71.259289000001118, 41.974216000003132 ], [ -71.221469000000951, 41.988577000002941 ], [ -71.198515000001137, 41.961596000003112 ], [ -71.187767000000719, 41.967053000003219 ], [ -71.168725000001487, 41.975634000002842 ], [ -71.190907000000976, 41.999579000003308 ], [ -71.158704000001165, 42.01262400000266 ], [ -71.156450000001314, 42.001042000003025 ], [ -71.100854000000638, 41.993151000003103 ], [ -71.125664000001592, 41.967082000003252 ], [ -71.155190000001411, 41.938464000002774 ], [ -71.12345400000082, 41.926392000002934 ], [ -71.100185000001389, 41.928962000003338 ], [ -71.092234000001312, 41.938416000003485 ], [ -71.079580000001329, 41.923020000002793 ], [ -71.072894000001583, 41.948995000002839 ], [ -71.052950000001601, 41.939746000002643 ], [ -71.042627000000721, 41.959516000002736 ], [ -70.999773000001255, 41.929671000002962 ], [ -70.996438000000509, 41.923778000003487 ], [ -70.997397000000859, 41.918399000003298 ], [ -70.993152000001615, 41.906445000002954 ], [ -70.987256000000627, 41.905808000003177 ], [ -70.973717000001272, 41.860879000003195 ], [ -70.98273900000062, 41.855409000002922 ], [ -70.996635000001518, 41.846495000002655 ], [ -71.007455000001372, 41.838485000003125 ], [ -71.036570000001618, 41.816525000002791 ], [ -71.023157000001049, 41.806176000002857 ], [ -71.026288000000662, 41.778888000003334 ], [ -70.987963000000789, 41.783415000002734 ], [ -70.947894000000957, 41.788157000003494 ], [ -70.921782000000775, 41.791244000002749 ], [ -70.907184000000669, 41.763543000003445 ], [ -70.886439000001076, 41.760232000003185 ], [ -70.86500300000057, 41.700164000002808 ], [ -70.859489000001261, 41.684736000002893 ], [ -70.85821200000106, 41.681167000002652 ], [ -70.842264000001066, 41.624457000002664 ], [ -70.81327400000103, 41.607960000002826 ], [ -70.752424000001454, 41.565851000002922 ], [ -70.729845000000608, 41.591558000003097 ], [ -70.699574000000766, 41.643719000003429 ], [ -70.690964000001443, 41.66045700000285 ], [ -70.676629000000815, 41.691129000003045 ], [ -70.643024000000565, 41.718276000002994 ], [ -70.639390000000787, 41.728018000002812 ], [ -70.632706000001107, 41.737759000003045 ], [ -70.625870000001626, 41.755199000003202 ], [ -70.632555000000636, 41.762904000002926 ], [ -70.581198000000839, 41.781625000003295 ], [ -70.547559000001186, 41.802056000002828 ], [ -70.537501000000475, 41.810675000003336 ], [ -70.525164000000686, 41.82152300000341 ], [ -70.499473000000947, 41.844117000003088 ], [ -70.355004000000648, 42.00010400000297 ], [ -70.337813000001148, 42.044484000002903 ], [ -70.32252200000093, 42.117915000002618 ], [ -70.277430000001146, 42.11434500000329 ], [ -70.229175000000907, 42.131189000003211 ], [ -70.172542000000561, 42.134515000003439 ], [ -70.12069100000096, 42.125101000003148 ], [ -70.067098000000513, 42.105327000002902 ], [ -70.011591000001189, 42.073378000003025 ], [ -69.969482000001051, 42.029254000003448 ], [ -69.929109000000537, 41.978476000003219 ], [ -69.909178000001532, 41.942062000003467 ], [ -69.866525000001317, 41.817011000002893 ], [ -69.860058000001132, 41.758503000003088 ], [ -69.862876000001336, 41.673153000002678 ], [ -69.898562000001533, 41.606096000003248 ], [ -69.915399000001571, 41.589243000002909 ], [ -69.928994000001154, 41.532152000003379 ], [ -69.946613000000852, 41.512152000003489 ], [ -69.999458000001155, 41.490527000002714 ], [ -70.040313000001277, 41.465960000003214 ], [ -70.084904000000606, 41.467493000003337 ], [ -70.11439400000144, 41.484083000002911 ], [ -70.126677000001195, 41.503698000003382 ], [ -70.126792000001018, 41.530878000003177 ], [ -70.102029000000442, 41.55635200000328 ], [ -70.080316000000934, 41.56445400000274 ], [ -70.063352000001458, 41.590173000002672 ], [ -70.077934000000582, 41.612528000003302 ], [ -70.138491000001025, 41.598692000003062 ], [ -70.160357000001241, 41.599370000002814 ], [ -70.208040000001489, 41.584150000002694 ], [ -70.225558000000589, 41.568561000002838 ], [ -70.267429000001144, 41.558373000003456 ], [ -70.311254000000773, 41.571062000003394 ], [ -70.346337000001455, 41.568453000003295 ], [ -70.395164000001074, 41.556722000003177 ], [ -70.423896000001491, 41.528732000003401 ], [ -70.466436000001096, 41.50616000000349 ], [ -70.502832000001334, 41.50063500000315 ], [ -70.489705000000626, 41.463042000003021 ], [ -70.436449000001417, 41.468919000003176 ], [ -70.405928000001452, 41.457013000002803 ], [ -70.38587400000155, 41.433721000003509 ], [ -70.380807000000829, 41.411996000002894 ], [ -70.383449000000738, 41.369933000002732 ], [ -70.323593000001424, 41.391607000002949 ], [ -70.267283000001484, 41.39342600000311 ], [ -70.234330000001052, 41.383229000003446 ], [ -70.215115000000978, 41.360275000002744 ], [ -70.174906000000803, 41.357290000003331 ], [ -70.148699000000704, 41.345216000002857 ], [ -70.097844000000975, 41.353584000003345 ], [ -70.116440000001361, 41.386165000002656 ], [ -70.112734000000998, 41.408126000003371 ], [ -70.094412000001157, 41.430810000003277 ], [ -70.065174000001491, 41.442687000003538 ], [ -70.006467000000541, 41.433898000003424 ], [ -69.974592000000627, 41.40892200000328 ], [ -69.910093000000614, 41.317263000003251 ], [ -69.892209000001429, 41.271323000003093 ], [ -69.910319000001536, 41.226849000003064 ], [ -69.930953000001168, 41.210543000002801 ], [ -69.973182000001231, 41.1935450000027 ], [ -70.012483000001254, 41.187053000003431 ], [ -70.072666000001249, 41.19163400000307 ], [ -70.109684000001138, 41.189803000002733 ], [ -70.178851000001487, 41.204531000003215 ], [ -70.285736000000469, 41.242346000003231 ], [ -70.344083000001547, 41.276146000002896 ], [ -70.374466000000822, 41.269458000003063 ], [ -70.40873300000051, 41.277294000002783 ], [ -70.459851000001208, 41.265253000003092 ], [ -70.493308000001434, 41.279975000003461 ], [ -70.512199000001573, 41.298313000002757 ], [ -70.603541000001286, 41.299511000002937 ], [ -70.649384000000637, 41.296548000003177 ], [ -70.703106000000503, 41.289040000002991 ], [ -70.734843000000581, 41.259231000003226 ], [ -70.744307000001655, 41.226030000003242 ], [ -70.767837000001535, 41.206490000003122 ], [ -70.805950000000905, 41.198742000003541 ], [ -70.84774600000128, 41.205814000002718 ], [ -70.877327000001628, 41.224144000003164 ], [ -70.893724000001086, 41.256878000003077 ], [ -70.885683000000952, 41.285066000003411 ], [ -70.870027000000746, 41.297068000003406 ], [ -70.897722000001281, 41.327411000002975 ], [ -70.903815000001103, 41.346727000003305 ], [ -70.896202000001011, 41.370077000003548 ], [ -70.938664000001566, 41.353986000002763 ], [ -70.990748000001403, 41.351289000003504 ], [ -71.026103000001072, 41.371693000003091 ], [ -71.051854000000844, 41.416729000003386 ], [ -71.088571000001295, 41.431315000003174 ], [ -71.116404000000841, 41.484568000003534 ], [ -71.131620000000652, 41.593716000002878 ], [ -71.138346000000908, 41.6036760000027 ], [ -71.132557000000617, 41.660363000003514 ], [ -71.162120000000556, 41.665735000002634 ], [ -71.177788000000675, 41.671858000003212 ], [ -71.184328000000676, 41.673063000003289 ], [ -71.201162000000849, 41.681909000002882 ], [ -71.208292000001364, 41.690503000003162 ] ] ] } }
]
}
