{
"type": "FeatureCollection",
"name": "massachusetts_enacted_districts",
"crs": { "type": "name", "properties": { "name": "urn:ogc:def:crs:OGC:1.3:CRS84" } },
"features": [
{ "type": "Feature", "properties": { "enacted_district": 1, "population": 779630.0, "voting_age_pop": 623996.0, "dem_votes": 184282.0, "rep_votes": 139533.0, "minority_pop": 167134.0, "dem_pct": 0.56909655186785768, "rep_pct": 0.43090344782332396 }, "geometry": { "type": "Polygon", "coordinates": [ [ [ -73.436758000000708, 42.050511000003105 ], [ -73.497018000000963, 42.049624000002957 ], [ -73.508210000001625, 42.086134000002666 ], [ -73.483232000001351, 42.154932000002589 ], [ -73.460206000001136, 42.217554000003119 ], [ -73.431305000000776, 42.296147000002819 ], [ -73.410855000000936, 42.35174600000262 ], [ -73.383661000001069, 42.425497000002608 ], [ -73.306984000001847, 42.632646000002957 ], [ -73.272976000001762, 42.723947000003328 ], [ -73.264827000001063, 42.745851000003242 ], [ -73.163641000001533, 42.743944000003417 ], [ -73.04843900000138, 42.741652000003313 ], [ -73.023015000001351, 42.741135000003304 ], [ -72.92682800000135, 42.739226000003192 ], [ -72.864319000001601, 42.737838000003144 ], [ -72.85403400000061, 42.683207000002646 ], [ -72.857661000000903, 42.673970000003074 ], [ -72.851206000001042, 42.647145000002688 ], [ -72.82150600000098, 42.636877000002613 ], [ -72.772647000001569, 42.658334000002988 ], [ -72.766092000000754, 42.629260000003057 ], [ -72.735092000001671, 42.6331110000027 ], [ -72.73688900000117, 42.627021000003282 ], [ -72.750358000001555, 42.618356000003388 ], [ -72.823661000001593, 42.618625000002808 ], [ -72.833422000001818, 42.611179000003055 ], [ -72.848454000001524, 42.559069000002715 ], [ -72.877026000000711, 42.555425000002856 ], [ -72.876849000001158, 42.54119700000259 ], [ -72.870320000001129, 42.525150000003194 ], [ -72.871136000001044, 42.484041000003309 ], [ -72.855633000000921, 42.480920000003373 ], [ -72.847905000000864, 42.436490000002863 ], [ -72.880814000001024, 42.433010000002881 ], [ -72.904580000001843, 42.43038500000327 ], [ -72.885635000001031, 42.340036000002598 ], [ -72.843723000001702, 42.34465300000295 ], [ -72.821122000000997, 42.33863000000283 ], [ -72.814405000001784, 42.256819000002707 ], [ -72.735758000000999, 42.266518000002961 ], [ -72.736300000001208, 42.276539000003353 ], [ -72.736726000000971, 42.28424100000295 ], [ -72.672179000001023, 42.291877000003083 ], [ -72.656040000000829, 42.289880000002931 ], [ -72.642140000001262, 42.288185000003253 ], [ -72.614701000001475, 42.290199000002914 ], [ -72.613138000001086, 42.286265000003176 ], [ -72.609948000000628, 42.285224000002749 ], [ -72.58796100000167, 42.30035800000325 ], [ -72.535151000000837, 42.304252000002677 ], [ -72.527961000000616, 42.301458000002661 ], [ -72.464195000001766, 42.308053000003447 ], [ -72.472287000001629, 42.351458000002943 ], [ -72.409417000001667, 42.358762000003104 ], [ -72.402356000001646, 42.336885000003299 ], [ -72.355396000000965, 42.340678000003351 ], [ -72.356018000000887, 42.303283000003113 ], [ -72.314253000001543, 42.343688000003333 ], [ -72.288734000001398, 42.352024000003127 ], [ -72.274639000001216, 42.301963000003369 ], [ -72.244543000001485, 42.306033000003417 ], [ -72.213973000001133, 42.294257000003206 ], [ -72.187294000000705, 42.304711000003486 ], [ -72.15858600000108, 42.342968000002806 ], [ -72.141155000001277, 42.344301000003348 ], [ -72.123667000001731, 42.363930000002838 ], [ -72.112467000001175, 42.35642300000297 ], [ -72.041168000000596, 42.308697000003207 ], [ -71.989406000001338, 42.310188000003393 ], [ -71.983888000001542, 42.310316000003446 ], [ -71.967291000001708, 42.310682000003261 ], [ -71.960534000000692, 42.281425000002912 ], [ -71.948928000000947, 42.230951000003166 ], [ -71.94624000000104, 42.219365000002696 ], [ -71.939356000001382, 42.189238000002739 ], [ -71.925799000001021, 42.190224000003056 ], [ -71.916970000001172, 42.190862000002625 ], [ -71.895135000000792, 42.192425000003198 ], [ -71.875802000000931, 42.170120000003266 ], [ -71.84551600000141, 42.160230000003359 ], [ -71.831504000001217, 42.164253000003391 ], [ -71.830439000001405, 42.156077000002739 ], [ -71.829591000001045, 42.144860000003348 ], [ -71.813082000001643, 42.125274000002754 ], [ -71.805025000001663, 42.112038000003139 ], [ -71.797177000001668, 42.099172000003144 ], [ -71.830064000001201, 42.092778000003186 ], [ -71.876493000000892, 42.077542000003085 ], [ -71.881509000000776, 42.075893000003283 ], [ -71.880387000001249, 42.055507000002727 ], [ -71.878408000001102, 42.055250000003177 ], [ -71.873002000001719, 42.048570000002954 ], [ -71.861460000000619, 42.045992000002926 ], [ -71.845712000001541, 42.023994000003363 ], [ -71.883947000000816, 42.024394000002665 ], [ -71.920885000001576, 42.025070000003318 ], [ -71.993102000001187, 42.026928000003139 ], [ -72.034578000000806, 42.027304000002957 ], [ -72.099752000001601, 42.028770000003149 ], [ -72.135715000001483, 42.030222000003256 ], [ -72.198832000001019, 42.031021000002688 ], [ -72.27065700000125, 42.031615000003363 ], [ -72.299927000000594, 42.031852000003269 ], [ -72.366991000001036, 42.032705000002728 ], [ -72.458290000001014, 42.034325000003172 ], [ -72.479759000001266, 42.034269000002901 ], [ -72.524589000001427, 42.034514000003014 ], [ -72.531549000000808, 42.034578000002888 ], [ -72.553077000000812, 42.032243000003014 ], [ -72.58216300000079, 42.024741000002777 ], [ -72.607978000001424, 42.031083000003129 ], [ -72.636976000001582, 42.03193300000293 ], [ -72.673099000000946, 42.035199000002677 ], [ -72.714561000001581, 42.036911000002988 ], [ -72.719281000001288, 42.036530000003069 ], [ -72.752062000001217, 42.029025000002811 ], [ -72.766733000001082, 42.003266000003286 ], [ -72.794866000000937, 42.000150000002947 ], [ -72.817053000001067, 41.997685000002654 ], [ -72.813784000001007, 42.036744000002834 ], [ -72.834966000001572, 42.037080000003456 ], [ -72.979038000001296, 42.038237000002809 ], [ -73.053288000001729, 42.039865000003445 ], [ -73.172121000001127, 42.043389000003017 ], [ -73.296327000001597, 42.047010000003439 ], [ -73.436758000000708, 42.050511000003105 ] ] ] } },
{ "type": "Feature", "properties": { "enacted_district": 2, "population": 781914.0, "voting_age_pop": 627106.0, "dem_votes": 197528.0, "rep_votes": 132535.0, "minority_pop": 163946.0, "dem_pct": 0.5984554462031626, "rep_pct": 0.40154455349386492 }, "geometry": { "type": "Polygon", "coordinates": [ [ [ -72.814405000001784, 42.256819000002707 ], [ -72.821122000000997, 42.33863000000283 ], [ -72.843723000001702, 42.34465300000295 ], [ -72.885635000001031, 42.340036000002598 ], [ -72.904580000001843, 42.43038500000327 ], [ -72.880814000001024, 42.433010000002881 ], [ -72.847905000000864, 42.436490000002863 ], [ -72.855633000000921, 42.480920000003373 ], [ -72.871136000001044, 42.484041000003309 ], [ -72.870320000001129, 42.525150000003194 ], [ -72.876849000001158, 42.54119700000259 ], [ -72.877026000000711, 42.555425000002856 ], [ -72.848454000001524, 42.559069000002715 ], [ -72.833422000001818, 42.611179000003055 ], [ -72.823661000001593, 42.618625000002808 ], [ -72.750358000001555, 42.618356000003388 ], [ -72.73688900000117, 42.627021000003282 ], [ -72.735092000001671, 42.6331110000027 ], [ -72.766092000000754, 42.629260000003057 ], [ -72.772647000001569, 42.658334000002988 ], [ -72.82150600000098, 42.636877000002613 ], [ -72.851206000001042, 42.647145000002688 ], [ -72.857661000000903, 42.673970000003074 ], [ -72.85403400000061, 42.683207000002646 ], [ -72.864319000001601, 42.737838000003144 ], [ -72.791078000001065, 42.736024000002885 ], [ -72.674693000000829, 42.732892000002671 ], [ -72.598656000000659, 42.730924000002894 ], [ -72.5167360000016, 42.728528000002719 ], [ -72.412036000001024, 42.725355000003233 ], [ -72.283045000001422, 42.721615000003027 ], [ -72.126105000001658, 42.717604000003384 ], [ -72.111059000001006, 42.717206000002889 ], [ -72.116631000001547, 42.626607000002714 ], [ -72.074498000001029, 42.624248000002645 ], [ -72.064651000000893, 42.616483000003157 ], [ -72.04607300000103, 42.601835000003426 ], [ -72.042024000001334, 42.579794000003261 ], [ -72.016618000000818, 42.574308000003427 ], [ -72.020669000001647, 42.559127000002789 ], [ -72.019645000000892, 42.558463000003336 ], [ -72.001380000001546, 42.546614000002691 ], [ -71.994374000000661, 42.541955000003441 ], [ -71.979686000000655, 42.532310000003172 ], [ -71.919835000000575, 42.491447000002765 ], [ -71.909649000001707, 42.4844920000033 ], [ -71.864531000001534, 42.516933000003419 ], [ -71.842004000001722, 42.51467900000285 ], [ -71.837807000001661, 42.543783000003131 ], [ -71.813464000001574, 42.547288000002986 ], [ -71.79318000000147, 42.551741000002885 ], [ -71.776459000001466, 42.556379000003098 ], [ -71.772628000001617, 42.558527000003224 ], [ -71.761439000000863, 42.549198000002669 ], [ -71.749168000000822, 42.548944000002713 ], [ -71.762950000000657, 42.563924000002643 ], [ -71.759179000000699, 42.566017000002958 ], [ -71.747554000001713, 42.572455000002812 ], [ -71.730799000001156, 42.561397000003296 ], [ -71.70223600000098, 42.533895000003007 ], [ -71.712168000000517, 42.521596000002603 ], [ -71.712616000001475, 42.521205000003029 ], [ -71.72417200000173, 42.491111000003322 ], [ -71.728385000001055, 42.475128000003309 ], [ -71.718699000001081, 42.473374000002785 ], [ -71.718362000000681, 42.410220000003328 ], [ -71.722812000001525, 42.403928000003226 ], [ -71.72597900000153, 42.390289000003172 ], [ -71.700905000001185, 42.39577200000263 ], [ -71.678766000000991, 42.389163000002902 ], [ -71.676365000000729, 42.3648840000034 ], [ -71.624702000000809, 42.350465000003297 ], [ -71.618260000000859, 42.342589000002832 ], [ -71.603960000000768, 42.335341000003389 ], [ -71.585210000001496, 42.310952000003191 ], [ -71.537316000000743, 42.327969000002689 ], [ -71.511238000000617, 42.328805000002909 ], [ -71.486797000001616, 42.33018900000291 ], [ -71.486744000001693, 42.329937000002886 ], [ -71.486350000000911, 42.310449000003487 ], [ -71.497046000001419, 42.289829000002619 ], [ -71.49142600000134, 42.288162000003496 ], [ -71.444617000001642, 42.270588000003187 ], [ -71.444215000001492, 42.270374000003308 ], [ -71.431129000001206, 42.263503000002792 ], [ -71.429273000000904, 42.262535000003417 ], [ -71.41929800000149, 42.257281000002891 ], [ -71.420075000001034, 42.238123000002659 ], [ -71.384402000000691, 42.192755000003125 ], [ -71.384765000001266, 42.192014000003354 ], [ -71.402295000000592, 42.178794000002931 ], [ -71.375618000001666, 42.135454000002852 ], [ -71.38018800000161, 42.132925000003041 ], [ -71.398331000001022, 42.138322000002752 ], [ -71.441426000001499, 42.134829000002874 ], [ -71.444681000001481, 42.135552000003401 ], [ -71.478522000001277, 42.131378000002591 ], [ -71.478245000000669, 42.149102000002799 ], [ -71.478119000001726, 42.156782000002657 ], [ -71.480013000001449, 42.165916000003058 ], [ -71.484633000001438, 42.166023000002923 ], [ -71.502626000001257, 42.191416000003294 ], [ -71.515380000000746, 42.189138000003346 ], [ -71.555738000001426, 42.182503000002725 ], [ -71.554542000001234, 42.178135000003159 ], [ -71.56169200000096, 42.177071000003174 ], [ -71.56095400000055, 42.158315000003206 ], [ -71.571591000000979, 42.142367000002899 ], [ -71.592748000001649, 42.121648000002992 ], [ -71.592634000001112, 42.114238000002814 ], [ -71.591951000001089, 42.063695000002717 ], [ -71.591410000000877, 42.032110000002625 ], [ -71.591100000001489, 42.01364600000344 ], [ -71.680871000000721, 42.011530000003013 ], [ -71.755106000001675, 42.009857000002938 ], [ -71.799188000001337, 42.008053000003109 ], [ -71.804549000000748, 42.023556000003467 ], [ -71.845712000001541, 42.023994000003363 ], [ -71.861460000000619, 42.045992000002926 ], [ -71.873002000001719, 42.048570000002954 ], [ -71.878408000001102, 42.055250000003177 ], [ -71.880387000001249, 42.055507000002727 ], [ -71.881509000000776, 42.075893000003283 ], [ -71.876493000000892, 42.077542000003085 ], [ -71.830064000001201, 42.092778000003186 ], [ -71.797177000001668, 42.099172000003144 ], [ -71.805025000001663, 42.112038000003139 ], [ -71.813082000001643, 42.125274000002754 ], [ -71.829591000001045, 42.144860000003348 ], [ -71.830439000001405, 42.156077000002739 ], [ -71.831504000001217, 42.164253000003391 ], [ -71.84551600000141, 42.160230000003359 ], [ -71.875802000000931, 42.170120000003266 ], [ -71.895135000000792, 42.192425000003198 ], [ -71.916970000001172, 42.190862000002625 ], [ -71.925799000001021, 42.190224000003056 ], [ -71.939356000001382, 42.189238000002739 ], [ -71.94624000000104, 42.219365000002696 ], [ -71.948928000000947, 42.230951000003166 ], [ -71.960534000000692, 42.281425000002912 ], [ -71.967291000001708, 42.310682000003261 ], [ -71.983888000001542, 42.310316000003446 ], [ -71.989406000001338, 42.310188000003393 ], [ -72.041168000000596, 42.308697000003207 ], [ -72.112467000001175, 42.35642300000297 ], [ -72.123667000001731, 42.363930000002838 ], [ -72.141155000001277, 42.344301000003348 ], [ -72.15858600000108, 42.342968000002806 ], [ -72.187294000000705, 42.304711000003486 ], [ -72.213973000001133, 42.294257000003206 ], [ -72.244543000001485, 42.306033000003417 ], [ -72.274639000001216, 42.301963000003369 ], [ -72.288734000001398, 42.352024000003127 ], [ -72.314253000001543, 42.343688000003333 ], [ -72.356018000000887, 42.303283000003113 ], [ -72.355396000000965, 42.340678000003351 ], [ -72.402356000001646, 42.336885000003299 ], [ -72.409417000001667, 42.358762000003104 ], [ -72.472287000001629, 42.351458000002943 ], [ -72.464195000001766, 42.308053000003447 ], [ -72.527961000000616, 42.301458000002661 ], [ -72.535151000000837, 42.304252000002677 ], [ -72.58796100000167, 42.30035800000325 ], [ -72.609948000000628, 42.285224000002749 ], [ -72.613138000001086, 42.286265000003176 ], [ -72.614701000001475, 42.290199000002914 ], [ -72.642140000001262, 42.288185000003253 ], [ -72.656040000000829, 42.289880000002931 ], [ -72.672179000001023, 42.291877000003083 ], [ -72.736726000000971, 42.28424100000295 ], [ -72.736300000001208, 42.276539000003353 ], [ -72.735758000000999, 42.266518000002961 ], [ -72.814405000001784, 42.256819000002707 ] ] ] } },
{ "type": "Feature", "properties": { "enacted_district": 3, "population": 782239.0, "voting_age_pop": 612500.0, "dem_votes": 179504.0, "rep_votes": 129387.0, "minority_pop": 217031.0, "dem_pct": 0.5811240856544464, "rep_pct": 0.41887591402181484 }, "geometry": { "type": "Polygon", "coordinates": [ [ [ -71.700905000001185, 42.39577200000263 ], [ -71.72597900000153, 42.390289000003172 ], [ -71.722812000001525, 42.403928000003226 ], [ -71.718362000000681, 42.410220000003328 ], [ -71.718699000001081, 42.473374000002785 ], [ -71.728385000001055, 42.475128000003309 ], [ -71.72417200000173, 42.491111000003322 ], [ -71.712616000001475, 42.521205000003029 ], [ -71.712168000000517, 42.521596000002603 ], [ -71.70223600000098, 42.533895000003007 ], [ -71.730799000001156, 42.561397000003296 ], [ -71.747554000001713, 42.572455000002812 ], [ -71.759179000000699, 42.566017000002958 ], [ -71.762950000000657, 42.563924000002643 ], [ -71.749168000000822, 42.548944000002713 ], [ -71.761439000000863, 42.549198000002669 ], [ -71.772628000001617, 42.558527000003224 ], [ -71.776459000001466, 42.556379000003098 ], [ -71.79318000000147, 42.551741000002885 ], [ -71.813464000001574, 42.547288000002986 ], [ -71.837807000001661, 42.543783000003131 ], [ -71.842004000001722, 42.51467900000285 ], [ -71.864531000001534, 42.516933000003419 ], [ -71.909649000001707, 42.4844920000033 ], [ -71.919835000000575, 42.491447000002765 ], [ -71.979686000000655, 42.532310000003172 ], [ -71.994374000000661, 42.541955000003441 ], [ -72.001380000001546, 42.546614000002691 ], [ -72.019645000000892, 42.558463000003336 ], [ -72.020669000001647, 42.559127000002789 ], [ -72.016618000000818, 42.574308000003427 ], [ -72.042024000001334, 42.579794000003261 ], [ -72.04607300000103, 42.601835000003426 ], [ -72.064651000000893, 42.616483000003157 ], [ -72.074498000001029, 42.624248000002645 ], [ -72.116631000001547, 42.626607000002714 ], [ -72.111059000001006, 42.717206000002889 ], [ -72.077673000001042, 42.716200000002893 ], [ -71.981431000000953, 42.713229000003011 ], [ -71.898773000001086, 42.711312000003154 ], [ -71.772554000001406, 42.708067000002842 ], [ -71.771265000001577, 42.708040000002626 ], [ -71.651884000000678, 42.704770000002576 ], [ -71.585858000001352, 42.703564000003361 ], [ -71.542538000001073, 42.702661000003111 ], [ -71.457691000001546, 42.700525000002976 ], [ -71.432336000001499, 42.700048000003342 ], [ -71.369729000000731, 42.698410000002816 ], [ -71.351635000000982, 42.697901000002695 ], [ -71.330447000001612, 42.697479000002907 ], [ -71.313491000000965, 42.697316000002886 ], [ -71.279071000000812, 42.711246000003229 ], [ -71.255147000001614, 42.736554000003437 ], [ -71.21654600000052, 42.744906000002977 ], [ -71.188134000001284, 42.738720000002857 ], [ -71.182756000001518, 42.751007000002666 ], [ -71.182398000001484, 42.79433000000261 ], [ -71.147939000000733, 42.816176000003054 ], [ -71.132805000001028, 42.821476000002683 ], [ -71.091236000001729, 42.81224000000293 ], [ -71.06441600000089, 42.806275000003069 ], [ -71.054005000001609, 42.833282000002797 ], [ -70.999611000001295, 42.810545000002911 ], [ -71.020381000001052, 42.784296000002662 ], [ -71.022855000001329, 42.778136000003435 ], [ -71.034214000001299, 42.763877000003191 ], [ -71.041823000000988, 42.75720400000305 ], [ -71.058883000000691, 42.732463000002831 ], [ -71.084173000000533, 42.73648500000315 ], [ -71.108632000000611, 42.735281000003411 ], [ -71.112283000001099, 42.738349000002827 ], [ -71.114240000000962, 42.739995000003177 ], [ -71.115579000001603, 42.741104000002885 ], [ -71.123510000000664, 42.732359000003029 ], [ -71.134198000000879, 42.721505000003226 ], [ -71.13390000000058, 42.715232000003283 ], [ -71.137285000000816, 42.706640000003027 ], [ -71.140384000000509, 42.703364000003297 ], [ -71.144857000001096, 42.6989850000027 ], [ -71.137935000000724, 42.692223000003082 ], [ -71.139402000001695, 42.68447700000327 ], [ -71.134452000001019, 42.676778000003218 ], [ -71.145563000000976, 42.680053000003348 ], [ -71.160911000000993, 42.680054000002855 ], [ -71.16572200000158, 42.679245000002652 ], [ -71.172533000001181, 42.678081000003267 ], [ -71.188862000001706, 42.696268000003386 ], [ -71.209942000001718, 42.700620000002985 ], [ -71.238179000001693, 42.669419000003366 ], [ -71.256188000001217, 42.657145000003332 ], [ -71.226182000000591, 42.642727000003013 ], [ -71.223955000000544, 42.641656000002811 ], [ -71.172108000000804, 42.616751000003056 ], [ -71.182023000001081, 42.608431000002909 ], [ -71.189483000001559, 42.606187000003288 ], [ -71.19357100000083, 42.593909000003343 ], [ -71.202530000000721, 42.589402000002679 ], [ -71.23159500000159, 42.582784000003166 ], [ -71.241043000000644, 42.587143000002776 ], [ -71.251331000000775, 42.591909000002993 ], [ -71.280226000000695, 42.605240000002929 ], [ -71.296319000001702, 42.612667000002631 ], [ -71.297028000000893, 42.613011000003283 ], [ -71.294566000001268, 42.60518500000348 ], [ -71.317788000000547, 42.578025000002846 ], [ -71.332543000001621, 42.560756000003131 ], [ -71.304610000000835, 42.529285000003462 ], [ -71.306699000001004, 42.520593000002627 ], [ -71.317538000000638, 42.502425000002823 ], [ -71.320806000001141, 42.482184000003173 ], [ -71.31694700000142, 42.476682000002626 ], [ -71.289676000000682, 42.466182000002654 ], [ -71.320130000001328, 42.449866000002835 ], [ -71.364547000001537, 42.420140000003421 ], [ -71.366340000001173, 42.412720000002686 ], [ -71.396264000000954, 42.42402000000321 ], [ -71.414579000000785, 42.430960000003068 ], [ -71.430389000000559, 42.436937000003269 ], [ -71.452606000000756, 42.445678000002779 ], [ -71.453841000001532, 42.446161000002988 ], [ -71.464349000001562, 42.450300000002819 ], [ -71.477598000001279, 42.434126000002685 ], [ -71.474774000000664, 42.423142000003331 ], [ -71.474376000001655, 42.421624000003028 ], [ -71.469452000001638, 42.402631000003012 ], [ -71.472678000001096, 42.390025000003469 ], [ -71.475498000001664, 42.380655000003195 ], [ -71.475505000001107, 42.380632000003267 ], [ -71.482487000000603, 42.35616600000305 ], [ -71.483298000001597, 42.353130000003411 ], [ -71.483351000000781, 42.352807000003345 ], [ -71.486797000001616, 42.33018900000291 ], [ -71.511238000000617, 42.328805000002909 ], [ -71.537316000000743, 42.327969000002689 ], [ -71.585210000001496, 42.310952000003191 ], [ -71.603960000000768, 42.335341000003389 ], [ -71.618260000000859, 42.342589000002832 ], [ -71.624702000000809, 42.350465000003297 ], [ -71.676365000000729, 42.3648840000034 ], [ -71.678766000000991, 42.389163000002902 ], [ -71.700905000001185, 42.39577200000263 ] ] ] } },
{ "type": "Feature", "properties": { "enacted_district": 4, "population": 783282.0, "voting_age_pop": 617426.0, "dem_votes": 202602.0, "rep_votes": 141953.0, "minority_pop": 119786.0, "dem_pct": 0.58801062222634681, "rep_pct": 0.41198937748342374 }, "geometry": { "type": "Polygon", "coordinates": [ [ [ -71.381398000000743, 41.952862000003343 ], [ -71.381299000000737, 41.98508400000317 ], [ -71.381401000000565, 42.018798000002768 ], [ -71.414260000000766, 42.018499000003494 ], [ -71.458104000001313, 42.017798000002621 ], [ -71.49825900000134, 42.017272000002677 ], [ -71.527702000001298, 42.01509500000283 ], [ -71.553256000000687, 42.014514000003331 ], [ -71.563665000000583, 42.014276000003349 ], [ -71.591100000001489, 42.01364600000344 ], [ -71.591410000000877, 42.032110000002625 ], [ -71.591951000001089, 42.063695000002717 ], [ -71.592634000001112, 42.114238000002814 ], [ -71.592748000001649, 42.121648000002992 ], [ -71.571591000000979, 42.142367000002899 ], [ -71.56095400000055, 42.158315000003206 ], [ -71.56169200000096, 42.177071000003174 ], [ -71.554542000001234, 42.178135000003159 ], [ -71.555738000001426, 42.182503000002725 ], [ -71.515380000000746, 42.189138000003346 ], [ -71.502626000001257, 42.191416000003294 ], [ -71.484633000001438, 42.166023000002923 ], [ -71.480013000001449, 42.165916000003058 ], [ -71.478119000001726, 42.156782000002657 ], [ -71.478245000000669, 42.149102000002799 ], [ -71.478522000001277, 42.131378000002591 ], [ -71.444681000001481, 42.135552000003401 ], [ -71.441426000001499, 42.134829000002874 ], [ -71.398331000001022, 42.138322000002752 ], [ -71.38018800000161, 42.132925000003041 ], [ -71.375618000001666, 42.135454000002852 ], [ -71.402295000000592, 42.178794000002931 ], [ -71.384765000001266, 42.192014000003354 ], [ -71.384402000000691, 42.192755000003125 ], [ -71.420075000001034, 42.238123000002659 ], [ -71.41929800000149, 42.257281000002891 ], [ -71.417069000000808, 42.257721000002952 ], [ -71.390365000001239, 42.271916000002761 ], [ -71.386899000001364, 42.271300000003016 ], [ -71.37741600000092, 42.269596000003183 ], [ -71.356412000001185, 42.259558000002762 ], [ -71.332434000000987, 42.247729000002629 ], [ -71.302922000001388, 42.248274000003256 ], [ -71.308460000001716, 42.270709000002768 ], [ -71.298220000001223, 42.2817620000028 ], [ -71.290941000001482, 42.29348300000305 ], [ -71.264370000000667, 42.300180000002591 ], [ -71.277120000001602, 42.311980000002649 ], [ -71.246146000001062, 42.321013000003362 ], [ -71.24919000000115, 42.323638000002639 ], [ -71.269958000001211, 42.328086000003267 ], [ -71.26091900000084, 42.340982000003123 ], [ -71.261344000001401, 42.343903000002662 ], [ -71.260385000000809, 42.353633000003448 ], [ -71.252926000001196, 42.355962000003125 ], [ -71.252444000000722, 42.356105000003033 ], [ -71.237621000000999, 42.360498000002835 ], [ -71.236588000000921, 42.360805000002834 ], [ -71.226229000000657, 42.36387200000339 ], [ -71.217190000001338, 42.366534000002815 ], [ -71.217061000001422, 42.366569000003423 ], [ -71.213283000001709, 42.364959000003495 ], [ -71.204486000001623, 42.365785000002745 ], [ -71.195206000001164, 42.367734000003075 ], [ -71.192215000001582, 42.365424000002832 ], [ -71.190231000001418, 42.360384000003052 ], [ -71.183271000000559, 42.359323000003279 ], [ -71.168040000001668, 42.360148000002887 ], [ -71.167625000001394, 42.360073000003318 ], [ -71.170397000001302, 42.357115000003255 ], [ -71.17393500000108, 42.353397000003362 ], [ -71.174265000000986, 42.349584000003439 ], [ -71.17189800000078, 42.346655000003409 ], [ -71.170003000001657, 42.344252000003301 ], [ -71.166699000001586, 42.34000900000278 ], [ -71.167565000001588, 42.333441000002665 ], [ -71.157036000001369, 42.330390000003398 ], [ -71.150104000000781, 42.335282000002692 ], [ -71.146215000001078, 42.33863200000269 ], [ -71.139977000001352, 42.342140000002779 ], [ -71.138809000000819, 42.343087000002782 ], [ -71.137824000000791, 42.343876000002631 ], [ -71.135155000001376, 42.346023000003171 ], [ -71.132007000000698, 42.347773000003315 ], [ -71.129746000001703, 42.348850000003502 ], [ -71.124755000001429, 42.3512300000029 ], [ -71.121311000001342, 42.35167500000307 ], [ -71.118277000001015, 42.351326000003425 ], [ -71.113784000001559, 42.350780000002665 ], [ -71.106894000001247, 42.348588000003069 ], [ -71.105516000001657, 42.343812000002707 ], [ -71.110597000000979, 42.340405000003493 ], [ -71.110808000001214, 42.335586000002813 ], [ -71.111413000001718, 42.334525000003019 ], [ -71.113325000001097, 42.33190200000319 ], [ -71.114547000001465, 42.328372000003192 ], [ -71.115929000001401, 42.325855000002981 ], [ -71.119539000000898, 42.322745000003167 ], [ -71.127177000001666, 42.318607000003219 ], [ -71.130642000001487, 42.314530000003295 ], [ -71.140135000000669, 42.302147000003465 ], [ -71.145967000001122, 42.29793900000336 ], [ -71.152211000001003, 42.294660000003191 ], [ -71.164702000000531, 42.30383000000284 ], [ -71.169808000001652, 42.30044300000305 ], [ -71.178636000001063, 42.29459500000327 ], [ -71.191247000001326, 42.282992000002736 ], [ -71.188212000001414, 42.280438000003123 ], [ -71.197043000000917, 42.26900500000265 ], [ -71.204954000000811, 42.26707000000345 ], [ -71.231717000001368, 42.259270000002687 ], [ -71.232285000001426, 42.258425000002646 ], [ -71.251416000001143, 42.202613000003424 ], [ -71.269569000001397, 42.200499000003269 ], [ -71.275584000001416, 42.177198000003109 ], [ -71.275222000001349, 42.158685000003302 ], [ -71.284092000001721, 42.148901000002972 ], [ -71.303751000000773, 42.1495000000034 ], [ -71.298940000001053, 42.126500000002672 ], [ -71.296355000000929, 42.118017000002681 ], [ -71.280268000000532, 42.088492000002631 ], [ -71.263417000001667, 42.101333000003009 ], [ -71.255501000000606, 42.104078000003028 ], [ -71.238804000001224, 42.10640100000272 ], [ -71.232592000000764, 42.125018000002619 ], [ -71.215306000001476, 42.140326000003249 ], [ -71.194455000000588, 42.149916000003429 ], [ -71.188627000001063, 42.160816000003052 ], [ -71.177853000001193, 42.164136000003332 ], [ -71.162841000000526, 42.145701000002987 ], [ -71.149241000000913, 42.138628000003209 ], [ -71.149166000000704, 42.138612000003263 ], [ -71.149365000001183, 42.138160000003133 ], [ -71.147318000000524, 42.126709000003267 ], [ -71.138438000001571, 42.119220000003033 ], [ -71.131290000000519, 42.100740000003064 ], [ -71.138607000001556, 42.072775000003404 ], [ -71.16746900000075, 42.061629000003052 ], [ -71.16868100000147, 42.061161000002933 ], [ -71.164092000001219, 42.038849000003211 ], [ -71.161448000000533, 42.02601000000292 ], [ -71.159263000001346, 42.015433000003185 ], [ -71.158704000001165, 42.01262400000266 ], [ -71.156450000001314, 42.001042000003025 ], [ -71.100854000000638, 41.993151000003103 ], [ -71.087157000001099, 41.990832000003202 ], [ -71.078553000000781, 41.98930400000323 ], [ -71.054718000001017, 41.985057000002897 ], [ -71.054184000001214, 41.982716000003307 ], [ -71.042627000000721, 41.959516000002736 ], [ -71.052950000001601, 41.939746000002643 ], [ -71.032435000001442, 41.92294500000331 ], [ -70.997397000000859, 41.918399000003298 ], [ -70.993152000001615, 41.906445000002954 ], [ -70.987256000000627, 41.905808000003177 ], [ -70.916432000000754, 41.876899000002851 ], [ -70.918729000000894, 41.85206300000268 ], [ -70.893973000000969, 41.828881000002823 ], [ -70.896400000001535, 41.794320000002799 ], [ -70.921782000000775, 41.791244000002749 ], [ -70.907184000000669, 41.763543000003445 ], [ -70.922317000001399, 41.754795000003263 ], [ -70.942993000000584, 41.744668000003443 ], [ -70.95780400000119, 41.737614000002623 ], [ -70.964649000000676, 41.734354000003215 ], [ -70.965395000001394, 41.734003000003177 ], [ -71.011896000000618, 41.711778000003001 ], [ -71.066630000001439, 41.685619000002937 ], [ -71.076675000000918, 41.68746900000302 ], [ -71.114407000000568, 41.69280400000266 ], [ -71.119331000000869, 41.679474000003466 ], [ -71.135244000001393, 41.625939000003392 ], [ -71.138346000000908, 41.6036760000027 ], [ -71.132557000000617, 41.660363000003514 ], [ -71.162120000000556, 41.665735000002634 ], [ -71.177788000000675, 41.671858000003212 ], [ -71.184328000000676, 41.673063000003289 ], [ -71.201162000000849, 41.681909000002882 ], [ -71.208292000001364, 41.690503000003162 ], [ -71.226082000001327, 41.71234500000314 ], [ -71.270835000001682, 41.756236000003511 ], [ -71.316366000000727, 41.775559000003199 ], [ -71.340495000001113, 41.797074000003455 ], [ -71.33932500000067, 41.8084610000029 ], [ -71.342932000001014, 41.829524000002898 ], [ -71.337818000001249, 41.873171000003296 ], [ -71.338787000000849, 41.898593000003402 ], [ -71.33978800000078, 41.898474000002786 ], [ -71.371090000001132, 41.894773000003426 ], [ -71.381439000000753, 41.914816000003349 ], [ -71.381398000000743, 41.952862000003343 ] ] ] } },
{ "type": "Feature", "properties": { "enacted_district": 5, "population": 780155.0, "voting_age_pop": 630469.0, "dem_votes": 238128.0, "rep_votes": 103595.0, "minority_pop": 208580.0, "dem_pct": 0.69684510533477551, "rep_pct": 0.3031548943725898 }, "geometry": { "type": "Polygon", "coordinates": [ [ [ -71.386899000001364, 42.271300000003016 ], [ -71.390365000001239, 42.271916000002761 ], [ -71.417069000000808, 42.257721000002952 ], [ -71.41929800000149, 42.257281000002891 ], [ -71.429273000000904, 42.262535000003417 ], [ -71.431129000001206, 42.263503000002792 ], [ -71.444215000001492, 42.270374000003308 ], [ -71.444617000001642, 42.270588000003187 ], [ -71.49142600000134, 42.288162000003496 ], [ -71.497046000001419, 42.289829000002619 ], [ -71.486350000000911, 42.310449000003487 ], [ -71.486744000001693, 42.329937000002886 ], [ -71.486797000001616, 42.33018900000291 ], [ -71.483351000000781, 42.352807000003345 ], [ -71.483298000001597, 42.353130000003411 ], [ -71.482487000000603, 42.35616600000305 ], [ -71.475505000001107, 42.380632000003267 ], [ -71.475498000001664, 42.380655000003195 ], [ -71.472678000001096, 42.390025000003469 ], [ -71.469452000001638, 42.402631000003012 ], [ -71.474376000001655, 42.421624000003028 ], [ -71.474774000000664, 42.423142000003331 ], [ -71.477598000001279, 42.434126000002685 ], [ -71.464349000001562, 42.450300000002819 ], [ -71.453841000001532, 42.446161000002988 ], [ -71.452606000000756, 42.445678000002779 ], [ -71.430389000000559, 42.436937000003269 ], [ -71.414579000000785, 42.430960000003068 ], [ -71.396264000000954, 42.42402000000321 ], [ -71.366340000001173, 42.412720000002686 ], [ -71.364547000001537, 42.420140000003421 ], [ -71.320130000001328, 42.449866000002835 ], [ -71.289676000000682, 42.466182000002654 ], [ -71.272695000000724, 42.459704000003264 ], [ -71.265314000000728, 42.470601000003377 ], [ -71.244177000001201, 42.4885390000032 ], [ -71.240906000000791, 42.490013000003117 ], [ -71.223204000001672, 42.475395000003275 ], [ -71.204317000001694, 42.465845000003242 ], [ -71.185480000000837, 42.479967000002993 ], [ -71.182944000000532, 42.482122000003031 ], [ -71.168574000000717, 42.496017000002894 ], [ -71.168490000001427, 42.497475000002829 ], [ -71.169395000001188, 42.507311000002922 ], [ -71.170033000001013, 42.515537000003299 ], [ -71.149179000001297, 42.524263000003025 ], [ -71.135454000001459, 42.530001000002734 ], [ -71.128892000000945, 42.517375000003454 ], [ -71.1209900000011, 42.502523000003322 ], [ -71.119760000001378, 42.500292000002801 ], [ -71.101786000000828, 42.502134000003181 ], [ -71.100727000000887, 42.502242000003058 ], [ -71.09691300000128, 42.501889000003089 ], [ -71.086382000000782, 42.493976000002867 ], [ -71.075814000001415, 42.483573000003389 ], [ -71.078152000001126, 42.474020000003343 ], [ -71.070146000001046, 42.471864000003393 ], [ -71.061269000000706, 42.472651000003431 ], [ -71.053365000001136, 42.475925000003002 ], [ -71.047778000000548, 42.469593000003151 ], [ -71.047089000001634, 42.468811000003022 ], [ -71.046949000001661, 42.468653000002739 ], [ -71.039968000001309, 42.460735000002593 ], [ -71.02583600000105, 42.444709000003499 ], [ -71.019885000001366, 42.44925600000326 ], [ -71.009671000000523, 42.441047000003373 ], [ -71.000424000001289, 42.431560000003415 ], [ -70.997234000001313, 42.43105100000281 ], [ -70.96859400000146, 42.444396000002911 ], [ -70.95079300000053, 42.444296000002858 ], [ -70.959494000000731, 42.4074980000034 ], [ -70.924593000000897, 42.386798000003395 ], [ -70.917892000001572, 42.385997000002945 ], [ -70.97289300000169, 42.353597000002615 ], [ -70.982593000000705, 42.355997000003022 ], [ -70.998942000001449, 42.364762000003161 ], [ -71.00020600000073, 42.377754000003065 ], [ -70.988281000000825, 42.387107000003411 ], [ -70.986053000000524, 42.388116000003123 ], [ -70.99504700000098, 42.393566000003105 ], [ -71.000683000001189, 42.396817000002898 ], [ -71.013395000001367, 42.397398000003449 ], [ -71.010892000001562, 42.401795000003077 ], [ -71.01812600000062, 42.403378000002782 ], [ -71.026690000000755, 42.406316000002953 ], [ -71.030474000000964, 42.411692000003043 ], [ -71.0327720000016, 42.413828000002759 ], [ -71.033181000000724, 42.414206000003418 ], [ -71.032566000001651, 42.415533000002668 ], [ -71.028227000001294, 42.424202000003426 ], [ -71.040934000001172, 42.423450000002667 ], [ -71.052833000001357, 42.421163000003254 ], [ -71.054580000001025, 42.42003400000344 ], [ -71.056591000000935, 42.418829000003193 ], [ -71.064507000000731, 42.415241000002702 ], [ -71.073196000001204, 42.412996000002671 ], [ -71.072807000001532, 42.403810000002949 ], [ -71.075996000000899, 42.396396000002845 ], [ -71.083423000001389, 42.400013000003277 ], [ -71.096301000000949, 42.400341000002797 ], [ -71.097250000001267, 42.39981400000304 ], [ -71.099608000001112, 42.397121000003203 ], [ -71.102244000001363, 42.396842000003218 ], [ -71.10937800000049, 42.399230000002824 ], [ -71.111685000000563, 42.40000400000315 ], [ -71.114916000001386, 42.402167000002819 ], [ -71.115541000000718, 42.405145000002655 ], [ -71.121668000001165, 42.407088000003469 ], [ -71.126992000000854, 42.416630000003337 ], [ -71.126121000001092, 42.417647000003363 ], [ -71.130586000000676, 42.417355000003283 ], [ -71.132435000001294, 42.415216000003305 ], [ -71.133869000001312, 42.407042000003081 ], [ -71.13451400000055, 42.404167000003014 ], [ -71.13024600000108, 42.400379000003078 ], [ -71.127361000001585, 42.397096000003117 ], [ -71.140607000001495, 42.394680000002722 ], [ -71.143557000000612, 42.397428000003025 ], [ -71.152245000000946, 42.400816000002685 ], [ -71.156304000001157, 42.395852000002613 ], [ -71.141121000000595, 42.392092000002769 ], [ -71.131730000001028, 42.385185000003418 ], [ -71.127558000000775, 42.387402000003441 ], [ -71.129006000001525, 42.390072000002718 ], [ -71.124368000001141, 42.393653000003283 ], [ -71.117085000001282, 42.38958100000314 ], [ -71.118159000000588, 42.388025000003189 ], [ -71.117737000000858, 42.387556000003492 ], [ -71.107272000001259, 42.378087000003028 ], [ -71.103172000000868, 42.374297000002784 ], [ -71.107275000001479, 42.370943000002889 ], [ -71.105859000001132, 42.369750000003037 ], [ -71.101750000000976, 42.368302000002828 ], [ -71.105104000001404, 42.36452100000313 ], [ -71.106707000001236, 42.363053000003092 ], [ -71.109438000000708, 42.367779000003267 ], [ -71.113512000001066, 42.368564000002898 ], [ -71.116921000000758, 42.364246000003298 ], [ -71.118444000000906, 42.368616000003222 ], [ -71.123204000000797, 42.368938000003418 ], [ -71.130997000001543, 42.37389200000267 ], [ -71.136303000000822, 42.366912000003353 ], [ -71.143667000000576, 42.365081000003222 ], [ -71.147170000000841, 42.36175400000306 ], [ -71.161508000001334, 42.358972000003106 ], [ -71.167625000001394, 42.360073000003318 ], [ -71.168040000001668, 42.360148000002887 ], [ -71.183271000000559, 42.359323000003279 ], [ -71.190231000001418, 42.360384000003052 ], [ -71.192215000001582, 42.365424000002832 ], [ -71.195206000001164, 42.367734000003075 ], [ -71.204486000001623, 42.365785000002745 ], [ -71.213283000001709, 42.364959000003495 ], [ -71.217061000001422, 42.366569000003423 ], [ -71.217190000001338, 42.366534000002815 ], [ -71.226229000000657, 42.36387200000339 ], [ -71.236588000000921, 42.360805000002834 ], [ -71.237621000000999, 42.360498000002835 ], [ -71.252444000000722, 42.356105000003033 ], [ -71.252926000001196, 42.355962000003125 ], [ -71.260385000000809, 42.353633000003448 ], [ -71.261344000001401, 42.343903000002662 ], [ -71.26091900000084, 42.340982000003123 ], [ -71.269958000001211, 42.328086000003267 ], [ -71.24919000000115, 42.323638000002639 ], [ -71.246146000001062, 42.321013000003362 ], [ -71.277120000001602, 42.311980000002649 ], [ -71.264370000000667, 42.300180000002591 ], [ -71.290941000001482, 42.29348300000305 ], [ -71.298220000001223, 42.2817620000028 ], [ -71.308460000001716, 42.270709000002768 ], [ -71.302922000001388, 42.248274000003256 ], [ -71.332434000000987, 42.247729000002629 ], [ -71.356412000001185, 42.259558000002762 ], [ -71.37741600000092, 42.269596000003183 ], [ -71.386899000001364, 42.271300000003016 ] ] ] } },
{ "type": "Feature", "properties": { "enacted_district": 6, "population": 781320.0, "voting_age_pop": 624085.0, "dem_votes": 216079.0, "rep_votes": 160377.0, "minority_pop": 128973.0, "dem_pct": 0.57398208540334539, "rep_pct": 0.42601791433101932 }, "geometry": { "type": "Polygon", "coordinates": [ [ [ -71.317538000000638, 42.502425000002823 ], [ -71.306699000001004, 42.520593000002627 ], [ -71.304610000000835, 42.529285000003462 ], [ -71.332543000001621, 42.560756000003131 ], [ -71.317788000000547, 42.578025000002846 ], [ -71.294566000001268, 42.60518500000348 ], [ -71.297028000000893, 42.613011000003283 ], [ -71.296319000001702, 42.612667000002631 ], [ -71.280226000000695, 42.605240000002929 ], [ -71.251331000000775, 42.591909000002993 ], [ -71.241043000000644, 42.587143000002776 ], [ -71.23159500000159, 42.582784000003166 ], [ -71.202530000000721, 42.589402000002679 ], [ -71.19357100000083, 42.593909000003343 ], [ -71.189483000001559, 42.606187000003288 ], [ -71.182023000001081, 42.608431000002909 ], [ -71.172108000000804, 42.616751000003056 ], [ -71.223955000000544, 42.641656000002811 ], [ -71.226182000000591, 42.642727000003013 ], [ -71.256188000001217, 42.657145000003332 ], [ -71.238179000001693, 42.669419000003366 ], [ -71.209942000001718, 42.700620000002985 ], [ -71.188862000001706, 42.696268000003386 ], [ -71.172533000001181, 42.678081000003267 ], [ -71.16572200000158, 42.679245000002652 ], [ -71.160911000000993, 42.680054000002855 ], [ -71.145563000000976, 42.680053000003348 ], [ -71.134452000001019, 42.676778000003218 ], [ -71.139402000001695, 42.68447700000327 ], [ -71.137935000000724, 42.692223000003082 ], [ -71.144857000001096, 42.6989850000027 ], [ -71.140384000000509, 42.703364000003297 ], [ -71.137285000000816, 42.706640000003027 ], [ -71.13390000000058, 42.715232000003283 ], [ -71.134198000000879, 42.721505000003226 ], [ -71.123510000000664, 42.732359000003029 ], [ -71.115579000001603, 42.741104000002885 ], [ -71.114240000000962, 42.739995000003177 ], [ -71.112283000001099, 42.738349000002827 ], [ -71.108632000000611, 42.735281000003411 ], [ -71.084173000000533, 42.73648500000315 ], [ -71.058883000000691, 42.732463000002831 ], [ -71.041823000000988, 42.75720400000305 ], [ -71.034214000001299, 42.763877000003191 ], [ -71.022855000001329, 42.778136000003435 ], [ -71.020381000001052, 42.784296000002662 ], [ -70.999611000001295, 42.810545000002911 ], [ -71.054005000001609, 42.833282000002797 ], [ -71.04492000000171, 42.848667000003047 ], [ -71.016339000000769, 42.861682000002766 ], [ -71.004902000000641, 42.863347000003422 ], [ -70.974719000000519, 42.867695000003074 ], [ -70.955658000001392, 42.873430000003125 ], [ -70.914631000001521, 42.886648000003277 ], [ -70.885602000001697, 42.882834000003363 ], [ -70.863696000001056, 42.870138000003081 ], [ -70.847718000001649, 42.860867000002855 ], [ -70.813832000001597, 42.872298000003376 ], [ -70.735005000000783, 42.874685000002671 ], [ -70.74883000000051, 42.858831000002645 ], [ -70.734874000001028, 42.824477000003114 ], [ -70.737225000001047, 42.787956000002815 ], [ -70.714324000001014, 42.731911000003429 ], [ -70.702580000000495, 42.724162000003027 ], [ -70.661314000000658, 42.736610000003431 ], [ -70.625943000000888, 42.739724000003037 ], [ -70.549306000000499, 42.724164000003121 ], [ -70.513934000000887, 42.680594000002934 ], [ -70.502143000001112, 42.624579000003429 ], [ -70.521793000000798, 42.593459000002611 ], [ -70.545374000001132, 42.57011900000348 ], [ -70.582709000000705, 42.553004000003291 ], [ -70.606290000001266, 42.531220000003167 ], [ -70.648072000001662, 42.405628000003269 ], [ -70.74948700000121, 42.400820000002881 ], [ -70.851436000001499, 42.393209000003381 ], [ -70.917892000001572, 42.385997000002945 ], [ -70.924593000000897, 42.386798000003395 ], [ -70.959494000000731, 42.4074980000034 ], [ -70.95079300000053, 42.444296000002858 ], [ -70.96859400000146, 42.444396000002911 ], [ -70.997234000001313, 42.43105100000281 ], [ -71.000424000001289, 42.431560000003415 ], [ -71.009671000000523, 42.441047000003373 ], [ -71.019885000001366, 42.44925600000326 ], [ -71.02583600000105, 42.444709000003499 ], [ -71.039968000001309, 42.460735000002593 ], [ -71.046949000001661, 42.468653000002739 ], [ -71.047089000001634, 42.468811000003022 ], [ -71.047778000000548, 42.469593000003151 ], [ -71.053365000001136, 42.475925000003002 ], [ -71.061269000000706, 42.472651000003431 ], [ -71.070146000001046, 42.471864000003393 ], [ -71.078152000001126, 42.474020000003343 ], [ -71.075814000001415, 42.483573000003389 ], [ -71.086382000000782, 42.493976000002867 ], [ -71.09691300000128, 42.501889000003089 ], [ -71.100727000000887, 42.502242000003058 ], [ -71.101786000000828, 42.502134000003181 ], [ -71.119760000001378, 42.500292000002801 ], [ -71.1209900000011, 42.502523000003322 ], [ -71.128892000000945, 42.517375000003454 ], [ -71.135454000001459, 42.530001000002734 ], [ -71.149179000001297, 42.524263000003025 ], [ -71.170033000001013, 42.515537000003299 ], [ -71.169395000001188, 42.507311000002922 ], [ -71.168490000001427, 42.497475000002829 ], [ -71.168574000000717, 42.496017000002894 ], [ -71.182944000000532, 42.482122000003031 ], [ -71.185480000000837, 42.479967000002993 ], [ -71.204317000001694, 42.465845000003242 ], [ -71.223204000001672, 42.475395000003275 ], [ -71.240906000000791, 42.490013000003117 ], [ -71.244177000001201, 42.4885390000032 ], [ -71.265314000000728, 42.470601000003377 ], [ -71.272695000000724, 42.459704000003264 ], [ -71.289676000000682, 42.466182000002654 ], [ -71.31694700000142, 42.476682000002626 ], [ -71.320806000001141, 42.482184000003173 ], [ -71.317538000000638, 42.502425000002823 ] ] ] } },
{ "type": "Feature", "properties": { "enacted_district": 7, "population": 779756.0, "voting_age_pop": 653119.0, "dem_votes": 220530.0, "rep_votes": 45341.0, "minority_pop": 377601.0, "dem_pct": 0.82946240814926697, "rep_pct": 0.17053759147461078 }, "geometry": { "type": "Polygon", "coordinates": [ [ [ -71.146127000000817, 42.252964000003182 ], [ -71.152118000000613, 42.258247000002918 ], [ -71.1415070000008, 42.263833000003395 ], [ -71.143664000001593, 42.272847000002741 ], [ -71.140653000001336, 42.275179000003426 ], [ -71.136998000001384, 42.27832300000297 ], [ -71.132699000000642, 42.282201000002829 ], [ -71.12896700000168, 42.285675000002691 ], [ -71.128128000001396, 42.286448000002743 ], [ -71.119549000000745, 42.285511000003247 ], [ -71.119259000001591, 42.290486000002858 ], [ -71.125965000001017, 42.288482000003469 ], [ -71.12713900000152, 42.289161000003254 ], [ -71.126180000000787, 42.290089000002681 ], [ -71.121294000000617, 42.295199000002668 ], [ -71.120727000001409, 42.309009000003385 ], [ -71.120129000001313, 42.308956000003128 ], [ -71.119200000000873, 42.306967000002984 ], [ -71.118932000001109, 42.304101000002859 ], [ -71.114159000000868, 42.300179000002835 ], [ -71.11029900000139, 42.306069000002658 ], [ -71.109327000001684, 42.307517000002797 ], [ -71.107345000000606, 42.310622000003171 ], [ -71.105377000001013, 42.314644000002957 ], [ -71.104475000001187, 42.317022000003327 ], [ -71.1029440000015, 42.319298000003073 ], [ -71.103985000001487, 42.319977000002766 ], [ -71.105131000001137, 42.31927800000264 ], [ -71.109938000001534, 42.322025000003421 ], [ -71.119539000000898, 42.322745000003167 ], [ -71.115929000001401, 42.325855000002981 ], [ -71.114547000001465, 42.328372000003192 ], [ -71.113325000001097, 42.33190200000319 ], [ -71.111413000001718, 42.334525000003019 ], [ -71.110808000001214, 42.335586000002813 ], [ -71.110597000000979, 42.340405000003493 ], [ -71.105516000001657, 42.343812000002707 ], [ -71.106894000001247, 42.348588000003069 ], [ -71.113784000001559, 42.350780000002665 ], [ -71.118277000001015, 42.351326000003425 ], [ -71.121311000001342, 42.35167500000307 ], [ -71.124755000001429, 42.3512300000029 ], [ -71.129746000001703, 42.348850000003502 ], [ -71.132007000000698, 42.347773000003315 ], [ -71.135155000001376, 42.346023000003171 ], [ -71.137824000000791, 42.343876000002631 ], [ -71.138809000000819, 42.343087000002782 ], [ -71.139977000001352, 42.342140000002779 ], [ -71.146215000001078, 42.33863200000269 ], [ -71.150104000000781, 42.335282000002692 ], [ -71.157036000001369, 42.330390000003398 ], [ -71.167565000001588, 42.333441000002665 ], [ -71.166699000001586, 42.34000900000278 ], [ -71.170003000001657, 42.344252000003301 ], [ -71.17189800000078, 42.346655000003409 ], [ -71.174265000000986, 42.349584000003439 ], [ -71.17393500000108, 42.353397000003362 ], [ -71.170397000001302, 42.357115000003255 ], [ -71.167625000001394, 42.360073000003318 ], [ -71.161508000001334, 42.358972000003106 ], [ -71.147170000000841, 42.36175400000306 ], [ -71.143667000000576, 42.365081000003222 ], [ -71.136303000000822, 42.366912000003353 ], [ -71.130997000001543, 42.37389200000267 ], [ -71.123204000000797, 42.368938000003418 ], [ -71.118444000000906, 42.368616000003222 ], [ -71.116921000000758, 42.364246000003298 ], [ -71.113512000001066, 42.368564000002898 ], [ -71.109438000000708, 42.367779000003267 ], [ -71.106707000001236, 42.363053000003092 ], [ -71.105104000001404, 42.36452100000313 ], [ -71.101750000000976, 42.368302000002828 ], [ -71.105859000001132, 42.369750000003037 ], [ -71.107275000001479, 42.370943000002889 ], [ -71.103172000000868, 42.374297000002784 ], [ -71.107272000001259, 42.378087000003028 ], [ -71.117737000000858, 42.387556000003492 ], [ -71.118159000000588, 42.388025000003189 ], [ -71.117085000001282, 42.38958100000314 ], [ -71.124368000001141, 42.393653000003283 ], [ -71.129006000001525, 42.390072000002718 ], [ -71.127558000000775, 42.387402000003441 ], [ -71.131730000001028, 42.385185000003418 ], [ -71.141121000000595, 42.392092000002769 ], [ -71.156304000001157, 42.395852000002613 ], [ -71.152245000000946, 42.400816000002685 ], [ -71.143557000000612, 42.397428000003025 ], [ -71.140607000001495, 42.394680000002722 ], [ -71.127361000001585, 42.397096000003117 ], [ -71.13024600000108, 42.400379000003078 ], [ -71.13451400000055, 42.404167000003014 ], [ -71.133869000001312, 42.407042000003081 ], [ -71.132435000001294, 42.415216000003305 ], [ -71.130586000000676, 42.417355000003283 ], [ -71.126121000001092, 42.417647000003363 ], [ -71.126992000000854, 42.416630000003337 ], [ -71.121668000001165, 42.407088000003469 ], [ -71.115541000000718, 42.405145000002655 ], [ -71.114916000001386, 42.402167000002819 ], [ -71.111685000000563, 42.40000400000315 ], [ -71.10937800000049, 42.399230000002824 ], [ -71.102244000001363, 42.396842000003218 ], [ -71.099608000001112, 42.397121000003203 ], [ -71.097250000001267, 42.39981400000304 ], [ -71.096301000000949, 42.400341000002797 ], [ -71.083423000001389, 42.400013000003277 ], [ -71.075996000000899, 42.396396000002845 ], [ -71.072807000001532, 42.403810000002949 ], [ -71.073196000001204, 42.412996000002671 ], [ -71.064507000000731, 42.415241000002702 ], [ -71.056591000000935, 42.418829000003193 ], [ -71.054580000001025, 42.42003400000344 ], [ -71.052833000001357, 42.421163000003254 ], [ -71.040934000001172, 42.423450000002667 ], [ -71.028227000001294, 42.424202000003426 ], [ -71.032566000001651, 42.415533000002668 ], [ -71.033181000000724, 42.414206000003418 ], [ -71.0327720000016, 42.413828000002759 ], [ -71.030474000000964, 42.411692000003043 ], [ -71.026690000000755, 42.406316000002953 ], [ -71.01812600000062, 42.403378000002782 ], [ -71.010892000001562, 42.401795000003077 ], [ -71.013395000001367, 42.397398000003449 ], [ -71.000683000001189, 42.396817000002898 ], [ -70.99504700000098, 42.393566000003105 ], [ -70.986053000000524, 42.388116000003123 ], [ -70.988281000000825, 42.387107000003411 ], [ -71.00020600000073, 42.377754000003065 ], [ -70.998942000001449, 42.364762000003161 ], [ -70.982593000000705, 42.355997000003022 ], [ -70.97289300000169, 42.353597000002615 ], [ -70.975094000001022, 42.343499000002929 ], [ -71.010994000001091, 42.342698000003125 ], [ -71.04556600000096, 42.359733000003168 ], [ -71.045500000001127, 42.359825000003482 ], [ -71.042596000001481, 42.363798000003172 ], [ -71.046505000000622, 42.36814300000335 ], [ -71.049095000001415, 42.371197000003249 ], [ -71.054995000001384, 42.370697000002892 ], [ -71.059795000000918, 42.368767000002599 ], [ -71.064059000000583, 42.369001000003138 ], [ -71.07064400000165, 42.367949000003243 ], [ -71.075710000000839, 42.361463000003184 ], [ -71.076403000000639, 42.359956000002974 ], [ -71.079361000001327, 42.358267000002769 ], [ -71.083398000000955, 42.356925000002661 ], [ -71.087511000001314, 42.355557000003031 ], [ -71.083749000000793, 42.34838000000331 ], [ -71.07950800000151, 42.349508000003262 ], [ -71.075212000001542, 42.350677000002982 ], [ -71.073067000000918, 42.351243000002988 ], [ -71.070655000001224, 42.35185400000335 ], [ -71.064562000001231, 42.35238300000276 ], [ -71.062257000000528, 42.356268000003077 ], [ -71.05218800000074, 42.351121000002628 ], [ -71.058143000001579, 42.345647000003069 ], [ -71.06102700000109, 42.335495000003249 ], [ -71.061009000001619, 42.334782000003322 ], [ -71.063553000001505, 42.330791000002826 ], [ -71.066431000001401, 42.326256000002992 ], [ -71.067507000000774, 42.323297000003315 ], [ -71.068061000000867, 42.32128100000331 ], [ -71.068747000001295, 42.318594000003429 ], [ -71.062718000001169, 42.316006000003433 ], [ -71.06167400000119, 42.318380000002662 ], [ -71.058834000001553, 42.318600000002718 ], [ -71.058965000001166, 42.318121000003153 ], [ -71.059855000001406, 42.315225000002606 ], [ -71.059379000000575, 42.31103900000322 ], [ -71.05720700000137, 42.312960000002732 ], [ -71.054983000001371, 42.31233100000312 ], [ -71.055085000000773, 42.30563300000275 ], [ -71.055692000000775, 42.30252300000268 ], [ -71.059042000001284, 42.300333000003405 ], [ -71.056457000000947, 42.296370000003378 ], [ -71.05887500000054, 42.295683000003123 ], [ -71.057349000001267, 42.292476000003212 ], [ -71.057195000000902, 42.291426000003263 ], [ -71.055347000001348, 42.288242000003486 ], [ -71.064303000001246, 42.28569900000312 ], [ -71.064787000001388, 42.283999000003142 ], [ -71.065322000001501, 42.282054000002688 ], [ -71.066503000000651, 42.277904000003474 ], [ -71.072077000000519, 42.275666000003092 ], [ -71.072199000000921, 42.275001000003229 ], [ -71.068140000000568, 42.271000000003227 ], [ -71.073264000001004, 42.270317000002976 ], [ -71.081200000001189, 42.258370000003438 ], [ -71.093150000000875, 42.262490000003453 ], [ -71.093512000000715, 42.252628000002751 ], [ -71.09349000000141, 42.245370000003206 ], [ -71.08016300000142, 42.218859000003143 ], [ -71.082727000001512, 42.204290000003141 ], [ -71.065118000000524, 42.20544800000313 ], [ -71.049490000001228, 42.206669000002648 ], [ -71.048595000000887, 42.201790000002823 ], [ -71.029640000000896, 42.191510000003291 ], [ -71.019065000000666, 42.183998000002674 ], [ -71.022428000000588, 42.17054600000327 ], [ -71.021994000000717, 42.169005000002848 ], [ -71.026911000000823, 42.157784000002692 ], [ -71.027875000001501, 42.155431000003496 ], [ -71.030442000001074, 42.148395000003454 ], [ -71.035093000001694, 42.135634000002725 ], [ -71.053927000001678, 42.151195000003 ], [ -71.05651100000145, 42.153815000003007 ], [ -71.063521000000591, 42.160915000003037 ], [ -71.066625000000741, 42.164057000003439 ], [ -71.072597000001423, 42.170109000003393 ], [ -71.095040000001035, 42.192718000003275 ], [ -71.102957000001695, 42.200708000003139 ], [ -71.130771000001317, 42.227926000002896 ], [ -71.143498000000832, 42.24006500000322 ], [ -71.143869000001118, 42.241841000003127 ], [ -71.146127000000817, 42.252964000003182 ] ] ] } },
{ "type": "Feature", "properties": { "enacted_district": 8, "population": 782657.0, "voting_age_pop": 637982.0, "dem_votes": 214332.0, "rep_votes": 134301.0, "minority_pop": 197398.0, "dem_pct": 0.61477829103533566, "rep_pct": 0.38522170867782979 }, "geometry": { "type": "Polygon", "coordinates": [ [ [ -71.16746900000075, 42.061629000003052 ], [ -71.138607000001556, 42.072775000003404 ], [ -71.131290000000519, 42.100740000003064 ], [ -71.138438000001571, 42.119220000003033 ], [ -71.147318000000524, 42.126709000003267 ], [ -71.149365000001183, 42.138160000003133 ], [ -71.149166000000704, 42.138612000003263 ], [ -71.149241000000913, 42.138628000003209 ], [ -71.162841000000526, 42.145701000002987 ], [ -71.177853000001193, 42.164136000003332 ], [ -71.188627000001063, 42.160816000003052 ], [ -71.194455000000588, 42.149916000003429 ], [ -71.215306000001476, 42.140326000003249 ], [ -71.232592000000764, 42.125018000002619 ], [ -71.238804000001224, 42.10640100000272 ], [ -71.255501000000606, 42.104078000003028 ], [ -71.263417000001667, 42.101333000003009 ], [ -71.280268000000532, 42.088492000002631 ], [ -71.296355000000929, 42.118017000002681 ], [ -71.298940000001053, 42.126500000002672 ], [ -71.303751000000773, 42.1495000000034 ], [ -71.284092000001721, 42.148901000002972 ], [ -71.275222000001349, 42.158685000003302 ], [ -71.275584000001416, 42.177198000003109 ], [ -71.269569000001397, 42.200499000003269 ], [ -71.251416000001143, 42.202613000003424 ], [ -71.232285000001426, 42.258425000002646 ], [ -71.231717000001368, 42.259270000002687 ], [ -71.204954000000811, 42.26707000000345 ], [ -71.197043000000917, 42.26900500000265 ], [ -71.188212000001414, 42.280438000003123 ], [ -71.191247000001326, 42.282992000002736 ], [ -71.178636000001063, 42.29459500000327 ], [ -71.169808000001652, 42.30044300000305 ], [ -71.164702000000531, 42.30383000000284 ], [ -71.152211000001003, 42.294660000003191 ], [ -71.145967000001122, 42.29793900000336 ], [ -71.140135000000669, 42.302147000003465 ], [ -71.130642000001487, 42.314530000003295 ], [ -71.127177000001666, 42.318607000003219 ], [ -71.119539000000898, 42.322745000003167 ], [ -71.109938000001534, 42.322025000003421 ], [ -71.105131000001137, 42.31927800000264 ], [ -71.103985000001487, 42.319977000002766 ], [ -71.1029440000015, 42.319298000003073 ], [ -71.104475000001187, 42.317022000003327 ], [ -71.105377000001013, 42.314644000002957 ], [ -71.107345000000606, 42.310622000003171 ], [ -71.109327000001684, 42.307517000002797 ], [ -71.11029900000139, 42.306069000002658 ], [ -71.114159000000868, 42.300179000002835 ], [ -71.118932000001109, 42.304101000002859 ], [ -71.119200000000873, 42.306967000002984 ], [ -71.120129000001313, 42.308956000003128 ], [ -71.120727000001409, 42.309009000003385 ], [ -71.121294000000617, 42.295199000002668 ], [ -71.126180000000787, 42.290089000002681 ], [ -71.12713900000152, 42.289161000003254 ], [ -71.125965000001017, 42.288482000003469 ], [ -71.119259000001591, 42.290486000002858 ], [ -71.119549000000745, 42.285511000003247 ], [ -71.128128000001396, 42.286448000002743 ], [ -71.12896700000168, 42.285675000002691 ], [ -71.132699000000642, 42.282201000002829 ], [ -71.136998000001384, 42.27832300000297 ], [ -71.140653000001336, 42.275179000003426 ], [ -71.143664000001593, 42.272847000002741 ], [ -71.1415070000008, 42.263833000003395 ], [ -71.152118000000613, 42.258247000002918 ], [ -71.146127000000817, 42.252964000003182 ], [ -71.143869000001118, 42.241841000003127 ], [ -71.143498000000832, 42.24006500000322 ], [ -71.130771000001317, 42.227926000002896 ], [ -71.102957000001695, 42.200708000003139 ], [ -71.095040000001035, 42.192718000003275 ], [ -71.072597000001423, 42.170109000003393 ], [ -71.066625000000741, 42.164057000003439 ], [ -71.063521000000591, 42.160915000003037 ], [ -71.05651100000145, 42.153815000003007 ], [ -71.053927000001678, 42.151195000003 ], [ -71.035093000001694, 42.135634000002725 ], [ -71.030442000001074, 42.148395000003454 ], [ -71.027875000001501, 42.155431000003496 ], [ -71.026911000000823, 42.157784000002692 ], [ -71.021994000000717, 42.169005000002848 ], [ -71.022428000000588, 42.17054600000327 ], [ -71.019065000000666, 42.183998000002674 ], [ -71.029640000000896, 42.191510000003291 ], [ -71.048595000000887, 42.201790000002823 ], [ -71.049490000001228, 42.206669000002648 ], [ -71.065118000000524, 42.20544800000313 ], [ -71.082727000001512, 42.204290000003141 ], [ -71.08016300000142, 42.218859000003143 ], [ -71.09349000000141, 42.245370000003206 ], [ -71.093512000000715, 42.252628000002751 ], [ -71.093150000000875, 42.262490000003453 ], [ -71.081200000001189, 42.258370000003438 ], [ -71.073264000001004, 42.270317000002976 ], [ -71.068140000000568, 42.271000000003227 ], [ -71.072199000000921, 42.275001000003229 ], [ -71.072077000000519, 42.275666000003092 ], [ -71.066503000000651, 42.277904000003474 ], [ -71.065322000001501, 42.282054000002688 ], [ -71.064787000001388, 42.283999000003142 ], [ -71.064303000001246, 42.28569900000312 ], [ -71.055347000001348, 42.288242000003486 ], [ -71.057195000000902, 42.291426000003263 ], [ -71.057349000001267, 42.292476000003212 ], [ -71.05887500000054, 42.295683000003123 ], [ -71.056457000000947, 42.296370000003378 ], [ -71.059042000001284, 42.300333000003405 ], [ -71.055692000000775, 42.30252300000268 ], [ -71.055085000000773, 42.30563300000275 ], [ -71.054983000001371, 42.31233100000312 ], [ -71.05720700000137, 42.312960000002732 ], [ -71.059379000000575, 42.31103900000322 ], [ -71.059855000001406, 42.315225000002606 ], [ -71.058965000001166, 42.318121000003153 ], [ -71.058834000001553, 42.318600000002718 ], [ -71.06167400000119, 42.318380000002662 ], [ -71.062718000001169, 42.316006000003433 ], [ -71.068747000001295, 42.318594000003429 ], [ -71.068061000000867, 42.32128100000331 ], [ -71.067507000000774, 42.323297000003315 ], [ -71.066431000001401, 42.326256000002992 ], [ -71.063553000001505, 42.330791000002826 ], [ -71.061009000001619, 42.334782000003322 ], [ -71.06102700000109, 42.335495000003249 ], [ -71.058143000001579, 42.345647000003069 ], [ -71.05218800000074, 42.351121000002628 ], [ -71.062257000000528, 42.356268000003077 ], [ -71.064562000001231, 42.35238300000276 ], [ -71.070655000001224, 42.35185400000335 ], [ -71.073067000000918, 42.351243000002988 ], [ -71.075212000001542, 42.350677000002982 ], [ -71.07950800000151, 42.349508000003262 ], [ -71.083749000000793, 42.34838000000331 ], [ -71.087511000001314, 42.355557000003031 ], [ -71.083398000000955, 42.356925000002661 ], [ -71.079361000001327, 42.358267000002769 ], [ -71.076403000000639, 42.359956000002974 ], [ -71.075710000000839, 42.361463000003184 ], [ -71.07064400000165, 42.367949000003243 ], [ -71.064059000000583, 42.369001000003138 ], [ -71.059795000000918, 42.368767000002599 ], [ -71.054995000001384, 42.370697000002892 ], [ -71.049095000001415, 42.371197000003249 ], [ -71.046505000000622, 42.36814300000335 ], [ -71.042596000001481, 42.363798000003172 ], [ -71.045500000001127, 42.359825000003482 ], [ -71.04556600000096, 42.359733000003168 ], [ -71.010994000001091, 42.342698000003125 ], [ -70.975094000001022, 42.343499000002929 ], [ -70.97289300000169, 42.353597000002615 ], [ -70.917892000001572, 42.385997000002945 ], [ -70.851436000001499, 42.393209000003381 ], [ -70.74948700000121, 42.400820000002881 ], [ -70.648072000001662, 42.405628000003269 ], [ -70.658723000000506, 42.375098000002751 ], [ -70.675690000000628, 42.37509800000263 ], [ -70.729212000000658, 42.373848000002837 ], [ -70.851191000000782, 42.372499000002826 ], [ -70.850635000001532, 42.297263000003113 ], [ -70.850369000001166, 42.293479000002911 ], [ -70.800346000001454, 42.293113000002691 ], [ -70.8255400000007, 42.264952000002815 ], [ -70.84462700000131, 42.260426000002909 ], [ -70.841238000000629, 42.2445160000035 ], [ -70.844664000001188, 42.242271000003072 ], [ -70.840800000001266, 42.213118000003277 ], [ -70.827015000000657, 42.200786000003262 ], [ -70.838864000000783, 42.194806000002828 ], [ -70.861437000001317, 42.186353000003429 ], [ -70.890291000000772, 42.171736000003271 ], [ -70.913749000000493, 42.161920000002908 ], [ -70.924877000001317, 42.15758000000335 ], [ -70.940768000000844, 42.151365000003373 ], [ -70.934629000000527, 42.128347000003473 ], [ -70.927704000000887, 42.112562000003187 ], [ -70.915908000001195, 42.100123000003236 ], [ -70.90241200000105, 42.085897000002845 ], [ -70.906932000000864, 42.085261000003037 ], [ -70.908188000001132, 42.061727000002875 ], [ -70.906699000001296, 42.055550000003251 ], [ -70.902907000001051, 42.039097000003395 ], [ -70.896943000001087, 42.019149000002827 ], [ -70.898768000000828, 42.00881700000312 ], [ -70.899187000000708, 41.996371000003371 ], [ -70.931869000001541, 42.007825000002669 ], [ -70.953980000000598, 42.005910000002771 ], [ -70.979585000001236, 42.010999000002826 ], [ -70.980967000000945, 42.006750000002789 ], [ -71.054184000001214, 41.982716000003307 ], [ -71.054718000001017, 41.985057000002897 ], [ -71.078553000000781, 41.98930400000323 ], [ -71.087157000001099, 41.990832000003202 ], [ -71.100854000000638, 41.993151000003103 ], [ -71.156450000001314, 42.001042000003025 ], [ -71.158704000001165, 42.01262400000266 ], [ -71.159263000001346, 42.015433000003185 ], [ -71.161448000000533, 42.02601000000292 ], [ -71.164092000001219, 42.038849000003211 ], [ -71.16868100000147, 42.061161000002933 ], [ -71.16746900000075, 42.061629000003052 ] ] ] } },
{ "type": "Feature", "properties": { "enacted_district": 9, "population": 778964.0, "voting_age_pop": 637040.0, "dem_votes": 201781.0, "rep_votes": 179832.0, "minority_pop": 94289.0, "dem_pct": 0.52875819206139252, "rep_pct": 0.47124180767656187 }, "geometry": { "type": "Polygon", "coordinates": [ [ [ -71.131620000000652, 41.593716000002878 ], [ -71.138346000000908, 41.6036760000027 ], [ -71.135244000001393, 41.625939000003392 ], [ -71.119331000000869, 41.679474000003466 ], [ -71.114407000000568, 41.69280400000266 ], [ -71.076675000000918, 41.68746900000302 ], [ -71.066630000001439, 41.685619000002937 ], [ -71.011896000000618, 41.711778000003001 ], [ -70.965395000001394, 41.734003000003177 ], [ -70.964649000000676, 41.734354000003215 ], [ -70.95780400000119, 41.737614000002623 ], [ -70.942993000000584, 41.744668000003443 ], [ -70.922317000001399, 41.754795000003263 ], [ -70.907184000000669, 41.763543000003445 ], [ -70.921782000000775, 41.791244000002749 ], [ -70.896400000001535, 41.794320000002799 ], [ -70.893973000000969, 41.828881000002823 ], [ -70.918729000000894, 41.85206300000268 ], [ -70.916432000000754, 41.876899000002851 ], [ -70.987256000000627, 41.905808000003177 ], [ -70.993152000001615, 41.906445000002954 ], [ -70.997397000000859, 41.918399000003298 ], [ -71.032435000001442, 41.92294500000331 ], [ -71.052950000001601, 41.939746000002643 ], [ -71.042627000000721, 41.959516000002736 ], [ -71.054184000001214, 41.982716000003307 ], [ -70.980967000000945, 42.006750000002789 ], [ -70.979585000001236, 42.010999000002826 ], [ -70.953980000000598, 42.005910000002771 ], [ -70.931869000001541, 42.007825000002669 ], [ -70.899187000000708, 41.996371000003371 ], [ -70.898768000000828, 42.00881700000312 ], [ -70.896943000001087, 42.019149000002827 ], [ -70.902907000001051, 42.039097000003395 ], [ -70.906699000001296, 42.055550000003251 ], [ -70.908188000001132, 42.061727000002875 ], [ -70.906932000000864, 42.085261000003037 ], [ -70.90241200000105, 42.085897000002845 ], [ -70.915908000001195, 42.100123000003236 ], [ -70.927704000000887, 42.112562000003187 ], [ -70.934629000000527, 42.128347000003473 ], [ -70.940768000000844, 42.151365000003373 ], [ -70.924877000001317, 42.15758000000335 ], [ -70.913749000000493, 42.161920000002908 ], [ -70.890291000000772, 42.171736000003271 ], [ -70.861437000001317, 42.186353000003429 ], [ -70.838864000000783, 42.194806000002828 ], [ -70.827015000000657, 42.200786000003262 ], [ -70.840800000001266, 42.213118000003277 ], [ -70.844664000001188, 42.242271000003072 ], [ -70.841238000000629, 42.2445160000035 ], [ -70.84462700000131, 42.260426000002909 ], [ -70.8255400000007, 42.264952000002815 ], [ -70.800346000001454, 42.293113000002691 ], [ -70.850369000001166, 42.293479000002911 ], [ -70.850635000001532, 42.297263000003113 ], [ -70.851191000000782, 42.372499000002826 ], [ -70.729212000000658, 42.373848000002837 ], [ -70.675690000000628, 42.37509800000263 ], [ -70.658723000000506, 42.375098000002751 ], [ -70.690393000001478, 42.278999000003033 ], [ -70.684061000000526, 42.253836000003346 ], [ -70.64011300000162, 42.228372000003439 ], [ -70.636330000000825, 42.202903000002799 ], [ -70.642946000001217, 42.178185000003104 ], [ -70.608381000000904, 42.138479000003173 ], [ -70.32252200000093, 42.117915000002618 ], [ -70.277430000001146, 42.11434500000329 ], [ -70.229175000000907, 42.131189000003211 ], [ -70.172542000000561, 42.134515000003439 ], [ -70.12069100000096, 42.125101000003148 ], [ -70.067098000000513, 42.105327000002902 ], [ -70.011591000001189, 42.073378000003025 ], [ -69.969482000001051, 42.029254000003448 ], [ -69.929109000000537, 41.978476000003219 ], [ -69.909178000001532, 41.942062000003467 ], [ -69.866525000001317, 41.817011000002893 ], [ -69.860058000001132, 41.758503000003088 ], [ -69.862876000001336, 41.673153000002678 ], [ -69.898562000001533, 41.606096000003248 ], [ -69.915399000001571, 41.589243000002909 ], [ -69.928994000001154, 41.532152000003379 ], [ -69.946613000000852, 41.512152000003489 ], [ -69.999458000001155, 41.490527000002714 ], [ -70.040313000001277, 41.465960000003214 ], [ -70.084904000000606, 41.467493000003337 ], [ -70.11439400000144, 41.484083000002911 ], [ -70.126677000001195, 41.503698000003382 ], [ -70.126792000001018, 41.530878000003177 ], [ -70.102029000000442, 41.55635200000328 ], [ -70.080316000000934, 41.56445400000274 ], [ -70.063352000001458, 41.590173000002672 ], [ -70.077934000000582, 41.612528000003302 ], [ -70.138491000001025, 41.598692000003062 ], [ -70.160357000001241, 41.599370000002814 ], [ -70.208040000001489, 41.584150000002694 ], [ -70.225558000000589, 41.568561000002838 ], [ -70.267429000001144, 41.558373000003456 ], [ -70.311254000000773, 41.571062000003394 ], [ -70.346337000001455, 41.568453000003295 ], [ -70.395164000001074, 41.556722000003177 ], [ -70.423896000001491, 41.528732000003401 ], [ -70.466436000001096, 41.50616000000349 ], [ -70.502832000001334, 41.50063500000315 ], [ -70.489705000000626, 41.463042000003021 ], [ -70.436449000001417, 41.468919000003176 ], [ -70.405928000001452, 41.457013000002803 ], [ -70.38587400000155, 41.433721000003509 ], [ -70.380807000000829, 41.411996000002894 ], [ -70.383449000000738, 41.369933000002732 ], [ -70.323593000001424, 41.391607000002949 ], [ -70.267283000001484, 41.39342600000311 ], [ -70.234330000001052, 41.383229000003446 ], [ -70.215115000000978, 41.360275000002744 ], [ -70.174906000000803, 41.357290000003331 ], [ -70.148699000000704, 41.345216000002857 ], [ -70.097844000000975, 41.353584000003345 ], [ -70.116440000001361, 41.386165000002656 ], [ -70.112734000000998, 41.408126000003371 ], [ -70.094412000001157, 41.430810000003277 ], [ -70.065174000001491, 41.442687000003538 ], [ -70.006467000000541, 41.433898000003424 ], [ -69.974592000000627, 41.40892200000328 ], [ -69.910093000000614, 41.317263000003251 ], [ -69.892209000001429, 41.271323000003093 ], [ -69.910319000001536, 41.226849000003064 ], [ -69.930953000001168, 41.210543000002801 ], [ -69.973182000001231, 41.1935450000027 ], [ -70.012483000001254, 41.187053000003431 ], [ -70.072666000001249, 41.19163400000307 ], [ -70.109684000001138, 41.189803000002733 ], [ -70.178851000001487, 41.204531000003215 ], [ -70.285736000000469, 41.242346000003231 ], [ -70.344083000001547, 41.276146000002896 ], [ -70.374466000000822, 41.269458000003063 ], [ -70.40873300000051, 41.277294000002783 ], [ -70.459851000001208, 41.265253000003092 ], [ -70.493308000001434, 41.279975000003461 ], [ -70.512199000001573, 41.298313000002757 ], [ -70.603541000001286, 41.299511000002937 ], [ -70.649384000000637, 41.296548000003177 ], [ -70.703106000000503, 41.289040000002991 ], [ -70.734843000000581, 41.259231000003226 ], [ -70.744307000001655, 41.226030000003242 ], [ -70.767837000001535, 41.206490000003122 ], [ -70.805950000000905, 41.198742000003541 ], [ -70.84774600000128, 41.205814000002718 ], [ -70.877327000001628, 41.224144000003164 ], [ -70.893724000001086, 41.256878000003077 ], [ -70.885683000000952, 41.285066000003411 ], [ -70.870027000000746, 41.297068000003406 ], [ -70.897722000001281, 41.327411000002975 ], [ -70.903815000001103, 41.346727000003305 ], [ -70.896202000001011, 41.370077000003548 ], [ -70.938664000001566, 41.353986000002763 ], [ -70.990748000001403, 41.351289000003504 ], [ -71.026103000001072, 41.371693000003091 ], [ -71.051854000000844, 41.416729000003386 ], [ -71.088571000001295, 41.431315000003174 ], [ -71.116404000000841, 41.484568000003534 ], [ -71.131620000000652, 41.593716000002878 ] ] ] } }
]
}
