{
"type": "FeatureCollection",
"name": "minnesota_optimized_districts_headcount",
"crs": { "type": "name", "properties": { "name": "urn:ogc:def:crs:OGC:1.3:CRS84" } },
"features": [
{ "type": "Feature", "properties": { "district_id": 0, "voting_age_pop": 498985, "lib_votes": 0, "grn_votes": 0, "con_votes": 0, "ref_votes": 0, "total_pop": 662116, "dem_votes_sum": 152673, "rep_votes_sum": 190872, "lib_votes_sum": 0, "grn_votes_sum": 0, "con_votes_sum": 0, "ref_votes_sum": 0, "minority_pop_sum": 83181, "dem_pct": 0.44440466314456623, "rep_pct": 0.55559533685543383, "lib_pct": 0.0, "grn_pct": 0.0, "con_pct": 0.0, "ref_pct": 0.0, "minority_pct": 0.12562904385334292, "compactness": 0.33144598763111888 }, "geometry": { "type": "MultiPolygon", "coordinates": [ [ [ [ -93.408616000552172, 43.499544999651 ], [ -96.453259999877943, 43.500389999591263 ], [ -96.451748000354584, 44.805565000002019 ], [ -96.338595999967268, 44.805021999768265 ], [ -96.33823999988681, 44.892229999558722 ], [ -96.227109999893074, 44.892379999609403 ], [ -96.226759999913966, 45.065809999906016 ], [ -96.352180000114856, 45.065699999813184 ], [ -96.353359999723224, 45.080949999964353 ], [ -96.353595999704112, 45.153417000249348 ], [ -96.226240000400566, 45.152519999969385 ], [ -96.22629500020868, 45.240170000208316 ], [ -96.241857999876444, 45.240204999648846 ], [ -96.241328000267885, 45.412667000422459 ], [ -96.117036000289104, 45.41199299971754 ], [ -96.117874000069548, 45.326579999984475 ], [ -95.870857999848738, 45.325777999771859 ], [ -95.870888999459453, 45.412323999999373 ], [ -95.37530699989891, 45.412949000214049 ], [ -95.131729999937477, 45.412402000127216 ], [ -95.132140000459287, 45.326302000095936 ], [ -94.556820000459837, 45.325893000050868 ], [ -94.53572200046068, 45.33656199961829 ], [ -94.535017000343387, 45.326110999928716 ], [ -94.384253999750513, 45.326626000421136 ], [ -94.383851999450272, 45.427823999880054 ], [ -94.261212000027299, 45.428654999884884 ], [ -94.261057000456759, 45.414034999723924 ], [ -94.138200000008297, 45.41298000042584 ], [ -94.138129000340783, 45.456300999874756 ], [ -94.107288000203837, 45.453044000370127 ], [ -94.107742999959783, 45.472368000071896 ], [ -93.923370000317618, 45.472299000150052 ], [ -93.92231599948876, 45.385020999584235 ], [ -93.908566999698834, 45.372263999695889 ], [ -93.916688000384951, 45.385692000151288 ], [ -93.901906999671482, 45.386158000047814 ], [ -93.907059000499373, 45.405706000353604 ], [ -93.891928000569195, 45.407897000218149 ], [ -93.901897000099581, 45.415364000126857 ], [ -93.878737999926571, 45.424729000318628 ], [ -93.876016000173152, 45.407966000435728 ], [ -93.855982999955671, 45.415387999915161 ], [ -93.855929999878811, 45.40821699974984 ], [ -93.839208999445759, 45.400881000037288 ], [ -93.835017999489054, 45.389997999665269 ], [ -93.844664000489956, 45.386561000238274 ], [ -93.849727999472492, 45.398513000064838 ], [ -93.854791999755562, 45.397583000430451 ], [ -93.871183999525343, 45.347150000147138 ], [ -93.819906999698262, 45.343914999631394 ], [ -93.81396300041672, 45.31819500013205 ], [ -93.768280000203845, 45.297358999621942 ], [ -93.704602000480833, 45.297681000412119 ], [ -93.704633999370614, 45.262781000033826 ], [ -93.716752000161094, 45.268081000008671 ], [ -93.704209999692196, 45.237939999703265 ], [ -93.683832000566056, 45.238189000326024 ], [ -93.683751000143005, 45.252306999996158 ], [ -93.642955000561344, 45.252491999701924 ], [ -93.634119000174692, 45.224346000145125 ], [ -93.664524000526256, 45.221062999748781 ], [ -93.665699999987496, 45.173995000036413 ], [ -93.638745000350411, 45.174362999930068 ], [ -93.658916999871579, 45.193550999612313 ], [ -93.639310999837875, 45.209666999754916 ], [ -93.628487000383146, 45.202405999842107 ], [ -93.604503000055473, 45.212959000188185 ], [ -93.596937999594488, 45.207364000005917 ], [ -93.592395000306567, 45.218402000224579 ], [ -93.542636000395234, 45.232590999637466 ], [ -93.52907499966976, 45.222314999871628 ], [ -93.522285000520853, 45.232215000175863 ], [ -93.522226000017469, 45.116505999897392 ], [ -93.563784000359831, 45.105874000209035 ], [ -93.605240000217165, 45.120824999585665 ], [ -93.605128000305371, 45.10916099973835 ], [ -93.645962999603128, 45.109020999768923 ], [ -93.645864999583637, 45.145235999660308 ], [ -93.681240999607283, 45.151263000447493 ], [ -93.72717900019488, 45.105017000178222 ], [ -93.745951000535882, 45.104879999879195 ], [ -93.750803999499681, 45.094276000385037 ], [ -93.753252999452613, 45.10122899998769 ], [ -93.758054999660573, 45.093049999677078 ], [ -93.777249999606966, 45.094669999728836 ], [ -93.749763000255456, 45.081847999802555 ], [ -93.761497000566578, 45.081751000079699 ], [ -93.758574999946475, 45.073333999804341 ], [ -93.764673000055794, 45.070992999859477 ], [ -93.761173999708362, 45.06876399973067 ], [ -93.76560799991195, 45.06641900003121 ], [ -93.765773999810932, 45.065764000017232 ], [ -93.765837848137039, 45.064510769736323 ], [ -93.645827999777353, 45.065559999902256 ], [ -93.645648999739237, 45.000286999814691 ], [ -93.522460999782808, 44.999759999763597 ], [ -93.507265000596675, 45.023925000158052 ], [ -93.457286000614928, 45.010938000447638 ], [ -93.453919999430752, 44.927426999600421 ], [ -93.472999000091548, 44.921137999886007 ], [ -93.472494999422608, 44.937052999718297 ], [ -93.481938999631254, 44.935809999758867 ], [ -93.51816000000359, 44.925943000368861 ], [ -93.533330000167226, 44.90997699961175 ], [ -93.558285999753679, 44.923761000108584 ], [ -93.542923000561899, 44.942252000030507 ], [ -93.59380200023547, 44.948714000020679 ], [ -93.604374999415043, 44.941957000330078 ], [ -93.640419000125505, 44.982271000411949 ], [ -93.726854000191821, 44.977933000105274 ], [ -93.696399999704099, 44.964032999676 ], [ -93.711442000594772, 44.945844000330553 ], [ -93.70671876421379, 44.890662012626777 ], [ -93.887915999776681, 44.884883999672446 ], [ -93.888244000348521, 44.804661999879357 ], [ -94.010021000174248, 44.803989000250183 ], [ -94.010493999484424, 44.717463999911452 ], [ -94.132425000393582, 44.717554000135834 ], [ -94.132619999732825, 44.630339999991207 ], [ -93.889200000356539, 44.629900000136438 ], [ -93.888830999433907, 44.67340899989992 ], [ -93.768175999645578, 44.673520000342975 ], [ -93.763661999401521, 44.634146000212041 ], [ -93.806157000377226, 44.623483999580692 ], [ -93.78859500060328, 44.62354600039663 ], [ -93.788315000597578, 44.543215999803621 ], [ -93.768288999870904, 44.543195000161589 ], [ -93.768128999700934, 44.456465999573766 ], [ -93.8889010004564, 44.456728999733343 ], [ -93.888863000179654, 44.37005800014736 ], [ -93.768320000136129, 44.369638000382302 ], [ -93.768098000326262, 44.282709000266188 ], [ -93.646282999998078, 44.282980999822534 ], [ -93.647188999858884, 44.022212999639983 ], [ -93.526945999899482, 44.022113999601736 ], [ -93.528387000260238, 43.673031999575628 ], [ -93.408864999812565, 43.672914999765318 ], [ -93.419022000560091, 43.659972000342144 ], [ -93.408769000304758, 43.647432000139005 ], [ -93.408616000552172, 43.499544999651 ] ], [ [ -93.758092000240609, 45.101273999574623 ], [ -93.766256000539684, 45.107623000106898 ], [ -93.766337000363848, 45.101463000091705 ], [ -93.758092000240609, 45.101273999574623 ] ], [ [ -95.836159999522934, 44.370270000467649 ], [ -95.836159999479506, 44.370269999568464 ], [ -95.836049999631101, 44.370300000273623 ], [ -95.836159999522934, 44.370270000467649 ] ], [ [ -94.125996999697151, 44.180492999555334 ], [ -94.125996999714275, 44.180493000455499 ], [ -94.12641499976155, 44.181033999667122 ], [ -94.125996999697151, 44.180492999555334 ] ], [ [ -93.878622999868199, 44.88744399971273 ], [ -93.881080000331096, 44.891221000432878 ], [ -93.881098000338113, 44.887402000290429 ], [ -93.878622999868199, 44.88744399971273 ] ], [ [ -93.842603999595823, 45.398892000394596 ], [ -93.844627000523431, 45.400068000281095 ], [ -93.8446329998321, 45.398326000422486 ], [ -93.842603999595823, 45.398892000394596 ] ], [ [ -93.863191000547644, 45.403889999869243 ], [ -93.860509000091284, 45.400564999923752 ], [ -93.860242999532034, 45.407306000088433 ], [ -93.863191000547644, 45.403889999869243 ] ], [ [ -93.889620999844638, 45.415294999743708 ], [ -93.881278000239917, 45.407892000274813 ], [ -93.881176999617594, 45.415408999994447 ], [ -93.889620999844638, 45.415294999743708 ] ], [ [ -93.767358000491754, 44.979779999562034 ], [ -93.767363999518665, 44.978361999582468 ], [ -93.767344999946616, 44.980425999817385 ], [ -93.767358000491754, 44.979779999562034 ] ], [ [ -93.766813999541625, 45.049814000450304 ], [ -93.766848000119225, 45.042792000311898 ], [ -93.766845000033499, 45.035568999697148 ], [ -93.766813999541625, 45.049814000450304 ] ], [ [ -93.766812999865209, 45.050202000316098 ], [ -93.766783999920222, 45.058049999676221 ], [ -93.766809999615546, 45.057322999751875 ], [ -93.766812999865209, 45.050202000316098 ] ], [ [ -93.638649898387285, 45.174152616809238 ], [ -93.63864989893294, 45.174152618534777 ], [ -93.638713999634064, 45.174294000102293 ], [ -93.638649898387285, 45.174152616809238 ] ] ], [ [ [ -93.75147000008478, 45.092871999723052 ], [ -93.752336999381654, 45.093194999555251 ], [ -93.751469999584941, 45.093148999834767 ], [ -93.75147000008478, 45.092871999723052 ] ] ], [ [ [ -93.737777000349013, 45.101291999661449 ], [ -93.729646000563235, 45.097330999562921 ], [ -93.73776900033107, 45.099562000355405 ], [ -93.737777000349013, 45.101291999661449 ] ] ], [ [ [ -93.73778300027152, 45.102995999868909 ], [ -93.735873999500498, 45.102313000427102 ], [ -93.737780000171, 45.102304999577669 ], [ -93.73778300027152, 45.102995999868909 ] ] ] ] } },
{ "type": "Feature", "properties": { "district_id": 1, "voting_age_pop": 504588, "lib_votes": 0, "grn_votes": 0, "con_votes": 0, "ref_votes": 0, "total_pop": 669358, "dem_votes_sum": 147368, "rep_votes_sum": 202983, "lib_votes_sum": 0, "grn_votes_sum": 0, "con_votes_sum": 0, "ref_votes_sum": 0, "minority_pop_sum": 57420, "dem_pct": 0.4206295971754041, "rep_pct": 0.57937040282459595, "lib_pct": 0.0, "grn_pct": 0.0, "con_pct": 0.0, "ref_pct": 0.0, "minority_pct": 0.085783691238470294, "compactness": 0.22020076067067379 }, "geometry": { "type": "MultiPolygon", "coordinates": [ [ [ [ -96.33823999988681, 44.892229999558722 ], [ -96.338595999967268, 44.805021999768265 ], [ -96.451462000356415, 44.80557000018478 ], [ -96.453097000479588, 45.300751000051775 ], [ -96.489064999492442, 45.357070999896344 ], [ -96.619751999919714, 45.408883999664369 ], [ -96.690043000528931, 45.415490999974054 ], [ -96.732738999764834, 45.458737000242856 ], [ -96.763432000388462, 45.520007000042469 ], [ -96.856834000514866, 45.605378000062288 ], [ -96.838647999669959, 45.647509000111782 ], [ -96.662595000514003, 45.738681999779168 ], [ -96.627777999471462, 45.786238999940387 ], [ -96.583084999606243, 45.820023999602 ], [ -96.561334000012423, 45.945654999969761 ], [ -96.576563999448368, 46.021847999720421 ], [ -96.266139999804082, 46.02161000022187 ], [ -96.265366000612119, 46.108610000295549 ], [ -96.018760000604502, 46.108479999782574 ], [ -96.019302999968787, 46.1954799997512 ], [ -95.894847999648931, 46.195304000329912 ], [ -95.894960999493222, 46.282402999849282 ], [ -95.778780000166833, 46.282291999912587 ], [ -95.780625000143232, 46.455592999698851 ], [ -95.279959999833196, 46.456031000368029 ], [ -95.280042000638275, 46.54283100038986 ], [ -95.155409999394834, 46.542970000200043 ], [ -95.15545999988116, 46.499479999873905 ], [ -95.030145999684009, 46.499280000337158 ], [ -95.030470000130023, 46.629919999672019 ], [ -94.911454999930939, 46.630338999809105 ], [ -94.911614000320981, 46.805053999587599 ], [ -94.407514999879638, 46.805884999589104 ], [ -94.40566699960857, 46.980089999806459 ], [ -94.281043999832079, 46.979564999577093 ], [ -94.289422000417389, 47.068390999732337 ], [ -94.031248999890749, 47.06557199971823 ], [ -94.029141000625231, 46.889837999648186 ], [ -93.775077000100325, 46.889377000138118 ], [ -93.775515999975156, 46.85636699992304 ], [ -93.570703000626494, 46.856231999696703 ], [ -93.571477000250184, 46.943350000319953 ], [ -93.315396000330793, 46.941514000108725 ], [ -93.316724999728834, 46.767629999891732 ], [ -93.061528999530665, 46.766549999868111 ], [ -93.062677999674406, 46.593310000180139 ], [ -93.178924999532754, 46.593805999608612 ], [ -93.178167000395206, 46.332431999562381 ], [ -93.30598999947064, 46.332999000084712 ], [ -93.306085000069501, 46.418462999957306 ], [ -93.430691999566889, 46.418709999573188 ], [ -93.431831000160798, 46.153990999582724 ], [ -93.053870999452982, 46.158119999956781 ], [ -93.054156999684324, 46.24524299974069 ], [ -92.928440000179918, 46.245280000179477 ], [ -92.928619999692174, 46.21634000013254 ], [ -92.907890000410674, 46.216290000418503 ], [ -92.89744400056054, 46.19911600002667 ], [ -92.928726000581236, 46.186602999818831 ], [ -92.928841000356883, 46.158448999733203 ], [ -92.907564999974539, 46.158489999563344 ], [ -92.90811399951204, 46.071082000210431 ], [ -93.055219000425751, 46.071365000077542 ], [ -93.055081000392761, 45.981232999635182 ], [ -93.142868999916615, 45.981005000026542 ], [ -93.142096999572345, 45.817302000337499 ], [ -93.265985000573551, 45.817406000206937 ], [ -93.265895000005585, 45.730659000338505 ], [ -93.141792999768469, 45.730656999885881 ], [ -93.1424480002606, 45.471210000223167 ], [ -93.021689999534303, 45.470582000106653 ], [ -93.019563000133189, 45.411769999792881 ], [ -93.280724999603791, 45.407994999696534 ], [ -93.280651000445275, 45.391152999792261 ], [ -93.265350999714599, 45.39469199995964 ], [ -93.265205000584686, 45.264022999854006 ], [ -93.326171999395257, 45.262906000207344 ], [ -93.326296999873264, 45.276174999685466 ], [ -93.346870000074759, 45.276284999958541 ], [ -93.346697000403708, 45.255494999933582 ], [ -93.397938999552665, 45.260215000127602 ], [ -93.380639999938353, 45.246398000156681 ], [ -93.394915999919959, 45.237276999627575 ], [ -93.390930999891722, 45.223765000349253 ], [ -93.420426000468595, 45.226606999579808 ], [ -93.399025999764106, 45.203610999822097 ], [ -93.411685999385512, 45.198020000035029 ], [ -93.422585999943635, 45.21161699959989 ], [ -93.42163799947059, 45.152288000148786 ], [ -93.461905000625663, 45.152324999855836 ], [ -93.462258999760095, 45.180984999767126 ], [ -93.487485000156951, 45.181234999786206 ], [ -93.487769000158096, 45.209813000425456 ], [ -93.522230999794658, 45.209835999903937 ], [ -93.522285000520853, 45.232215000175863 ], [ -93.52907499966976, 45.222314999871628 ], [ -93.542636000395234, 45.232590999637466 ], [ -93.592395000306567, 45.218402000224579 ], [ -93.596937999594488, 45.207364000005917 ], [ -93.604503000055473, 45.212959000188185 ], [ -93.628487000383146, 45.202405999842107 ], [ -93.639310999837875, 45.209666999754916 ], [ -93.658916999871579, 45.193550999612313 ], [ -93.638745000350411, 45.174362999930068 ], [ -93.665699999987496, 45.173995000036413 ], [ -93.664524000526256, 45.221062999748781 ], [ -93.634119000174692, 45.224346000145125 ], [ -93.642955000561344, 45.252491999701924 ], [ -93.683751000143005, 45.252306999996158 ], [ -93.683832000566056, 45.238189000326024 ], [ -93.704209999692196, 45.237939999703265 ], [ -93.716752000161094, 45.268081000008671 ], [ -93.704633999370614, 45.262781000033826 ], [ -93.704602000480833, 45.297681000412119 ], [ -93.768280000203845, 45.297358999621942 ], [ -93.81396300041672, 45.31819500013205 ], [ -93.819906999698262, 45.343914999631394 ], [ -93.871183999525343, 45.347150000147138 ], [ -93.854791999755562, 45.397583000430451 ], [ -93.844664000489956, 45.386561000238274 ], [ -93.835017999489054, 45.389997999665269 ], [ -93.839208999445759, 45.400881000037288 ], [ -93.855929999878811, 45.40821699974984 ], [ -93.855982999955671, 45.415387999915161 ], [ -93.876016000173152, 45.407966000435728 ], [ -93.878737999926571, 45.424729000318628 ], [ -93.901897000099581, 45.415364000126857 ], [ -93.891928000569195, 45.407897000218149 ], [ -93.907059000499373, 45.405706000353604 ], [ -93.901906999671482, 45.386158000047814 ], [ -93.916688000384951, 45.385692000151288 ], [ -93.91073200032767, 45.380849999926198 ], [ -93.908566999698834, 45.372263999695889 ], [ -93.92231599948876, 45.385020999584235 ], [ -93.923370000317618, 45.472299000150052 ], [ -94.107742999959783, 45.472368000071896 ], [ -94.107288000203837, 45.453044000370127 ], [ -94.138129000340783, 45.456300999874756 ], [ -94.138200000008297, 45.41298000042584 ], [ -94.261057000456759, 45.414034999723924 ], [ -94.261212000027299, 45.428654999884884 ], [ -94.383851999450272, 45.427823999880054 ], [ -94.384253999750513, 45.326626000421136 ], [ -94.535017000343387, 45.326110999928716 ], [ -94.53572200046068, 45.33656199961829 ], [ -94.556820000459837, 45.325893000050868 ], [ -95.132140000459287, 45.326302000095936 ], [ -95.131729999937477, 45.412402000127216 ], [ -95.37530699989891, 45.412949000214049 ], [ -95.870888999459453, 45.412323999999373 ], [ -95.870857999848738, 45.325777999771859 ], [ -96.117874000069548, 45.326579999984475 ], [ -96.117036000289104, 45.41199299971754 ], [ -96.241328000267885, 45.412667000422459 ], [ -96.241857999876444, 45.240204999648846 ], [ -96.22629500020868, 45.240170000208316 ], [ -96.226240000400566, 45.152519999969385 ], [ -96.353595999704112, 45.153417000249348 ], [ -96.353359999723224, 45.080949999964353 ], [ -96.352180000114856, 45.065699999813184 ], [ -96.226759999913966, 45.065809999906016 ], [ -96.227109999893074, 44.892379999609403 ], [ -96.33823999988681, 44.892229999558722 ] ], [ [ -95.324231999810308, 45.84571999955898 ], [ -95.324231999847783, 45.845720000458286 ], [ -95.326026000644617, 45.845711000309258 ], [ -95.324231999810308, 45.84571999955898 ] ], [ [ -95.281331000554687, 45.84577899954111 ], [ -95.28133100059145, 45.845779000440459 ], [ -95.283293000355485, 45.845811999827887 ], [ -95.281331000554687, 45.84577899954111 ] ], [ [ -94.127058011185852, 45.578252999730417 ], [ -94.127058009324443, 45.578253000144883 ], [ -94.127113999392648, 45.57825299993516 ], [ -94.127058011185852, 45.578252999730417 ] ], [ [ -94.126325725749865, 45.57703459655189 ], [ -94.126943000607611, 45.57736699960752 ], [ -94.125371999720556, 45.576521000243645 ], [ -94.126325725749865, 45.57703459655189 ] ], [ [ -93.435539999855848, 45.217787000075575 ], [ -93.435953000356136, 45.217710000088523 ], [ -93.436151999799264, 45.217660999926323 ], [ -93.435539999855848, 45.217787000075575 ] ], [ [ -93.520127999732878, 45.242361000414149 ], [ -93.520127237629609, 45.242360844557481 ], [ -93.520134999585778, 45.242365000328348 ], [ -93.520127999732878, 45.242361000414149 ] ], [ [ -93.521449999494379, 45.242961000395255 ], [ -93.521443000062163, 45.242954000345136 ], [ -93.521168000124945, 45.242732000132655 ], [ -93.521449999494379, 45.242961000395255 ] ], [ [ -93.522082999584384, 45.2436710002886 ], [ -93.522082602166847, 45.243670458412019 ], [ -93.522266000468818, 45.243938000038852 ], [ -93.522082999584384, 45.2436710002886 ] ], [ [ -93.522324066252835, 45.244039379028429 ], [ -93.522387999571279, 45.24415100010993 ], [ -93.522266000468818, 45.243938000038852 ], [ -93.522324066252835, 45.244039379028429 ] ], [ [ -93.522430605610538, 45.24436918213835 ], [ -93.522431999884546, 45.244364999567324 ], [ -93.522431548286178, 45.244362880420972 ], [ -93.522430605610538, 45.24436918213835 ] ], [ [ -93.522069999488224, 45.245684999995916 ], [ -93.522176999824055, 45.245403000243151 ], [ -93.522213000216865, 45.245294999877629 ], [ -93.522069999488224, 45.245684999995916 ] ], [ [ -93.521896000592918, 45.245956999945584 ], [ -93.521916701281185, 45.245897074811623 ], [ -93.521842000060872, 45.246106999916648 ], [ -93.521896000592918, 45.245956999945584 ] ], [ [ -93.521772935827926, 45.246291594236745 ], [ -93.521786000171474, 45.246258000062085 ], [ -93.521788000388369, 45.246251000327959 ], [ -93.521772935827926, 45.246291594236745 ] ], [ [ -93.521744686400197, 45.246367716837199 ], [ -93.521729999753674, 45.246408000107429 ], [ -93.521744696468247, 45.246367689707249 ], [ -93.521744686400197, 45.246367716837199 ] ], [ [ -93.521673735995762, 45.246560034600883 ], [ -93.521675000383127, 45.246556999978687 ], [ -93.521697000117356, 45.246495000403499 ], [ -93.521673735995762, 45.246560034600883 ] ], [ [ -93.521599000027749, 45.246615000155067 ], [ -93.521436095972504, 45.246584379187887 ], [ -93.5215049997405, 45.2465979997326 ], [ -93.521599000027749, 45.246615000155067 ] ], [ [ -93.511088000228668, 45.245319999607091 ], [ -93.512608000175334, 45.245817000226715 ], [ -93.513156915546759, 45.245969521807034 ], [ -93.511088000228668, 45.245319999607091 ] ], [ [ -93.509524000380708, 45.244791999977984 ], [ -93.510490000228174, 45.245120999921106 ], [ -93.511088000228668, 45.245319999607091 ], [ -93.509524000380708, 45.244791999977984 ] ], [ [ -93.45559900006505, 45.219888000072579 ], [ -93.455535000569597, 45.219884000308653 ], [ -93.45582700043046, 45.219908000097675 ], [ -93.45559900006505, 45.219888000072579 ] ], [ [ -93.450717999906374, 45.219478000216903 ], [ -93.452212999562292, 45.219608000077265 ], [ -93.452478999546898, 45.21963099967482 ], [ -93.450717999906374, 45.219478000216903 ] ], [ [ -93.438987999729392, 45.216777999743819 ], [ -93.43895000002621, 45.216792000136095 ], [ -93.439651000523753, 45.216655000145899 ], [ -93.438987999729392, 45.216777999743819 ] ] ], [ [ [ -93.844627000523431, 45.400068000281095 ], [ -93.842603999595823, 45.398892000394596 ], [ -93.8446329998321, 45.398326000422486 ], [ -93.844627000523431, 45.400068000281095 ] ] ], [ [ [ -93.85957699976592, 45.401976000016582 ], [ -93.863191000547644, 45.403889999869243 ], [ -93.860736999972829, 45.40734999958341 ], [ -93.85957699976592, 45.401976000016582 ] ] ], [ [ [ -93.881176999617594, 45.415408999994447 ], [ -93.889620999412543, 45.411559000420048 ], [ -93.889620999844638, 45.415294999743708 ], [ -93.881176999617594, 45.415408999994447 ] ] ], [ [ [ -93.266014000092014, 45.395572000402289 ], [ -93.265353000180625, 45.395318999977817 ], [ -93.266087000414601, 45.395393999738999 ], [ -93.266014000092014, 45.395572000402289 ] ] ] ] } },
{ "type": "Feature", "properties": { "district_id": 2, "voting_age_pop": 506085, "lib_votes": 0, "grn_votes": 0, "con_votes": 0, "ref_votes": 0, "total_pop": 649603, "dem_votes_sum": 185437, "rep_votes_sum": 150010, "lib_votes_sum": 0, "grn_votes_sum": 0, "con_votes_sum": 0, "ref_votes_sum": 0, "minority_pop_sum": 86432, "dem_pct": 0.55280565931428804, "rep_pct": 0.4471943406857119, "lib_pct": 0.0, "grn_pct": 0.0, "con_pct": 0.0, "ref_pct": 0.0, "minority_pct": 0.13305357272056934, "compactness": 0.18262597624158342 }, "geometry": { "type": "MultiPolygon", "coordinates": [ [ [ [ -96.745709999914737, 46.565227999913283 ], [ -96.757493000092111, 46.577758000279282 ], [ -96.747759000397835, 46.582813000267635 ], [ -96.761048999913143, 46.582150999965791 ], [ -96.755505999819007, 46.59500399967623 ], [ -96.778640000065664, 46.606798000362019 ], [ -96.775203999396609, 46.620981999980117 ], [ -96.787394999413053, 46.619671000397879 ], [ -96.778009000316345, 46.625198000357123 ], [ -96.791306000378327, 46.624970999853637 ], [ -96.782148999416393, 46.631383000213702 ], [ -96.798124999952904, 46.629326000109039 ], [ -96.785815000571816, 46.640522999742508 ], [ -96.802073999711425, 46.667507999676779 ], [ -96.783928000194223, 46.685729000367758 ], [ -96.789788999545877, 46.756701000000348 ], [ -96.777849999861132, 46.761587999883432 ], [ -96.789519000224161, 46.766023999882741 ], [ -96.775453000595888, 46.766750999708663 ], [ -96.796756000508182, 46.776999000328246 ], [ -96.787136000230376, 46.785651000062373 ], [ -96.802544000206623, 46.81152099957616 ], [ -96.791559000329428, 46.827864000086244 ], [ -96.780270999695489, 46.825763000269006 ], [ -96.793959000052837, 46.833063999562185 ], [ -96.775359000222736, 46.838863000392273 ], [ -96.781183999469661, 46.879276000028888 ], [ -96.768428999473798, 46.879507999741449 ], [ -96.776713000048289, 46.895618999593225 ], [ -96.753257000340952, 46.924563000398997 ], [ -96.763257000620868, 46.93506299972497 ], [ -96.791757999976198, 46.928465000321886 ], [ -96.792656000084008, 46.946764000415385 ], [ -96.804662000621292, 46.947468000122939 ], [ -96.795045000192715, 46.965838000289672 ], [ -96.822663999834788, 46.970020000440343 ], [ -96.820976000489381, 47.003326000094567 ], [ -96.839547999660809, 47.006728000111266 ], [ -96.812659000397261, 47.038634000144249 ], [ -96.822715999373543, 47.036936999823872 ], [ -96.8177080001322, 47.05230900038697 ], [ -96.83038599989591, 47.060823000044088 ], [ -96.819739000635821, 47.061729000032962 ], [ -96.81962999977884, 47.075341999762863 ], [ -96.82927600030618, 47.074620000252828 ], [ -96.815751000591717, 47.078986999754534 ], [ -96.826362999904788, 47.088920000165622 ], [ -96.816191000117385, 47.10848100011475 ], [ -96.837563999791641, 47.121980000127685 ], [ -96.820722999805426, 47.130368999884496 ], [ -96.830416999725571, 47.129224000411057 ], [ -96.828648000025595, 47.146418999772564 ], [ -96.841246999440955, 47.151855999671682 ], [ -96.822358999564429, 47.156341000013462 ], [ -96.833484000576618, 47.176643999607386 ], [ -96.821554999691969, 47.18431399959713 ], [ -96.8448469994634, 47.193580000292755 ], [ -96.827173999721538, 47.201243999765602 ], [ -96.833996000233398, 47.22193399956096 ], [ -96.845587000216284, 47.219261000201968 ], [ -96.831454000279379, 47.226711000037447 ], [ -96.84146899950332, 47.233208000229766 ], [ -96.828671999513276, 47.233286000192734 ], [ -96.843662000623581, 47.239613000331822 ], [ -96.832155000265104, 47.247368999613442 ], [ -96.844412999691357, 47.251154999563312 ], [ -96.835971000054499, 47.262523000326439 ], [ -96.847364999506482, 47.262616000421929 ], [ -96.834604999924011, 47.267156000413728 ], [ -96.847689999900467, 47.271066000232395 ], [ -96.830634000029292, 47.305740999838584 ], [ -96.846888999821445, 47.316262999622474 ], [ -96.828764000575035, 47.327995000314473 ], [ -96.845785999349189, 47.328036999622526 ], [ -96.830642999782668, 47.338786000251801 ], [ -96.858206000503756, 47.367530000104928 ], [ -96.837141000614494, 47.371290999704506 ], [ -96.854622000466009, 47.373780000077716 ], [ -96.837465000664892, 47.389526999834438 ], [ -96.852714000014117, 47.406094000254349 ], [ -96.842072999675906, 47.411737999581433 ], [ -96.871763000022668, 47.419006000086902 ], [ -96.852815999986817, 47.432030000296251 ], [ -96.863619000502226, 47.457010000231222 ], [ -96.851945999402432, 47.479054999634798 ], [ -96.86851899998355, 47.478473000062124 ], [ -96.852157999611293, 47.48635100020914 ], [ -96.86504000053587, 47.491651000000317 ], [ -96.842280000019485, 47.508635999878742 ], [ -96.87117199990773, 47.527268000023412 ], [ -96.853555000220595, 47.536179000227762 ], [ -96.862305999966836, 47.541194999630115 ], [ -96.845322999509406, 47.538752000180729 ], [ -96.861749000260545, 47.559279000068166 ], [ -96.847499000418878, 47.566226000318458 ], [ -96.868933999925162, 47.567002000185731 ], [ -96.851568000484676, 47.568654999639179 ], [ -96.86047600014885, 47.575022000440725 ], [ -96.851011999491092, 47.598508000179351 ], [ -96.879726000540913, 47.619335999794075 ], [ -96.885115999774442, 47.673807999925536 ], [ -96.920874999534121, 47.699975999625352 ], [ -96.919799000603277, 47.716928000157402 ], [ -96.930972999459925, 47.715546999813711 ], [ -96.918413000198058, 47.724041000178524 ], [ -96.939684999570474, 47.754787999830462 ], [ -96.928853999965398, 47.755295999975353 ], [ -96.934883000302051, 47.767208999809846 ], [ -96.965102999363708, 47.783511999976589 ], [ -96.966459000017338, 47.799568999918293 ], [ -96.99157799970591, 47.808187000321738 ], [ -96.974128000020258, 47.823474000413185 ], [ -96.998337000413201, 47.841932000126739 ], [ -97.001827999426851, 47.86813399965402 ], [ -97.023142000010949, 47.874062999608725 ], [ -97.01785400013641, 47.919911000096633 ], [ -97.055341000303045, 47.947514999662587 ], [ -97.053089000404896, 47.990444000432987 ], [ -97.072239000204988, 48.019106999734888 ], [ -97.072257000392767, 48.048068000381633 ], [ -97.104483000396641, 48.072427999701127 ], [ -97.101876000614979, 48.095895999540559 ], [ -97.123202000276024, 48.106649999855421 ], [ -97.13346799957786, 48.1371010002484 ], [ -97.122876000125231, 48.139750000214462 ], [ -97.146504999898127, 48.142219999846752 ], [ -97.120967999798566, 48.159551999864519 ], [ -97.141949999781517, 48.160201999645622 ], [ -97.147510000361464, 48.170572000373006 ], [ -97.136010000092384, 48.176739999853083 ], [ -97.149809999941468, 48.183497999663402 ], [ -97.140909999904792, 48.204519999557782 ], [ -97.12927699982508, 48.208377000025017 ], [ -97.139295999793831, 48.216754999627312 ], [ -97.117837999736906, 48.20976400024599 ], [ -97.139054999416032, 48.221952000198847 ], [ -97.152190000247757, 48.219635999830899 ], [ -97.137190999616834, 48.226951000408398 ], [ -97.120689999880369, 48.224754000387478 ], [ -97.144645000444584, 48.233562000196365 ], [ -97.133735000463673, 48.23907500031082 ], [ -97.14674399946027, 48.244484000199165 ], [ -97.12510799957731, 48.249983000245983 ], [ -97.122953999810164, 48.261665999830782 ], [ -97.145031999860777, 48.26876599973636 ], [ -97.116569999905266, 48.279660999944483 ], [ -97.13733399956682, 48.291756999850868 ], [ -97.112231000014276, 48.296472000076392 ], [ -97.124166000238702, 48.311142000415543 ], [ -97.137748999816196, 48.309729000002932 ], [ -97.115580999396258, 48.323927999808191 ], [ -97.141714999656116, 48.32572899962112 ], [ -97.125919999539946, 48.340578999963661 ], [ -97.156261000138159, 48.365578000281303 ], [ -97.133341000135786, 48.382196000002267 ], [ -97.163375999706147, 48.392856999931524 ], [ -97.1311750004635, 48.407280999551929 ], [ -97.15399400013392, 48.41812099972946 ], [ -97.122583000106715, 48.417921000299252 ], [ -97.14587300053249, 48.431147999816034 ], [ -97.127818000516612, 48.431256000408048 ], [ -97.124824000232053, 48.4418960000121 ], [ -97.150633000130171, 48.440815999553756 ], [ -97.12854400052791, 48.460300999729384 ], [ -97.147417999887281, 48.472752999702372 ], [ -97.12816299996193, 48.474361999592098 ], [ -97.162667999498595, 48.477782999848529 ], [ -97.140291000345059, 48.484722000347517 ], [ -97.143017000557691, 48.49233400014554 ], [ -97.131499999927556, 48.489005999677929 ], [ -97.150266999648821, 48.511600000201796 ], [ -97.126757999742637, 48.520157000228053 ], [ -97.152422999742896, 48.520364000123614 ], [ -97.141358000381516, 48.535451999925364 ], [ -97.165796999777896, 48.548289999835141 ], [ -97.13895099962248, 48.55511999996363 ], [ -97.175423000532248, 48.561957000272265 ], [ -97.149170000095495, 48.570014000378514 ], [ -97.160631000472733, 48.580935999751759 ], [ -97.143890999763428, 48.582112000447843 ], [ -97.154027000007517, 48.595405999920438 ], [ -97.134291000064195, 48.607400000412092 ], [ -97.150648999678424, 48.611676000108552 ], [ -97.129576000607344, 48.61369299969008 ], [ -97.133859000318623, 48.62277799984755 ], [ -97.11949499983595, 48.618559999795551 ], [ -97.131140000633835, 48.631472999644195 ], [ -97.109450000045683, 48.632468999556693 ], [ -97.115691999825771, 48.644560999582822 ], [ -97.098690999745529, 48.660995000188805 ], [ -97.109228999743394, 48.664250000175329 ], [ -97.090313000422924, 48.684403999956537 ], [ -97.119904000511852, 48.701247999842899 ], [ -97.11011199952641, 48.707977999762925 ], [ -97.137423999672706, 48.726565999767217 ], [ -97.128339999931313, 48.732135999933817 ], [ -97.142132999520868, 48.73617200002888 ], [ -97.137537999401545, 48.749643999994838 ], [ -97.15379499954075, 48.753993000377065 ], [ -97.14545599973853, 48.764790000379961 ], [ -97.15898300063995, 48.775711000303765 ], [ -97.14746900003145, 48.781440999699925 ], [ -97.173771999818356, 48.793524000218802 ], [ -97.163261000341834, 48.800578999704534 ], [ -97.181481000243366, 48.798208000331194 ], [ -97.158117999506914, 48.810319000419575 ], [ -97.190274000308776, 48.815134999994164 ], [ -97.173884000634914, 48.837993000303747 ], [ -97.17916599976013, 48.862843999987284 ], [ -97.190573000282697, 48.864279000416857 ], [ -97.1778140007236, 48.875639000284721 ], [ -97.199393999326929, 48.881112999609336 ], [ -97.190018000560613, 48.89551599954509 ], [ -97.211399000554053, 48.905602000181702 ], [ -97.214406000403159, 48.931641000414679 ], [ -97.233995999448808, 48.947434000130116 ], [ -97.228439000452298, 49.000674000324402 ], [ -95.15371100041871, 48.99890300033519 ], [ -95.153314000122492, 49.384358000197842 ], [ -95.058374999471994, 49.35313000002099 ], [ -94.957439000030533, 49.370065999622355 ], [ -94.854283000395228, 49.324108000193874 ], [ -94.816500999412625, 49.320996999579712 ], [ -94.825555000552342, 49.294389000292831 ], [ -94.798083000524912, 49.197870999658541 ], [ -94.773233000406364, 49.120732000297643 ], [ -94.750277999921352, 49.09927300028798 ], [ -94.75021800031719, 48.999992000354688 ], [ -94.718940999461267, 48.999991000010873 ], [ -94.684347000166269, 48.883958000304936 ], [ -94.685698000277156, 48.840118000214638 ], [ -94.704379000347302, 48.824263000207509 ], [ -94.694347000402146, 48.782184000055814 ], [ -94.645386999877942, 48.744079000397512 ], [ -94.590285000321146, 48.718022000217658 ], [ -94.549074999812746, 48.71464699991121 ], [ -94.537743000169598, 48.702412999741348 ], [ -94.452308999809489, 48.692360999690365 ], [ -94.416183000545558, 48.710916999982004 ], [ -94.291026000640315, 48.707691999676364 ], [ -94.260589999734052, 48.696308999623085 ], [ -94.250281999646631, 48.65636400044049 ], [ -94.22431900004554, 48.649473999813964 ], [ -93.840759999986616, 48.628537000372795 ], [ -93.806805999601195, 48.577605000224843 ], [ -93.818269999697989, 48.530027999997642 ], [ -93.794454999607694, 48.51598600033936 ], [ -93.656650000510666, 48.515721000185955 ], [ -93.628863999649312, 48.531210000139254 ], [ -93.610616999664273, 48.521655000399932 ], [ -93.46942599991884, 48.545206999661346 ], [ -93.45665900012969, 48.561830000149079 ], [ -93.464299000073495, 48.59178000007099 ], [ -93.405265000629754, 48.609330000314145 ], [ -93.371151999386541, 48.605069000072874 ], [ -93.348182000151141, 48.626412999824623 ], [ -93.254870000304365, 48.642746000109248 ], [ -93.207426000478051, 48.642418999877883 ], [ -93.17847000067141, 48.623278999550756 ], [ -92.984963000511797, 48.623730999707256 ], [ -92.954876000554364, 48.631492999642937 ], [ -92.949827000128096, 48.608274000163689 ], [ -92.728046000388247, 48.539289000419636 ], [ -92.634931000036914, 48.542873000224766 ], [ -92.627237000154523, 48.503383000114042 ], [ -92.698814000025337, 48.494884999648043 ], [ -92.712561999885622, 48.463012999683137 ], [ -92.687997999911431, 48.443888999985624 ], [ -92.656027000489644, 48.436708999982663 ], [ -92.507285000533216, 48.447875999911503 ], [ -92.456325000111747, 48.414203999639483 ], [ -92.476749999741088, 48.371760000147702 ], [ -92.469948999874987, 48.351837000278188 ], [ -92.416276000396252, 48.295467000425148 ], [ -92.369945000128538, 48.220154999942388 ], [ -92.269741999739097, 48.248240999755751 ], [ -92.293857000163598, 48.270259000336885 ], [ -92.306239999585117, 48.316383999990769 ], [ -92.288994000154034, 48.342990000221143 ], [ -92.262477000080992, 48.354848000090378 ], [ -92.216982999665873, 48.34511400040784 ], [ -92.145049000661658, 48.365651000104762 ], [ -92.143583000628595, 48.35612099986934 ], [ -92.055228000065696, 48.359212000083438 ], [ -92.046563000076716, 48.334738999902406 ], [ -92.000126000345261, 48.321354000432478 ], [ -92.012972999416689, 48.297391999738963 ], [ -92.006573999608321, 48.265423000003622 ], [ -91.976766999957547, 48.244513000007949 ], [ -91.971026999346947, 48.253343000210641 ], [ -91.95446599937604, 48.251837999782367 ], [ -91.958289999813331, 48.233023999922253 ], [ -91.893470000205866, 48.237698999740793 ], [ -91.86438199981626, 48.207031000111776 ], [ -91.815771999631764, 48.211750000445932 ], [ -91.789003999726631, 48.196548000406068 ], [ -91.756393999975359, 48.205822999854256 ], [ -91.7152330004362, 48.19929700024727 ], [ -91.724573000101898, 48.170658000167187 ], [ -91.705319000559768, 48.17077599998057 ], [ -91.698162000267502, 48.141645000029456 ], [ -91.71184400029658, 48.114604999671272 ], [ -91.682837000115285, 48.122124999903768 ], [ -91.687610999870785, 48.1116990001982 ], [ -91.665211000523811, 48.10701799995639 ], [ -91.653260999459206, 48.114145000285966 ], [ -91.640172999350497, 48.096930999791702 ], [ -91.559267000088198, 48.108274999949856 ], [ -91.575459999336331, 48.06629399975553 ], [ -91.567247999667302, 48.04372600005432 ], [ -91.488650000253116, 48.068072999698636 ], [ -91.450330999877167, 48.068804999938784 ], [ -91.429641999688727, 48.048607999711543 ], [ -91.370874999548036, 48.069417000004847 ], [ -91.266380999423731, 48.078713999841817 ], [ -91.137733000514643, 48.149149999662157 ], [ -91.14290600014526, 48.154375000200979 ], [ -90.885480000366371, 48.245783999590458 ], [ -90.875110000310812, 48.237780000140006 ], [ -90.839175999797234, 48.239510999951968 ], [ -90.836293999398208, 48.176970999960865 ], [ -90.821115000645577, 48.184708999588466 ], [ -90.796610999496409, 48.159361999899495 ], [ -90.77743899961763, 48.1634120002891 ], [ -90.777933999367775, 48.14824699989174 ], [ -90.797971999348135, 48.136893999671962 ], [ -90.782107999527966, 48.135426999970498 ], [ -90.789922999830594, 48.129901000426095 ], [ -90.751608000456599, 48.090967999589985 ], [ -90.641595000462416, 48.103515000094816 ], [ -90.579897000036411, 48.123922000286832 ], [ -90.559294999322731, 48.121681000173368 ], [ -90.569768000105157, 48.106951999850956 ], [ -90.556837999536441, 48.096007999577274 ], [ -90.487077000046199, 48.099082000343124 ], [ -90.467712000534135, 48.108817999684071 ], [ -90.438448999540043, 48.098747000084877 ], [ -90.403219000438128, 48.105113999578535 ], [ -90.374541999538764, 48.090941999975549 ], [ -90.312386000074, 48.105299999719918 ], [ -90.289337000332125, 48.098993000148361 ], [ -90.140862999444963, 48.112502999790948 ], [ -90.023594999596511, 48.084708000236454 ], [ -89.997852000291132, 48.057566999818491 ], [ -89.993764999702776, 48.028197999951132 ], [ -89.953140999634854, 48.010670999545027 ], [ -89.934488999764596, 48.015627999685329 ], [ -89.897414000018216, 47.987599000340474 ], [ -89.847117999633454, 47.992222999607385 ], [ -89.819801999999498, 48.015098999562916 ], [ -89.774999000131444, 48.022630999587044 ], [ -89.651064999540239, 48.00362500008498 ], [ -89.610350999659104, 48.017780000029539 ], [ -89.607821000586483, 48.006566000229085 ], [ -89.58096700052964, 47.995329999989053 ], [ -89.492821000149235, 48.00531500019278 ], [ -89.562589999902599, 47.993322000095404 ], [ -89.600795000517849, 47.979585999814468 ], [ -89.623810999369638, 47.994787000110151 ], [ -89.649591000447487, 47.979289999646852 ], [ -89.639272999653542, 47.953475999689232 ], [ -89.657184000416351, 47.966730000353323 ], [ -89.679393999946669, 47.964357000447833 ], [ -89.690208000202929, 47.954078999767589 ], [ -89.681027999967483, 47.9449190003658 ], [ -89.756645000548602, 47.903953999741923 ], [ -89.923649000665094, 47.862061999983673 ], [ -89.927500999676838, 47.850699999549988 ], [ -89.974295999728383, 47.830513999978685 ], [ -90.071652000500208, 47.811266000214509 ], [ -90.072458000445991, 47.797914000034758 ], [ -90.160789999779141, 47.79280700012 ], [ -90.188753999601204, 47.776570000297419 ], [ -90.251274000400883, 47.772280000175407 ], [ -90.3292990003564, 47.745222999753352 ], [ -90.437712000571068, 47.731612000241796 ], [ -90.534700999551106, 47.703968000065572 ], [ -90.77700299956517, 47.606230000304109 ], [ -90.913269000056118, 47.522548000173117 ], [ -91.046802000516919, 47.456315000230575 ], [ -91.155863000226105, 47.379752999742315 ], [ -91.18438000054752, 47.339432999762657 ], [ -91.239521000050374, 47.304585999635322 ], [ -91.247326999956172, 47.293942000094603 ], [ -91.247746000172228, 47.281064000437624 ], [ -91.28017600000419, 47.266559999807399 ], [ -91.287858999747044, 47.249015000275655 ], [ -91.308802000372637, 47.250810000383595 ], [ -91.465625999507012, 47.131234999915776 ], [ -91.572486999905394, 47.090610000235692 ], [ -91.594673999622685, 47.062526000255296 ], [ -91.63495000015179, 47.042964000413853 ], [ -91.637033999504837, 47.026962000420909 ], [ -91.704692000084677, 47.005216000161937 ], [ -91.815524000609273, 46.914560000040531 ], [ -91.839205000494587, 46.915216000141442 ], [ -92.081292999945433, 46.781714999978348 ], [ -92.001741000510862, 46.713010999612294 ], [ -92.020294000293219, 46.704040999936673 ], [ -92.089493000260632, 46.749237000251753 ], [ -92.116590000456767, 46.748640000348402 ], [ -92.143290000493053, 46.734640000094132 ], [ -92.146729999610486, 46.715793999699692 ], [ -92.189090999699872, 46.717540999548412 ], [ -92.204691000338741, 46.704040999856829 ], [ -92.175875000425009, 46.686465999636233 ], [ -92.207091999852835, 46.65194100038282 ], [ -92.242492999968945, 46.649241000356874 ], [ -92.256591999892237, 46.658740999959733 ], [ -92.270591999543953, 46.650741000407969 ], [ -92.291288999680802, 46.668137000126393 ], [ -92.297484000554931, 46.073055000135319 ], [ -92.678661000005363, 46.070535999913545 ], [ -92.678290000003003, 46.157626999561529 ], [ -92.845151000249473, 46.157996999551465 ], [ -92.850632000036171, 46.126467000226704 ], [ -92.845622000436379, 46.107197999651966 ], [ -92.876733000080577, 46.107221000369748 ], [ -92.879131999962297, 46.11642600041214 ], [ -92.887367000021584, 46.107191000004718 ], [ -92.892405999519312, 46.125639000199499 ], [ -92.883069000138946, 46.14346999998434 ], [ -92.86100199963613, 46.143403999723901 ], [ -92.86257799941616, 46.158089000269179 ], [ -92.928841000356883, 46.158448999733203 ], [ -92.928726000581236, 46.186602999818831 ], [ -92.89744400056054, 46.19911600002667 ], [ -92.907890000410674, 46.216290000418503 ], [ -92.928619999692174, 46.21634000013254 ], [ -92.928549999646734, 46.245300000279691 ], [ -93.054156999684324, 46.24524299974069 ], [ -93.053870999452982, 46.158119999956781 ], [ -93.431831000160798, 46.153990999582724 ], [ -93.430691999566889, 46.418709999573188 ], [ -93.306085000069501, 46.418462999957306 ], [ -93.30598999947064, 46.332999000084712 ], [ -93.178167000395206, 46.332431999562381 ], [ -93.178924999532754, 46.593805999608612 ], [ -93.062677999674406, 46.593310000180139 ], [ -93.061528999530665, 46.766549999868111 ], [ -93.316724999728834, 46.767629999891732 ], [ -93.315396000330793, 46.941514000108725 ], [ -93.571477000250184, 46.943350000319953 ], [ -93.570703000626494, 46.856231999696703 ], [ -93.775515999975156, 46.85636699992304 ], [ -93.775077000100325, 46.889377000138118 ], [ -94.029141000625231, 46.889837999648186 ], [ -94.031248999890749, 47.06557199971823 ], [ -94.289422000417389, 47.068390999732337 ], [ -94.281043999832079, 46.979564999577093 ], [ -94.40566699960857, 46.980089999806459 ], [ -94.407514999879638, 46.805884999589104 ], [ -94.911614000320981, 46.805053999587599 ], [ -94.911454999930939, 46.630338999809105 ], [ -95.030470000130023, 46.629919999672019 ], [ -95.030145999684009, 46.499280000337158 ], [ -95.15545999988116, 46.499479999873905 ], [ -95.155409999394834, 46.542970000200043 ], [ -95.280042000638275, 46.54283100038986 ], [ -95.279959999833196, 46.456031000368029 ], [ -95.780625000143232, 46.455592999698851 ], [ -95.778780000166833, 46.282291999912587 ], [ -95.894960999493222, 46.282402999849282 ], [ -95.894847999648931, 46.195304000329912 ], [ -96.019302999968787, 46.1954799997512 ], [ -96.018760000604502, 46.108479999782574 ], [ -96.265366000612119, 46.108610000295549 ], [ -96.266139999804082, 46.02161000022187 ], [ -96.576563999448368, 46.021847999720421 ], [ -96.55441100062589, 46.08407899988768 ], [ -96.580273000573783, 46.151076000310745 ], [ -96.57663600041424, 46.173943999688547 ], [ -96.592681999427597, 46.175211000285728 ], [ -96.583760999616672, 46.208059000331204 ], [ -96.598729000608358, 46.242317000324334 ], [ -96.58371499976991, 46.249806999632618 ], [ -96.600401999885165, 46.261750000303103 ], [ -96.599378999390623, 46.329983999914063 ], [ -96.629402999934442, 46.354319000080515 ], [ -96.645194000177796, 46.35066900042348 ], [ -96.685355000171555, 46.414211999959178 ], [ -96.704580999660891, 46.417995000379733 ], [ -96.703268999752765, 46.4372949999645 ], [ -96.721853000267302, 46.439829000316301 ], [ -96.711611000550363, 46.45978300027339 ], [ -96.723083000379717, 46.466717000342548 ], [ -96.714605999718501, 46.472260999855735 ], [ -96.738874999439517, 46.478705999872787 ], [ -96.738259999734368, 46.539293999733403 ], [ -96.750115999777691, 46.540759000342781 ], [ -96.738714999942232, 46.543228000107781 ], [ -96.754396999722672, 46.556818000437453 ], [ -96.745709999914737, 46.565227999913283 ] ], [ [ -96.111509999326174, 48.107059999573096 ], [ -96.111509999380459, 48.107060000471463 ], [ -96.111531000122255, 48.105946000214182 ], [ -96.111509999326174, 48.107059999573096 ] ], [ [ -96.170593999416724, 48.100415000475358 ], [ -96.170593999361429, 48.10041499957704 ], [ -96.170246000286014, 48.099918999917257 ], [ -96.170593999416724, 48.100415000475358 ] ], [ [ -94.917513999605973, 47.483166000553723 ], [ -94.917514275420459, 47.483166000247742 ], [ -94.917630000299468, 47.490410000314952 ], [ -94.917513999605973, 47.483166000553723 ] ] ], [ [ [ -92.845397999436059, 46.132410000193026 ], [ -92.847770000403713, 46.134507000160923 ], [ -92.845367000245119, 46.134503999795619 ], [ -92.845397999436059, 46.132410000193026 ] ] ], [ [ [ -91.773431999556166, 46.946677999792165 ], [ -91.772932999551514, 46.945740999820934 ], [ -91.774334000468798, 46.945878999993383 ], [ -91.773431999556166, 46.946677999792165 ] ] ], [ [ [ -91.553342000660933, 47.087719999585396 ], [ -91.551967999675512, 47.090510000058892 ], [ -91.551768999765471, 47.087379999829125 ], [ -91.553342000660933, 47.087719999585396 ] ] ], [ [ [ -91.34944300030665, 47.217291000226133 ], [ -91.348297999742982, 47.217314999848568 ], [ -91.349325000537959, 47.21697699979358 ], [ -91.34944300030665, 47.217291000226133 ] ] ], [ [ [ -91.324756000582937, 47.236181000043665 ], [ -91.324069999663891, 47.236727999742072 ], [ -91.324140999780568, 47.236302000413254 ], [ -91.324756000582937, 47.236181000043665 ] ] ], [ [ [ -91.324364999963279, 47.237395999807589 ], [ -91.324505999675239, 47.237638000431986 ], [ -91.324329000549753, 47.237596999661186 ], [ -91.324364999963279, 47.237395999807589 ] ] ], [ [ [ -91.244306000578732, 47.290134000285136 ], [ -91.244451999772892, 47.290736000382459 ], [ -91.244060999628957, 47.290250000270504 ], [ -91.244306000578732, 47.290134000285136 ] ] ], [ [ [ -91.244688999969711, 47.293132999784874 ], [ -91.245617000654661, 47.2933789998999 ], [ -91.243700000061949, 47.293588999742511 ], [ -91.244688999969711, 47.293132999784874 ] ] ], [ [ [ -91.239203999727096, 47.296732999700801 ], [ -91.238112999944988, 47.29733599972009 ], [ -91.237787999409576, 47.297122999743593 ], [ -91.239203999727096, 47.296732999700801 ] ] ], [ [ [ -89.839413000388646, 47.878292000204844 ], [ -89.838766999379473, 47.876396000291912 ], [ -89.839886999834079, 47.876693000088608 ], [ -89.839413000388646, 47.878292000204844 ] ] ], [ [ [ -89.827903999434071, 47.881650999810013 ], [ -89.828074000020933, 47.879938000205705 ], [ -89.829125999536117, 47.879869999934911 ], [ -89.827903999434071, 47.881650999810013 ] ] ], [ [ [ -89.65471000030513, 47.952795999870467 ], [ -89.665284999933391, 47.952957999745813 ], [ -89.661848999608708, 47.955675999546976 ], [ -89.65471000030513, 47.952795999870467 ] ] ], [ [ [ -89.566976999775619, 47.967511000311852 ], [ -89.585612000296194, 47.958828000064756 ], [ -89.586802000226655, 47.959010000293908 ], [ -89.566976999775619, 47.967511000311852 ] ] ], [ [ [ -89.592315999651618, 47.966661000261027 ], [ -89.586941999505356, 47.968056000347552 ], [ -89.586499999423978, 47.967599000030788 ], [ -89.592315999651618, 47.966661000261027 ] ] ], [ [ [ -89.552928999423216, 47.973153000285954 ], [ -89.559051999581584, 47.969726999589774 ], [ -89.561908999897199, 47.96961300024482 ], [ -89.552928999423216, 47.973153000285954 ] ] ], [ [ [ -89.563235999947764, 47.971029000431685 ], [ -89.565617000353186, 47.971782000183595 ], [ -89.562385000095631, 47.97182799997848 ], [ -89.563235999947764, 47.971029000431685 ] ] ], [ [ [ -89.595754000327403, 47.970840000208405 ], [ -89.587796000600378, 47.973423999867521 ], [ -89.589292000580897, 47.972257999883055 ], [ -89.595754000327403, 47.970840000208405 ] ] ], [ [ [ -89.567967000483065, 47.974539999614706 ], [ -89.568919999714055, 47.973649000123551 ], [ -89.570569999524707, 47.973743999759357 ], [ -89.567967000483065, 47.974539999614706 ] ] ], [ [ [ -89.573170999459549, 47.980552000141699 ], [ -89.567285000211399, 47.978292000023998 ], [ -89.585820000187326, 47.967873000284911 ], [ -89.582014999863588, 47.978838000324558 ], [ -89.573170999459549, 47.980552000141699 ] ] ], [ [ [ -89.590449999569046, 47.974610000434723 ], [ -89.587184000005195, 47.974269000028642 ], [ -89.590176999378855, 47.973743000388495 ], [ -89.590449999569046, 47.974610000434723 ] ] ], [ [ [ -89.56167099973338, 47.979274000009788 ], [ -89.563542000113372, 47.977560999559927 ], [ -89.564086999889938, 47.977560999583233 ], [ -89.56167099973338, 47.979274000009788 ] ] ], [ [ [ -89.559254999825427, 47.989759000445268 ], [ -89.558744999401043, 47.988753999887983 ], [ -89.560514000176653, 47.98891399959723 ], [ -89.559254999825427, 47.989759000445268 ] ] ] ] } },
{ "type": "Feature", "properties": { "district_id": 3, "voting_age_pop": 483576, "lib_votes": 0, "grn_votes": 0, "con_votes": 0, "ref_votes": 0, "total_pop": 649961, "dem_votes_sum": 225674, "rep_votes_sum": 122246, "lib_votes_sum": 0, "grn_votes_sum": 0, "con_votes_sum": 0, "ref_votes_sum": 0, "minority_pop_sum": 289427, "dem_pct": 0.6486376178431823, "rep_pct": 0.35136238215681764, "lib_pct": 0.0, "grn_pct": 0.0, "con_pct": 0.0, "ref_pct": 0.0, "minority_pct": 0.44529902563384571, "compactness": 0.27905967780590357 }, "geometry": { "type": "Polygon", "coordinates": [ [ [ -93.156374999794338, 44.746394000024061 ], [ -93.187006999887046, 44.746487000106221 ], [ -93.186938999575261, 44.775672999596054 ], [ -93.221510000594051, 44.775850000344093 ], [ -93.221151999506176, 44.790240999955124 ], [ -93.192699999984498, 44.808499000245646 ], [ -93.211541999654401, 44.817383000050796 ], [ -93.17288799956556, 44.819053999630611 ], [ -93.153345000041, 44.84803800021475 ], [ -93.10612300006575, 44.84790299958533 ], [ -93.106121000580018, 44.861908999720718 ], [ -93.085099000479417, 44.861843000300283 ], [ -93.080527000193513, 44.87758499993749 ], [ -93.138688000018661, 44.883700999951181 ], [ -93.146805999468455, 44.874827999687625 ], [ -93.146805000134222, 44.883636000106215 ], [ -93.159565999948128, 44.879986000411648 ], [ -93.192081000243491, 44.897294999567194 ], [ -93.199789000292256, 44.92703300013423 ], [ -93.247313999691769, 44.925126000212451 ], [ -93.242693999757307, 44.951961999926233 ], [ -93.233605000438374, 44.941352000078297 ], [ -93.234696000592493, 44.953711000076567 ], [ -93.177167999466519, 44.948405999871433 ], [ -93.20777000015859, 44.959664000078412 ], [ -93.207677999635209, 44.975739999776707 ], [ -93.167043000601723, 44.970267999964719 ], [ -93.16700499994819, 44.988163000354753 ], [ -93.086291999475449, 44.991791000196201 ], [ -93.086522000253623, 45.009748000248059 ], [ -93.066161000271123, 45.010569000055135 ], [ -93.065911999795503, 45.020851999852027 ], [ -93.01512200005395, 45.020849000001959 ], [ -92.992194999405811, 45.031908999795476 ], [ -92.984738000299899, 45.006735000314386 ], [ -92.957936999422458, 45.006499999859301 ], [ -92.960464999674372, 44.993238999881697 ], [ -92.984705000499858, 44.987605000077849 ], [ -92.984639999826044, 44.948521999722466 ], [ -92.78130000046896, 44.948780000395139 ], [ -92.781516000297827, 44.974164999777798 ], [ -92.769504000248205, 44.974266999908529 ], [ -92.750645000170962, 44.937299000165801 ], [ -92.77457099982567, 44.898083999664323 ], [ -92.765763000599861, 44.836232999871179 ], [ -92.805562000609584, 44.768382999770232 ], [ -92.802016999545373, 44.745673000441037 ], [ -92.812656000571735, 44.747257000198964 ], [ -92.812646999953671, 44.716712000050372 ], [ -92.79250599988211, 44.716661000136376 ], [ -92.792600999546465, 44.629713999973625 ], [ -93.116481000297512, 44.630587000167324 ], [ -93.116464999613697, 44.623283999742149 ], [ -93.144527000529564, 44.623435000164271 ], [ -93.136690999633117, 44.645902000166906 ], [ -93.151851000126697, 44.659672999854841 ], [ -93.136621000005817, 44.669286000154237 ], [ -93.136483000347027, 44.692113999822077 ], [ -93.156383999671718, 44.688562000206709 ], [ -93.156374999794338, 44.746394000024061 ] ], [ [ -93.200251999987813, 44.93039099969026 ], [ -93.200295893073914, 44.930708235216905 ], [ -93.199789000292256, 44.92703300013423 ], [ -93.200251999987813, 44.93039099969026 ] ], [ [ -93.040569055598226, 44.903570054501586 ], [ -93.040569009633217, 44.903570009297439 ], [ -93.04065200019663, 44.903651999745293 ], [ -93.040569055598226, 44.903570054501586 ] ], [ [ -93.038754977448164, 44.901785977803456 ], [ -93.038619000189158, 44.901651999958283 ], [ -93.039800054181669, 44.902813777687122 ], [ -93.038754977448164, 44.901785977803456 ] ], [ [ -93.009122979973554, 44.861845849252454 ], [ -93.009122966359385, 44.861845849259801 ], [ -93.009122980042136, 44.861845849380906 ], [ -93.009122979973554, 44.861845849252454 ] ], [ [ -93.008519343500353, 44.859398628044971 ], [ -93.008611999835196, 44.860103999553708 ], [ -93.008843999580378, 44.861845999927802 ], [ -93.008519343500353, 44.859398628044971 ] ], [ [ -93.008427144485168, 44.85870358042699 ], [ -93.008425000241189, 44.858685000145975 ], [ -93.008441509455679, 44.858811872141132 ], [ -93.008427144485168, 44.85870358042699 ] ], [ [ -93.009480542314975, 44.8478938534479 ], [ -93.009511061176326, 44.847788436476108 ], [ -93.008680000492191, 44.852043000360148 ], [ -93.009480542314975, 44.8478938534479 ] ], [ [ -93.021396309723741, 44.789679642145636 ], [ -93.021396310026446, 44.789679635040486 ], [ -93.021396309676462, 44.78967964235153 ], [ -93.021396309723741, 44.789679642145636 ] ], [ [ -93.017865922716439, 44.778017036757518 ], [ -93.016192999918815, 44.775863000044836 ], [ -93.017865923575044, 44.778017038474701 ], [ -93.017865922716439, 44.778017036757518 ] ], [ [ -92.983500999568761, 44.774662999655519 ], [ -92.983952744920586, 44.774725807240777 ], [ -92.983952866080287, 44.774725823134986 ], [ -92.983500999568761, 44.774662999655519 ] ], [ [ -92.982721000519646, 44.774491000100774 ], [ -92.983238754505976, 44.774605172208098 ], [ -92.983500999568761, 44.774662999655519 ], [ -92.982721000519646, 44.774491000100774 ] ], [ [ -92.974244000617233, 44.77187900015506 ], [ -92.968607878949314, 44.770052256788773 ], [ -92.979339000153047, 44.773518999986948 ], [ -92.974244000617233, 44.77187900015506 ] ], [ [ -93.151130000077615, 44.895332000070233 ], [ -93.151210999610527, 44.895233000364364 ], [ -93.150451693598271, 44.896155909704362 ], [ -93.151130000077615, 44.895332000070233 ] ], [ [ -93.153393801567375, 44.89330745723278 ], [ -93.153173000387028, 44.893485999580754 ], [ -93.153591000201502, 44.893148000033534 ], [ -93.153393801567375, 44.89330745723278 ] ], [ [ -93.15680499965832, 44.891884999720801 ], [ -93.156966000332829, 44.891827999619323 ], [ -93.156570999462787, 44.891966000267225 ], [ -93.15680499965832, 44.891884999720801 ] ], [ [ -93.128069999532457, 44.630639000440375 ], [ -93.126647000470328, 44.629123999658447 ], [ -93.126648999858276, 44.630633000415223 ], [ -93.128069999532457, 44.630639000440375 ] ], [ [ -93.130253000050388, 44.628657999881959 ], [ -93.131156000421413, 44.630654000238223 ], [ -93.131712000011987, 44.628664999657275 ], [ -93.130253000050388, 44.628657999881959 ] ], [ [ -93.135082999639152, 44.630671999594533 ], [ -93.139393999763016, 44.628882000126396 ], [ -93.134200999863424, 44.626997000405801 ], [ -93.135082999639152, 44.630671999594533 ] ], [ [ -93.096031999986153, 44.923286999648177 ], [ -93.096024000531472, 44.919679000398922 ], [ -93.095991999400624, 44.919679000294714 ], [ -93.096031999986153, 44.923286999648177 ] ], [ [ -93.01599199998256, 44.882923999706456 ], [ -93.016073999842007, 44.883250999821946 ], [ -93.016019177670955, 44.883032378629672 ], [ -93.01599199998256, 44.882923999706456 ] ] ] } },
{ "type": "Feature", "properties": { "district_id": 4, "voting_age_pop": 489473, "lib_votes": 0, "grn_votes": 0, "con_votes": 0, "ref_votes": 0, "total_pop": 646551, "dem_votes_sum": 187901, "rep_votes_sum": 184219, "lib_votes_sum": 0, "grn_votes_sum": 0, "con_votes_sum": 0, "ref_votes_sum": 0, "minority_pop_sum": 122612, "dem_pct": 0.50494732881866067, "rep_pct": 0.49505267118133933, "lib_pct": 0.0, "grn_pct": 0.0, "con_pct": 0.0, "ref_pct": 0.0, "minority_pct": 0.18964010573025175, "compactness": 0.16704837644911288 }, "geometry": { "type": "Polygon", "coordinates": [ [ [ -93.256124000596785, 45.078890999658917 ], [ -93.280177000407662, 45.08896699970856 ], [ -93.282574000183729, 45.072774000285925 ], [ -93.291825999791968, 45.097138000380617 ], [ -93.321123999786593, 45.104013999761662 ], [ -93.325486000487487, 45.144817999548643 ], [ -93.379778999605549, 45.14007800016234 ], [ -93.39192699976698, 45.173428999919047 ], [ -93.416765999612721, 45.180824000141108 ], [ -93.42216500015229, 45.17137499970616 ], [ -93.422585999943635, 45.21161699959989 ], [ -93.412031999823469, 45.198163999660395 ], [ -93.399090000012592, 45.201119999772843 ], [ -93.420426000468595, 45.226606999579808 ], [ -93.390930999891722, 45.223765000349253 ], [ -93.394915999919959, 45.237276999627575 ], [ -93.380457999966907, 45.24802900008828 ], [ -93.397938999552665, 45.260215000127602 ], [ -93.346697000403708, 45.255494999933582 ], [ -93.346870000074759, 45.276284999958541 ], [ -93.326296999873264, 45.276174999685466 ], [ -93.326171999395257, 45.262906000207344 ], [ -93.265205000584686, 45.264022999854006 ], [ -93.265350999714599, 45.39469199995964 ], [ -93.280651000445275, 45.391152999792261 ], [ -93.280724999603791, 45.407994999696534 ], [ -93.019563000133189, 45.411769999792881 ], [ -93.021689999534303, 45.470582000106653 ], [ -93.1424480002606, 45.471210000223167 ], [ -93.141792999768469, 45.730656999885881 ], [ -93.265895000005585, 45.730659000338505 ], [ -93.265985000573551, 45.817406000206937 ], [ -93.142096999572345, 45.817302000337499 ], [ -93.142868999916615, 45.981005000026542 ], [ -93.055081000392761, 45.981232999635182 ], [ -93.055219000425751, 46.071365000077542 ], [ -92.90811399951204, 46.071082000210431 ], [ -92.907564999974539, 46.158489999563344 ], [ -92.86257799941616, 46.158089000269179 ], [ -92.86100199963613, 46.143403999723901 ], [ -92.883069000138946, 46.14346999998434 ], [ -92.892405999519312, 46.125639000199499 ], [ -92.881994000464772, 46.107115999941527 ], [ -92.879131999962297, 46.11642600041214 ], [ -92.876733000080577, 46.107221000369748 ], [ -92.845622000436379, 46.107197999651966 ], [ -92.850632000036171, 46.126467000226704 ], [ -92.845151000249473, 46.157996999551465 ], [ -92.678290000003003, 46.157626999561529 ], [ -92.678661000005363, 46.070535999913545 ], [ -92.312739999751443, 46.070006999567489 ], [ -92.334700000286603, 46.060427000316132 ], [ -92.351759999385109, 46.015685000113798 ], [ -92.428554999567609, 46.024241000223562 ], [ -92.469765000389515, 45.973568999794615 ], [ -92.525185999831251, 45.983862000299062 ], [ -92.549805999551481, 45.967986000422052 ], [ -92.551932999752665, 45.951651000270566 ], [ -92.63882399965307, 45.934166000059399 ], [ -92.639119999777208, 45.924557999888719 ], [ -92.707702000277891, 45.894901000159329 ], [ -92.739990999654381, 45.846283000252484 ], [ -92.76514599954605, 45.830182999938955 ], [ -92.757814999816958, 45.806574000225673 ], [ -92.784617000471101, 45.764198999975953 ], [ -92.869193000238297, 45.717568000177387 ], [ -92.889432999529916, 45.641202000353907 ], [ -92.883749000605476, 45.575483000432151 ], [ -92.823309000007598, 45.560934000045734 ], [ -92.770222999361835, 45.566938999899406 ], [ -92.726081999773413, 45.541111999908374 ], [ -92.726676999513685, 45.514462000263812 ], [ -92.646602000601334, 45.441634999857826 ], [ -92.650420000440732, 45.398510000103336 ], [ -92.70272300056169, 45.358468000341006 ], [ -92.708674999405929, 45.322525000448323 ], [ -92.762003999374599, 45.288212999851297 ], [ -92.751707999919333, 45.218665999882319 ], [ -92.766808000283902, 45.185466000272797 ], [ -92.752403999681945, 45.173915999766386 ], [ -92.757351999822234, 45.152351000008167 ], [ -92.739527000435018, 45.116514999622254 ], [ -92.802910999893115, 45.065403000019785 ], [ -92.762059999830726, 45.024320000287645 ], [ -92.78130000046896, 44.948780000395139 ], [ -92.984639999826044, 44.948521999722466 ], [ -92.984705000499858, 44.987605000077849 ], [ -92.960464999674372, 44.993238999881697 ], [ -92.957936999422458, 45.006499999859301 ], [ -92.984738000299899, 45.006735000314386 ], [ -92.992194999405811, 45.031908999795476 ], [ -93.01512200005395, 45.020849000001959 ], [ -93.065911999795503, 45.020851999852027 ], [ -93.066161000271123, 45.010569000055135 ], [ -93.086522000253623, 45.009748000248059 ], [ -93.086291999475449, 44.991791000196201 ], [ -93.166838000379826, 44.98814799964272 ], [ -93.177144999540346, 45.021304000304298 ], [ -93.207801999778738, 45.020583999845563 ], [ -93.207634000549263, 45.006131000128697 ], [ -93.247336999787194, 45.013159000429091 ], [ -93.226867000621183, 45.018922000239002 ], [ -93.227012000108104, 45.052711999667252 ], [ -93.247787000330973, 45.07040400044049 ], [ -93.205588000527925, 45.078388000137394 ], [ -93.21153099945181, 45.08465100010531 ], [ -93.202777000607767, 45.092795000324855 ], [ -93.18732200008867, 45.086310000374674 ], [ -93.188564000048018, 45.107946000045239 ], [ -93.247806999748235, 45.10778200008221 ], [ -93.243504000105759, 45.086052999799577 ], [ -93.256124000596785, 45.078890999658917 ] ], [ [ -93.284862999686695, 45.108647999561121 ], [ -93.284746000533644, 45.108578000218564 ], [ -93.287826000333567, 45.110655000237244 ], [ -93.284862999686695, 45.108647999561121 ] ], [ [ -93.29238999953877, 45.112889999864706 ], [ -93.29314500015731, 45.113420000262877 ], [ -93.292736999855094, 45.113111999658429 ], [ -93.29238999953877, 45.112889999864706 ] ], [ [ -93.296095000636271, 45.121868000265039 ], [ -93.29609500060478, 45.121897000252964 ], [ -93.296128000253731, 45.121948999629318 ], [ -93.296095000636271, 45.121868000265039 ] ], [ [ -93.278547999564012, 45.101505999625076 ], [ -93.278560000489946, 45.101593000334034 ], [ -93.278551000551772, 45.101477000315903 ], [ -93.278547999564012, 45.101505999625076 ] ], [ [ -93.266014000092014, 45.395572000402289 ], [ -93.265353000180625, 45.395318999977817 ], [ -93.265353999429294, 45.395668999792925 ], [ -93.266014000092014, 45.395572000402289 ] ], [ [ -93.207803000513664, 45.02062100031177 ], [ -93.207901000577209, 45.026380999848648 ], [ -93.207939000083442, 45.027790000101938 ], [ -93.207803000513664, 45.02062100031177 ] ], [ [ -92.859258000573078, 45.031080999631847 ], [ -92.8592370003837, 45.031567000420537 ], [ -92.859250494969316, 45.031254701417602 ], [ -92.859258000573078, 45.031080999631847 ] ], [ [ -92.989264642671472, 45.12376045852092 ], [ -92.990015999553918, 45.123761000165885 ], [ -92.984620999922043, 45.123757000265954 ], [ -92.989264642671472, 45.12376045852092 ] ], [ [ -92.943878000255808, 45.002544000453618 ], [ -92.943879999392976, 45.003994999627167 ], [ -92.943877999952448, 45.001862000317139 ], [ -92.943878000255808, 45.002544000453618 ] ], [ [ -92.803003000261839, 45.079317999553993 ], [ -92.802543999722161, 45.079313999559524 ], [ -92.80347199996892, 45.07929200020348 ], [ -92.803003000261839, 45.079317999553993 ] ], [ [ -92.845397999436059, 46.132410000193026 ], [ -92.847770000403713, 46.134507000160923 ], [ -92.847804999774908, 46.132410000097181 ], [ -92.845397999436059, 46.132410000193026 ] ] ] } },
{ "type": "Feature", "properties": { "district_id": 5, "voting_age_pop": 502633, "lib_votes": 0, "grn_votes": 0, "con_votes": 0, "ref_votes": 0, "total_pop": 675181, "dem_votes_sum": 174779, "rep_votes_sum": 178931, "lib_votes_sum": 0, "grn_votes_sum": 0, "con_votes_sum": 0, "ref_votes_sum": 0, "minority_pop_sum": 107267, "dem_pct": 0.49413078510644315, "rep_pct": 0.50586921489355685, "lib_pct": 0.0, "grn_pct": 0.0, "con_pct": 0.0, "ref_pct": 0.0, "minority_pct": 0.15887147298280016, "compactness": 0.34118922966280124 }, "geometry": { "type": "MultiPolygon", "coordinates": [ [ [ [ -93.408616000552172, 43.499544999651 ], [ -93.408864999812565, 43.672914999765318 ], [ -93.528387000260238, 43.673031999575628 ], [ -93.526945999899482, 44.022113999601736 ], [ -93.647188999858884, 44.022212999639983 ], [ -93.646282999998078, 44.282980999822534 ], [ -93.768098000326262, 44.282709000266188 ], [ -93.768320000136129, 44.369638000382302 ], [ -93.888863000179654, 44.37005800014736 ], [ -93.8889010004564, 44.456728999733343 ], [ -93.768128999700934, 44.456465999573766 ], [ -93.768288999870904, 44.543195000161589 ], [ -93.788315000597578, 44.543215999803621 ], [ -93.78859500060328, 44.62354600039663 ], [ -93.806157000377226, 44.623483999580692 ], [ -93.763661999401521, 44.634146000212041 ], [ -93.768175999645578, 44.673520000342975 ], [ -93.888830999433907, 44.67340899989992 ], [ -93.889200000356539, 44.629900000136438 ], [ -94.132619999732825, 44.630339999991207 ], [ -94.132425000393582, 44.717554000135834 ], [ -94.010493999484424, 44.717463999911452 ], [ -94.010021000174248, 44.803989000250183 ], [ -93.888244000348521, 44.804661999879357 ], [ -93.888635999972109, 44.717044000372695 ], [ -93.663799999701212, 44.71796000020209 ], [ -93.663602999995632, 44.73265800025947 ], [ -93.648270000181739, 44.732861999912181 ], [ -93.628935000193351, 44.732862000155706 ], [ -93.626735000367191, 44.718461999920642 ], [ -93.490279999465201, 44.717661999672856 ], [ -93.479684999828862, 44.753718999629065 ], [ -93.459428999585299, 44.753462999870642 ], [ -93.464504000123512, 44.77557499994699 ], [ -93.439564999738309, 44.757683000438348 ], [ -93.399045000230728, 44.753530000432384 ], [ -93.399017000545726, 44.746551999932883 ], [ -93.439377999721529, 44.746795000435512 ], [ -93.437048000244232, 44.719419000169744 ], [ -93.392792999670448, 44.741194000359854 ], [ -93.35232399981146, 44.741529000216325 ], [ -93.355609999500103, 44.729229000093021 ], [ -93.328766000533179, 44.738834999551919 ], [ -93.316241999792283, 44.69583399960738 ], [ -93.288207999746575, 44.697597000391525 ], [ -93.284217000328809, 44.710416000314417 ], [ -93.250641000197177, 44.717442999967183 ], [ -93.217752999709546, 44.717410999673959 ], [ -93.209968000239058, 44.699940999999015 ], [ -93.197239999779399, 44.706977000004748 ], [ -93.202372000442693, 44.731909000202272 ], [ -93.156443000291318, 44.731922000442466 ], [ -93.156383999671718, 44.688562000206709 ], [ -93.136483000347027, 44.692113999822077 ], [ -93.136621000005817, 44.669286000154237 ], [ -93.151851000126697, 44.659672999854841 ], [ -93.136690999633117, 44.645902000166906 ], [ -93.144527000529564, 44.623435000164271 ], [ -93.116464999613697, 44.623283999742149 ], [ -93.116481000297512, 44.630587000167324 ], [ -92.792600999546465, 44.629713999973625 ], [ -92.79250599988211, 44.716661000136376 ], [ -92.812646999953671, 44.716712000050372 ], [ -92.80808800035058, 44.747009999584307 ], [ -92.732042999602015, 44.714344999555429 ], [ -92.632020999480886, 44.649187000366432 ], [ -92.621642000320278, 44.614928999879723 ], [ -92.586215999454311, 44.600088000049382 ], [ -92.568946000378276, 44.603372000211529 ], [ -92.547172999779022, 44.567503000125647 ], [ -92.519218000188701, 44.57527499975096 ], [ -92.329012999958181, 44.550895000070355 ], [ -92.291005000399338, 44.485464000413991 ], [ -92.230855999484604, 44.4444960001222 ], [ -92.056486000434319, 44.402729000358079 ], [ -91.970265999606966, 44.365842000385051 ], [ -91.925590000265316, 44.333547999932499 ], [ -91.913534000143699, 44.311391999622423 ], [ -91.924613000064326, 44.291814999643087 ], [ -91.896387999554804, 44.274690000043087 ], [ -91.875158000321989, 44.200575000367664 ], [ -91.80806399944106, 44.159262000432491 ], [ -91.721551999411759, 44.130341999656721 ], [ -91.707490999563674, 44.103906000158609 ], [ -91.681530000333751, 44.097400000388824 ], [ -91.592069999957999, 44.031372000408368 ], [ -91.439265000198276, 44.000987999943916 ], [ -91.366642000153306, 43.93746299983956 ], [ -91.284138000537439, 43.847065000314103 ], [ -91.244134999804473, 43.774667000025929 ], [ -91.268455000541096, 43.709823999777257 ], [ -91.268979000175491, 43.616578000059221 ], [ -91.231865000520187, 43.581821999849126 ], [ -91.2431830003447, 43.540308999973803 ], [ -91.217705999494541, 43.500549999885216 ], [ -93.408616000552172, 43.499544999651 ] ], [ [ -93.221179999722494, 44.471483999800512 ], [ -93.228215000157945, 44.471516000387624 ], [ -93.215145999683585, 44.471477000053873 ], [ -93.221179999722494, 44.471483999800512 ] ], [ [ -93.20514700007061, 44.471477999905154 ], [ -93.202849999853541, 44.471480999591634 ], [ -93.205582000055145, 44.471479000324116 ], [ -93.20514700007061, 44.471477999905154 ] ], [ [ -93.202849999853541, 44.471480999591634 ], [ -93.200805999997485, 44.471469999922569 ], [ -93.190824000423746, 44.471395999578483 ], [ -93.202849999853541, 44.471480999591634 ] ], [ [ -93.318593999522946, 44.645149000059881 ], [ -93.318594999518965, 44.645148999971099 ], [ -93.318633000586601, 44.641505000302296 ], [ -93.318593999522946, 44.645149000059881 ] ], [ [ -93.31855100042597, 44.652092000185 ], [ -93.318556000572201, 44.652090999567193 ], [ -93.318572000171201, 44.648709000116845 ], [ -93.31855100042597, 44.652092000185 ] ], [ [ -93.274048000186141, 44.471775000364097 ], [ -93.268951000271301, 44.471837000359741 ], [ -93.278476000328993, 44.471912000362508 ], [ -93.274048000186141, 44.471775000364097 ] ], [ [ -93.254081999884392, 44.471664000126196 ], [ -93.251705999843992, 44.471719999559149 ], [ -93.259039999744815, 44.471755999835018 ], [ -93.254081999884392, 44.471664000126196 ] ], [ [ -93.237526000260118, 44.47159000018911 ], [ -93.24149500006061, 44.471629000404839 ], [ -93.243911999729008, 44.471649000214832 ], [ -93.237526000260118, 44.47159000018911 ] ], [ [ -93.28152099943506, 44.543955999655466 ], [ -93.281637999492247, 44.537026000436626 ], [ -93.281592999899743, 44.529770000424627 ], [ -93.28152099943506, 44.543955999655466 ] ], [ [ -93.318357999990099, 44.678135999797917 ], [ -93.318420999705609, 44.674319999561575 ], [ -93.318461000311061, 44.667526000263955 ], [ -93.318331999899982, 44.674311999627946 ], [ -93.318357999990099, 44.678135999797917 ] ], [ [ -93.039401999734338, 44.479176999919929 ], [ -93.03940304471422, 44.479052081457588 ], [ -93.039402999706667, 44.479055999892992 ], [ -93.039401999734338, 44.479176999919929 ] ], [ [ -93.175140000476404, 44.47133299960305 ], [ -93.174244000529143, 44.471339000112557 ], [ -93.175557999960404, 44.471332999785716 ], [ -93.175140000476404, 44.47133299960305 ] ], [ [ -93.171190000305387, 44.471351999821991 ], [ -93.169740999576348, 44.471351999916116 ], [ -93.170720000317132, 44.471353999684545 ], [ -93.171190000305387, 44.471351999821991 ] ], [ [ -93.167708999590047, 44.471344000228889 ], [ -93.166636999927704, 44.471344000048774 ], [ -93.16935700024429, 44.4713509998519 ], [ -93.167708999590047, 44.471344000228889 ] ], [ [ -93.151974999714156, 44.471360999931328 ], [ -93.152484999481743, 44.471358000195259 ], [ -93.151957000307235, 44.471359000058037 ], [ -93.151974999714156, 44.471360999931328 ] ], [ [ -93.145729999450921, 44.471297999618393 ], [ -93.145892000020694, 44.47129900008013 ], [ -93.145729999478789, 44.471297000311615 ], [ -93.145729999450921, 44.471297999618393 ] ], [ [ -93.135771999664328, 44.471298000017129 ], [ -93.119513999698782, 44.471367000217633 ], [ -93.113998000416146, 44.471531000049481 ], [ -93.135771999664328, 44.471298000017129 ] ], [ [ -93.105979999519832, 44.471539000201282 ], [ -93.103105999573046, 44.471635000191327 ], [ -93.107332000233228, 44.471599999932778 ], [ -93.105979999519832, 44.471539000201282 ] ], [ [ -93.090682999764169, 44.47170999958518 ], [ -93.088898000363741, 44.471737000375953 ], [ -93.092750999644309, 44.471703000357692 ], [ -93.090682999764169, 44.47170999958518 ] ], [ [ -93.06116500013114, 44.47179399964061 ], [ -93.057404999492661, 44.471906000131426 ], [ -93.069559999787188, 44.471854000141583 ], [ -93.06116500013114, 44.47179399964061 ] ], [ [ -92.964487000513131, 44.514613000179217 ], [ -92.964487009320607, 44.514613000181946 ], [ -92.964501999652811, 44.51461300034051 ], [ -92.964487000513131, 44.514613000179217 ] ], [ [ -92.918784000265561, 44.518068000127556 ], [ -92.918796000249273, 44.518339999718016 ], [ -92.918763999787899, 44.517597999563407 ], [ -92.918784000265561, 44.518068000127556 ] ], [ [ -92.918977999498082, 44.532908000274908 ], [ -92.918977000460075, 44.543247999865478 ], [ -92.918995000443317, 44.543248000029358 ], [ -92.918977999498082, 44.532908000274908 ] ], [ [ -92.792699999899725, 44.543205999983385 ], [ -92.792713000354226, 44.543235999699277 ], [ -92.792683000410335, 44.543166000066464 ], [ -92.792699999899725, 44.543205999983385 ] ] ], [ [ [ -93.136859999733929, 44.627008999899125 ], [ -93.139391999450325, 44.630692000066865 ], [ -93.134200999863424, 44.626997000405801 ], [ -93.136859999733929, 44.627008999899125 ] ] ], [ [ [ -93.131156000421413, 44.630654000238223 ], [ -93.130253000050388, 44.628657999881959 ], [ -93.131712000011987, 44.628664999657275 ], [ -93.131156000421413, 44.630654000238223 ] ] ], [ [ [ -93.126648999858276, 44.630633000415223 ], [ -93.128067999563243, 44.629130999891188 ], [ -93.128069999532457, 44.630639000440375 ], [ -93.126648999858276, 44.630633000415223 ] ] ] ] } },
{ "type": "Feature", "properties": { "district_id": 6, "voting_age_pop": 509419, "lib_votes": 0, "grn_votes": 0, "con_votes": 0, "ref_votes": 0, "total_pop": 673740, "dem_votes_sum": 222627, "rep_votes_sum": 176598, "lib_votes_sum": 0, "grn_votes_sum": 0, "con_votes_sum": 0, "ref_votes_sum": 0, "minority_pop_sum": 191455, "dem_pct": 0.55764794288934816, "rep_pct": 0.4423520571106519, "lib_pct": 0.0, "grn_pct": 0.0, "con_pct": 0.0, "ref_pct": 0.0, "minority_pct": 0.28416748300531364, "compactness": 0.17635285771784195 }, "geometry": { "type": "MultiPolygon", "coordinates": [ [ [ [ -93.490279999465201, 44.717661999672856 ], [ -93.626735000367191, 44.718461999920642 ], [ -93.628935000193351, 44.732862000155706 ], [ -93.648270000181739, 44.732861999912181 ], [ -93.663602999995632, 44.73265800025947 ], [ -93.663799999701212, 44.71796000020209 ], [ -93.888635999972109, 44.717044000372695 ], [ -93.887915999776681, 44.884883999672446 ], [ -93.705438999688241, 44.89066199972558 ], [ -93.711442000594772, 44.945844000330553 ], [ -93.696399999704099, 44.964032999676 ], [ -93.726854000191821, 44.977933000105274 ], [ -93.640419000125505, 44.982271000411949 ], [ -93.604374999415043, 44.941957000330078 ], [ -93.59380200023547, 44.948714000020679 ], [ -93.542923000561899, 44.942252000030507 ], [ -93.558285999753679, 44.923761000108584 ], [ -93.533330000167226, 44.90997699961175 ], [ -93.51816000000359, 44.925943000368861 ], [ -93.481938999631254, 44.935809999758867 ], [ -93.472494999422608, 44.937052999718297 ], [ -93.472999000091548, 44.921137999886007 ], [ -93.453919999430752, 44.927426999600421 ], [ -93.460428999618514, 44.971119000076015 ], [ -93.420590999486649, 44.970976000272231 ], [ -93.405739999748903, 44.938692999659409 ], [ -93.357528999692917, 44.949521999680947 ], [ -93.354734000312959, 44.928768000056493 ], [ -93.348104999414446, 44.940847000355788 ], [ -93.310045999739216, 44.95047099960631 ], [ -93.304012999553379, 44.937702999736331 ], [ -93.274675999599864, 44.930515000141192 ], [ -93.274922999720161, 44.903563000448777 ], [ -93.262657999995767, 44.903410999960485 ], [ -93.262524000103269, 44.925137999842597 ], [ -93.199789000292256, 44.92703300013423 ], [ -93.192081000243491, 44.897294999567194 ], [ -93.159565999948128, 44.879986000411648 ], [ -93.080527000193513, 44.87758499993749 ], [ -93.085099000479417, 44.861843000300283 ], [ -93.106121000580018, 44.861908999720718 ], [ -93.10612300006575, 44.84790299958533 ], [ -93.153345000041, 44.84803800021475 ], [ -93.17288799956556, 44.819053999630611 ], [ -93.211541999654401, 44.817383000050796 ], [ -93.192699999984498, 44.808499000245646 ], [ -93.221151999506176, 44.790240999955124 ], [ -93.221510000594051, 44.775850000344093 ], [ -93.186938999575261, 44.775672999596054 ], [ -93.187006999887046, 44.746487000106221 ], [ -93.156374999794338, 44.746394000024061 ], [ -93.156443000291318, 44.731922000442466 ], [ -93.202372000442693, 44.731909000202272 ], [ -93.197239999779399, 44.706977000004748 ], [ -93.209968000239058, 44.699940999999015 ], [ -93.217752999709546, 44.717410999673959 ], [ -93.242933000256087, 44.71813699981282 ], [ -93.316506999567792, 44.695883000211794 ], [ -93.328612000255916, 44.739311999563078 ], [ -93.355609999500103, 44.729229000093021 ], [ -93.355541999722803, 44.741881999742063 ], [ -93.392792999670448, 44.741194000359854 ], [ -93.436695000315694, 44.719290999966077 ], [ -93.439377999721529, 44.746795000435512 ], [ -93.399017000545726, 44.746551999932883 ], [ -93.399045000230728, 44.753530000432384 ], [ -93.439564999738309, 44.757683000438348 ], [ -93.464504000123512, 44.77557499994699 ], [ -93.459428999585299, 44.753462999870642 ], [ -93.479684999828862, 44.753718999629065 ], [ -93.490279999465201, 44.717661999672856 ] ], [ [ -93.382975000510285, 44.790761999840484 ], [ -93.382795000333147, 44.79029800043299 ], [ -93.383359000226307, 44.791861999737051 ], [ -93.382975000510285, 44.790761999840484 ] ], [ [ -93.363729000280301, 44.788934999647445 ], [ -93.36356799966255, 44.788909999895615 ], [ -93.364011000236331, 44.788983999791647 ], [ -93.363729000280301, 44.788934999647445 ] ], [ [ -93.567164999934192, 44.891063000006866 ], [ -93.566227000215846, 44.891062999574245 ], [ -93.566779324213726, 44.891063000897717 ], [ -93.567164999934192, 44.891063000006866 ] ], [ [ -93.567442000281645, 44.89106300041994 ], [ -93.568183982862649, 44.891063001248313 ], [ -93.568689999958693, 44.891062999556809 ], [ -93.567442000281645, 44.89106300041994 ] ], [ [ -93.481983000407908, 44.805783000097371 ], [ -93.481199000603709, 44.80457700023203 ], [ -93.481983000021714, 44.805783738446451 ], [ -93.481983000407908, 44.805783000097371 ] ], [ [ -93.448297000362203, 44.803874000424486 ], [ -93.448822000492115, 44.803743000270714 ], [ -93.448643999710512, 44.803774000297047 ], [ -93.448297000362203, 44.803874000424486 ] ], [ [ -93.445957999537796, 44.804550000300104 ], [ -93.445887000051997, 44.8046110002945 ], [ -93.446297999383788, 44.804451999832324 ], [ -93.445957999537796, 44.804550000300104 ] ], [ [ -93.444299999642709, 44.805390000111885 ], [ -93.444497999390435, 44.805300999658819 ], [ -93.444660000033039, 44.805207999804097 ], [ -93.444299999642709, 44.805390000111885 ] ], [ [ -93.440582671217257, 44.812398312951046 ], [ -93.440901000239677, 44.812125999629544 ], [ -93.440312999524267, 44.81262899965958 ], [ -93.440582671217257, 44.812398312951046 ] ], [ [ -93.400426999451298, 44.800133999997961 ], [ -93.399550000523661, 44.799382999660473 ], [ -93.401053999383819, 44.800826999745063 ], [ -93.400426999451298, 44.800133999997961 ] ], [ [ -93.703456000198585, 44.890830999816508 ], [ -93.702689000455308, 44.890907000436009 ], [ -93.703083349924199, 44.890867925739677 ], [ -93.703456000198585, 44.890830999816508 ] ], [ [ -93.662373226160284, 44.891317999325061 ], [ -93.662383999487957, 44.891318999986055 ], [ -93.66233848464978, 44.89131477125423 ], [ -93.662373226160284, 44.891317999325061 ] ], [ [ -93.652491999495865, 44.890963999999613 ], [ -93.64503700049211, 44.891062000202055 ], [ -93.645479024013639, 44.891056203419161 ], [ -93.652491999495865, 44.890963999999613 ] ], [ [ -93.595147501806395, 44.905983443468251 ], [ -93.595034000090635, 44.905884000267449 ], [ -93.595033995571114, 44.90588399673242 ], [ -93.595147501806395, 44.905983443468251 ] ], [ [ -93.608070000088517, 44.891362000266902 ], [ -93.606708000432945, 44.891362000156803 ], [ -93.60817700058908, 44.891362000322815 ], [ -93.608070000088517, 44.891362000266902 ] ], [ [ -93.598404071435141, 44.924175946214262 ], [ -93.598403999764642, 44.92417599970188 ], [ -93.598499421580954, 44.924116326707214 ], [ -93.598404071435141, 44.924175946214262 ] ], [ [ -93.520831000599571, 44.827803000332267 ], [ -93.520830999859868, 44.827571000215315 ], [ -93.520830999924712, 44.82790616187183 ], [ -93.520831000599571, 44.827803000332267 ] ], [ [ -93.520830999943499, 44.828003318741857 ], [ -93.52083100017731, 44.829211999703091 ], [ -93.520831000226764, 44.828078000336383 ], [ -93.520830999943499, 44.828003318741857 ] ], [ [ -93.523713999894369, 44.891344000089461 ], [ -93.523345999559865, 44.891460000208589 ], [ -93.523853999649901, 44.891300000289398 ], [ -93.523713999894369, 44.891344000089461 ] ], [ [ -93.549669000356971, 44.880994000286407 ], [ -93.549679593570161, 44.880646453320935 ], [ -93.549690000330358, 44.880304999861742 ], [ -93.549669000356971, 44.880994000286407 ] ], [ [ -93.351860000404088, 44.789963999814546 ], [ -93.351915879692314, 44.789903261348037 ], [ -93.351856999770618, 44.789966999609391 ], [ -93.351860000404088, 44.789963999814546 ] ], [ [ -93.252689999584774, 44.811173000174279 ], [ -93.255559431986853, 44.810564378070545 ], [ -93.261359000201708, 44.80933399982198 ], [ -93.252689999584774, 44.811173000174279 ] ], [ [ -93.234923999438806, 44.824595999684171 ], [ -93.235131999899679, 44.824449000443551 ], [ -93.236277999519359, 44.823248999864077 ], [ -93.234923999438806, 44.824595999684171 ] ], [ [ -93.232581000593655, 44.826367999675078 ], [ -93.231508000526716, 44.827059000308338 ], [ -93.230896999547596, 44.827464999557975 ], [ -93.232581000593655, 44.826367999675078 ] ], [ [ -93.227464999459031, 44.829071000291464 ], [ -93.2297940003306, 44.827995999913448 ], [ -93.230896999547596, 44.827464999557975 ], [ -93.227464999459031, 44.829071000291464 ] ], [ [ -93.224262000633246, 44.829979000218295 ], [ -93.220529000238372, 44.831037999599374 ], [ -93.227464999459031, 44.829071000291464 ], [ -93.224262000633246, 44.829979000218295 ] ], [ [ -93.220351999391823, 44.831192999839082 ], [ -93.219393000514955, 44.832033999970776 ], [ -93.220529000238372, 44.831037999599374 ], [ -93.220351999391823, 44.831192999839082 ] ], [ [ -93.232188000424912, 44.82678100023071 ], [ -93.232196999463511, 44.826774999972329 ], [ -93.23206500055268, 44.826709000368147 ], [ -93.232188000424912, 44.82678100023071 ] ], [ [ -93.248284000219755, 44.729503000440879 ], [ -93.248283863993734, 44.72950303854693 ], [ -93.248280401435181, 44.730182054890669 ], [ -93.248284000219755, 44.729503000440879 ] ], [ [ -93.248304016828186, 44.725553876785639 ], [ -93.248328999851395, 44.720685999832298 ], [ -93.2483396082512, 44.718539245273639 ], [ -93.248304016828186, 44.725553876785639 ] ], [ [ -93.29078077858837, 44.799906178221704 ], [ -93.294106000155963, 44.799007000356525 ], [ -93.289952999471609, 44.800129999974629 ], [ -93.29078077858837, 44.799906178221704 ] ], [ [ -93.329614000092533, 44.791071000181219 ], [ -93.327312000301603, 44.79219700005612 ], [ -93.329630999680418, 44.790621000314687 ], [ -93.329614000092533, 44.791071000181219 ] ], [ [ -93.329641999481112, 44.790254999791522 ], [ -93.329655000050607, 44.784873999672939 ], [ -93.32966600033312, 44.779505000284644 ], [ -93.329641999481112, 44.790254999791522 ] ], [ [ -93.329666000272098, 44.779482999625543 ], [ -93.329666999792678, 44.778643999973021 ], [ -93.32966600033312, 44.779505000284644 ], [ -93.329666000272098, 44.779482999625543 ] ], [ [ -93.329666999792678, 44.778643999973021 ], [ -93.329668000315849, 44.7784420004092 ], [ -93.329668000366183, 44.778212999596597 ], [ -93.329666999792678, 44.778643999973021 ] ], [ [ -93.328711000501528, 44.775760999606483 ], [ -93.32871200024826, 44.775272000024366 ], [ -93.328710999408656, 44.775761024725533 ], [ -93.328711000501528, 44.775760999606483 ] ], [ [ -93.274058999636324, 44.80674000041622 ], [ -93.27610599943921, 44.806570999714779 ], [ -93.272139999508227, 44.806923000040598 ], [ -93.274058999636324, 44.80674000041622 ] ], [ [ -93.247640999460586, 44.731954999768512 ], [ -93.247641016770871, 44.731954999795981 ], [ -93.244216000250347, 44.731939999647118 ], [ -93.247640999460586, 44.731954999768512 ] ], [ [ -93.23820600067117, 44.731915999442037 ], [ -93.23420900005037, 44.731906999656395 ], [ -93.244216000250347, 44.731939999647118 ], [ -93.23820600067117, 44.731915999442037 ] ], [ [ -93.228024000507517, 44.73189700017808 ], [ -93.229511000361398, 44.731897999727877 ], [ -93.227559999680253, 44.731896000045651 ], [ -93.228024000507517, 44.73189700017808 ] ], [ [ -93.240994000809152, 44.718284999943656 ], [ -93.240993999546532, 44.718284999946327 ], [ -93.240885751763358, 44.718308851258854 ], [ -93.240994000809152, 44.718284999943656 ] ], [ [ -93.240265999720606, 44.718494000668947 ], [ -93.240265999716883, 44.718493999768704 ], [ -93.239892999497485, 44.718684000212036 ], [ -93.240265999720606, 44.718494000668947 ] ], [ [ -93.238713999837344, 44.71980700018414 ], [ -93.238233000097026, 44.720825000363135 ], [ -93.238911000301485, 44.719523000091598 ], [ -93.238713999837344, 44.71980700018414 ] ], [ [ -93.238190000120838, 44.725138000562623 ], [ -93.238190000117143, 44.725137999662394 ], [ -93.23688199967161, 44.725136000183504 ], [ -93.238190000120838, 44.725138000562623 ] ], [ [ -93.227487999795827, 44.725956000478753 ], [ -93.227487999792288, 44.725955999578531 ], [ -93.226835000593724, 44.726285999772784 ], [ -93.227487999795827, 44.725956000478753 ] ], [ [ -93.222682000847371, 44.729034999935386 ], [ -93.222681999584537, 44.729034999937859 ], [ -93.222680000053799, 44.729939999737731 ], [ -93.222682000847371, 44.729034999935386 ] ], [ [ -93.221100999812435, 44.838503999878931 ], [ -93.221087000160324, 44.838512000214052 ], [ -93.221146999643437, 44.838487000215174 ], [ -93.221100999812435, 44.838503999878931 ] ], [ [ -93.210975999738096, 44.840253999551884 ], [ -93.210913000064693, 44.840323999835121 ], [ -93.2114320001278, 44.839840000312599 ], [ -93.210975999738096, 44.840253999551884 ] ], [ [ -93.205640000209328, 44.84828000005627 ], [ -93.203246999642175, 44.852646000365482 ], [ -93.205797000321397, 44.847994000171596 ], [ -93.205640000209328, 44.84828000005627 ] ], [ [ -93.202901999794619, 44.853035000301794 ], [ -93.202774227944033, 44.853179734466565 ], [ -93.203246999642175, 44.852646000365482 ], [ -93.202901999794619, 44.853035000301794 ] ], [ [ -93.202757999436074, 44.853197999782495 ], [ -93.202737111787812, 44.853221636423356 ], [ -93.202771857062146, 44.853182411053645 ], [ -93.202757999436074, 44.853197999782495 ] ], [ [ -93.20195422311221, 44.854105061074492 ], [ -93.202518000187908, 44.853468999907903 ], [ -93.202344000227427, 44.853664999947497 ], [ -93.20195422311221, 44.854105061074492 ] ], [ [ -93.198554999483662, 44.857881999578815 ], [ -93.198505397357977, 44.857936948541976 ], [ -93.198565960021824, 44.857869955180931 ], [ -93.198554999483662, 44.857881999578815 ] ], [ [ -93.197977999890014, 44.858786999981497 ], [ -93.198299999441659, 44.858164000221947 ], [ -93.197968000337795, 44.858799000077731 ], [ -93.197977999890014, 44.858786999981497 ] ], [ [ -93.183380000180577, 44.88592099955013 ], [ -93.183388999376902, 44.885954000328667 ], [ -93.183387999429115, 44.885935000286061 ], [ -93.183380000180577, 44.88592099955013 ] ], [ [ -93.181879000349113, 44.88767999969739 ], [ -93.181914000488391, 44.887651999618996 ], [ -93.181652648685684, 44.887748905940889 ], [ -93.181879000349113, 44.88767999969739 ] ], [ [ -93.179386000330155, 44.888295000160056 ], [ -93.179383000507087, 44.888293000103445 ], [ -93.179314408662904, 44.888301737784047 ], [ -93.179386000330155, 44.888295000160056 ] ] ], [ [ [ -93.878622999868199, 44.88744399971273 ], [ -93.881080000331096, 44.891221000432878 ], [ -93.87857400054051, 44.891216999595237 ], [ -93.878622999868199, 44.88744399971273 ] ] ] ] } },
{ "type": "Feature", "properties": { "district_id": 7, "voting_age_pop": 525103, "lib_votes": 0, "grn_votes": 0, "con_votes": 0, "ref_votes": 0, "total_pop": 677415, "dem_votes_sum": 249708, "rep_votes_sum": 114366, "lib_votes_sum": 0, "grn_votes_sum": 0, "con_votes_sum": 0, "ref_votes_sum": 0, "minority_pop_sum": 369990, "dem_pct": 0.68587155358526009, "rep_pct": 0.31412844641473986, "lib_pct": 0.0, "grn_pct": 0.0, "con_pct": 0.0, "ref_pct": 0.0, "minority_pct": 0.54617922543787778, "compactness": 0.13322054015545684 }, "geometry": { "type": "MultiPolygon", "coordinates": [ [ [ [ -93.420590999486649, 44.970976000272231 ], [ -93.460428999618514, 44.971119000076015 ], [ -93.457286000614928, 45.010938000447638 ], [ -93.492905999676481, 45.022095000305391 ], [ -93.522374999507079, 45.014337000371562 ], [ -93.522460999782808, 44.999759999763597 ], [ -93.645648999739237, 45.000286999814691 ], [ -93.645827999777353, 45.065559999902256 ], [ -93.765837839402835, 45.064510941036502 ], [ -93.761497000566578, 45.081751000079699 ], [ -93.7579529996855, 45.082815999912548 ], [ -93.756368999562696, 45.080422999993246 ], [ -93.755077000526683, 45.079932000178403 ], [ -93.750243000211, 45.079126000326823 ], [ -93.749763000255456, 45.081847999802555 ], [ -93.777117999823105, 45.096914000411623 ], [ -93.758054999660573, 45.093049999677078 ], [ -93.758092000240609, 45.101273999574623 ], [ -93.750803999499681, 45.094276000385037 ], [ -93.745951000535882, 45.104879999879195 ], [ -93.72717900019488, 45.105017000178222 ], [ -93.681240999607283, 45.151263000447493 ], [ -93.645864999583637, 45.145235999660308 ], [ -93.645962999603128, 45.109020999768923 ], [ -93.605128000305371, 45.10916099973835 ], [ -93.605240000217165, 45.120824999585665 ], [ -93.563784000359831, 45.105874000209035 ], [ -93.522226000017469, 45.116505999897392 ], [ -93.522230999794658, 45.209835999903937 ], [ -93.487769000158096, 45.209813000425456 ], [ -93.487485000156951, 45.181234999786206 ], [ -93.462258999760095, 45.180984999767126 ], [ -93.461905000625663, 45.152324999855836 ], [ -93.42163799947059, 45.152288000148786 ], [ -93.416546999817669, 45.180825999911029 ], [ -93.39192699976698, 45.173428999919047 ], [ -93.380189000497182, 45.140206999647631 ], [ -93.325486000487487, 45.144817999548643 ], [ -93.331052999652073, 45.116077999744306 ], [ -93.291671000274206, 45.097007000144195 ], [ -93.280825013975019, 45.071669506369211 ], [ -93.277870000389356, 45.090201999939232 ], [ -93.258045000484785, 45.078905000397029 ], [ -93.243504000105759, 45.086052999799577 ], [ -93.247806999748235, 45.10778200008221 ], [ -93.188564000048018, 45.107946000045239 ], [ -93.18732200008867, 45.086310000374674 ], [ -93.198418999656326, 45.086313000363937 ], [ -93.198524999874323, 45.092707999636517 ], [ -93.202777000607767, 45.092795000324855 ], [ -93.205588000527925, 45.078388000137394 ], [ -93.247787000330973, 45.07040400044049 ], [ -93.227012000108104, 45.052711999667252 ], [ -93.226867000621183, 45.018922000239002 ], [ -93.247336999787194, 45.013159000429091 ], [ -93.207634000549263, 45.006131000128697 ], [ -93.207801999778738, 45.020583999845563 ], [ -93.177144999540346, 45.021304000304298 ], [ -93.167043000601723, 44.970267999964719 ], [ -93.207677999635209, 44.975739999776707 ], [ -93.20777000015859, 44.959664000078412 ], [ -93.177167999466519, 44.948405999871433 ], [ -93.234696000592493, 44.953711000076567 ], [ -93.233605000438374, 44.941352000078297 ], [ -93.242693999757307, 44.951961999926233 ], [ -93.262657999995767, 44.903410999960485 ], [ -93.274922999720161, 44.903563000448777 ], [ -93.274675999599864, 44.930515000141192 ], [ -93.304012999553379, 44.937702999736331 ], [ -93.309401000088897, 44.950298000115836 ], [ -93.348104999414446, 44.940847000355788 ], [ -93.354734000312959, 44.928768000056493 ], [ -93.357528999692917, 44.949521999680947 ], [ -93.405739999748903, 44.938692999659409 ], [ -93.420590999486649, 44.970976000272231 ] ], [ [ -93.360061254173502, 45.018235025256971 ], [ -93.360061205184451, 45.018235025199061 ], [ -93.360065000421855, 45.025567000391504 ], [ -93.360061254173502, 45.018235025256971 ] ], [ [ -93.72904199962214, 45.089843000302508 ], [ -93.7290340002059, 45.089852000044161 ], [ -93.729028999830049, 45.089861000444344 ], [ -93.72904199962214, 45.089843000302508 ] ], [ [ -93.729646000563235, 45.097330999562921 ], [ -93.737777000349013, 45.101291999661449 ], [ -93.73776900033107, 45.099562000355405 ], [ -93.729646000563235, 45.097330999562921 ] ], [ [ -93.73778300027152, 45.102995999868909 ], [ -93.735873999500498, 45.102313000427102 ], [ -93.735890999952446, 45.103020000308824 ], [ -93.73778300027152, 45.102995999868909 ] ], [ [ -93.751469999584941, 45.093148999834767 ], [ -93.752336999381654, 45.093194999555251 ], [ -93.75147000008478, 45.092871999723052 ], [ -93.751469999584941, 45.093148999834767 ] ], [ [ -93.280826000315017, 45.071665000041371 ], [ -93.280825486361522, 45.071667348159636 ], [ -93.281443999802491, 45.070606999692529 ], [ -93.280826000315017, 45.071665000041371 ] ], [ [ -93.263121799011458, 45.035543376113608 ], [ -93.261087999765138, 45.035543999935513 ], [ -93.262496999621064, 45.03554500010133 ], [ -93.263121799011458, 45.035543376113608 ] ], [ [ -93.207639999460696, 44.981164999892655 ], [ -93.207620999796191, 44.984904999676736 ], [ -93.20764700008435, 44.980513999819777 ], [ -93.207639999460696, 44.981164999892655 ] ], [ [ -93.229188999665666, 45.035659000158695 ], [ -93.228320674914244, 45.03566599379657 ], [ -93.228320278285025, 45.035665997402397 ], [ -93.229188999665666, 45.035659000158695 ] ] ], [ [ [ -93.766337000363848, 45.101463000091705 ], [ -93.758546999882867, 45.105074000023279 ], [ -93.758092000240609, 45.101273999574623 ], [ -93.766337000363848, 45.101463000091705 ] ] ] ] } }
]
}
