{
"type": "FeatureCollection",
"name": "minnesota_optimized_districts_all",
"crs": { "type": "name", "properties": { "name": "urn:ogc:def:crs:OGC:1.3:CRS84" } },
"features": [
{ "type": "Feature", "properties": { "opt_all": 1, "population": 718562.0, "voting_age_pop": 546436.0, "dem_votes": 176867.0, "rep_votes": 160854.0, "minority_pop": 93152.0, "dem_pct": 0.52370743882562609, "rep_pct": 0.47629256087827154 }, "geometry": { "type": "Polygon", "coordinates": [ [ [ -93.28269200000264, 44.258388000001872 ], [ -93.282741000001636, 44.261646000002443 ], [ -93.242430000001633, 44.268867000002025 ], [ -93.237369000001834, 44.283404000002392 ], [ -93.16184200000238, 44.283566000001855 ], [ -93.161097000002158, 44.370409000002567 ], [ -93.160728000002237, 44.431411000002591 ], [ -93.160741000001678, 44.433635000002425 ], [ -93.190895000002556, 44.431628000002227 ], [ -93.201968000001955, 44.435443000002351 ], [ -93.199491000002723, 44.437823000002062 ], [ -93.188404000001839, 44.456839000002176 ], [ -93.176094000002664, 44.460514000001851 ], [ -93.161507000002103, 44.460514000002384 ], [ -93.152485000002642, 44.471358000002667 ], [ -93.156608000001754, 44.471343000002051 ], [ -93.159731000002338, 44.471330000001963 ], [ -93.160576000002678, 44.471329000002257 ], [ -93.166101000001916, 44.471343000002591 ], [ -93.18085500000214, 44.471310000002291 ], [ -93.221305000002445, 44.471387000002117 ], [ -93.281686000001955, 44.471998000001982 ], [ -93.281521000002499, 44.543957000002138 ], [ -93.278473000001696, 44.543957000002365 ], [ -93.278169000002379, 44.63075100000264 ], [ -93.318707000002647, 44.630578000002608 ], [ -93.318556000002019, 44.652091000002123 ], [ -93.31835300000192, 44.681362000002345 ], [ -93.318212000001765, 44.702739000001962 ], [ -93.318157000002202, 44.717536000002099 ], [ -93.298165000001561, 44.71749000000203 ], [ -93.282732000002156, 44.717447000002231 ], [ -93.250610000002624, 44.717423000002007 ], [ -93.248338000001539, 44.717453000002031 ], [ -93.248271000002703, 44.731955000001903 ], [ -93.247314000001836, 44.754412000002304 ], [ -93.248019000001676, 44.759452000001815 ], [ -93.237884000001642, 44.765612000002527 ], [ -93.222203000001898, 44.776032000002118 ], [ -93.224079000002519, 44.7760250000022 ], [ -93.227719000002281, 44.804831000001975 ], [ -93.227673000002582, 44.807773000002669 ], [ -93.227461000001739, 44.829086000002548 ], [ -93.197940000002319, 44.862000000001999 ], [ -93.175714000002003, 44.861958000002545 ], [ -93.129463000002204, 44.861912000002363 ], [ -93.106121000002446, 44.862000000002489 ], [ -93.105956000002223, 44.876390000002445 ], [ -93.105933000002437, 44.883385000002683 ], [ -93.095381000001581, 44.883353000002082 ], [ -93.070399000001942, 44.883579000002413 ], [ -93.065288000002084, 44.884726000002019 ], [ -93.065303000002515, 44.892768000002526 ], [ -93.065347000001594, 44.901550000002054 ], [ -93.065388000001619, 44.919527000001814 ], [ -93.051642000001664, 44.919502000002097 ], [ -93.036938000001697, 44.899999000001827 ], [ -93.020044000002116, 44.890750000001944 ], [ -93.016044000002097, 44.883133000002502 ], [ -93.011531000001483, 44.866928000002083 ], [ -93.008564000001726, 44.855157000002237 ], [ -93.01003200000244, 44.845989000002142 ], [ -93.011791000002674, 44.837379000002691 ], [ -93.005709000002241, 44.818180000002293 ], [ -93.021395000001519, 44.789707000001968 ], [ -93.01596100000144, 44.775564000002326 ], [ -92.974799000001681, 44.772315000002109 ], [ -92.925359000002317, 44.780784000002107 ], [ -92.882559000001464, 44.774107000002225 ], [ -92.866618000002447, 44.760284000001832 ], [ -92.883772000001457, 44.754694000001933 ], [ -92.894122000002, 44.738427000002034 ], [ -92.897358000002242, 44.731261000002114 ], [ -92.893436000001898, 44.716785000002403 ], [ -92.888472000002281, 44.7167790000019 ], [ -92.883467000002398, 44.716783000002337 ], [ -92.873401000001621, 44.712988000002291 ], [ -92.853067000001502, 44.7095520000018 ], [ -92.817084000002041, 44.716712000002104 ], [ -92.812624000001762, 44.716725000002619 ], [ -92.812634000002674, 44.747252000002149 ], [ -92.802017000001925, 44.745673000002249 ], [ -92.732043000001525, 44.714345000002453 ], [ -92.672026000002674, 44.669206000002099 ], [ -92.621847000001765, 44.639018000002622 ], [ -92.62253700000268, 44.616054000002521 ], [ -92.588376000002484, 44.601229000002718 ], [ -92.568946000001759, 44.603372000002629 ], [ -92.544014000002221, 44.566937000001843 ], [ -92.538775000002403, 44.567960000002522 ], [ -92.518700000001715, 44.57522800000249 ], [ -92.49187800000206, 44.566005000002569 ], [ -92.482218000001964, 44.56852000000201 ], [ -92.436486000001963, 44.552884000002173 ], [ -92.415675000001485, 44.560506000002448 ], [ -92.347567000001561, 44.5571490000019 ], [ -92.317665000001597, 44.54280200000197 ], [ -92.302466000002397, 44.516487000002599 ], [ -92.298484000002119, 44.494621000002589 ], [ -92.282364000001465, 44.477707000002304 ], [ -92.242010000002281, 44.454254000002429 ], [ -92.21516300000188, 44.438503000001887 ], [ -92.189295000001707, 44.432533000002223 ], [ -92.123679000002099, 44.421840000001893 ], [ -92.112885000001597, 44.414572000002153 ], [ -92.061637000001696, 44.404124000002007 ], [ -92.045752000002523, 44.394089000002367 ], [ -92.021910000002507, 44.382105000002745 ], [ -91.970226000002285, 44.365821000001887 ], [ -91.928224000002047, 44.335473000002139 ], [ -91.914360000001778, 44.308230000002119 ], [ -91.92487900000252, 44.295730000002621 ], [ -91.902434000002344, 44.279724000002453 ], [ -91.887189000002607, 44.252513000002089 ], [ -91.8929630000016, 44.235149000002139 ], [ -91.876412000002105, 44.207787000002469 ], [ -91.858245000002313, 44.193004000002077 ], [ -91.838782000002524, 44.182471000002671 ], [ -91.817302000002641, 44.164235000002648 ], [ -91.751747000001757, 44.134786000001945 ], [ -91.719723000002006, 44.129233000002138 ], [ -91.707491000001639, 44.103906000002667 ], [ -91.681530000001644, 44.097400000001905 ], [ -91.646446000001916, 44.063337000002768 ], [ -91.637056000002033, 44.062821000002458 ], [ -91.622277000002541, 44.053708000002437 ], [ -91.617039000001839, 44.052151000002773 ], [ -91.599759000002379, 44.037859000002207 ], [ -91.582604000002561, 44.027381000002592 ], [ -91.507121000001604, 44.018980000002365 ], [ -91.48025000000186, 44.00805200000201 ], [ -91.440541000002639, 44.001518000002406 ], [ -91.406011000001584, 43.963929000002217 ], [ -91.364321000001922, 43.93345100000257 ], [ -91.343520000002002, 43.904743000002668 ], [ -91.315310000001674, 43.881808000002408 ], [ -91.311266000001396, 43.867832000002785 ], [ -91.284138000002599, 43.847065000002502 ], [ -91.259736000001823, 43.789466000002108 ], [ -91.244135000002643, 43.774667000002637 ], [ -91.255367000001741, 43.731419000002376 ], [ -91.268455000001566, 43.709824000001959 ], [ -91.271749000002217, 43.654929000002312 ], [ -91.262880000002383, 43.64475400000277 ], [ -91.268748000002475, 43.615348000002243 ], [ -91.232707000002407, 43.583533000002809 ], [ -91.231750000002037, 43.572693000002609 ], [ -91.243820000001662, 43.549130000002314 ], [ -91.217706000001485, 43.500550000002299 ], [ -91.37178600000226, 43.50083700000252 ], [ -91.465054000001516, 43.500658000002652 ], [ -91.465488000001756, 43.50068700000201 ], [ -91.491040000001519, 43.500714000002745 ], [ -91.610835000002353, 43.500657000002313 ], [ -91.730217000002256, 43.500806000002527 ], [ -91.849700000001647, 43.500740000002622 ], [ -91.969679000002358, 43.500655000002141 ], [ -92.089478000002245, 43.500683000002326 ], [ -92.208954000001484, 43.500518000002373 ], [ -92.329374000001593, 43.500553000002554 ], [ -92.448948000002247, 43.500459000001953 ], [ -92.568899000002673, 43.500263000002739 ], [ -92.688718000001558, 43.500102000001917 ], [ -92.808627000001522, 43.499953000002513 ], [ -92.929627000001801, 43.499805000002667 ], [ -92.949364000002205, 43.499815000002634 ], [ -93.049192000001824, 43.499705000002272 ], [ -93.049331000001843, 43.586809000001878 ], [ -93.0494100000016, 43.659833000002052 ], [ -93.049392000001504, 43.666605000002335 ], [ -93.049374000002416, 43.673786000002146 ], [ -93.04945200000266, 43.76095900000194 ], [ -93.049524000001981, 43.848443000002042 ], [ -93.045966000002281, 43.848467000002287 ], [ -93.045588000001473, 43.85933600000218 ], [ -93.045394000001494, 43.877943000002197 ], [ -93.045336000001882, 43.935669000002314 ], [ -93.045696000001485, 44.022798000002446 ], [ -93.045690000002367, 44.109622000002027 ], [ -93.045689000002525, 44.109800000002366 ], [ -93.045910000002337, 44.196716000002567 ], [ -93.16228500000166, 44.196568000001875 ], [ -93.166218000001905, 44.196569000002413 ], [ -93.282622000001965, 44.196479000002292 ], [ -93.28269200000264, 44.258388000001872 ] ] ] } },
{ "type": "Feature", "properties": { "opt_all": 2, "population": 718372.0, "voting_age_pop": 543190.0, "dem_votes": 180078.0, "rep_votes": 134671.0, "minority_pop": 161005.0, "dem_pct": 0.57213207966597757, "rep_pct": 0.42786792001630891 }, "geometry": { "type": "Polygon", "coordinates": [ [ [ -93.767761000002096, 43.847956000002448 ], [ -93.768005000001693, 43.935011000002604 ], [ -93.768242000002004, 44.022120000002403 ], [ -93.768140000002262, 44.108921000002013 ], [ -93.767971000002476, 44.195836000002103 ], [ -93.768031000001841, 44.23938400000182 ], [ -93.871805000001913, 44.239431000002597 ], [ -93.888521000002157, 44.239424000001982 ], [ -93.924713000001915, 44.239831000002638 ], [ -93.92582600000236, 44.239825000001957 ], [ -93.929086000002115, 44.239819000002662 ], [ -93.930516000002683, 44.239747000002602 ], [ -93.959115000001844, 44.239434000002213 ], [ -94.011868000001755, 44.239520000002287 ], [ -94.013274000002156, 44.268469000002106 ], [ -93.984747000002599, 44.29740100000199 ], [ -93.984546000002723, 44.297498000002243 ], [ -93.969286000002, 44.305219000002658 ], [ -93.959783000001764, 44.307299000002082 ], [ -93.954776000002326, 44.31613800000234 ], [ -93.950627000002314, 44.322065000002574 ], [ -93.936180000002082, 44.350082000001954 ], [ -93.949434000001858, 44.355704000001843 ], [ -93.962375000001913, 44.369966000002414 ], [ -93.927825000002457, 44.453188000002569 ], [ -93.929550000001598, 44.456716000002096 ], [ -93.928422000002001, 44.458198000002454 ], [ -93.927034000001498, 44.46991600000203 ], [ -93.904684000002163, 44.481060000001975 ], [ -93.904011000002257, 44.487466000002144 ], [ -93.889606000002701, 44.503921000001974 ], [ -93.898646000001875, 44.528610000002608 ], [ -93.909322000001765, 44.537597000002371 ], [ -93.910405000002314, 44.543163000001996 ], [ -93.889664000002142, 44.596700000001988 ], [ -93.860515000002366, 44.606198000002443 ], [ -93.815516000002205, 44.632985000002542 ], [ -93.792433000001779, 44.630084000002206 ], [ -93.768039000002062, 44.640303000002497 ], [ -93.7473390000021, 44.645263000001911 ], [ -93.721270000002619, 44.662882000002313 ], [ -93.698273000001564, 44.669446000002552 ], [ -93.667961000002123, 44.695259000002522 ], [ -93.643764000002676, 44.692678000001891 ], [ -93.618141000001998, 44.707096000002167 ], [ -93.626735000002242, 44.718462000002134 ], [ -93.628909000001798, 44.732773000002439 ], [ -93.594234000001805, 44.776215000002622 ], [ -93.597894000001958, 44.782942000002009 ], [ -93.566079000002617, 44.79642400000224 ], [ -93.551183000002439, 44.797369000001837 ], [ -93.5204500000021, 44.805024000002248 ], [ -93.520679000001806, 44.816779000001915 ], [ -93.520831000002602, 44.827571000002401 ], [ -93.520927000001919, 44.847252000002463 ], [ -93.484862000001698, 44.851890000002584 ], [ -93.474547000002445, 44.861784000001784 ], [ -93.459586000002105, 44.862088000002608 ], [ -93.460201000001717, 44.855086000002238 ], [ -93.465782000002235, 44.834122000002289 ], [ -93.445425000001521, 44.828198000002537 ], [ -93.440705000002083, 44.832127000002451 ], [ -93.422277000001642, 44.827436000001882 ], [ -93.398395000001841, 44.808260000002015 ], [ -93.398410000002045, 44.818921000002547 ], [ -93.398645000002659, 44.836870000001966 ], [ -93.398577000002405, 44.849514000002323 ], [ -93.398782000002498, 44.859511000002627 ], [ -93.398773000001924, 44.862037000002033 ], [ -93.361315000001483, 44.862040000002601 ], [ -93.350174000001687, 44.862066000001938 ], [ -93.32893300000174, 44.861973000002514 ], [ -93.318828000002341, 44.861998000001989 ], [ -93.3187760000027, 44.872633000002217 ], [ -93.3187710000023, 44.879959000002486 ], [ -93.318825000001581, 44.890752000002138 ], [ -93.29596600000248, 44.890171000002141 ], [ -93.276824000001682, 44.89055400000192 ], [ -93.26783100000192, 44.890625000002323 ], [ -93.261689000001596, 44.890518000002402 ], [ -93.252899000001776, 44.89071700000212 ], [ -93.247363000002366, 44.897641000001855 ], [ -93.232380000001754, 44.8968690000018 ], [ -93.222961000001476, 44.897152000002073 ], [ -93.207596000001686, 44.905392000002401 ], [ -93.198449000002398, 44.905409000002585 ], [ -93.194042000002639, 44.905414000002089 ], [ -93.192689000002673, 44.904653000002511 ], [ -93.187394000001561, 44.908893000001861 ], [ -93.172100000002359, 44.901690000002446 ], [ -93.172113000001843, 44.904236000001873 ], [ -93.177199000001835, 44.912529000002273 ], [ -93.177199000001806, 44.917957000002382 ], [ -93.177199000001877, 44.919765000002052 ], [ -93.156832000001785, 44.919723000002428 ], [ -93.167025000001559, 44.926985000001928 ], [ -93.167025000001885, 44.930621000001999 ], [ -93.144931000002202, 44.930573000002539 ], [ -93.141287000002194, 44.930602000002509 ], [ -93.1447340000026, 44.926929000002517 ], [ -93.118805000001487, 44.927306000001842 ], [ -93.117488000002297, 44.923872000002078 ], [ -93.104254000002385, 44.933076000002337 ], [ -93.091683000001964, 44.942628000002344 ], [ -93.09281800000204, 44.943940000002158 ], [ -93.095242000002486, 44.946498000001782 ], [ -93.078903000002526, 44.955637000002433 ], [ -93.083326000002117, 44.959065000001971 ], [ -93.090456000001723, 44.963535000001997 ], [ -93.090944000001684, 44.963603000002671 ], [ -93.090923000001723, 44.966920000002375 ], [ -93.105927000001884, 44.976478000001848 ], [ -93.105921000001516, 44.977385000002336 ], [ -93.126354000002038, 44.977362000001989 ], [ -93.126166000002357, 44.987599000002348 ], [ -93.126099000001815, 44.991794000001875 ], [ -93.105878000001994, 44.991867000002074 ], [ -93.089372000002484, 44.991807000002581 ], [ -93.076208000001515, 44.991915000002649 ], [ -93.066099000002154, 44.991978000001779 ], [ -93.052036000001664, 44.992013000002174 ], [ -93.040578000001759, 44.992000000002641 ], [ -93.033767000002442, 44.991977000001988 ], [ -93.025222000002159, 44.99194900000257 ], [ -93.005064000002363, 44.991989000001951 ], [ -93.005099000001522, 44.981110000002445 ], [ -93.005100000001718, 44.980834000002666 ], [ -93.005110000002603, 44.977532000002441 ], [ -93.005113000002638, 44.96855900000245 ], [ -93.0050500000022, 44.963045000002509 ], [ -93.005030000001724, 44.95673300000233 ], [ -93.005043000001564, 44.950352000002518 ], [ -93.00503100000266, 44.948515000002089 ], [ -93.00482300000202, 44.932983000001826 ], [ -93.004816000002123, 44.91944300000192 ], [ -93.004424000002075, 44.890767000001993 ], [ -93.006773000001999, 44.890765000002297 ], [ -93.020044000002116, 44.890750000001944 ], [ -93.036938000001697, 44.899999000001827 ], [ -93.051642000001664, 44.919502000002097 ], [ -93.065388000001619, 44.919527000001814 ], [ -93.065347000001594, 44.901550000002054 ], [ -93.065303000002515, 44.892768000002526 ], [ -93.065288000002084, 44.884726000002019 ], [ -93.070399000001942, 44.883579000002413 ], [ -93.095381000001581, 44.883353000002082 ], [ -93.105933000002437, 44.883385000002683 ], [ -93.105956000002223, 44.876390000002445 ], [ -93.106121000002446, 44.862000000002489 ], [ -93.129463000002204, 44.861912000002363 ], [ -93.175714000002003, 44.861958000002545 ], [ -93.197940000002319, 44.862000000001999 ], [ -93.227461000001739, 44.829086000002548 ], [ -93.227673000002582, 44.807773000002669 ], [ -93.227719000002281, 44.804831000001975 ], [ -93.224079000002519, 44.7760250000022 ], [ -93.222203000001898, 44.776032000002118 ], [ -93.237884000001642, 44.765612000002527 ], [ -93.248019000001676, 44.759452000001815 ], [ -93.247314000001836, 44.754412000002304 ], [ -93.248271000002703, 44.731955000001903 ], [ -93.248338000001539, 44.717453000002031 ], [ -93.250610000002624, 44.717423000002007 ], [ -93.282732000002156, 44.717447000002231 ], [ -93.298165000001561, 44.71749000000203 ], [ -93.318157000002202, 44.717536000002099 ], [ -93.318212000001765, 44.702739000001962 ], [ -93.31835300000192, 44.681362000002345 ], [ -93.318556000002019, 44.652091000002123 ], [ -93.318707000002647, 44.630578000002608 ], [ -93.278169000002379, 44.63075100000264 ], [ -93.278473000001696, 44.543957000002365 ], [ -93.281521000002499, 44.543957000002138 ], [ -93.281686000001955, 44.471998000001982 ], [ -93.221305000002445, 44.471387000002117 ], [ -93.18085500000214, 44.471310000002291 ], [ -93.166101000001916, 44.471343000002591 ], [ -93.160576000002678, 44.471329000002257 ], [ -93.159731000002338, 44.471330000001963 ], [ -93.156608000001754, 44.471343000002051 ], [ -93.152485000002642, 44.471358000002667 ], [ -93.161507000002103, 44.460514000002384 ], [ -93.176094000002664, 44.460514000001851 ], [ -93.188404000001839, 44.456839000002176 ], [ -93.199491000002723, 44.437823000002062 ], [ -93.201968000001955, 44.435443000002351 ], [ -93.190895000002556, 44.431628000002227 ], [ -93.160741000001678, 44.433635000002425 ], [ -93.160728000002237, 44.431411000002591 ], [ -93.161097000002158, 44.370409000002567 ], [ -93.16184200000238, 44.283566000001855 ], [ -93.237369000001834, 44.283404000002392 ], [ -93.242430000001633, 44.268867000002025 ], [ -93.282741000001636, 44.261646000002443 ], [ -93.28269200000264, 44.258388000001872 ], [ -93.282622000001965, 44.196479000002292 ], [ -93.166218000001905, 44.196569000002413 ], [ -93.16228500000166, 44.196568000001875 ], [ -93.045910000002337, 44.196716000002567 ], [ -93.045689000002525, 44.109800000002366 ], [ -93.045690000002367, 44.109622000002027 ], [ -93.045696000001485, 44.022798000002446 ], [ -93.045336000001882, 43.935669000002314 ], [ -93.045394000001494, 43.877943000002197 ], [ -93.045588000001473, 43.85933600000218 ], [ -93.045966000002281, 43.848467000002287 ], [ -93.049524000001981, 43.848443000002042 ], [ -93.04945200000266, 43.76095900000194 ], [ -93.049374000002416, 43.673786000002146 ], [ -93.049392000001504, 43.666605000002335 ], [ -93.0494100000016, 43.659833000002052 ], [ -93.049331000001843, 43.586809000001878 ], [ -93.049192000001824, 43.499705000002272 ], [ -93.169173000002544, 43.499571000002298 ], [ -93.289043000001641, 43.499470000002518 ], [ -93.40861600000224, 43.499545000001973 ], [ -93.478697000002356, 43.499489000002058 ], [ -93.498425000001802, 43.49961300000183 ], [ -93.528483000001557, 43.499641000002256 ], [ -93.648533000001606, 43.499680000002101 ], [ -93.648422000002498, 43.586489000002722 ], [ -93.64841400000256, 43.673413000002064 ], [ -93.648303000002684, 43.760297000002659 ], [ -93.6483040000019, 43.760652000001869 ], [ -93.648290000001822, 43.848139000002661 ], [ -93.767761000002096, 43.847956000002448 ] ] ] } },
{ "type": "Feature", "properties": { "opt_all": 3, "population": 708870.0, "voting_age_pop": 541528.0, "dem_votes": 192735.0, "rep_votes": 142433.0, "minority_pop": 140801.0, "dem_pct": 0.57503997977878551, "rep_pct": 0.42496001992285659 }, "geometry": { "type": "Polygon", "coordinates": [ [ [ -93.52249100000158, 44.993496000001763 ], [ -93.522402000001634, 44.999774000002049 ], [ -93.645645000001835, 45.00045000000231 ], [ -93.645470000001964, 44.982273000001989 ], [ -93.645462000002567, 44.978645000002395 ], [ -93.726856000001916, 44.977952000002531 ], [ -93.767367000001727, 44.977964000002189 ], [ -93.766868000002461, 45.028162000002212 ], [ -93.76681300000206, 45.050023000002085 ], [ -93.765748000002418, 45.064476000001761 ], [ -93.761874000001782, 45.081244000002009 ], [ -93.737832000001845, 45.082702000001788 ], [ -93.729593000002566, 45.09744100000254 ], [ -93.726316000002313, 45.101305000002377 ], [ -93.724097000002615, 45.107704000002045 ], [ -93.699181000002284, 45.1373920000025 ], [ -93.696851000001516, 45.139436000002611 ], [ -93.681310000001673, 45.151250000002292 ], [ -93.676267000001687, 45.151044000002052 ], [ -93.638622000002258, 45.165620000002654 ], [ -93.638653000002563, 45.174161000002222 ], [ -93.630424000002023, 45.152557000001863 ], [ -93.563148000002499, 45.152782000002347 ], [ -93.521818000001645, 45.152911000001879 ], [ -93.521477000002136, 45.163475000001789 ], [ -93.522126000002118, 45.209836000002056 ], [ -93.522122000002085, 45.232279000002457 ], [ -93.519895000002634, 45.238265000002173 ], [ -93.514670000002127, 45.239925000001875 ], [ -93.519948000002358, 45.242279000001744 ], [ -93.522430000002444, 45.244371000002616 ], [ -93.521653000002644, 45.246618000001973 ], [ -93.512190000001581, 45.245683000002437 ], [ -93.512522000002036, 45.251440000002219 ], [ -93.510992000001863, 45.299346000002267 ], [ -93.51019700000154, 45.356112000001872 ], [ -93.509794000001961, 45.385613000001818 ], [ -93.510070000002443, 45.414798000001781 ], [ -93.347476000001919, 45.413558000002297 ], [ -93.342368000001656, 45.413577000002064 ], [ -93.321869000001755, 45.413651000001799 ], [ -93.306263000001437, 45.413695000002456 ], [ -93.265467000002445, 45.413698000002462 ], [ -93.142242000001474, 45.413645000002511 ], [ -93.019563000001796, 45.411770000002214 ], [ -93.018645000002081, 45.382738000001808 ], [ -93.018589000002521, 45.369462000002429 ], [ -93.019499000001659, 45.342127000001923 ], [ -93.019318000001761, 45.325746000002148 ], [ -93.142784000002038, 45.326362000001922 ], [ -93.142463000001996, 45.297330000002198 ], [ -93.142278000002477, 45.240022000002021 ], [ -93.142341000002276, 45.210951000001913 ], [ -93.162930000001964, 45.211159000002041 ], [ -93.229535000002556, 45.211432000002198 ], [ -93.234207000001675, 45.211441000002274 ], [ -93.265859000002607, 45.211519000002212 ], [ -93.265870000001684, 45.197117000001946 ], [ -93.265965000002396, 45.190918000002164 ], [ -93.266070000002117, 45.184963000002071 ], [ -93.266089000001713, 45.183466000002184 ], [ -93.26610100000164, 45.182494000002357 ], [ -93.266204000001764, 45.171547000002541 ], [ -93.266382000001755, 45.15821700000194 ], [ -93.266438000001983, 45.155817000002394 ], [ -93.266486000001834, 45.152801000002121 ], [ -93.266633000002287, 45.142386000002361 ], [ -93.266888000001657, 45.124603000002082 ], [ -93.264152000002554, 45.124553000001995 ], [ -93.256018000002527, 45.124527000001933 ], [ -93.235540000001606, 45.12456900000209 ], [ -93.227696000001444, 45.12453300000243 ], [ -93.213609000002435, 45.124451000002104 ], [ -93.21272700000236, 45.124451000002423 ], [ -93.198820000002101, 45.124396000002641 ], [ -93.188358000002083, 45.118927000002365 ], [ -93.188241000001923, 45.107950000002475 ], [ -93.187024000001657, 45.086316000002121 ], [ -93.198524000001498, 45.0926670000025 ], [ -93.203632000002159, 45.093566000002568 ], [ -93.227734000002698, 45.093217000002419 ], [ -93.227734000002599, 45.093178000002041 ], [ -93.22768200000192, 45.087744000002346 ], [ -93.227581000001805, 45.082352000002558 ], [ -93.227423000002617, 45.075140000002143 ], [ -93.227237000002162, 45.065027000002338 ], [ -93.227208000002278, 45.061619000001862 ], [ -93.236728000002159, 45.06155500000181 ], [ -93.247457000002242, 45.061632000002554 ], [ -93.257731000002195, 45.064451000002045 ], [ -93.262912000002004, 45.064445000002188 ], [ -93.267943000002376, 45.048181000002572 ], [ -93.272029000001723, 45.035503000002194 ], [ -93.283426000002279, 45.035365000001875 ], [ -93.282226000002439, 45.051165000001909 ], [ -93.299194000002046, 45.051136000001776 ], [ -93.314187000001496, 45.051239000001885 ], [ -93.319435000001647, 45.043968000002522 ], [ -93.323233000001593, 45.040448000001973 ], [ -93.318703000002486, 45.031342000001885 ], [ -93.318481000001796, 45.022282000002505 ], [ -93.318499000002703, 45.012869000002006 ], [ -93.318520000002479, 45.00604200000182 ], [ -93.318465000001723, 44.993415000001882 ], [ -93.318467000001704, 44.9915580000022 ], [ -93.318468000002113, 44.984051000002104 ], [ -93.318504000001923, 44.980747000002495 ], [ -93.328654000002118, 44.977142000001948 ], [ -93.328691000002038, 44.970020000002414 ], [ -93.328692000002476, 44.966484000001863 ], [ -93.328697000002606, 44.965038000002338 ], [ -93.32873100000198, 44.959332000001851 ], [ -93.32885000000212, 44.948483000002 ], [ -93.328850000001765, 44.948294000002562 ], [ -93.328826000001499, 44.945808000002522 ], [ -93.329139000001717, 44.940591000002399 ], [ -93.329041000002221, 44.932362000002165 ], [ -93.329056000002424, 44.930587000002085 ], [ -93.339295000002593, 44.919697000002508 ], [ -93.34959700000222, 44.920490000002566 ], [ -93.353868000002279, 44.920505000002223 ], [ -93.360659000001959, 44.920527000002238 ], [ -93.370636000002406, 44.920503000002107 ], [ -93.38557700000176, 44.935222000002248 ], [ -93.385675000002436, 44.935573000002037 ], [ -93.3966780000017, 44.935116000002296 ], [ -93.400617000001674, 44.938747000001783 ], [ -93.400619000001925, 44.943697000002501 ], [ -93.400420000001674, 44.950111000002423 ], [ -93.400710000002562, 44.954434000002387 ], [ -93.410466000001961, 44.978553000002108 ], [ -93.430893000001873, 44.978840000002421 ], [ -93.459972000002182, 44.978550000002578 ], [ -93.481542000002634, 44.978510000002117 ], [ -93.494402000002523, 44.978467000001856 ], [ -93.502235000002557, 44.982250000002232 ], [ -93.522544000001801, 44.981600000002238 ], [ -93.52249100000158, 44.993496000001763 ] ] ] } },
{ "type": "Feature", "properties": { "opt_all": 4, "population": 708296.0, "voting_age_pop": 542473.0, "dem_votes": 187297.0, "rep_votes": 159281.0, "minority_pop": 101166.0, "dem_pct": 0.54041802984020393, "rep_pct": 0.45958196987126071 }, "geometry": { "type": "Polygon", "coordinates": [ [ [ -93.247452000002241, 45.025694000001955 ], [ -93.247448000002194, 45.025787000002268 ], [ -93.226891000001714, 45.025917000001833 ], [ -93.2269290000024, 45.035671000002054 ], [ -93.227059000002598, 45.049937000002522 ], [ -93.227208000002278, 45.061619000001862 ], [ -93.227237000002162, 45.065027000002338 ], [ -93.227423000002617, 45.075140000002143 ], [ -93.227581000001805, 45.082352000002558 ], [ -93.22768200000192, 45.087744000002346 ], [ -93.227734000002599, 45.093178000002041 ], [ -93.227734000002698, 45.093217000002419 ], [ -93.203632000002159, 45.093566000002568 ], [ -93.198524000001498, 45.0926670000025 ], [ -93.187024000001657, 45.086316000002121 ], [ -93.188241000001923, 45.107950000002475 ], [ -93.188358000002083, 45.118927000002365 ], [ -93.198820000002101, 45.124396000002641 ], [ -93.21272700000236, 45.124451000002423 ], [ -93.213609000002435, 45.124451000002104 ], [ -93.227696000001444, 45.12453300000243 ], [ -93.235540000001606, 45.12456900000209 ], [ -93.256018000002527, 45.124527000001933 ], [ -93.264152000002554, 45.124553000001995 ], [ -93.266888000001657, 45.124603000002082 ], [ -93.266633000002287, 45.142386000002361 ], [ -93.266486000001834, 45.152801000002121 ], [ -93.266438000001983, 45.155817000002394 ], [ -93.266382000001755, 45.15821700000194 ], [ -93.266204000001764, 45.171547000002541 ], [ -93.26610100000164, 45.182494000002357 ], [ -93.266089000001713, 45.183466000002184 ], [ -93.266070000002117, 45.184963000002071 ], [ -93.265965000002396, 45.190918000002164 ], [ -93.265870000001684, 45.197117000001946 ], [ -93.265859000002607, 45.211519000002212 ], [ -93.234207000001675, 45.211441000002274 ], [ -93.229535000002556, 45.211432000002198 ], [ -93.162930000001964, 45.211159000002041 ], [ -93.142341000002276, 45.210951000001913 ], [ -93.142278000002477, 45.240022000002021 ], [ -93.142463000001996, 45.297330000002198 ], [ -93.142784000002038, 45.326362000001922 ], [ -93.019318000001761, 45.325746000002148 ], [ -93.019499000001659, 45.342127000001923 ], [ -93.018589000002521, 45.369462000002429 ], [ -93.018645000002081, 45.382738000001808 ], [ -93.019563000001796, 45.411770000002214 ], [ -93.021689000002539, 45.470396000002161 ], [ -93.021690000001982, 45.470582000001919 ], [ -93.021963000002685, 45.557280000001782 ], [ -93.0219630000026, 45.557445000002261 ], [ -93.141974000002307, 45.558109000002368 ], [ -93.141778000002702, 45.644278000001762 ], [ -93.141793000001883, 45.730657000002317 ], [ -93.141982000002358, 45.790160000002224 ], [ -93.141962000001996, 45.802767000002135 ], [ -93.142097000001954, 45.817302000001739 ], [ -93.021603000002074, 45.816778000002351 ], [ -92.987387000002556, 45.829044000001936 ], [ -92.986797000002113, 45.817229000002008 ], [ -92.960321000002693, 45.809902000002104 ], [ -92.955020000002122, 45.835819000002317 ], [ -92.946201000002233, 45.840846000002557 ], [ -92.943262000002122, 45.865363000002503 ], [ -92.918760000001882, 45.882370000002211 ], [ -92.918750000002163, 45.903620000002043 ], [ -93.021097000002015, 45.904304000002028 ], [ -93.142400000001885, 45.904662000001721 ], [ -93.142869000002563, 45.981005000002114 ], [ -93.055356000001566, 45.981344000002323 ], [ -93.05512700000196, 46.071365000002402 ], [ -93.053984000002416, 46.158119000001868 ], [ -93.053984000002515, 46.158256000002019 ], [ -93.054157000001737, 46.245243000002255 ], [ -93.053712000001781, 46.332076000001919 ], [ -93.054847000002596, 46.419269000002068 ], [ -93.055168000002141, 46.506888000001972 ], [ -93.054765000001424, 46.593239000002427 ], [ -93.062678000002435, 46.593310000002013 ], [ -93.064696000002314, 46.680088000002371 ], [ -93.061529000002039, 46.766550000001729 ], [ -93.061332000001698, 46.766550000002169 ], [ -92.935844000001481, 46.766122000001971 ], [ -92.93564500000204, 46.766121000002485 ], [ -92.808648000002677, 46.766032000002362 ], [ -92.808170000002278, 46.76603600000248 ], [ -92.680571000002203, 46.769029000002135 ], [ -92.680344000002293, 46.769028000002557 ], [ -92.554964000002698, 46.766090000002066 ], [ -92.554964000002215, 46.766106000002381 ], [ -92.492777000001439, 46.765262000001776 ], [ -92.428463000001699, 46.764827000001766 ], [ -92.301676000001606, 46.764134000002429 ], [ -92.301348000001596, 46.691798000002109 ], [ -92.301314000001483, 46.668008000001926 ], [ -92.292261000002327, 46.663930000002487 ], [ -92.291976000002407, 46.655134000002221 ], [ -92.291693000001601, 46.590741000002303 ], [ -92.29197600000154, 46.503997000002435 ], [ -92.29286000000198, 46.417220000002047 ], [ -92.292995000001397, 46.331148000002003 ], [ -92.293705000002021, 46.15705800000201 ], [ -92.294033000001477, 46.074377000002336 ], [ -92.312740000002407, 46.070007000001894 ], [ -92.329806000001994, 46.065216000002088 ], [ -92.350407000002363, 46.016368000002302 ], [ -92.372717000002353, 46.014198000002104 ], [ -92.410014000002036, 46.02725100000211 ], [ -92.442259000002238, 46.01617700000179 ], [ -92.464584000001921, 45.983605000002136 ], [ -92.472761000001839, 45.972952000002557 ], [ -92.516964000001522, 45.983364000002361 ], [ -92.526066000001876, 45.983570000002189 ], [ -92.549806000001965, 45.967986000001993 ], [ -92.551186000002673, 45.952240000002575 ], [ -92.637841000001956, 45.934469000001826 ], [ -92.686099000002486, 45.90278700000237 ], [ -92.712503000001604, 45.891705000002133 ], [ -92.738444000001635, 45.861371000002087 ], [ -92.739991000002476, 45.846283000002103 ], [ -92.764571000002519, 45.824225000001938 ], [ -92.757947000002005, 45.811216000002069 ], [ -92.777004000001583, 45.787804000001955 ], [ -92.784617000001859, 45.764199000002371 ], [ -92.809837000001536, 45.74417200000174 ], [ -92.841051000002039, 45.730024000001777 ], [ -92.869193000001914, 45.717568000002409 ], [ -92.887142000001759, 45.644066000002553 ], [ -92.88374900000214, 45.57548300000262 ], [ -92.872215000001475, 45.568013000002381 ], [ -92.816551000001766, 45.560956000001802 ], [ -92.773412000002622, 45.568235000001849 ], [ -92.72608200000208, 45.541112000002379 ], [ -92.726677000001914, 45.514462000002254 ], [ -92.682474000002045, 45.469704000002537 ], [ -92.647629000002638, 45.444133000002282 ], [ -92.650284000002074, 45.398769000002581 ], [ -92.670707000002196, 45.387740000001827 ], [ -92.674543000002515, 45.382868000002595 ], [ -92.704054000001619, 45.353660000002328 ], [ -92.698967000001645, 45.33637400000233 ], [ -92.709968000002178, 45.321302000002468 ], [ -92.745683000002245, 45.296042000002423 ], [ -92.76200400000188, 45.288213000002493 ], [ -92.751920000001959, 45.265877000002448 ], [ -92.760249000002474, 45.249600000002289 ], [ -92.752308000002643, 45.216866000002383 ], [ -92.766808000002598, 45.185466000002279 ], [ -92.757107000001966, 45.177466000002191 ], [ -92.745665000001793, 45.123073000002194 ], [ -92.744938000001994, 45.108309000002635 ], [ -92.792319000001584, 45.07894400000248 ], [ -92.802713000001702, 45.059364000002212 ], [ -92.801789000001904, 45.056920000002471 ], [ -92.786142000002485, 45.042793000002035 ], [ -92.764760000001559, 45.028886000001975 ], [ -92.770391000001482, 44.992409000002013 ], [ -92.769504000002456, 44.974267000002413 ], [ -92.754743000002264, 44.955952000002057 ], [ -92.750802000002238, 44.941567000002642 ], [ -92.752102000002367, 44.930867000002081 ], [ -92.755484000001914, 44.918631000002179 ], [ -92.773103000002564, 44.901367000002494 ], [ -92.76342200000262, 44.872867000001875 ], [ -92.76950100000218, 44.862001000002145 ], [ -92.765668000001966, 44.841010000002669 ], [ -92.787613000001883, 44.789208000002098 ], [ -92.805562000002382, 44.768383000002345 ], [ -92.802017000001925, 44.745673000002249 ], [ -92.812634000002674, 44.747252000002149 ], [ -92.812624000001762, 44.716725000002619 ], [ -92.817084000002041, 44.716712000002104 ], [ -92.853067000001502, 44.7095520000018 ], [ -92.873401000001621, 44.712988000002291 ], [ -92.883467000002398, 44.716783000002337 ], [ -92.888472000002281, 44.7167790000019 ], [ -92.893436000001898, 44.716785000002403 ], [ -92.897358000002242, 44.731261000002114 ], [ -92.894122000002, 44.738427000002034 ], [ -92.883772000001457, 44.754694000001933 ], [ -92.866618000002447, 44.760284000001832 ], [ -92.882559000001464, 44.774107000002225 ], [ -92.925359000002317, 44.780784000002107 ], [ -92.974799000001681, 44.772315000002109 ], [ -93.01596100000144, 44.775564000002326 ], [ -93.021395000001519, 44.789707000001968 ], [ -93.005709000002241, 44.818180000002293 ], [ -93.011791000002674, 44.837379000002691 ], [ -93.01003200000244, 44.845989000002142 ], [ -93.008564000001726, 44.855157000002237 ], [ -93.011531000001483, 44.866928000002083 ], [ -93.016044000002097, 44.883133000002502 ], [ -93.020044000002116, 44.890750000001944 ], [ -93.006773000001999, 44.890765000002297 ], [ -93.004424000002075, 44.890767000001993 ], [ -93.004816000002123, 44.91944300000192 ], [ -93.00482300000202, 44.932983000001826 ], [ -93.00503100000266, 44.948515000002089 ], [ -93.005043000001564, 44.950352000002518 ], [ -93.005030000001724, 44.95673300000233 ], [ -93.0050500000022, 44.963045000002509 ], [ -93.005113000002638, 44.96855900000245 ], [ -93.005110000002603, 44.977532000002441 ], [ -93.005100000001718, 44.980834000002666 ], [ -93.005099000001522, 44.981110000002445 ], [ -93.005064000002363, 44.991989000001951 ], [ -93.025222000002159, 44.99194900000257 ], [ -93.033767000002442, 44.991977000001988 ], [ -93.040578000001759, 44.992000000002641 ], [ -93.052036000001664, 44.992013000002174 ], [ -93.066099000002154, 44.991978000001779 ], [ -93.076208000001515, 44.991915000002649 ], [ -93.089372000002484, 44.991807000002581 ], [ -93.105878000001994, 44.991867000002074 ], [ -93.105881000002441, 45.006293000002621 ], [ -93.106094000002145, 45.020746000002411 ], [ -93.106128000002641, 45.026193000002635 ], [ -93.106214000002424, 45.035871000002452 ], [ -93.129645000001844, 45.035882000002026 ], [ -93.147079000002279, 45.035757000001944 ], [ -93.157064000001967, 45.035742000001989 ], [ -93.163043000002219, 45.03572700000251 ], [ -93.187706000001597, 45.035747000002026 ], [ -93.208092000001642, 45.035744000002381 ], [ -93.207926000001805, 45.027561000002322 ], [ -93.207802000002317, 45.020584000001904 ], [ -93.207636000002296, 45.006205000002069 ], [ -93.226845000001617, 45.01321400000252 ], [ -93.237152000002283, 45.01319500000244 ], [ -93.247337000002517, 45.013161000001801 ], [ -93.247486000001615, 45.018617000002457 ], [ -93.247452000002241, 45.025694000001955 ] ] ] } },
{ "type": "Feature", "properties": { "opt_all": 5, "population": 715862.0, "voting_age_pop": 576855.0, "dem_votes": 287106.0, "rep_votes": 58449.0, "minority_pop": 196258.0, "dem_pct": 0.83085471174462688, "rep_pct": 0.16914528796598363 }, "geometry": { "type": "Polygon", "coordinates": [ [ [ -93.398735000002304, 44.873421000002509 ], [ -93.399289000001858, 44.89091800000223 ], [ -93.401622000002362, 44.891642000002463 ], [ -93.401300000002479, 44.906064000002445 ], [ -93.401298000002157, 44.906134000001821 ], [ -93.414230000001567, 44.906227000001877 ], [ -93.421998000001636, 44.906342000001871 ], [ -93.422304000002441, 44.912455000002559 ], [ -93.426281000001524, 44.931543000002357 ], [ -93.421084000002438, 44.932792000002465 ], [ -93.424841000002445, 44.944621000002378 ], [ -93.421023000002037, 44.948883000002631 ], [ -93.4108830000024, 44.949310000002498 ], [ -93.400617000001674, 44.938747000001783 ], [ -93.3966780000017, 44.935116000002296 ], [ -93.385675000002436, 44.935573000002037 ], [ -93.38557700000176, 44.935222000002248 ], [ -93.370636000002406, 44.920503000002107 ], [ -93.360659000001959, 44.920527000002238 ], [ -93.353868000002279, 44.920505000002223 ], [ -93.34959700000222, 44.920490000002566 ], [ -93.339295000002593, 44.919697000002508 ], [ -93.329056000002424, 44.930587000002085 ], [ -93.329041000002221, 44.932362000002165 ], [ -93.329139000001717, 44.940591000002399 ], [ -93.328826000001499, 44.945808000002522 ], [ -93.328850000001765, 44.948294000002562 ], [ -93.32885000000212, 44.948483000002 ], [ -93.32873100000198, 44.959332000001851 ], [ -93.328697000002606, 44.965038000002338 ], [ -93.328692000002476, 44.966484000001863 ], [ -93.328691000002038, 44.970020000002414 ], [ -93.328654000002118, 44.977142000001948 ], [ -93.318504000001923, 44.980747000002495 ], [ -93.318468000002113, 44.984051000002104 ], [ -93.318467000001704, 44.9915580000022 ], [ -93.318465000001723, 44.993415000001882 ], [ -93.318520000002479, 45.00604200000182 ], [ -93.318499000002703, 45.012869000002006 ], [ -93.318481000001796, 45.022282000002505 ], [ -93.318703000002486, 45.031342000001885 ], [ -93.323233000001593, 45.040448000001973 ], [ -93.319435000001647, 45.043968000002522 ], [ -93.314187000001496, 45.051239000001885 ], [ -93.299194000002046, 45.051136000001776 ], [ -93.282226000002439, 45.051165000001909 ], [ -93.283426000002279, 45.035365000001875 ], [ -93.272029000001723, 45.035503000002194 ], [ -93.267943000002376, 45.048181000002572 ], [ -93.262912000002004, 45.064445000002188 ], [ -93.257731000002195, 45.064451000002045 ], [ -93.247457000002242, 45.061632000002554 ], [ -93.236728000002159, 45.06155500000181 ], [ -93.227208000002278, 45.061619000001862 ], [ -93.227059000002598, 45.049937000002522 ], [ -93.2269290000024, 45.035671000002054 ], [ -93.226891000001714, 45.025917000001833 ], [ -93.247448000002194, 45.025787000002268 ], [ -93.247452000002241, 45.025694000001955 ], [ -93.247486000001615, 45.018617000002457 ], [ -93.247337000002517, 45.013161000001801 ], [ -93.237152000002283, 45.01319500000244 ], [ -93.226845000001617, 45.01321400000252 ], [ -93.207636000002296, 45.006205000002069 ], [ -93.207802000002317, 45.020584000001904 ], [ -93.207926000001805, 45.027561000002322 ], [ -93.208092000001642, 45.035744000002381 ], [ -93.187706000001597, 45.035747000002026 ], [ -93.163043000002219, 45.03572700000251 ], [ -93.157064000001967, 45.035742000001989 ], [ -93.147079000002279, 45.035757000001944 ], [ -93.129645000001844, 45.035882000002026 ], [ -93.106214000002424, 45.035871000002452 ], [ -93.106128000002641, 45.026193000002635 ], [ -93.106094000002145, 45.020746000002411 ], [ -93.105881000002441, 45.006293000002621 ], [ -93.105878000001994, 44.991867000002074 ], [ -93.126099000001815, 44.991794000001875 ], [ -93.126166000002357, 44.987599000002348 ], [ -93.126354000002038, 44.977362000001989 ], [ -93.105921000001516, 44.977385000002336 ], [ -93.105927000001884, 44.976478000001848 ], [ -93.090923000001723, 44.966920000002375 ], [ -93.090944000001684, 44.963603000002671 ], [ -93.090456000001723, 44.963535000001997 ], [ -93.083326000002117, 44.959065000001971 ], [ -93.078903000002526, 44.955637000002433 ], [ -93.095242000002486, 44.946498000001782 ], [ -93.09281800000204, 44.943940000002158 ], [ -93.091683000001964, 44.942628000002344 ], [ -93.104254000002385, 44.933076000002337 ], [ -93.117488000002297, 44.923872000002078 ], [ -93.118805000001487, 44.927306000001842 ], [ -93.1447340000026, 44.926929000002517 ], [ -93.141287000002194, 44.930602000002509 ], [ -93.144931000002202, 44.930573000002539 ], [ -93.167025000001885, 44.930621000001999 ], [ -93.167025000001559, 44.926985000001928 ], [ -93.156832000001785, 44.919723000002428 ], [ -93.177199000001877, 44.919765000002052 ], [ -93.177199000001806, 44.917957000002382 ], [ -93.177199000001835, 44.912529000002273 ], [ -93.172113000001843, 44.904236000001873 ], [ -93.172100000002359, 44.901690000002446 ], [ -93.187394000001561, 44.908893000001861 ], [ -93.192689000002673, 44.904653000002511 ], [ -93.194042000002639, 44.905414000002089 ], [ -93.198449000002398, 44.905409000002585 ], [ -93.207596000001686, 44.905392000002401 ], [ -93.222961000001476, 44.897152000002073 ], [ -93.232380000001754, 44.8968690000018 ], [ -93.247363000002366, 44.897641000001855 ], [ -93.252899000001776, 44.89071700000212 ], [ -93.261689000001596, 44.890518000002402 ], [ -93.26783100000192, 44.890625000002323 ], [ -93.276824000001682, 44.89055400000192 ], [ -93.29596600000248, 44.890171000002141 ], [ -93.318825000001581, 44.890752000002138 ], [ -93.3187710000023, 44.879959000002486 ], [ -93.3187760000027, 44.872633000002217 ], [ -93.318828000002341, 44.861998000001989 ], [ -93.32893300000174, 44.861973000002514 ], [ -93.350174000001687, 44.862066000001938 ], [ -93.361315000001483, 44.862040000002601 ], [ -93.398773000001924, 44.862037000002033 ], [ -93.398735000002304, 44.873421000002509 ] ] ] } },
{ "type": "Feature", "properties": { "opt_all": 6, "population": 712519.0, "voting_age_pop": 533182.0, "dem_votes": 149124.0, "rep_votes": 188998.0, "minority_pop": 67364.0, "dem_pct": 0.44103607560553998, "rep_pct": 0.55896392409870876 }, "geometry": { "type": "Polygon", "coordinates": [ [ [ -95.131730000001582, 45.412402000001819 ], [ -95.131433000002247, 45.495355000002313 ], [ -95.131533000002023, 45.498950000002473 ], [ -95.131460000001553, 45.50790800000221 ], [ -95.131465000001597, 45.509788000002175 ], [ -95.131480000002483, 45.585030000002234 ], [ -95.139856000002723, 45.585016000002049 ], [ -95.139420000001905, 45.672150000001906 ], [ -95.139670000002326, 45.758891000001931 ], [ -95.139731000002158, 45.773416000002406 ], [ -95.015991000001875, 45.774009000002401 ], [ -94.929519000002685, 45.774100000002058 ], [ -94.891712000002073, 45.774052000002087 ], [ -94.766899000002041, 45.773911000001704 ], [ -94.643990000002177, 45.773950000002451 ], [ -94.513300000002474, 45.774380000002452 ], [ -94.450340000001702, 45.775300000002055 ], [ -94.388120000002459, 45.775260000001715 ], [ -94.271776000002006, 45.775208000001875 ], [ -94.334582000002399, 45.802754000001705 ], [ -94.353165000002676, 45.822131000001953 ], [ -94.303882000002659, 45.822483000002521 ], [ -94.288247000002045, 45.822599000002405 ], [ -94.277694000002299, 45.822664000001872 ], [ -94.198502000001483, 45.823184000002179 ], [ -94.135353000001984, 45.823298000002303 ], [ -94.010432000001515, 45.823981000002462 ], [ -93.885971000002286, 45.823126000002048 ], [ -93.763948000002202, 45.82214300000259 ], [ -93.762220000002685, 45.735220000002613 ], [ -93.760502000001765, 45.648783000001757 ], [ -93.759435000002696, 45.559646000002147 ], [ -93.634887000001555, 45.559612000001763 ], [ -93.634855000001977, 45.559612000002268 ], [ -93.614351000002557, 45.559326000002095 ], [ -93.613997000001675, 45.559323000001768 ], [ -93.572958000002345, 45.558979000002523 ], [ -93.566591000002077, 45.558957000001811 ], [ -93.510704000001837, 45.558772000002328 ], [ -93.510589000002582, 45.471879000001792 ], [ -93.510070000002443, 45.414798000001781 ], [ -93.509794000001961, 45.385613000001818 ], [ -93.51019700000154, 45.356112000001872 ], [ -93.510992000001863, 45.299346000002267 ], [ -93.512522000002036, 45.251440000002219 ], [ -93.512190000001581, 45.245683000002437 ], [ -93.521653000002644, 45.246618000001973 ], [ -93.522430000002444, 45.244371000002616 ], [ -93.519948000002358, 45.242279000001744 ], [ -93.514670000002127, 45.239925000001875 ], [ -93.519895000002634, 45.238265000002173 ], [ -93.522122000002085, 45.232279000002457 ], [ -93.522126000002118, 45.209836000002056 ], [ -93.521477000002136, 45.163475000001789 ], [ -93.521818000001645, 45.152911000001879 ], [ -93.563148000002499, 45.152782000002347 ], [ -93.630424000002023, 45.152557000001863 ], [ -93.638653000002563, 45.174161000002222 ], [ -93.638622000002258, 45.165620000002654 ], [ -93.676267000001687, 45.151044000002052 ], [ -93.681310000001673, 45.151250000002292 ], [ -93.696851000001516, 45.139436000002611 ], [ -93.699181000002284, 45.1373920000025 ], [ -93.724097000002615, 45.107704000002045 ], [ -93.726316000002313, 45.101305000002377 ], [ -93.729593000002566, 45.09744100000254 ], [ -93.737832000001845, 45.082702000001788 ], [ -93.761874000001782, 45.081244000002009 ], [ -93.765748000002418, 45.064476000001761 ], [ -93.76681300000206, 45.050023000002085 ], [ -93.766868000002461, 45.028162000002212 ], [ -93.767367000001727, 44.977964000002189 ], [ -93.726856000001916, 44.977952000002531 ], [ -93.645462000002567, 44.978645000002395 ], [ -93.645470000001964, 44.982273000001989 ], [ -93.645645000001835, 45.00045000000231 ], [ -93.522402000001634, 44.999774000002049 ], [ -93.52249100000158, 44.993496000001763 ], [ -93.522544000001801, 44.981600000002238 ], [ -93.502235000002557, 44.982250000002232 ], [ -93.494402000002523, 44.978467000001856 ], [ -93.481542000002634, 44.978510000002117 ], [ -93.459972000002182, 44.978550000002578 ], [ -93.430893000001873, 44.978840000002421 ], [ -93.410466000001961, 44.978553000002108 ], [ -93.400710000002562, 44.954434000002387 ], [ -93.400420000001674, 44.950111000002423 ], [ -93.400619000001925, 44.943697000002501 ], [ -93.400617000001674, 44.938747000001783 ], [ -93.4108830000024, 44.949310000002498 ], [ -93.421023000002037, 44.948883000002631 ], [ -93.424841000002445, 44.944621000002378 ], [ -93.421084000002438, 44.932792000002465 ], [ -93.426281000001524, 44.931543000002357 ], [ -93.422304000002441, 44.912455000002559 ], [ -93.421998000001636, 44.906342000001871 ], [ -93.414230000001567, 44.906227000001877 ], [ -93.401298000002157, 44.906134000001821 ], [ -93.401300000002479, 44.906064000002445 ], [ -93.401622000002362, 44.891642000002463 ], [ -93.399289000001858, 44.89091800000223 ], [ -93.398735000002304, 44.873421000002509 ], [ -93.398773000001924, 44.862037000002033 ], [ -93.398782000002498, 44.859511000002627 ], [ -93.398577000002405, 44.849514000002323 ], [ -93.398645000002659, 44.836870000001966 ], [ -93.398410000002045, 44.818921000002547 ], [ -93.398395000001841, 44.808260000002015 ], [ -93.422277000001642, 44.827436000001882 ], [ -93.440705000002083, 44.832127000002451 ], [ -93.445425000001521, 44.828198000002537 ], [ -93.465782000002235, 44.834122000002289 ], [ -93.460201000001717, 44.855086000002238 ], [ -93.459586000002105, 44.862088000002608 ], [ -93.474547000002445, 44.861784000001784 ], [ -93.484862000001698, 44.851890000002584 ], [ -93.520927000001919, 44.847252000002463 ], [ -93.520831000002602, 44.827571000002401 ], [ -93.520679000001806, 44.816779000001915 ], [ -93.5204500000021, 44.805024000002248 ], [ -93.551183000002439, 44.797369000001837 ], [ -93.566079000002617, 44.79642400000224 ], [ -93.597894000001958, 44.782942000002009 ], [ -93.594234000001805, 44.776215000002622 ], [ -93.628909000001798, 44.732773000002439 ], [ -93.626735000002242, 44.718462000002134 ], [ -93.618141000001998, 44.707096000002167 ], [ -93.643764000002676, 44.692678000001891 ], [ -93.667961000002123, 44.695259000002522 ], [ -93.698273000001564, 44.669446000002552 ], [ -93.721270000002619, 44.662882000002313 ], [ -93.7473390000021, 44.645263000001911 ], [ -93.768039000002062, 44.640303000002497 ], [ -93.768176000001901, 44.6735200000021 ], [ -93.888831000002085, 44.673409000002628 ], [ -93.888636000002222, 44.717044000002474 ], [ -94.010494000001799, 44.717464000002252 ], [ -94.010021000002723, 44.803989000002211 ], [ -94.010021000002695, 44.80405300000205 ], [ -94.009864000001727, 44.89189800000225 ], [ -94.011805000001502, 44.891931000002174 ], [ -94.012236000001963, 44.978712000002595 ], [ -94.134286000002362, 44.978804000002476 ], [ -94.256074000002073, 44.979465000001774 ], [ -94.256064000001885, 45.066323000002527 ], [ -94.255775000002487, 45.152642000002452 ], [ -94.256751000002595, 45.2392720000026 ], [ -94.261131000002166, 45.283941000002251 ], [ -94.383449000002557, 45.282797000002262 ], [ -94.384083000002363, 45.326629000002384 ], [ -94.505736000001903, 45.325971000002021 ], [ -94.505837000002217, 45.325973000002548 ], [ -94.535094000002715, 45.326109000001914 ], [ -94.535370000002047, 45.32610400000226 ], [ -94.556913000002154, 45.325892000002554 ], [ -94.640096000002515, 45.32560100000201 ], [ -94.763080000002205, 45.326100000002292 ], [ -94.762934000002701, 45.412861000002486 ], [ -94.886398000002657, 45.412959000001976 ], [ -95.008833000001644, 45.412267000002565 ], [ -95.131730000001582, 45.412402000001819 ] ] ] } },
{ "type": "Feature", "properties": { "opt_all": 7, "population": 710076.0, "voting_age_pop": 545090.0, "dem_votes": 127610.0, "rep_votes": 187034.0, "minority_pop": 62673.0, "dem_pct": 0.40556946885827488, "rep_pct": 0.59443053082390562 }, "geometry": { "type": "Polygon", "coordinates": [ [ [ -96.453010000002095, 45.283424000002071 ], [ -96.45404800000226, 45.301631000001848 ], [ -96.469918000002039, 45.325827000001709 ], [ -96.492493000002355, 45.359223000002153 ], [ -96.521787000001723, 45.375645000002187 ], [ -96.545973000001538, 45.381050000002119 ], [ -96.616296000002521, 45.407606000002055 ], [ -96.6804540000022, 45.410499000002467 ], [ -96.731396000002206, 45.457020000002032 ], [ -96.75286500000152, 45.50216300000168 ], [ -96.763432000002354, 45.520007000002366 ], [ -96.835451000002621, 45.586129000001634 ], [ -96.841400000002039, 45.59144800000157 ], [ -96.846825000001999, 45.59655200000163 ], [ -96.856834000001996, 45.605378000001906 ], [ -96.838648000001527, 45.647509000001662 ], [ -96.789756000001887, 45.673177000002326 ], [ -96.750350000002285, 45.698782000002389 ], [ -96.672665000001686, 45.732336000002448 ], [ -96.642164000001799, 45.759640000001887 ], [ -96.639222000001595, 45.772096000001909 ], [ -96.583085000002043, 45.820024000001723 ], [ -96.574249000002482, 45.846582000002137 ], [ -96.563672000001844, 45.935245000001899 ], [ -96.576564000002435, 46.021848000002315 ], [ -96.556807000001882, 46.064713000002278 ], [ -96.563217000001757, 46.109011000001829 ], [ -96.580273000001895, 46.151076000002334 ], [ -96.577011000001775, 46.171546000002195 ], [ -96.591166000001493, 46.195932000002166 ], [ -96.584378000001834, 46.203539000001754 ], [ -96.597792000002215, 46.228880000002349 ], [ -96.585442000001962, 46.247395000002022 ], [ -96.599085000001523, 46.263775000001971 ], [ -96.59633100000174, 46.277741000001562 ], [ -96.599665000001679, 46.282528000002195 ], [ -96.594841000001637, 46.286147000002117 ], [ -96.595932000001682, 46.29000800000243 ], [ -96.599660000001762, 46.330481000001761 ], [ -96.645604000001526, 46.351086000001722 ], [ -96.656647000002479, 46.369542000002248 ], [ -96.693927000002446, 46.422081000002166 ], [ -96.716176000002577, 46.436649000001673 ], [ -96.712127000001885, 46.456318000001758 ], [ -96.736417000001595, 46.481635000002271 ], [ -96.73339300000238, 46.496983000002317 ], [ -96.750088000002137, 46.540901000002194 ], [ -96.73970600000176, 46.543873000001632 ], [ -96.745362000001577, 46.565270000001654 ], [ -96.743241000002101, 46.565483000001642 ], [ -96.75123400000264, 46.584709000001745 ], [ -96.771639000001727, 46.596311000002387 ], [ -96.784381000002199, 46.630504000001629 ], [ -96.798950000002435, 46.654112000002186 ], [ -96.787696000002597, 46.678223000001935 ], [ -96.782344000002297, 46.716405000001728 ], [ -96.787136000001766, 46.785651000001572 ], [ -96.796616000001436, 46.803378000001587 ], [ -96.800111000002474, 46.818299000001637 ], [ -96.782887000001764, 46.836283000001949 ], [ -96.779515000002107, 46.858656000002298 ], [ -96.780457000002642, 46.868527000002345 ], [ -96.767779000001596, 46.884735000001868 ], [ -96.773826000001719, 46.903631000002413 ], [ -96.755134000001476, 46.915968000002017 ], [ -96.798805000002503, 46.944206000001699 ], [ -96.820037000002699, 46.976818000002226 ], [ -96.834839000002276, 47.00725400000178 ], [ -96.821233000002536, 47.030638000001623 ], [ -96.821708000001664, 47.063975000001605 ], [ -96.816191000002078, 47.108481000002008 ], [ -96.840122000002367, 47.150475000001506 ], [ -96.69007900000156, 47.151337000002059 ], [ -96.564095000002482, 47.15143500000238 ], [ -96.436144000001718, 47.151200000001637 ], [ -96.322284000001602, 47.151321000001531 ], [ -96.194671000001563, 47.151149000001929 ], [ -96.194167000002182, 47.063930000001612 ], [ -96.193571000002279, 46.977371000001789 ], [ -96.174108000001993, 46.977375000001615 ], [ -96.174305000002235, 46.891654000001736 ], [ -96.177027000002241, 46.804851000002039 ], [ -96.17458700000256, 46.717854000001886 ], [ -96.048007000002642, 46.717731000002182 ], [ -95.921010000001687, 46.716809000001938 ], [ -95.794798000002245, 46.716515000001777 ], [ -95.668195000002697, 46.715516000001806 ], [ -95.667696000002081, 46.715516000001706 ], [ -95.542719000001824, 46.715950000002202 ], [ -95.414537000002341, 46.716169000002246 ], [ -95.414397000001784, 46.716170000002201 ], [ -95.288675000002726, 46.716632000001837 ], [ -95.287580000002677, 46.716624000001865 ], [ -95.163710000002197, 46.717640000002241 ], [ -95.163010000002416, 46.804720000002341 ], [ -95.037649000002716, 46.805562000002425 ], [ -94.911614000001961, 46.805054000002215 ], [ -94.78712600000236, 46.803943000001809 ], [ -94.78663300000224, 46.716261000002383 ], [ -94.785899000002516, 46.630199000002229 ], [ -94.780973000002319, 46.630102000001649 ], [ -94.77958600000224, 46.543863000002482 ], [ -94.778908000002673, 46.455374000001797 ], [ -94.779121000001524, 46.394215000001651 ], [ -94.731442000002517, 46.368605000002425 ], [ -94.722769000001904, 46.352321000001794 ], [ -94.653462000002222, 46.348678000001847 ], [ -94.65336100000242, 46.323264000001892 ], [ -94.653304000002038, 46.282632000001641 ], [ -94.647909000002556, 46.28243900000242 ], [ -94.647727000002476, 46.194809000002046 ], [ -94.647721000001965, 46.194148000001661 ], [ -94.647787000002566, 46.107816000001662 ], [ -94.648217000001566, 46.020416000002555 ], [ -94.648807000002719, 45.932897000001795 ], [ -94.643596000001565, 45.932852000002342 ], [ -94.643492000001842, 45.917991000002353 ], [ -94.643640000001838, 45.913558000002219 ], [ -94.643641000002475, 45.90808800000255 ], [ -94.643647000001835, 45.907273000002256 ], [ -94.643905000002718, 45.845703000002317 ], [ -94.643990000002177, 45.773950000002451 ], [ -94.766899000002041, 45.773911000001704 ], [ -94.891712000002073, 45.774052000002087 ], [ -94.929519000002685, 45.774100000002058 ], [ -95.015991000001875, 45.774009000002401 ], [ -95.139731000002158, 45.773416000002406 ], [ -95.139670000002326, 45.758891000001931 ], [ -95.139420000001905, 45.672150000001906 ], [ -95.139856000002723, 45.585016000002049 ], [ -95.131480000002483, 45.585030000002234 ], [ -95.131465000001597, 45.509788000002175 ], [ -95.131460000001553, 45.50790800000221 ], [ -95.131533000002023, 45.498950000002473 ], [ -95.131433000002247, 45.495355000002313 ], [ -95.131730000001582, 45.412402000001819 ], [ -95.008833000001644, 45.412267000002565 ], [ -94.886398000002657, 45.412959000001976 ], [ -94.762934000002701, 45.412861000002486 ], [ -94.763080000002205, 45.326100000002292 ], [ -94.640096000002515, 45.32560100000201 ], [ -94.556913000002154, 45.325892000002554 ], [ -94.535370000002047, 45.32610400000226 ], [ -94.535094000002715, 45.326109000001914 ], [ -94.505837000002217, 45.325973000002548 ], [ -94.505736000001903, 45.325971000002021 ], [ -94.384083000002363, 45.326629000002384 ], [ -94.383449000002557, 45.282797000002262 ], [ -94.261131000002166, 45.283941000002251 ], [ -94.256751000002595, 45.2392720000026 ], [ -94.255775000002487, 45.152642000002452 ], [ -94.256064000001885, 45.066323000002527 ], [ -94.256074000002073, 44.979465000001774 ], [ -94.134286000002362, 44.978804000002476 ], [ -94.012236000001963, 44.978712000002595 ], [ -94.011805000001502, 44.891931000002174 ], [ -94.009864000001727, 44.89189800000225 ], [ -94.010021000002695, 44.80405300000205 ], [ -94.010021000002723, 44.803989000002211 ], [ -94.010494000001799, 44.717464000002252 ], [ -93.888636000002222, 44.717044000002474 ], [ -93.888831000002085, 44.673409000002628 ], [ -93.768176000001901, 44.6735200000021 ], [ -93.768039000002062, 44.640303000002497 ], [ -93.792433000001779, 44.630084000002206 ], [ -93.815516000002205, 44.632985000002542 ], [ -93.860515000002366, 44.606198000002443 ], [ -93.889664000002142, 44.596700000001988 ], [ -93.910405000002314, 44.543163000001996 ], [ -93.909322000001765, 44.537597000002371 ], [ -93.898646000001875, 44.528610000002608 ], [ -93.889606000002701, 44.503921000001974 ], [ -93.904011000002257, 44.487466000002144 ], [ -93.904684000002163, 44.481060000001975 ], [ -93.927034000001498, 44.46991600000203 ], [ -93.928422000002001, 44.458198000002454 ], [ -93.929550000001598, 44.456716000002096 ], [ -93.927825000002457, 44.453188000002569 ], [ -93.962375000001913, 44.369966000002414 ], [ -93.949434000001858, 44.355704000001843 ], [ -93.936180000002082, 44.350082000001954 ], [ -93.950627000002314, 44.322065000002574 ], [ -93.954776000002326, 44.31613800000234 ], [ -93.959783000001764, 44.307299000002082 ], [ -93.969286000002, 44.305219000002658 ], [ -93.984546000002723, 44.297498000002243 ], [ -93.984747000002599, 44.29740100000199 ], [ -94.013274000002156, 44.268469000002106 ], [ -94.011868000001755, 44.239520000002287 ], [ -93.959115000001844, 44.239434000002213 ], [ -93.930516000002683, 44.239747000002602 ], [ -93.929086000002115, 44.239819000002662 ], [ -93.92582600000236, 44.239825000001957 ], [ -93.924713000001915, 44.239831000002638 ], [ -93.888521000002157, 44.239424000001982 ], [ -93.871805000001913, 44.239431000002597 ], [ -93.768031000001841, 44.23938400000182 ], [ -93.767971000002476, 44.195836000002103 ], [ -93.768140000002262, 44.108921000002013 ], [ -93.768242000002004, 44.022120000002403 ], [ -93.768005000001693, 43.935011000002604 ], [ -93.767761000002096, 43.847956000002448 ], [ -93.648290000001822, 43.848139000002661 ], [ -93.6483040000019, 43.760652000001869 ], [ -93.648303000002684, 43.760297000002659 ], [ -93.64841400000256, 43.673413000002064 ], [ -93.648422000002498, 43.586489000002722 ], [ -93.648533000001606, 43.499680000002101 ], [ -93.768498000001657, 43.499709000001985 ], [ -93.888430000002643, 43.499769000002146 ], [ -94.008241000001874, 43.499910000001883 ], [ -94.078227000002315, 43.500031000002274 ], [ -94.098084000002515, 43.500082000002507 ], [ -94.128144000001498, 43.500103000001999 ], [ -94.247968000001919, 43.500133000001817 ], [ -94.3680660000025, 43.500242000002643 ], [ -94.492390000001762, 43.5004620000025 ], [ -94.614220000002376, 43.500753000002582 ], [ -94.734179000002314, 43.500934000002665 ], [ -94.854555000001525, 43.500925000002546 ], [ -94.974349000002675, 43.500956000002397 ], [ -95.093987000001817, 43.501012000002291 ], [ -95.214930000001601, 43.501016000002046 ], [ -95.335315000002481, 43.500387000001979 ], [ -95.45443300000268, 43.500646000002106 ], [ -95.574135000002556, 43.499912000002112 ], [ -95.684148000002097, 43.499893000001869 ], [ -95.695787000002525, 43.499901000001955 ], [ -95.815602000002556, 43.499995000002471 ], [ -95.933729000002401, 43.500074000001867 ], [ -96.053162000001834, 43.500155000002593 ], [ -96.172410000001918, 43.500210000002106 ], [ -96.292390000002143, 43.500300000002397 ], [ -96.453260000001833, 43.500390000001865 ], [ -96.453359000002123, 43.587702000002061 ], [ -96.453470000002255, 43.674960000002542 ], [ -96.453300000002599, 43.762170000001774 ], [ -96.452988000001696, 43.849507000001935 ], [ -96.453329000002356, 43.936669000002205 ], [ -96.45337400000254, 44.023773000002315 ], [ -96.453031000001644, 44.111182000002238 ], [ -96.452773000001486, 44.196780000001922 ], [ -96.452442000002677, 44.284237000002243 ], [ -96.452185000002757, 44.371724000002416 ], [ -96.451869000002219, 44.458876000001815 ], [ -96.451829000002434, 44.543684000001797 ], [ -96.451566000001563, 44.631349000001798 ], [ -96.451234000002316, 44.718273000002505 ], [ -96.451462000001996, 44.805570000001715 ], [ -96.45182600000264, 44.892539000002266 ], [ -96.45202500000228, 44.979469000001693 ], [ -96.45220000000262, 45.066116000002218 ], [ -96.452220000002356, 45.066840000002351 ], [ -96.452067000001847, 45.15339000000219 ], [ -96.452947000001515, 45.268925000002035 ], [ -96.453010000002095, 45.283424000002071 ] ] ] } },
{ "type": "Feature", "properties": { "opt_all": 8, "population": 713937.0, "voting_age_pop": 560279.0, "dem_votes": 154655.0, "rep_votes": 182942.0, "minority_pop": 57561.0, "dem_pct": 0.45810537402343465, "rep_pct": 0.54189462568035418 }, "geometry": { "type": "Polygon", "coordinates": [ [ [ -96.852871000002295, 47.375009000001661 ], [ -96.837974000002106, 47.382730000001509 ], [ -96.842101000002401, 47.411758000001726 ], [ -96.855005000001825, 47.409500000001749 ], [ -96.859621000001979, 47.446042000002272 ], [ -96.854323000002083, 47.461987000002274 ], [ -96.863690000002123, 47.489791000002029 ], [ -96.848923000002316, 47.498991000001809 ], [ -96.86112000000216, 47.515556000001787 ], [ -96.861735000002099, 47.562616000001576 ], [ -96.851558000002115, 47.585955000001839 ], [ -96.859551000001602, 47.612028000002312 ], [ -96.874005000002484, 47.614891000002189 ], [ -96.888074000002476, 47.638316000002028 ], [ -96.885091000002404, 47.673757000001565 ], [ -96.907263000001805, 47.693635000001464 ], [ -96.938353000002564, 47.761054000002211 ], [ -96.96535800000224, 47.783985000001863 ], [ -96.997016000002176, 47.848170000001637 ], [ -96.997236000002715, 47.856626000001732 ], [ -97.025064000002473, 47.883794000002268 ], [ -97.017039000002001, 47.905719000002115 ], [ -97.028467000001783, 47.926920000002006 ], [ -97.037324000001576, 47.933246000002143 ], [ -97.05530200000166, 47.950488000002061 ], [ -97.061354000001714, 47.963517000001701 ], [ -97.053553000001656, 47.991612000001879 ], [ -97.072184000001485, 48.020638000001597 ], [ -97.071288000001474, 48.045797000002359 ], [ -97.098829000001885, 48.071477000002069 ], [ -97.102249000002161, 48.096694000002145 ], [ -97.123614000002675, 48.107781000001658 ], [ -97.129453000002513, 48.133133000001642 ], [ -97.146531000002142, 48.144055000002297 ], [ -97.146703000001438, 48.173223000001961 ], [ -97.142329000002562, 48.191621000001881 ], [ -97.139664000002185, 48.201477000002008 ], [ -97.135835000001904, 48.236919000002068 ], [ -97.117086000001876, 48.282190000001734 ], [ -97.131250000002126, 48.319543000001879 ], [ -97.126745000001961, 48.34214000000182 ], [ -97.155481000001899, 48.363768000001777 ], [ -97.140226000002656, 48.370250000001832 ], [ -97.157210000001584, 48.385732000001809 ], [ -97.131479000001562, 48.406586000002115 ], [ -97.14347900000152, 48.418035000001666 ], [ -97.129174000002607, 48.456575000001912 ], [ -97.14208000000184, 48.463347000002123 ], [ -97.152765000001523, 48.530285000002088 ], [ -97.163355000002198, 48.543967000001793 ], [ -97.164405000002418, 48.557047000001631 ], [ -97.142405000001403, 48.585694000001816 ], [ -97.143822000002416, 48.598359000002041 ], [ -97.120142000002019, 48.62168000000154 ], [ -97.131226000002599, 48.630825000001629 ], [ -97.116939000001437, 48.630869000001859 ], [ -97.111966000002042, 48.630758000001883 ], [ -97.099910000001515, 48.658522000001682 ], [ -97.105442000001716, 48.689648000001696 ], [ -97.123024000001877, 48.717143000002125 ], [ -97.156858000001407, 48.789941000001534 ], [ -97.170429000002116, 48.803723000002122 ], [ -97.181958000002041, 48.815298000001619 ], [ -97.173052000001604, 48.851675000001649 ], [ -97.200463000002358, 48.890275000001886 ], [ -97.210534000001857, 48.914958000001974 ], [ -97.234128000002343, 48.947898000002169 ], [ -97.229374000001442, 48.959521000002077 ], [ -97.238022000001564, 48.977466000001776 ], [ -97.228961000002144, 49.000454000001469 ], [ -97.062273000001483, 49.000344000001427 ], [ -96.930981000002461, 49.000270000002182 ], [ -96.80027200000184, 49.000187000001908 ], [ -96.669164000002141, 49.000154000001586 ], [ -96.536151000002064, 49.000140000002254 ], [ -96.405411000002474, 49.000074000001618 ], [ -96.140198000002314, 48.999983000001421 ], [ -96.008418000002663, 48.999941000001442 ], [ -95.877050000001717, 48.999758000001933 ], [ -95.76642000000264, 48.999601000001469 ], [ -95.484360000002326, 48.999173000001896 ], [ -95.319888000001782, 48.998923000001952 ], [ -95.153191000002295, 48.99887000000232 ], [ -95.153403876580938, 49.3844874711599 ], [ -95.128713000001383, 49.370452000001912 ], [ -95.058302000002698, 49.353253000001594 ], [ -95.014201000001719, 49.356476000002189 ], [ -94.989000000001397, 49.368942000001958 ], [ -94.952069000001686, 49.368733000001733 ], [ -94.854055000002262, 49.324341000001887 ], [ -94.816264000002036, 49.321399000002089 ], [ -94.82553500000158, 49.294354000002265 ], [ -94.79732700000136, 49.214345000001593 ], [ -94.79797600000218, 49.19786000000164 ], [ -94.772784000002403, 49.120507000002114 ], [ -94.749650000001978, 49.098740000002088 ], [ -94.683457000001781, 48.884120000001886 ], [ -94.692396000002233, 48.869014000002117 ], [ -94.690324000002562, 48.8382360000017 ], [ -94.704291000001405, 48.824217000001973 ], [ -94.695837000001603, 48.80130800000213 ], [ -94.690902000001685, 48.777999000002161 ], [ -94.658570000002442, 48.759511000002249 ], [ -94.641288000002035, 48.741217000001562 ], [ -94.611355000001637, 48.732254000002278 ], [ -94.589583000002222, 48.718628000002397 ], [ -94.550589000001523, 48.715084000002172 ], [ -94.538515000001837, 48.702701000001888 ], [ -94.452379000002324, 48.692401000001823 ], [ -94.430270000002182, 48.700924000001727 ], [ -94.388964000001877, 48.711943000001803 ], [ -94.343139000002182, 48.703404000002223 ], [ -94.308817000002037, 48.710273000002388 ], [ -94.261092000002364, 48.696597000001731 ], [ -94.244515000001556, 48.653461000002373 ], [ -94.091264000001658, 48.6436510000024 ], [ -94.006957000002487, 48.643283000002207 ], [ -93.953017000002177, 48.634127000002373 ], [ -93.84804500000196, 48.630753000001818 ], [ -93.821427000001677, 48.609163000001892 ], [ -93.804159000002485, 48.570213000002376 ], [ -93.818489000001605, 48.531413000002381 ], [ -93.793369000002599, 48.516311000001593 ], [ -93.647314000002623, 48.517665000001607 ], [ -93.613695000002338, 48.522820000002355 ], [ -93.542504000002126, 48.529981000002394 ], [ -93.482953000001984, 48.543680000001686 ], [ -93.459687000002646, 48.553672000001882 ], [ -93.4671710000014, 48.58840400000242 ], [ -93.46546900000196, 48.591635000002107 ], [ -93.462707000001913, 48.592689000002167 ], [ -93.439841000002517, 48.593684000001794 ], [ -93.405664000001678, 48.609826000001988 ], [ -93.403134000001856, 48.608439000002249 ], [ -93.402953000002199, 48.607659000001654 ], [ -93.371454000001521, 48.605854000002317 ], [ -93.353333000002124, 48.614891000001649 ], [ -93.348665000001901, 48.626454000002113 ], [ -93.254654000001679, 48.642814000002275 ], [ -93.20752900000258, 48.642505000001762 ], [ -93.178376000002643, 48.623258000001911 ], [ -93.088564000001355, 48.627710000001706 ], [ -92.984573000001802, 48.623819000002108 ], [ -92.949791000002193, 48.630330000002424 ], [ -92.950009000002595, 48.608349000002271 ], [ -92.929556000001938, 48.606930000002137 ], [ -92.728412000002621, 48.539372000002388 ], [ -92.657847000002405, 48.546219000002374 ], [ -92.634886000001558, 48.542557000002091 ], [ -92.625074000002456, 48.512909000002033 ], [ -92.637099000001882, 48.499329000002326 ], [ -92.698675000001515, 48.494840000002242 ], [ -92.712682000002118, 48.46298200000232 ], [ -92.688116000002637, 48.443707000002163 ], [ -92.656223000001447, 48.436474000002192 ], [ -92.576542000001936, 48.440595000001878 ], [ -92.507470000002144, 48.447979000002 ], [ -92.47545100000184, 48.418621000002425 ], [ -92.456429000002601, 48.413399000002229 ], [ -92.476504000002564, 48.371909000002269 ], [ -92.469771000001984, 48.352092000001655 ], [ -92.431844000001917, 48.30517100000192 ], [ -92.415634000002541, 48.295087000002489 ], [ -92.381117000002163, 48.236963000001694 ], [ -92.375161000001484, 48.225951000001686 ], [ -92.314886000001565, 48.240502000001946 ], [ -92.280389000002316, 48.244365000002247 ], [ -92.301430000001915, 48.288297000002352 ], [ -92.288835000001498, 48.342812000001949 ], [ -92.262549000002167, 48.354913000001829 ], [ -92.206718000001445, 48.345646000001821 ], [ -92.162002000002317, 48.363304000002515 ], [ -92.143702000001838, 48.356022000001843 ], [ -92.09089000000202, 48.354497000001892 ], [ -92.055221000001836, 48.359364000001925 ], [ -92.046944000002554, 48.33477200000177 ], [ -92.000115000001927, 48.321096000001923 ], [ -92.012985000001436, 48.297444000002024 ], [ -92.00652500000264, 48.265411000002459 ], [ -91.958352000002606, 48.233135000002306 ], [ -91.893105000001555, 48.237980000002224 ], [ -91.864358000002156, 48.206947000002337 ], [ -91.815452000002537, 48.211814000001951 ], [ -91.798249000001874, 48.202969000002469 ], [ -91.715364000002324, 48.19950400000252 ], [ -91.697776000002079, 48.141598000001899 ], [ -91.711751000001684, 48.114650000002229 ], [ -91.676786000001883, 48.107497000002525 ], [ -91.653098000002217, 48.109799000002383 ], [ -91.639921000002403, 48.097110000002296 ], [ -91.588820000002457, 48.102474000002317 ], [ -91.569444000002136, 48.093690000002269 ], [ -91.575460000001357, 48.0489390000021 ], [ -91.488184000001482, 48.068378000002511 ], [ -91.450003000001402, 48.069070000002363 ], [ -91.429571000002483, 48.048653000001998 ], [ -91.390885000002598, 48.057164000001798 ], [ -91.370827000001526, 48.069732000002432 ], [ -91.289728000001418, 48.074176000002133 ], [ -91.249695000002561, 48.084092000002038 ], [ -91.214904000002036, 48.102859000001821 ], [ -91.190054000002263, 48.125106000002333 ], [ -91.176605000001359, 48.125538000002265 ], [ -91.114737000001639, 48.166489000002386 ], [ -91.082473000001315, 48.181152000002179 ], [ -91.032059000002306, 48.188933000001803 ], [ -90.976981000001885, 48.219555000002543 ], [ -90.926408000002539, 48.229794000001945 ], [ -90.885757000002499, 48.245953000002288 ], [ -90.875090000001521, 48.237840000002379 ], [ -90.839296000001596, 48.239559000002352 ], [ -90.832543000001905, 48.173508000002258 ], [ -90.804083000001555, 48.177818000002283 ], [ -90.796753000001658, 48.139377000001801 ], [ -90.776398000002075, 48.123994000001979 ], [ -90.761404000002599, 48.098384000002518 ], [ -90.741459000002394, 48.094563000001784 ], [ -90.641495000001527, 48.10351600000196 ], [ -90.627058000001725, 48.111770000002423 ], [ -90.575760000002276, 48.120624000002046 ], [ -90.556701000001397, 48.095931000001791 ], [ -90.486694000002601, 48.099052000001961 ], [ -90.467391000001982, 48.1087440000017 ], [ -90.438452000001277, 48.098677000002375 ], [ -90.403153000002007, 48.105095000001782 ], [ -90.374769000001606, 48.090954000001837 ], [ -90.30579200000264, 48.105149000001958 ], [ -90.289246000001995, 48.099071000001757 ], [ -90.225168000001958, 48.108224000002338 ], [ -90.146659000002444, 48.111121000002569 ], [ -90.09160600000196, 48.104605000002472 ], [ -90.023331000002273, 48.084748000001817 ], [ -89.993842000002061, 48.049304000002628 ], [ -89.996456000002354, 48.039143000002056 ], [ -89.993825000002019, 48.028091000002505 ], [ -89.886823000001826, 47.986706000002371 ], [ -89.847210000002292, 47.992626000002268 ], [ -89.820753000001673, 48.014894000002172 ], [ -89.767595000002643, 48.022695000001818 ], [ -89.733990000001413, 48.02200000000245 ], [ -89.702409000001978, 48.006358000002571 ], [ -89.688112000001738, 48.010900000002358 ], [ -89.625541000002301, 48.011712000002362 ], [ -89.585520000002475, 47.999863000001923 ], [ -89.483385000001945, 48.013716000002063 ], [ -89.625167000001426, 47.7995490000025 ], [ -89.820034000002366, 47.499910000002423 ], [ -89.957102000001512, 47.291103000002437 ], [ -90.250140000001807, 47.299891000002326 ], [ -90.654660000001513, 47.309822000001923 ], [ -90.795189000001955, 47.244299000002187 ], [ -91.000181000001959, 47.14976600000228 ], [ -91.319638000001802, 46.999929000002105 ], [ -91.50018100000176, 46.913320000002287 ], [ -91.592141000002002, 46.87494000000175 ], [ -91.796330000002058, 46.794838000002159 ], [ -91.981341000002317, 46.72309100000205 ], [ -92.016471000002156, 46.705884000002321 ], [ -92.033989000001696, 46.708939000001948 ], [ -92.090099000001956, 46.74922400000235 ], [ -92.100965000002518, 46.749061000001774 ], [ -92.108690000001474, 46.748940000002541 ], [ -92.117390000001834, 46.748300000002374 ], [ -92.140867000002416, 46.736838000002507 ], [ -92.145893000002275, 46.717128000001821 ], [ -92.189091000001895, 46.717541000002349 ], [ -92.205192000002285, 46.698341000001747 ], [ -92.182999000001686, 46.695652000002127 ], [ -92.181359000001862, 46.680241000002198 ], [ -92.201605000002445, 46.656689000002231 ], [ -92.216392000002074, 46.64984100000239 ], [ -92.265993000002524, 46.651041000001875 ], [ -92.292261000002327, 46.663930000002487 ], [ -92.301314000001483, 46.668008000001926 ], [ -92.301348000001596, 46.691798000002109 ], [ -92.301676000001606, 46.764134000002429 ], [ -92.428463000001699, 46.764827000001766 ], [ -92.492777000001439, 46.765262000001776 ], [ -92.554964000002215, 46.766106000002381 ], [ -92.554964000002698, 46.766090000002066 ], [ -92.680344000002293, 46.769028000002557 ], [ -92.680571000002203, 46.769029000002135 ], [ -92.808170000002278, 46.76603600000248 ], [ -92.808648000002677, 46.766032000002362 ], [ -92.93564500000204, 46.766121000002485 ], [ -92.935844000001481, 46.766122000001971 ], [ -93.061332000001698, 46.766550000002169 ], [ -93.061529000002039, 46.766550000001729 ], [ -93.064696000002314, 46.680088000002371 ], [ -93.062678000002435, 46.593310000002013 ], [ -93.054765000001424, 46.593239000002427 ], [ -93.055168000002141, 46.506888000001972 ], [ -93.054847000002596, 46.419269000002068 ], [ -93.053712000001781, 46.332076000001919 ], [ -93.054157000001737, 46.245243000002255 ], [ -93.053984000002515, 46.158256000002019 ], [ -93.053984000002416, 46.158119000001868 ], [ -93.05512700000196, 46.071365000002402 ], [ -93.055356000001566, 45.981344000002323 ], [ -93.142869000002563, 45.981005000002114 ], [ -93.142400000001885, 45.904662000001721 ], [ -93.021097000002015, 45.904304000002028 ], [ -92.918750000002163, 45.903620000002043 ], [ -92.918760000001882, 45.882370000002211 ], [ -92.943262000002122, 45.865363000002503 ], [ -92.946201000002233, 45.840846000002557 ], [ -92.955020000002122, 45.835819000002317 ], [ -92.960321000002693, 45.809902000002104 ], [ -92.986797000002113, 45.817229000002008 ], [ -92.987387000002556, 45.829044000001936 ], [ -93.021603000002074, 45.816778000002351 ], [ -93.142097000001954, 45.817302000001739 ], [ -93.141962000001996, 45.802767000002135 ], [ -93.141982000002358, 45.790160000002224 ], [ -93.141793000001883, 45.730657000002317 ], [ -93.141778000002702, 45.644278000001762 ], [ -93.141974000002307, 45.558109000002368 ], [ -93.0219630000026, 45.557445000002261 ], [ -93.021963000002685, 45.557280000001782 ], [ -93.021690000001982, 45.470582000001919 ], [ -93.021689000002539, 45.470396000002161 ], [ -93.019563000001796, 45.411770000002214 ], [ -93.142242000001474, 45.413645000002511 ], [ -93.265467000002445, 45.413698000002462 ], [ -93.306263000001437, 45.413695000002456 ], [ -93.321869000001755, 45.413651000001799 ], [ -93.342368000001656, 45.413577000002064 ], [ -93.347476000001919, 45.413558000002297 ], [ -93.510070000002443, 45.414798000001781 ], [ -93.510589000002582, 45.471879000001792 ], [ -93.510704000001837, 45.558772000002328 ], [ -93.566591000002077, 45.558957000001811 ], [ -93.572958000002345, 45.558979000002523 ], [ -93.613997000001675, 45.559323000001768 ], [ -93.614351000002557, 45.559326000002095 ], [ -93.634855000001977, 45.559612000002268 ], [ -93.634887000001555, 45.559612000001763 ], [ -93.759435000002696, 45.559646000002147 ], [ -93.760502000001765, 45.648783000001757 ], [ -93.762220000002685, 45.735220000002613 ], [ -93.763948000002202, 45.82214300000259 ], [ -93.885971000002286, 45.823126000002048 ], [ -94.010432000001515, 45.823981000002462 ], [ -94.135353000001984, 45.823298000002303 ], [ -94.198502000001483, 45.823184000002179 ], [ -94.277694000002299, 45.822664000001872 ], [ -94.288247000002045, 45.822599000002405 ], [ -94.303882000002659, 45.822483000002521 ], [ -94.353165000002676, 45.822131000001953 ], [ -94.334582000002399, 45.802754000001705 ], [ -94.271776000002006, 45.775208000001875 ], [ -94.388120000002459, 45.775260000001715 ], [ -94.450340000001702, 45.775300000002055 ], [ -94.513300000002474, 45.774380000002452 ], [ -94.643990000002177, 45.773950000002451 ], [ -94.643905000002718, 45.845703000002317 ], [ -94.643647000001835, 45.907273000002256 ], [ -94.643641000002475, 45.90808800000255 ], [ -94.643640000001838, 45.913558000002219 ], [ -94.643492000001842, 45.917991000002353 ], [ -94.643596000001565, 45.932852000002342 ], [ -94.648807000002719, 45.932897000001795 ], [ -94.648217000001566, 46.020416000002555 ], [ -94.647787000002566, 46.107816000001662 ], [ -94.647721000001965, 46.194148000001661 ], [ -94.647727000002476, 46.194809000002046 ], [ -94.647909000002556, 46.28243900000242 ], [ -94.653304000002038, 46.282632000001641 ], [ -94.65336100000242, 46.323264000001892 ], [ -94.653462000002222, 46.348678000001847 ], [ -94.722769000001904, 46.352321000001794 ], [ -94.731442000002517, 46.368605000002425 ], [ -94.779121000001524, 46.394215000001651 ], [ -94.778908000002673, 46.455374000001797 ], [ -94.77958600000224, 46.543863000002482 ], [ -94.780973000002319, 46.630102000001649 ], [ -94.785899000002516, 46.630199000002229 ], [ -94.78663300000224, 46.716261000002383 ], [ -94.78712600000236, 46.803943000001809 ], [ -94.911614000001961, 46.805054000002215 ], [ -95.037649000002716, 46.805562000002425 ], [ -95.163010000002416, 46.804720000002341 ], [ -95.163710000002197, 46.717640000002241 ], [ -95.287580000002677, 46.716624000001865 ], [ -95.288675000002726, 46.716632000001837 ], [ -95.414397000001784, 46.716170000002201 ], [ -95.414537000002341, 46.716169000002246 ], [ -95.542719000001824, 46.715950000002202 ], [ -95.667696000002081, 46.715516000001706 ], [ -95.668195000002697, 46.715516000001806 ], [ -95.794798000002245, 46.716515000001777 ], [ -95.921010000001687, 46.716809000001938 ], [ -96.048007000002642, 46.717731000002182 ], [ -96.17458700000256, 46.717854000001886 ], [ -96.177027000002241, 46.804851000002039 ], [ -96.174305000002235, 46.891654000001736 ], [ -96.174108000001993, 46.977375000001615 ], [ -96.193571000002279, 46.977371000001789 ], [ -96.194167000002182, 47.063930000001612 ], [ -96.194671000001563, 47.151149000001929 ], [ -96.322284000001602, 47.151321000001531 ], [ -96.436144000001718, 47.151200000001637 ], [ -96.564095000002482, 47.15143500000238 ], [ -96.69007900000156, 47.151337000002059 ], [ -96.840122000002367, 47.150475000001506 ], [ -96.823077000001518, 47.155598000001625 ], [ -96.822062000002518, 47.185175000001621 ], [ -96.839359000002304, 47.196357000002372 ], [ -96.832606000002656, 47.237612000002343 ], [ -96.843857000002444, 47.292939000001923 ], [ -96.830818000002196, 47.305181000001717 ], [ -96.837033000001483, 47.324509000002088 ], [ -96.852871000002295, 47.375009000001661 ] ] ] } }
]
}
