{
"type": "FeatureCollection",
"name": "minnesota_optimized_districts_age",
"crs": { "type": "name", "properties": { "name": "urn:ogc:def:crs:OGC:1.3:CRS84" } },
"features": [
{ "type": "Feature", "properties": { "district_id": 0, "voting_age_pop": 509844, "lib_votes": 0, "grn_votes": 0, "con_votes": 0, "ref_votes": 0, "total_pop": 658256, "dem_votes_sum": 166095, "rep_votes_sum": 173663, "lib_votes_sum": 0, "grn_votes_sum": 0, "con_votes_sum": 0, "ref_votes_sum": 0, "minority_pop_sum": 71727, "dem_pct": 0.48886266107052667, "rep_pct": 0.51113733892947333, "lib_pct": 0.0, "grn_pct": 0.0, "con_pct": 0.0, "ref_pct": 0.0, "minority_pct": 0.10896520502661579, "compactness": 0.21543823660366646 }, "geometry": { "type": "MultiPolygon", "coordinates": [ [ [ [ -96.712195000236704, 46.45655500030157 ], [ -96.723083000379717, 46.466717000342548 ], [ -96.714605999718501, 46.472260999855735 ], [ -96.738895000265273, 46.478775999602028 ], [ -96.738259999734368, 46.539293999733403 ], [ -96.750115999777691, 46.540759000342781 ], [ -96.738714999942232, 46.543228000107781 ], [ -96.754396999722672, 46.556818000437453 ], [ -96.741749999964881, 46.563996999915247 ], [ -96.757499999929422, 46.57782999986263 ], [ -96.747328000542083, 46.582159000175864 ], [ -96.760517999820451, 46.581507999986016 ], [ -96.755505999819007, 46.59500399967623 ], [ -96.771578999677786, 46.596212999940313 ], [ -96.770843000542925, 46.615270000265234 ], [ -96.791306000378327, 46.624970999853637 ], [ -96.782178999680141, 46.631412000167728 ], [ -96.79819499965771, 46.629573000243809 ], [ -96.785815000571816, 46.640522999742508 ], [ -96.802040999964944, 46.667851000039548 ], [ -96.784066000604497, 46.685269999555395 ], [ -96.79119699977916, 46.718874000280074 ], [ -96.779136000043849, 46.726641999840837 ], [ -96.789788999545877, 46.756701000000348 ], [ -96.777849999861132, 46.761587999883432 ], [ -96.789519000224161, 46.766023999882741 ], [ -96.775453000595888, 46.766750999708663 ], [ -96.796756000508182, 46.776999000328246 ], [ -96.787136000230376, 46.785651000062373 ], [ -96.802544000206623, 46.81152099957616 ], [ -96.791559000329428, 46.827864000086244 ], [ -96.780270999695489, 46.825763000269006 ], [ -96.793959000052837, 46.833063999562185 ], [ -96.775359000222736, 46.838863000392273 ], [ -96.781183999469661, 46.879276000028888 ], [ -96.768428999473798, 46.879507999741449 ], [ -96.776713000048289, 46.895618999593225 ], [ -96.753257000340952, 46.924563000398997 ], [ -96.763257000620868, 46.93506299972497 ], [ -96.791757999976198, 46.928465000321886 ], [ -96.792656000084008, 46.946764000415385 ], [ -96.804662000621292, 46.947468000122939 ], [ -96.795045000192715, 46.965838000289672 ], [ -96.822663999834788, 46.970020000440343 ], [ -96.820976000489381, 47.003326000094567 ], [ -96.839547999660809, 47.006728000111266 ], [ -96.812659000397261, 47.038634000144249 ], [ -96.822715999373543, 47.036936999823872 ], [ -96.8177080001322, 47.05230900038697 ], [ -96.83038599989591, 47.060823000044088 ], [ -96.819739000635821, 47.061729000032962 ], [ -96.81962999977884, 47.075341999762863 ], [ -96.82927600030618, 47.074620000252828 ], [ -96.815751000591717, 47.078986999754534 ], [ -96.826362999904788, 47.088920000165622 ], [ -96.816191000117385, 47.10848100011475 ], [ -96.837563999791641, 47.121980000127685 ], [ -96.820722999805426, 47.130368999884496 ], [ -96.830416999725571, 47.129224000411057 ], [ -96.828648000025595, 47.146418999772564 ], [ -96.841246999440955, 47.151855999671682 ], [ -96.822358999564429, 47.156341000013462 ], [ -96.833484000576618, 47.176643999607386 ], [ -96.821554999691969, 47.18431399959713 ], [ -96.8448469994634, 47.193580000292755 ], [ -96.827173999721538, 47.201243999765602 ], [ -96.833996000233398, 47.22193399956096 ], [ -96.845587000216284, 47.219261000201968 ], [ -96.831454000279379, 47.226711000037447 ], [ -96.84146899950332, 47.233208000229766 ], [ -96.828671999513276, 47.233286000192734 ], [ -96.843662000623581, 47.239613000331822 ], [ -96.832155000265104, 47.247368999613442 ], [ -96.844412999691357, 47.251154999563312 ], [ -96.835971000054499, 47.262523000326439 ], [ -96.847364999506482, 47.262616000421929 ], [ -96.834604999924011, 47.267156000413728 ], [ -96.847689999900467, 47.271066000232395 ], [ -96.830634000029292, 47.305740999838584 ], [ -96.846888999821445, 47.316262999622474 ], [ -96.828764000575035, 47.327995000314473 ], [ -96.845785999349189, 47.328036999622526 ], [ -96.830642999782668, 47.338786000251801 ], [ -96.858206000503756, 47.367530000104928 ], [ -96.837141000614494, 47.371290999704506 ], [ -96.854622000466009, 47.373780000077716 ], [ -96.837465000664892, 47.389526999834438 ], [ -96.852714000014117, 47.406094000254349 ], [ -96.842072999675906, 47.411737999581433 ], [ -96.871763000022668, 47.419006000086902 ], [ -96.852815999986817, 47.432030000296251 ], [ -96.863619000502226, 47.457010000231222 ], [ -96.851945999402432, 47.479054999634798 ], [ -96.86851899998355, 47.478473000062124 ], [ -96.852157999611293, 47.48635100020914 ], [ -96.86504000053587, 47.491651000000317 ], [ -96.842280000019485, 47.508635999878742 ], [ -96.87117199990773, 47.527268000023412 ], [ -96.853555000220595, 47.536179000227762 ], [ -96.862305999966836, 47.541194999630115 ], [ -96.845322999509406, 47.538752000180729 ], [ -96.861749000260545, 47.559279000068166 ], [ -96.847499000418878, 47.566226000318458 ], [ -96.868933999925162, 47.567002000185731 ], [ -96.851568000484676, 47.568654999639179 ], [ -96.86047600014885, 47.575022000440725 ], [ -96.85102099983898, 47.598544000388543 ], [ -96.879726000540913, 47.619335999794075 ], [ -96.885115999774442, 47.673807999925536 ], [ -96.920874999534121, 47.699975999625352 ], [ -96.919799000603277, 47.716928000157402 ], [ -96.930972999459925, 47.715546999813711 ], [ -96.918413000198058, 47.724041000178524 ], [ -96.939684999570474, 47.754787999830462 ], [ -96.928853999965398, 47.755295999975353 ], [ -96.934883000302051, 47.767208999809846 ], [ -96.965102999363708, 47.783511999976589 ], [ -96.966459000017338, 47.799568999918293 ], [ -96.99157799970591, 47.808187000321738 ], [ -96.974128000020258, 47.823474000413185 ], [ -96.998337000413201, 47.841932000126739 ], [ -97.001827999426851, 47.86813399965402 ], [ -97.023142000010949, 47.874062999608725 ], [ -97.01785400013641, 47.919911000096633 ], [ -97.055341000303045, 47.947514999662587 ], [ -97.053089000404896, 47.990444000432987 ], [ -97.072239000204988, 48.019106999734888 ], [ -97.072257000392767, 48.048068000381633 ], [ -97.104483000396641, 48.072427999701127 ], [ -97.101876000614979, 48.095895999540559 ], [ -97.123202000276024, 48.106649999855421 ], [ -97.13346799957786, 48.1371010002484 ], [ -97.122876000125231, 48.139750000214462 ], [ -97.146504999898127, 48.142219999846752 ], [ -97.120967999798566, 48.159551999864519 ], [ -97.141949999781517, 48.160201999645622 ], [ -97.147510000361464, 48.170572000373006 ], [ -97.136010000092384, 48.176739999853083 ], [ -97.149809999941468, 48.183497999663402 ], [ -97.140909999904792, 48.204519999557782 ], [ -97.12927699982508, 48.208377000025017 ], [ -97.139295999793831, 48.216754999627312 ], [ -97.117837999736906, 48.20976400024599 ], [ -97.139054999416032, 48.221952000198847 ], [ -97.152190000247757, 48.219635999830899 ], [ -97.137190999616834, 48.226951000408398 ], [ -97.120689999880369, 48.224754000387478 ], [ -97.144645000444584, 48.233562000196365 ], [ -97.133735000463673, 48.23907500031082 ], [ -97.14674399946027, 48.244484000199165 ], [ -97.12510799957731, 48.249983000245983 ], [ -97.122953999810164, 48.261665999830782 ], [ -97.145031999860777, 48.26876599973636 ], [ -97.116569999905266, 48.279660999944483 ], [ -97.13733399956682, 48.291756999850868 ], [ -97.112231000014276, 48.296472000076392 ], [ -97.124166000238702, 48.311142000415543 ], [ -97.137748999816196, 48.309729000002932 ], [ -97.115580999396258, 48.323927999808191 ], [ -97.141714999656116, 48.32572899962112 ], [ -97.125919999539946, 48.340578999963661 ], [ -97.156261000138159, 48.365578000281303 ], [ -97.133341000135786, 48.382196000002267 ], [ -97.163375999706147, 48.392856999931524 ], [ -97.1311750004635, 48.407280999551929 ], [ -97.15399400013392, 48.41812099972946 ], [ -97.122583000106715, 48.417921000299252 ], [ -97.14587300053249, 48.431147999816034 ], [ -97.127818000516612, 48.431256000408048 ], [ -97.124824000232053, 48.4418960000121 ], [ -97.150633000130171, 48.440815999553756 ], [ -97.12854400052791, 48.460300999729384 ], [ -97.147417999887281, 48.472752999702372 ], [ -97.12816299996193, 48.474361999592098 ], [ -97.162667999498595, 48.477782999848529 ], [ -97.140291000345059, 48.484722000347517 ], [ -97.143017000557691, 48.49233400014554 ], [ -97.131499999927556, 48.489005999677929 ], [ -97.150266999648821, 48.511600000201796 ], [ -97.126757999742637, 48.520157000228053 ], [ -97.152422999742896, 48.520364000123614 ], [ -97.141358000381516, 48.535451999925364 ], [ -97.165796999777896, 48.548289999835141 ], [ -97.13895099962248, 48.55511999996363 ], [ -97.175423000532248, 48.561957000272265 ], [ -97.149170000095495, 48.570014000378514 ], [ -97.160631000472733, 48.580935999751759 ], [ -97.143890999763428, 48.582112000447843 ], [ -97.154027000007517, 48.595405999920438 ], [ -97.134291000064195, 48.607400000412092 ], [ -97.150648999678424, 48.611676000108552 ], [ -97.129576000607344, 48.61369299969008 ], [ -97.133859000318623, 48.62277799984755 ], [ -97.11949499983595, 48.618559999795551 ], [ -97.131140000633835, 48.631472999644195 ], [ -97.109450000045683, 48.632468999556693 ], [ -97.115691999825771, 48.644560999582822 ], [ -97.098690999745529, 48.660995000188805 ], [ -97.109228999743394, 48.664250000175329 ], [ -97.090313000422924, 48.684403999956537 ], [ -97.119904000511852, 48.701247999842899 ], [ -97.11011199952641, 48.707977999762925 ], [ -97.137423999672706, 48.726565999767217 ], [ -97.128339999931313, 48.732135999933817 ], [ -97.142132999520868, 48.73617200002888 ], [ -97.137537999401545, 48.749643999994838 ], [ -97.15379499954075, 48.753993000377065 ], [ -97.14545599973853, 48.764790000379961 ], [ -97.15898300063995, 48.775711000303765 ], [ -97.14746900003145, 48.781440999699925 ], [ -97.173771999818356, 48.793524000218802 ], [ -97.163261000341834, 48.800578999704534 ], [ -97.181481000243366, 48.798208000331194 ], [ -97.158117999506914, 48.810319000419575 ], [ -97.190274000308776, 48.815134999994164 ], [ -97.173884000634914, 48.837993000303747 ], [ -97.17916599976013, 48.862843999987284 ], [ -97.190573000282697, 48.864279000416857 ], [ -97.1778140007236, 48.875639000284721 ], [ -97.199393999326929, 48.881112999609336 ], [ -97.190018000560613, 48.89551599954509 ], [ -97.211399000554053, 48.905602000181702 ], [ -97.214406000403159, 48.931641000414679 ], [ -97.233995999448808, 48.947434000130116 ], [ -97.228439000452298, 49.000674000324402 ], [ -95.15371100041871, 48.99890300033519 ], [ -95.153314000122492, 49.384358000197842 ], [ -95.058374999471994, 49.35313000002099 ], [ -94.957439000030533, 49.370065999622355 ], [ -94.854283000395228, 49.324108000193874 ], [ -94.816500999412625, 49.320996999579712 ], [ -94.825555000552342, 49.294389000292831 ], [ -94.798083000524912, 49.197870999658541 ], [ -94.773233000406364, 49.120732000297643 ], [ -94.750277999921352, 49.09927300028798 ], [ -94.75021800031719, 48.999992000354688 ], [ -94.718940999461267, 48.999991000010873 ], [ -94.684347000166269, 48.883958000304936 ], [ -94.685698000277156, 48.840118000214638 ], [ -94.704379000347302, 48.824263000207509 ], [ -94.694347000402146, 48.782184000055814 ], [ -94.645386999877942, 48.744079000397512 ], [ -94.590285000321146, 48.718022000217658 ], [ -94.549074999812746, 48.71464699991121 ], [ -94.537743000169598, 48.702412999741348 ], [ -94.452308999809489, 48.692360999690365 ], [ -94.416183000545558, 48.710916999982004 ], [ -94.291026000640315, 48.707691999676364 ], [ -94.260589999734052, 48.696308999623085 ], [ -94.250281999646631, 48.65636400044049 ], [ -94.22431900004554, 48.649473999813964 ], [ -93.840759999986616, 48.628537000372795 ], [ -93.806805999601195, 48.577605000224843 ], [ -93.818269999697989, 48.530027999997642 ], [ -93.794454999607694, 48.51598600033936 ], [ -93.656650000510666, 48.515721000185955 ], [ -93.628863999649312, 48.531210000139254 ], [ -93.610616999664273, 48.521655000399932 ], [ -93.46942599991884, 48.545206999661346 ], [ -93.45665900012969, 48.561830000149079 ], [ -93.464299000073495, 48.59178000007099 ], [ -93.405265000629754, 48.609330000314145 ], [ -93.371151999386541, 48.605069000072874 ], [ -93.348182000151141, 48.626412999824623 ], [ -93.254870000304365, 48.642746000109248 ], [ -93.207426000478051, 48.642418999877883 ], [ -93.17847000067141, 48.623278999550756 ], [ -92.984963000511797, 48.623730999707256 ], [ -92.954876000554364, 48.631492999642937 ], [ -92.949827000128096, 48.608274000163689 ], [ -92.728046000388247, 48.539289000419636 ], [ -92.634931000036914, 48.542873000224766 ], [ -92.627237000154523, 48.503383000114042 ], [ -92.698814000025337, 48.494884999648043 ], [ -92.712561999885622, 48.463012999683137 ], [ -92.687997999911431, 48.443888999985624 ], [ -92.656027000489644, 48.436708999982663 ], [ -92.507285000533216, 48.447875999911503 ], [ -92.456325000111747, 48.414203999639483 ], [ -92.476749999741088, 48.371760000147702 ], [ -92.469948999874987, 48.351837000278188 ], [ -92.416276000396252, 48.295467000425148 ], [ -92.369945000128538, 48.220154999942388 ], [ -92.269741999739097, 48.248240999755751 ], [ -92.293857000163598, 48.270259000336885 ], [ -92.306239999585117, 48.316383999990769 ], [ -92.288994000154034, 48.342990000221143 ], [ -92.262477000080992, 48.354848000090378 ], [ -92.216982999665873, 48.34511400040784 ], [ -92.145049000661658, 48.365651000104762 ], [ -92.143583000628595, 48.35612099986934 ], [ -92.055228000065696, 48.359212000083438 ], [ -92.046563000076716, 48.334738999902406 ], [ -92.000126000345261, 48.321354000432478 ], [ -92.012972999416689, 48.297391999738963 ], [ -92.006573999608321, 48.265423000003622 ], [ -91.976766999957547, 48.244513000007949 ], [ -91.971026999346947, 48.253343000210641 ], [ -91.95446599937604, 48.251837999782367 ], [ -91.958289999813331, 48.233023999922253 ], [ -91.893470000205866, 48.237698999740793 ], [ -91.86438199981626, 48.207031000111776 ], [ -91.815771999631764, 48.211750000445932 ], [ -91.789003999726631, 48.196548000406068 ], [ -91.756393999975359, 48.205822999854256 ], [ -91.7152330004362, 48.19929700024727 ], [ -91.724573000101898, 48.170658000167187 ], [ -91.705319000559768, 48.17077599998057 ], [ -91.698162000267502, 48.141645000029456 ], [ -91.71184400029658, 48.114604999671272 ], [ -91.682837000115285, 48.122124999903768 ], [ -91.687610999870785, 48.1116990001982 ], [ -91.665211000523811, 48.10701799995639 ], [ -91.653260999459206, 48.114145000285966 ], [ -91.640172999350497, 48.096930999791702 ], [ -91.559267000088198, 48.108274999949856 ], [ -91.575459999336331, 48.06629399975553 ], [ -91.567247999667302, 48.04372600005432 ], [ -91.488650000253116, 48.068072999698636 ], [ -91.450330999877167, 48.068804999938784 ], [ -91.429641999688727, 48.048607999711543 ], [ -91.370874999548036, 48.069417000004847 ], [ -91.266380999423731, 48.078713999841817 ], [ -91.137733000514643, 48.149149999662157 ], [ -91.14290600014526, 48.154375000200979 ], [ -90.885480000366371, 48.245783999590458 ], [ -90.875110000310812, 48.237780000140006 ], [ -90.839175999797234, 48.239510999951968 ], [ -90.836293999398208, 48.176970999960865 ], [ -90.821115000645577, 48.184708999588466 ], [ -90.796610999496409, 48.159361999899495 ], [ -90.77743899961763, 48.1634120002891 ], [ -90.777933999367775, 48.14824699989174 ], [ -90.797971999348135, 48.136893999671962 ], [ -90.782107999527966, 48.135426999970498 ], [ -90.789922999830594, 48.129901000426095 ], [ -90.751608000456599, 48.090967999589985 ], [ -90.641595000462416, 48.103515000094816 ], [ -90.579897000036411, 48.123922000286832 ], [ -90.559294999322731, 48.121681000173368 ], [ -90.569768000105157, 48.106951999850956 ], [ -90.556837999536441, 48.096007999577274 ], [ -90.487077000046199, 48.099082000343124 ], [ -90.467712000534135, 48.108817999684071 ], [ -90.438448999540043, 48.098747000084877 ], [ -90.403219000438128, 48.105113999578535 ], [ -90.374541999538764, 48.090941999975549 ], [ -90.312386000074, 48.105299999719918 ], [ -90.289337000332125, 48.098993000148361 ], [ -90.140862999444963, 48.112502999790948 ], [ -90.023594999596511, 48.084708000236454 ], [ -89.997852000291132, 48.057566999818491 ], [ -89.993764999702776, 48.028197999951132 ], [ -89.953140999634854, 48.010670999545027 ], [ -89.934488999764596, 48.015627999685329 ], [ -89.897414000018216, 47.987599000340474 ], [ -89.847117999633454, 47.992222999607385 ], [ -89.819801999999498, 48.015098999562916 ], [ -89.774999000131444, 48.022630999587044 ], [ -89.651064999540239, 48.00362500008498 ], [ -89.610350999659104, 48.017780000029539 ], [ -89.607821000586483, 48.006566000229085 ], [ -89.58096700052964, 47.995329999989053 ], [ -89.492821000149235, 48.00531500019278 ], [ -89.562589999902599, 47.993322000095404 ], [ -89.600795000517849, 47.979585999814468 ], [ -89.623810999369638, 47.994787000110151 ], [ -89.649591000447487, 47.979289999646852 ], [ -89.639272999653542, 47.953475999689232 ], [ -89.657184000416351, 47.966730000353323 ], [ -89.679393999946669, 47.964357000447833 ], [ -89.690208000202929, 47.954078999767589 ], [ -89.681027999967483, 47.9449190003658 ], [ -89.756645000548602, 47.903953999741923 ], [ -89.923649000665094, 47.862061999983673 ], [ -89.927500999676838, 47.850699999549988 ], [ -89.974295999728383, 47.830513999978685 ], [ -90.071652000500208, 47.811266000214509 ], [ -90.072458000445991, 47.797914000034758 ], [ -90.160789999779141, 47.79280700012 ], [ -90.188753999601204, 47.776570000297419 ], [ -90.251274000400883, 47.772280000175407 ], [ -90.3292990003564, 47.745222999753352 ], [ -90.437712000571068, 47.731612000241796 ], [ -90.534700999551106, 47.703968000065572 ], [ -90.77700299956517, 47.606230000304109 ], [ -90.913269000056118, 47.522548000173117 ], [ -91.04629600046826, 47.456652000005398 ], [ -91.155863000226105, 47.379752999742315 ], [ -91.18438000054752, 47.339432999762657 ], [ -91.239521000050374, 47.304585999635322 ], [ -91.247326999956172, 47.293942000094603 ], [ -91.247746000172228, 47.281064000437624 ], [ -91.28017600000419, 47.266559999807399 ], [ -91.287858999747044, 47.249015000275655 ], [ -91.308802000372637, 47.250810000383595 ], [ -91.465625999507012, 47.131234999915776 ], [ -91.573513000504946, 47.090025000015935 ], [ -91.594673999622685, 47.062526000255296 ], [ -91.63495000015179, 47.042964000413853 ], [ -91.637033999504837, 47.026962000420909 ], [ -91.704692000084677, 47.005216000161937 ], [ -91.781822000588733, 46.942662000207257 ], [ -91.79398099964331, 46.940109000329294 ], [ -91.794169999957177, 47.111422999691491 ], [ -92.048580999972444, 47.11160300015883 ], [ -92.048078999572141, 46.938094999562594 ], [ -92.301898000298536, 46.937953000415696 ], [ -92.302011999965899, 47.024099999644434 ], [ -92.67993800065274, 47.02888399979058 ], [ -92.679864000581276, 46.942096000027178 ], [ -92.806346000142568, 46.939597999970999 ], [ -92.80864599953469, 46.766321000286993 ], [ -92.93584399942921, 46.766122000280525 ], [ -92.935929999491549, 46.592889999812037 ], [ -92.803070000285288, 46.592230000108358 ], [ -92.803716999396684, 46.504912999891445 ], [ -93.055168000291104, 46.506887999594177 ], [ -93.054846999560567, 46.419269000154131 ], [ -93.177634000236324, 46.419548000024129 ], [ -93.178167000395206, 46.332431999562381 ], [ -93.431107000009789, 46.333291999772911 ], [ -93.430691999566889, 46.418709999573188 ], [ -93.558592000269613, 46.417652000295455 ], [ -93.558987000427436, 46.505618000346395 ], [ -93.68593099969388, 46.504040999855405 ], [ -93.686500999990415, 46.417771999575393 ], [ -93.936739000641225, 46.417043000092683 ], [ -93.937086999822327, 46.243299000072554 ], [ -94.06124999949381, 46.243379999699663 ], [ -94.061819999501751, 46.070503999833257 ], [ -94.187673000576609, 46.070705000012495 ], [ -94.18723000049593, 45.983365999635339 ], [ -94.33453200055861, 45.982888000237679 ], [ -94.329403000371954, 45.980719999779161 ], [ -94.32916200000443, 45.976461000296595 ], [ -94.334631000098838, 45.962190000202121 ], [ -94.37039399956646, 45.962748000432896 ], [ -94.373179999429681, 45.955284000258189 ], [ -94.385632999728159, 45.95884200007832 ], [ -94.389021999467616, 45.951577000206328 ], [ -94.399858000608432, 45.951521999635439 ], [ -94.388501000252191, 45.972967999937957 ], [ -94.39108399997076, 45.975662000189402 ], [ -94.390105999901166, 46.107769999798556 ], [ -94.896266000376883, 46.106798000308679 ], [ -94.896890000164419, 46.019487999579077 ], [ -95.14668600009297, 46.01983100013603 ], [ -95.140183000221299, 45.871144000156804 ], [ -95.171080000446679, 45.874734000434181 ], [ -95.171439999673908, 45.85653699958354 ], [ -95.144482999680065, 45.856775999881016 ], [ -95.140166000341225, 45.846063999828843 ], [ -95.264391999900539, 45.845756999594649 ], [ -95.262854000444605, 45.758826999625661 ], [ -96.005936000033188, 45.759445000031505 ], [ -96.006570000612058, 45.846609999829369 ], [ -96.130460000260115, 45.846820000226295 ], [ -96.130409999570304, 45.934270000151741 ], [ -96.017910000342766, 45.934379999597404 ], [ -96.017950000321136, 46.021270000018752 ], [ -96.266139999804082, 46.02161000022187 ], [ -96.266139999576723, 45.934769999837499 ], [ -96.286939999396438, 45.934600000255408 ], [ -96.390341000276052, 45.934801000423178 ], [ -96.389670000375233, 46.02156000028571 ], [ -96.576563999448368, 46.021847999720421 ], [ -96.55441100062589, 46.08407899988768 ], [ -96.580273000573783, 46.151076000310745 ], [ -96.57663600041424, 46.173943999688547 ], [ -96.592681999427597, 46.175211000285728 ], [ -96.583760999616672, 46.208059000331204 ], [ -96.598729000608358, 46.242317000324334 ], [ -96.58371499976991, 46.249806999632618 ], [ -96.600401999885165, 46.261750000303103 ], [ -96.599378999390623, 46.329983999914063 ], [ -96.629402999934442, 46.354319000080515 ], [ -96.645604000216707, 46.351085999840976 ], [ -96.685355000171555, 46.414211999959178 ], [ -96.704580999660891, 46.417995000379733 ], [ -96.703268999752765, 46.4372949999645 ], [ -96.721853000267302, 46.439829000316301 ], [ -96.712195000236704, 46.45655500030157 ] ], [ [ -96.111509999380459, 48.107060000471463 ], [ -96.111509999326174, 48.107059999573096 ], [ -96.111469999693327, 48.108520000002699 ], [ -96.111509999380459, 48.107060000471463 ] ], [ [ -96.170593999361429, 48.10041499957704 ], [ -96.170593999416724, 48.100415000475358 ], [ -96.170786000348684, 48.100700000416161 ], [ -96.170593999361429, 48.10041499957704 ] ], [ [ -95.324231999810308, 45.84571999955898 ], [ -95.324231999847783, 45.845720000458286 ], [ -95.326026000644617, 45.845711000309258 ], [ -95.324231999810308, 45.84571999955898 ] ], [ [ -95.281331000554687, 45.84577899954111 ], [ -95.28133100059145, 45.845779000440459 ], [ -95.283293000355485, 45.845811999827887 ], [ -95.281331000554687, 45.84577899954111 ] ], [ [ -94.917513999605973, 47.483166000553723 ], [ -94.917513999573231, 47.483165999654432 ], [ -94.917630000299468, 47.490410000314952 ], [ -94.917513999605973, 47.483166000553723 ] ], [ [ -94.334927999454266, 45.96274999967337 ], [ -94.345339999348397, 45.966680999728609 ], [ -94.34535200044995, 45.962755000119721 ], [ -94.334927999454266, 45.96274999967337 ] ], [ [ -94.353434000160831, 45.965207999670092 ], [ -94.350574000487228, 45.962846000147472 ], [ -94.350750999907248, 45.966254000321001 ], [ -94.353434000160831, 45.965207999670092 ] ], [ [ -94.37232899968204, 45.962679000314075 ], [ -94.373009999870149, 45.961473000138341 ], [ -94.372158000475736, 45.962835000067884 ], [ -94.37232899968204, 45.962679000314075 ] ], [ [ -94.377916000017109, 45.959302999930877 ], [ -94.374502000062179, 45.960132999889517 ], [ -94.37454500053974, 45.960746000126839 ], [ -94.377916000017109, 45.959302999930877 ] ], [ [ -94.38955999962414, 45.974804999618783 ], [ -94.390000999451246, 45.975200000083859 ], [ -94.389982000473097, 45.97479500032221 ], [ -94.38955999962414, 45.974804999618783 ] ], [ [ -94.392154000495225, 45.952479999630405 ], [ -94.394726000023098, 45.955245000231024 ], [ -94.394890000346479, 45.952499999692982 ], [ -94.392154000495225, 45.952479999630405 ] ], [ [ -94.333433999663654, 45.975628000173465 ], [ -94.334366999528413, 45.978098000126373 ], [ -94.334281999825478, 45.975651999619103 ], [ -94.333433999663654, 45.975628000173465 ] ], [ [ -94.33499799978577, 45.982867000439228 ], [ -94.339524999369274, 45.981803999860659 ], [ -94.334936999967297, 45.981789999787402 ], [ -94.33499799978577, 45.982867000439228 ] ] ], [ [ [ -91.773431999556166, 46.946677999792165 ], [ -91.772932999551514, 46.945740999820934 ], [ -91.774334000468798, 46.945878999993383 ], [ -91.773431999556166, 46.946677999792165 ] ] ], [ [ [ -91.553342000660933, 47.087719999585396 ], [ -91.551967999675512, 47.090510000058892 ], [ -91.551768999765471, 47.087379999829125 ], [ -91.553342000660933, 47.087719999585396 ] ] ], [ [ [ -91.348840999375213, 47.217475999728045 ], [ -91.349100999738141, 47.216960999769611 ], [ -91.34944300030665, 47.217291000226133 ], [ -91.348840999375213, 47.217475999728045 ] ] ], [ [ [ -91.324756000582937, 47.236181000043665 ], [ -91.324069999663891, 47.236727999742072 ], [ -91.324140999780568, 47.236302000413254 ], [ -91.324756000582937, 47.236181000043665 ] ] ], [ [ [ -91.324364999963279, 47.237395999807589 ], [ -91.324505999675239, 47.237638000431986 ], [ -91.324329000549753, 47.237596999661186 ], [ -91.324364999963279, 47.237395999807589 ] ] ], [ [ [ -91.244306000578732, 47.290134000285136 ], [ -91.244451999772892, 47.290736000382459 ], [ -91.244060999628957, 47.290250000270504 ], [ -91.244306000578732, 47.290134000285136 ] ] ], [ [ [ -91.244688999969711, 47.293132999784874 ], [ -91.245617000654661, 47.2933789998999 ], [ -91.243700000061949, 47.293588999742511 ], [ -91.244688999969711, 47.293132999784874 ] ] ], [ [ [ -91.239203999727096, 47.296732999700801 ], [ -91.238112999944988, 47.29733599972009 ], [ -91.237787999409576, 47.297122999743593 ], [ -91.239203999727096, 47.296732999700801 ] ] ], [ [ [ -89.840024000236312, 47.877994999854216 ], [ -89.837986000308533, 47.876853000217857 ], [ -89.839547000109903, 47.876442000218432 ], [ -89.840024000236312, 47.877994999854216 ] ] ], [ [ [ -89.827903999434071, 47.881650999810013 ], [ -89.828074000020933, 47.879938000205705 ], [ -89.829125999536117, 47.879869999934911 ], [ -89.827903999434071, 47.881650999810013 ] ] ], [ [ [ -89.65471000030513, 47.952795999870467 ], [ -89.665284999933391, 47.952957999745813 ], [ -89.661848999608708, 47.955675999546976 ], [ -89.65471000030513, 47.952795999870467 ] ] ], [ [ [ -89.566976999775619, 47.967511000311852 ], [ -89.585612000296194, 47.958828000064756 ], [ -89.586802000226655, 47.959010000293908 ], [ -89.566976999775619, 47.967511000311852 ] ] ], [ [ [ -89.592315999651618, 47.966661000261027 ], [ -89.586941999505356, 47.968056000347552 ], [ -89.586499999423978, 47.967599000030788 ], [ -89.592315999651618, 47.966661000261027 ] ] ], [ [ [ -89.552928999423216, 47.973153000285954 ], [ -89.559051999581584, 47.969726999589774 ], [ -89.561908999897199, 47.96961300024482 ], [ -89.552928999423216, 47.973153000285954 ] ] ], [ [ [ -89.563235999947764, 47.971029000431685 ], [ -89.565617000353186, 47.971782000183595 ], [ -89.562385000095631, 47.97182799997848 ], [ -89.563235999947764, 47.971029000431685 ] ] ], [ [ [ -89.59575399949712, 47.971296999726469 ], [ -89.589292000580897, 47.972257999883055 ], [ -89.595754000327403, 47.970840000208405 ], [ -89.59575399949712, 47.971296999726469 ] ] ], [ [ [ -89.567967000483065, 47.974539999614706 ], [ -89.568919999714055, 47.973649000123551 ], [ -89.570569999524707, 47.973743999759357 ], [ -89.567967000483065, 47.974539999614706 ] ] ], [ [ [ -89.573170999459549, 47.980552000141699 ], [ -89.567285000211399, 47.978292000023998 ], [ -89.585820000187326, 47.967873000284911 ], [ -89.582014999863588, 47.978838000324558 ], [ -89.573170999459549, 47.980552000141699 ] ] ], [ [ [ -89.590449999569046, 47.974610000434723 ], [ -89.587184000005195, 47.974269000028642 ], [ -89.590176999378855, 47.973743000388495 ], [ -89.590449999569046, 47.974610000434723 ] ] ], [ [ [ -89.558745999330029, 47.979296999872567 ], [ -89.563542000113372, 47.977560999559927 ], [ -89.564086999889938, 47.977560999583233 ], [ -89.558745999330029, 47.979296999872567 ] ] ], [ [ [ -89.559254999825427, 47.989759000445268 ], [ -89.558744999401043, 47.988753999887983 ], [ -89.560514000176653, 47.98891399959723 ], [ -89.559254999825427, 47.989759000445268 ] ] ] ] } },
{ "type": "Feature", "properties": { "district_id": 1, "voting_age_pop": 493674, "lib_votes": 0, "grn_votes": 0, "con_votes": 0, "ref_votes": 0, "total_pop": 644863, "dem_votes_sum": 170161, "rep_votes_sum": 161165, "lib_votes_sum": 0, "grn_votes_sum": 0, "con_votes_sum": 0, "ref_votes_sum": 0, "minority_pop_sum": 100078, "dem_pct": 0.51357575318568416, "rep_pct": 0.48642424681431579, "lib_pct": 0.0, "grn_pct": 0.0, "con_pct": 0.0, "ref_pct": 0.0, "minority_pct": 0.15519265332326401, "compactness": 0.31441278118560101 }, "geometry": { "type": "MultiPolygon", "coordinates": [ [ [ [ -91.217705999494541, 43.500549999885216 ], [ -94.61163499951158, 43.500532000303352 ], [ -94.614677000182297, 43.659864999937284 ], [ -94.62586300012083, 43.659468000333547 ], [ -94.629729000001433, 43.674037000293673 ], [ -94.734077999909701, 43.674783999610476 ], [ -94.734440000076646, 43.762071000410351 ], [ -94.854545999912261, 43.762114000250193 ], [ -94.854615999858012, 43.674778999849678 ], [ -95.094821000337248, 43.674069000391938 ], [ -95.095390999746485, 43.847927000162194 ], [ -94.979372000187269, 43.847798999546697 ], [ -94.979663000298629, 44.020955999559348 ], [ -94.619549999511847, 44.022109999990143 ], [ -94.619409000136613, 44.195981999789367 ], [ -94.492505000302685, 44.196047999581687 ], [ -94.491647000390557, 44.275948999647682 ], [ -94.502482999889764, 44.297456999894983 ], [ -94.52219899974807, 44.282768000106998 ], [ -94.562459000156693, 44.282857000432372 ], [ -94.562852999826873, 44.275594999878855 ], [ -94.624411999543568, 44.282878000433861 ], [ -94.623664999782818, 44.382359000156328 ], [ -94.59711299965376, 44.38540500015344 ], [ -94.578126999922347, 44.371403999559824 ], [ -94.555658000112359, 44.375906999694507 ], [ -94.546221000588773, 44.36446400032321 ], [ -94.518168999373927, 44.370307000003159 ], [ -94.519971999649343, 44.3595599997467 ], [ -94.499296000287714, 44.35230400006057 ], [ -94.492207999361042, 44.456363999573107 ], [ -94.401747999940241, 44.456510000105787 ], [ -94.40167299968526, 44.43482500019428 ], [ -94.382961999858935, 44.441996999718462 ], [ -94.383196999960035, 44.456639000321246 ], [ -94.371580000280034, 44.456300000436748 ], [ -94.371659999709806, 44.536329999886313 ], [ -94.332243000328276, 44.541529000127227 ], [ -94.375904999433629, 44.550345000207606 ], [ -94.376106000233094, 44.630450999786476 ], [ -94.2547189999826, 44.630310999684013 ], [ -94.254076000183048, 44.717854999890498 ], [ -94.236817000072179, 44.717922999682031 ], [ -94.010493999484424, 44.717463999911452 ], [ -94.010371000554571, 44.683674000092672 ], [ -93.997825000452266, 44.688003999913263 ], [ -93.991817999739013, 44.679142999967205 ], [ -94.010359999874765, 44.673792999686057 ], [ -94.01075000011663, 44.630019999853722 ], [ -93.889200000356539, 44.629900000136438 ], [ -93.889664000130324, 44.596699999591792 ], [ -93.902899999691684, 44.586617000248786 ], [ -93.892713999376909, 44.584984999815546 ], [ -93.901366000576104, 44.570885999578643 ], [ -93.891248999571204, 44.547044000261927 ], [ -93.904676999572203, 44.551972999737217 ], [ -93.910405000060379, 44.54316300010214 ], [ -93.647038000328081, 44.5438730000999 ], [ -93.646282999998078, 44.282980999822534 ], [ -93.525200000179069, 44.282836999665825 ], [ -93.525230000216382, 44.195975000329298 ], [ -93.404566999773763, 44.196393000448602 ], [ -93.40376999983971, 44.283352000105793 ], [ -93.323020999898304, 44.283198999591221 ], [ -93.325415999814737, 44.291487000300052 ], [ -93.306968999588577, 44.298762999967458 ], [ -93.242576999378116, 44.291205999555885 ], [ -93.239179000580819, 44.283404999672342 ], [ -93.161841999839396, 44.283566000033247 ], [ -93.161097000171139, 44.370408999693822 ], [ -92.790561000171323, 44.369915000265955 ], [ -92.790644000223011, 44.456358000219915 ], [ -92.671361999866576, 44.4562769999987 ], [ -92.672035000027847, 44.669419999714897 ], [ -92.621847000570042, 44.639017999983729 ], [ -92.619787000375027, 44.613583999673857 ], [ -92.567826000298865, 44.602526000210887 ], [ -92.547172999779022, 44.567503000125647 ], [ -92.519790999960193, 44.575313000368169 ], [ -92.336113999969484, 44.554004000305376 ], [ -92.314071000581507, 44.538013999976968 ], [ -92.291005000399338, 44.485464000413991 ], [ -92.230855999484604, 44.4444960001222 ], [ -92.056486000434319, 44.402729000358079 ], [ -91.970265999606966, 44.365842000385051 ], [ -91.925590000265316, 44.333547999932499 ], [ -91.913534000143699, 44.311391999622423 ], [ -91.924613000064326, 44.291814999643087 ], [ -91.896387999554804, 44.274690000043087 ], [ -91.875158000321989, 44.200575000367664 ], [ -91.80806399944106, 44.159262000432491 ], [ -91.721551999411759, 44.130341999656721 ], [ -91.707490999563674, 44.103906000158609 ], [ -91.681530000333751, 44.097400000388824 ], [ -91.592069999957999, 44.031372000408368 ], [ -91.439265000198276, 44.000987999943916 ], [ -91.366642000153306, 43.93746299983956 ], [ -91.284138000537439, 43.847065000314103 ], [ -91.244134999804473, 43.774667000025929 ], [ -91.268455000541096, 43.709823999777257 ], [ -91.268979000175491, 43.616578000059221 ], [ -91.231865000520187, 43.581821999849126 ], [ -91.2431830003447, 43.540308999973803 ], [ -91.217287000164802, 43.510509000101727 ], [ -91.217705999494541, 43.500549999885216 ] ], [ [ -94.125996999714275, 44.180493000455499 ], [ -94.125996999697151, 44.180492999555334 ], [ -94.125754000133711, 44.180288000296613 ], [ -94.125996999714275, 44.180493000455499 ] ], [ [ -93.302872999832914, 44.283210999983879 ], [ -93.307909999472187, 44.288183999732659 ], [ -93.307126000411216, 44.283160999721659 ], [ -93.302872999832914, 44.283210999983879 ] ], [ [ -93.318167000031764, 44.287981000080094 ], [ -93.317801999373685, 44.287427999889132 ], [ -93.317792000306525, 44.288154000406784 ], [ -93.318167000031764, 44.287981000080094 ] ] ], [ [ [ -94.357630000348664, 44.543071999631785 ], [ -94.358954999576781, 44.541261999791452 ], [ -94.358986000568635, 44.543069999896325 ], [ -94.357630000348664, 44.543071999631785 ] ] ], [ [ [ -94.356231000354086, 44.543078999762116 ], [ -94.357109999862473, 44.542825000354952 ], [ -94.357457999805519, 44.543073000087077 ], [ -94.356231000354086, 44.543078999762116 ] ] ] ] } },
{ "type": "Feature", "properties": { "district_id": 2, "voting_age_pop": 507415, "lib_votes": 0, "grn_votes": 0, "con_votes": 0, "ref_votes": 0, "total_pop": 661311, "dem_votes_sum": 166841, "rep_votes_sum": 170553, "lib_votes_sum": 0, "grn_votes_sum": 0, "con_votes_sum": 0, "ref_votes_sum": 0, "minority_pop_sum": 83026, "dem_pct": 0.49449901302334953, "rep_pct": 0.50550098697665047, "lib_pct": 0.0, "grn_pct": 0.0, "con_pct": 0.0, "ref_pct": 0.0, "minority_pct": 0.12554758653644049, "compactness": 0.15490731670447197 }, "geometry": { "type": "MultiPolygon", "coordinates": [ [ [ [ -94.61163499951158, 43.500532000303352 ], [ -96.453259999877943, 43.500389999591263 ], [ -96.453097000479588, 45.300751000051775 ], [ -96.489064999492442, 45.357070999896344 ], [ -96.521787000238362, 45.375645000203185 ], [ -96.619751999919714, 45.408883999664369 ], [ -96.692541000173279, 45.41733800031755 ], [ -96.732738999764834, 45.458737000242856 ], [ -96.763432000388462, 45.520007000042469 ], [ -96.856834000514866, 45.605378000062288 ], [ -96.838647999669959, 45.647509000111782 ], [ -96.662595000514003, 45.738681999779168 ], [ -96.627777999471462, 45.786238999940387 ], [ -96.583084999606243, 45.820023999602 ], [ -96.561334000012423, 45.945654999969761 ], [ -96.576563999448368, 46.021847999720421 ], [ -96.389670000375233, 46.02156000028571 ], [ -96.390341000276052, 45.934801000423178 ], [ -96.286939999396438, 45.934600000255408 ], [ -96.266139999576723, 45.934769999837499 ], [ -96.266139999804082, 46.02161000022187 ], [ -96.017950000321136, 46.021270000018752 ], [ -96.017910000342766, 45.934379999597404 ], [ -96.130409999570304, 45.934270000151741 ], [ -96.130460000260115, 45.846820000226295 ], [ -96.006570000612058, 45.846609999829369 ], [ -96.005936000033188, 45.759445000031505 ], [ -95.262854000444605, 45.758826999625661 ], [ -95.264391999900539, 45.845756999594649 ], [ -95.140166000341225, 45.846063999828843 ], [ -95.144482999680065, 45.856775999881016 ], [ -95.171439999673908, 45.85653699958354 ], [ -95.171080000446679, 45.874734000434181 ], [ -95.140183000221299, 45.871144000156804 ], [ -95.14668600009297, 46.01983100013603 ], [ -94.896890000164419, 46.019487999579077 ], [ -94.896266000376883, 46.106798000308679 ], [ -94.390105999901166, 46.107769999798556 ], [ -94.39108399997076, 45.975662000189402 ], [ -94.388501000252191, 45.972967999937957 ], [ -94.399858000608432, 45.951521999635439 ], [ -94.389021999467616, 45.951577000206328 ], [ -94.385632999728159, 45.95884200007832 ], [ -94.373179999429681, 45.955284000258189 ], [ -94.37039399956646, 45.962748000432896 ], [ -94.334631000098838, 45.962190000202121 ], [ -94.32916200000443, 45.976461000296595 ], [ -94.33453200055861, 45.982888000237679 ], [ -94.18723000049593, 45.983365999635339 ], [ -94.187673000576609, 46.070705000012495 ], [ -94.061819999501751, 46.070503999833257 ], [ -94.06124999949381, 46.243379999699663 ], [ -93.937086999822327, 46.243299000072554 ], [ -93.936739000641225, 46.417043000092683 ], [ -93.686500999990415, 46.417771999575393 ], [ -93.68593099969388, 46.504040999855405 ], [ -93.558987000427436, 46.505618000346395 ], [ -93.558592000269613, 46.417652000295455 ], [ -93.430691999566889, 46.418709999573188 ], [ -93.431107000009789, 46.333291999772911 ], [ -93.178167000395206, 46.332431999562381 ], [ -93.177634000236324, 46.419548000024129 ], [ -93.054846999560567, 46.419269000154131 ], [ -93.055168000291104, 46.506887999594177 ], [ -92.803716999396684, 46.504912999891445 ], [ -92.803070000285288, 46.592230000108358 ], [ -92.935929999491549, 46.592889999812037 ], [ -92.93584399942921, 46.766122000280525 ], [ -92.80864599953469, 46.766321000286993 ], [ -92.806346000142568, 46.939597999970999 ], [ -92.679864000581276, 46.942096000027178 ], [ -92.67993800065274, 47.02888399979058 ], [ -92.302011999965899, 47.024099999644434 ], [ -92.301898000298536, 46.937953000415696 ], [ -92.048078999572141, 46.938094999562594 ], [ -92.048580999972444, 47.11160300015883 ], [ -91.794169999957177, 47.111422999691491 ], [ -91.794531000263788, 46.928751000146256 ], [ -91.815524000609273, 46.914560000040531 ], [ -91.839205000494587, 46.915216000141442 ], [ -92.081292999945433, 46.781714999978348 ], [ -92.001741000510862, 46.713010999612294 ], [ -92.020294000293219, 46.704040999936673 ], [ -92.089493000260632, 46.749237000251753 ], [ -92.116590000456767, 46.748640000348402 ], [ -92.143290000493053, 46.734640000094132 ], [ -92.146729999610486, 46.715793999699692 ], [ -92.189090999699872, 46.717540999548412 ], [ -92.204691000338741, 46.704040999856829 ], [ -92.175875000425009, 46.686465999636233 ], [ -92.207091999852835, 46.65194100038282 ], [ -92.242492999968945, 46.649241000356874 ], [ -92.256591999892237, 46.658740999959733 ], [ -92.270591999543953, 46.650741000407969 ], [ -92.291288999680802, 46.668137000126393 ], [ -92.294032999583379, 46.074376999874232 ], [ -92.332912000584173, 46.062696999980361 ], [ -92.350886999543974, 46.016075999716001 ], [ -92.420695999587181, 46.026768999698263 ], [ -92.442259000077385, 46.016176999921456 ], [ -92.469765000389515, 45.973568999794615 ], [ -92.525185999831251, 45.983862000299062 ], [ -92.549805999551481, 45.967986000422052 ], [ -92.551932999752665, 45.951651000270566 ], [ -92.63882399965307, 45.934166000059399 ], [ -92.639119999777208, 45.924557999888719 ], [ -92.659548999930706, 45.922937000034693 ], [ -92.722208999955114, 45.883001000344173 ], [ -92.739990999654381, 45.846283000252484 ], [ -92.76514599954605, 45.830182999938955 ], [ -92.757814999816958, 45.806574000225673 ], [ -92.777001000176597, 45.787809000064023 ], [ -93.021489999583764, 45.788490000029682 ], [ -93.021603000204706, 45.816777999820893 ], [ -93.265985000573551, 45.817406000206937 ], [ -93.265895000005585, 45.730659000338505 ], [ -93.388981999987266, 45.730716999976146 ], [ -93.388908000062358, 45.645030999626258 ], [ -93.512796000121256, 45.64515700029429 ], [ -93.510588999564845, 45.47187900003437 ], [ -93.633602000463668, 45.472132000400912 ], [ -93.634854999710271, 45.559611999697907 ], [ -94.14181300045631, 45.559179999890418 ], [ -94.155403999590305, 45.577562999582426 ], [ -94.147548000044196, 45.595685000242796 ], [ -94.175250999790066, 45.628090999996502 ], [ -94.185907000466742, 45.617204000417985 ], [ -94.204670000060219, 45.63566600022677 ], [ -94.196661000295663, 45.608967999618997 ], [ -94.172932000468151, 45.614424999845106 ], [ -94.183718000375293, 45.599852000242414 ], [ -94.168667999891639, 45.586065999633227 ], [ -94.199460000303773, 45.586150000149196 ], [ -94.205699999783874, 45.565909999591703 ], [ -94.192942000580288, 45.562457999656012 ], [ -94.257804999449988, 45.554258999578252 ], [ -94.213779999676419, 45.553420000172046 ], [ -94.214072999434322, 45.540704999945895 ], [ -94.191780000370983, 45.536860000338763 ], [ -94.177609999998324, 45.553879999839651 ], [ -94.165570000600155, 45.536729999951589 ], [ -94.177770000481146, 45.536729999599721 ], [ -94.178950000245607, 45.485709000038639 ], [ -94.260571000291378, 45.486129000058135 ], [ -94.261212000027299, 45.428654999884884 ], [ -94.383851999450272, 45.427823999880054 ], [ -94.383743999684313, 45.326726999786125 ], [ -94.535017000343387, 45.326110999928716 ], [ -94.53572200046068, 45.33656199961829 ], [ -94.556820000459837, 45.325893000050868 ], [ -94.76308000050571, 45.326100000215547 ], [ -94.7569039996215, 45.153424000064234 ], [ -94.685724999870189, 45.153000999994404 ], [ -94.681038000519308, 45.160036999923427 ], [ -94.634756000619831, 45.152523999948407 ], [ -94.634881000309292, 45.065837999905014 ], [ -94.502187999660023, 45.066316999728471 ], [ -94.497729999452702, 44.892333999658312 ], [ -94.497761999455321, 44.80499499983042 ], [ -94.751986000098483, 44.804455999657662 ], [ -94.752178999869997, 44.717026999997643 ], [ -94.498073999946897, 44.717170999955343 ], [ -94.497834999657641, 44.629920999846412 ], [ -94.376106000233094, 44.630450999786476 ], [ -94.375904999433629, 44.550345000207606 ], [ -94.332268000381433, 44.540857999577646 ], [ -94.371659999709806, 44.536329999886313 ], [ -94.371580000280034, 44.456300000436748 ], [ -94.383196999960035, 44.456639000321246 ], [ -94.392611999510947, 44.434845000380527 ], [ -94.401747999940241, 44.456510000105787 ], [ -94.492207999361042, 44.456363999573107 ], [ -94.498526000202389, 44.352610000439 ], [ -94.519971999649343, 44.3595599997467 ], [ -94.518168999373927, 44.370307000003159 ], [ -94.546221000588773, 44.36446400032321 ], [ -94.555658000112359, 44.375906999694507 ], [ -94.578126999922347, 44.371403999559824 ], [ -94.59711299965376, 44.38540500015344 ], [ -94.623664999782818, 44.382359000156328 ], [ -94.624411999543568, 44.282878000433861 ], [ -94.562852999826873, 44.275594999878855 ], [ -94.562459000156693, 44.282857000432372 ], [ -94.52219899974807, 44.282768000106998 ], [ -94.502482999889764, 44.297456999894983 ], [ -94.491647000390557, 44.275948999647682 ], [ -94.492505000302685, 44.196047999581687 ], [ -94.619409000136613, 44.195981999789367 ], [ -94.619549999511847, 44.022109999990143 ], [ -94.979663000298629, 44.020955999559348 ], [ -94.979372000187269, 43.847798999546697 ], [ -95.095390999746485, 43.847927000162194 ], [ -95.094821000337248, 43.674069000391938 ], [ -94.854615999858012, 43.674778999849678 ], [ -94.854545999912261, 43.762114000250193 ], [ -94.734440000076646, 43.762071000410351 ], [ -94.734077999909701, 43.674783999610476 ], [ -94.629729000001433, 43.674037000293673 ], [ -94.62586300012083, 43.659468000333547 ], [ -94.614677000182297, 43.659864999937284 ], [ -94.61163499951158, 43.500532000303352 ] ], [ [ -95.836159999522934, 44.370270000467649 ], [ -95.836159999479506, 44.370269999568464 ], [ -95.836049999631101, 44.370300000273623 ], [ -95.836159999522934, 44.370270000467649 ] ], [ [ -94.357109999862473, 44.542825000354952 ], [ -94.356231000354086, 44.543078999762116 ], [ -94.357457999805519, 44.543073000087077 ], [ -94.357109999862473, 44.542825000354952 ] ], [ [ -94.358954999576781, 44.541261999791452 ], [ -94.357630000348664, 44.543071999631785 ], [ -94.358986000568635, 44.543069999896325 ], [ -94.358954999576781, 44.541261999791452 ] ], [ [ -94.127058009324443, 45.578253000144883 ], [ -94.127113999392648, 45.57825299993516 ], [ -94.127058011185852, 45.578252999730417 ], [ -94.127058009324443, 45.578253000144883 ] ], [ [ -94.126943000607611, 45.57736699960752 ], [ -94.125371999720556, 45.576521000243645 ], [ -94.126325725749865, 45.57703459655189 ], [ -94.126943000607611, 45.57736699960752 ] ] ], [ [ [ -94.394726000023098, 45.955245000231024 ], [ -94.392154000495225, 45.952479999630405 ], [ -94.394890000346479, 45.952499999692982 ], [ -94.394726000023098, 45.955245000231024 ] ] ], [ [ [ -94.377916000017109, 45.959302999930877 ], [ -94.377122000116699, 45.957799999762237 ], [ -94.378023000017478, 45.957931000097211 ], [ -94.377916000017109, 45.959302999930877 ] ] ], [ [ [ -94.372158000475736, 45.962835000067884 ], [ -94.372480000349242, 45.962002999753324 ], [ -94.373009999870149, 45.961473000138341 ], [ -94.372158000475736, 45.962835000067884 ] ] ], [ [ [ -94.350574000487228, 45.962846000147472 ], [ -94.353434000160831, 45.965207999670092 ], [ -94.350750999907248, 45.966254000321001 ], [ -94.350574000487228, 45.962846000147472 ] ] ], [ [ [ -94.334927999454266, 45.96274999967337 ], [ -94.345339999348397, 45.966680999728609 ], [ -94.334950000351853, 45.966614000248605 ], [ -94.334927999454266, 45.96274999967337 ] ] ], [ [ [ -94.389982000473097, 45.97479500032221 ], [ -94.389577000157658, 45.975208000445342 ], [ -94.38955999962414, 45.974804999618783 ], [ -94.389982000473097, 45.97479500032221 ] ] ], [ [ [ -94.334366999528413, 45.978098000126373 ], [ -94.333433999663654, 45.975628000173465 ], [ -94.334281999825478, 45.975651999619103 ], [ -94.334366999528413, 45.978098000126373 ] ] ], [ [ [ -94.339524999369274, 45.981803999860659 ], [ -94.33499799978577, 45.982867000439228 ], [ -94.334936999967297, 45.981789999787402 ], [ -94.339524999369274, 45.981803999860659 ] ] ] ] } },
{ "type": "Feature", "properties": { "district_id": 3, "voting_age_pop": 507489, "lib_votes": 0, "grn_votes": 0, "con_votes": 0, "ref_votes": 0, "total_pop": 652479, "dem_votes_sum": 247754, "rep_votes_sum": 90278, "lib_votes_sum": 0, "grn_votes_sum": 0, "con_votes_sum": 0, "ref_votes_sum": 0, "minority_pop_sum": 369923, "dem_pct": 0.73293061011975202, "rep_pct": 0.26706938988024803, "lib_pct": 0.0, "grn_pct": 0.0, "con_pct": 0.0, "ref_pct": 0.0, "minority_pct": 0.56695004743447686, "compactness": 0.18145236146818849 }, "geometry": { "type": "Polygon", "coordinates": [ [ [ -93.220529000238372, 44.831037999599374 ], [ -93.289824999838032, 44.800164999714013 ], [ -93.298221999987504, 44.839666000166915 ], [ -93.288410999991555, 44.861910999850501 ], [ -93.197900999468104, 44.861934999979653 ], [ -93.178550000258369, 44.880618000316552 ], [ -93.193942999798949, 44.905370999887886 ], [ -93.222878999569147, 44.905370999653066 ], [ -93.232289999825269, 44.895088000389308 ], [ -93.262657999995767, 44.903410999960485 ], [ -93.274778000328112, 44.948353999928109 ], [ -93.288093000229622, 44.948363999592843 ], [ -93.288002000410032, 44.964395000330057 ], [ -93.269561000288178, 44.965947999898098 ], [ -93.281522999601535, 44.978929999634616 ], [ -93.265704000597722, 44.9780459998411 ], [ -93.25752899972656, 44.998709999623834 ], [ -93.207587000111815, 44.988072000030385 ], [ -93.208091999385317, 45.03574400030918 ], [ -93.106214000094937, 45.035892000023964 ], [ -93.089749999816831, 45.006253000375573 ], [ -93.054858000291688, 45.011796000444058 ], [ -93.066074999876804, 44.991985000405997 ], [ -93.052035999848798, 44.992013000354099 ], [ -93.044992999492962, 44.969611000424621 ], [ -92.944064000448108, 44.991346999953279 ], [ -92.933953000241075, 44.917546000449853 ], [ -92.944084999783755, 44.89650700043444 ], [ -92.984157000238781, 44.886726000175742 ], [ -92.98397300006431, 44.851138999825857 ], [ -93.029801000034951, 44.864110999911986 ], [ -93.031487999847997, 44.848003000379443 ], [ -93.036722999430921, 44.863675999760432 ], [ -93.059690999543278, 44.86551700019308 ], [ -93.058803999415218, 44.802015999756627 ], [ -93.075552000082894, 44.801737000256786 ], [ -93.087677999683009, 44.832766999828777 ], [ -93.106128999922433, 44.842609000327052 ], [ -93.118231999869366, 44.804504999933435 ], [ -93.143697000044767, 44.804624000374943 ], [ -93.146817999766071, 44.819040999796691 ], [ -93.17288799956556, 44.819053999630611 ], [ -93.153345000041, 44.84803800021475 ], [ -93.182790999584284, 44.847980999741189 ], [ -93.175723999676123, 44.861943000344993 ], [ -93.197880000315322, 44.861911999876114 ], [ -93.220529000238372, 44.831037999599374 ] ], [ [ -93.232188000424912, 44.82678100023071 ], [ -93.232196999463511, 44.826774999972329 ], [ -93.23206500055268, 44.826709000368147 ], [ -93.232188000424912, 44.82678100023071 ] ], [ [ -93.200426999981289, 44.92407699977803 ], [ -93.199849000532168, 44.926750999791871 ], [ -93.199789000292256, 44.92703300013423 ], [ -93.200426999981289, 44.92407699977803 ] ], [ [ -93.200251999987813, 44.93039099969026 ], [ -93.200295893073914, 44.930708235216905 ], [ -93.199789000292256, 44.92703300013423 ], [ -93.200251999987813, 44.93039099969026 ] ], [ [ -93.201046564752005, 44.921209923838688 ], [ -93.201046666686707, 44.921209415449738 ], [ -93.200426999981289, 44.92407699977803 ], [ -93.201046564752005, 44.921209923838688 ] ], [ [ -93.201352709691562, 44.91968206904258 ], [ -93.201352763408821, 44.919682768710928 ], [ -93.201352763797189, 44.91968276677396 ], [ -93.201352709691562, 44.91968206904258 ] ], [ [ -93.20102600012666, 44.9154610003364 ], [ -93.201206999586375, 44.917803000198042 ], [ -93.200990774668483, 44.91499588688891 ], [ -93.20102600012666, 44.9154610003364 ] ], [ [ -93.200885000098481, 44.913856999982087 ], [ -93.200891780361403, 44.913908595083328 ], [ -93.200791000240216, 44.912422000375898 ], [ -93.200885000098481, 44.913856999982087 ] ], [ [ -93.198434999466372, 44.907695999917841 ], [ -93.196114000093246, 44.906522000436389 ], [ -93.199086999836538, 44.908097999608188 ], [ -93.198434999466372, 44.907695999917841 ] ], [ [ -93.207620999796191, 44.984904999676736 ], [ -93.20764700008435, 44.980513999819777 ], [ -93.207605000192444, 44.985788000348634 ], [ -93.207620999796191, 44.984904999676736 ] ], [ [ -93.207744000378483, 44.964606999658564 ], [ -93.207741000269834, 44.964606999714618 ], [ -93.20773399977719, 44.96627099994987 ], [ -93.207744000378483, 44.964606999658564 ] ], [ [ -93.205041000426803, 44.95187300033902 ], [ -93.205017999959466, 44.951962000325089 ], [ -93.20623200002089, 44.952448000345051 ], [ -93.205041000426803, 44.95187300033902 ] ], [ [ -93.171059999966204, 44.887662999721783 ], [ -93.17049358928044, 44.887806290366079 ], [ -93.170876000135635, 44.887709999696867 ], [ -93.171059999966204, 44.887662999721783 ] ], [ [ -93.15680499965832, 44.891884999720801 ], [ -93.156966000332829, 44.891827999619323 ], [ -93.156570999462787, 44.891966000267225 ], [ -93.15680499965832, 44.891884999720801 ] ], [ [ -93.153591000201502, 44.893148000033534 ], [ -93.153393801567375, 44.89330745723278 ], [ -93.153173000387028, 44.893485999580754 ], [ -93.153591000201502, 44.893148000033534 ] ], [ [ -93.151210999610527, 44.895233000364364 ], [ -93.150451693598271, 44.896155909704362 ], [ -93.151134999643645, 44.895325999860873 ], [ -93.151210999610527, 44.895233000364364 ] ], [ [ -93.096031999986153, 44.923286999648177 ], [ -93.096024000531472, 44.919679000398922 ], [ -93.095991999400624, 44.919679000294714 ], [ -93.096031999986153, 44.923286999648177 ] ], [ [ -93.04065200019663, 44.903651999745293 ], [ -93.040569055598226, 44.903570054501586 ], [ -93.040569009633217, 44.903570009297439 ], [ -93.04065200019663, 44.903651999745293 ] ], [ [ -93.038755000262583, 44.90178600030093 ], [ -93.039800054181669, 44.902813777687122 ], [ -93.038619000189158, 44.901651999958283 ], [ -93.038755000262583, 44.90178600030093 ] ], [ [ -93.016019177670955, 44.883032378629672 ], [ -93.01599199998256, 44.882923999706456 ], [ -93.016073999842007, 44.883250999821946 ], [ -93.016019177670955, 44.883032378629672 ] ] ] } },
{ "type": "Feature", "properties": { "district_id": 4, "voting_age_pop": 493019, "lib_votes": 0, "grn_votes": 0, "con_votes": 0, "ref_votes": 0, "total_pop": 683033, "dem_votes_sum": 185729, "rep_votes_sum": 198165, "lib_votes_sum": 0, "grn_votes_sum": 0, "con_votes_sum": 0, "ref_votes_sum": 0, "minority_pop_sum": 152566, "dem_pct": 0.48380282057026158, "rep_pct": 0.51619717942973842, "lib_pct": 0.0, "grn_pct": 0.0, "con_pct": 0.0, "ref_pct": 0.0, "minority_pct": 0.22336548892952462, "compactness": 0.22118961076872629 }, "geometry": { "type": "MultiPolygon", "coordinates": [ [ [ [ -93.525200000179069, 44.282836999665825 ], [ -93.646282999998078, 44.282980999822534 ], [ -93.647038000328081, 44.5438730000999 ], [ -93.910405000060379, 44.54316300010214 ], [ -93.904676999572203, 44.551972999737217 ], [ -93.891248999571204, 44.547044000261927 ], [ -93.901366000576104, 44.570885999578643 ], [ -93.892713999376909, 44.584984999815546 ], [ -93.902899999691684, 44.586617000248786 ], [ -93.889664000130324, 44.596699999591792 ], [ -93.889200000356539, 44.629900000136438 ], [ -94.01075000011663, 44.630019999853722 ], [ -94.010359999874765, 44.673792999686057 ], [ -93.991817999739013, 44.679142999967205 ], [ -93.997825000452266, 44.688003999913263 ], [ -94.010371000554571, 44.683674000092672 ], [ -94.010493999484424, 44.717463999911452 ], [ -93.663799999701212, 44.71796000020209 ], [ -93.663602999995632, 44.73265800025947 ], [ -93.643629999747844, 44.732861999892307 ], [ -93.655367000218376, 44.744671999865325 ], [ -93.642380000332892, 44.750736999702283 ], [ -93.641569999574287, 44.83632100033492 ], [ -93.693599000028613, 44.841316999660954 ], [ -93.693381999685599, 44.861534000427717 ], [ -93.659091000350358, 44.858760000141714 ], [ -93.646441000148471, 44.866950000279566 ], [ -93.622937000402615, 44.867271000243349 ], [ -93.612046999587264, 44.850391999969411 ], [ -93.586972000237239, 44.856085999880207 ], [ -93.573686999606664, 44.841180999732956 ], [ -93.545739999856067, 44.840719999952086 ], [ -93.533461000004763, 44.85288999977886 ], [ -93.484824000600014, 44.851633999812691 ], [ -93.480551999854455, 44.838362999796097 ], [ -93.445519999429948, 44.828166999646626 ], [ -93.429932000627801, 44.833337000102503 ], [ -93.395957999647322, 44.796895999742553 ], [ -93.350436999828219, 44.807803999927749 ], [ -93.350385000038088, 44.825902999739384 ], [ -93.329445999380212, 44.827366000179943 ], [ -93.32926199960059, 44.842204000216832 ], [ -93.29828000000488, 44.840747999755784 ], [ -93.288751000563522, 44.800454999751231 ], [ -93.220529000238372, 44.831037999599374 ], [ -93.197880000315322, 44.861911999876114 ], [ -93.175723999676123, 44.861943000344993 ], [ -93.182790999584284, 44.847980999741189 ], [ -93.153345000041, 44.84803800021475 ], [ -93.17288799956556, 44.819053999630611 ], [ -93.146817999766071, 44.819040999796691 ], [ -93.143697000044767, 44.804624000374943 ], [ -93.118231999869366, 44.804504999933435 ], [ -93.106128999922433, 44.842609000327052 ], [ -93.087677999683009, 44.832766999828777 ], [ -93.075552000082894, 44.801737000256786 ], [ -93.060501000565367, 44.80153400031913 ], [ -93.059690999543278, 44.86551700019308 ], [ -93.036722999430921, 44.863675999760432 ], [ -93.031487999847997, 44.848003000379443 ], [ -93.029801000034951, 44.864110999911986 ], [ -92.98397300006431, 44.851138999825857 ], [ -92.984157000238781, 44.886726000175742 ], [ -92.944084999783755, 44.89650700043444 ], [ -92.934529999880496, 44.948832999559961 ], [ -92.862673000110362, 44.948805000107086 ], [ -92.862827999732801, 44.992531999762839 ], [ -92.770303999733414, 44.992066999789472 ], [ -92.750645000170962, 44.937299000165801 ], [ -92.77457099982567, 44.898083999664323 ], [ -92.765600000113011, 44.837200999875151 ], [ -92.808414999435868, 44.751604000328932 ], [ -92.732042999602015, 44.714344999555429 ], [ -92.672035000027847, 44.669419999714897 ], [ -92.671361999866576, 44.4562769999987 ], [ -92.790644000223011, 44.456358000219915 ], [ -92.790561000171323, 44.369915000265955 ], [ -93.161097000171139, 44.370408999693822 ], [ -93.161841999839396, 44.283566000033247 ], [ -93.239179000580819, 44.283404999672342 ], [ -93.242576999378116, 44.291205999555885 ], [ -93.306968999588577, 44.298762999967458 ], [ -93.325415999814737, 44.291487000300052 ], [ -93.323020999898304, 44.283198999591221 ], [ -93.40376999983971, 44.283352000105793 ], [ -93.404566999773763, 44.196393000448602 ], [ -93.525230000216382, 44.195975000329298 ], [ -93.525200000179069, 44.282836999665825 ] ], [ [ -93.221179999722494, 44.471483999800512 ], [ -93.228215000157945, 44.471516000387624 ], [ -93.215145999683585, 44.471477000053873 ], [ -93.221179999722494, 44.471483999800512 ] ], [ [ -93.205582000055145, 44.471479000324116 ], [ -93.203472000094578, 44.471480000370548 ], [ -93.202849999853541, 44.471480999591634 ], [ -93.205582000055145, 44.471479000324116 ] ], [ [ -93.202849999853541, 44.471480999591634 ], [ -93.200805999997485, 44.471469999922569 ], [ -93.190824000423746, 44.471395999578483 ], [ -93.202849999853541, 44.471480999591634 ] ], [ [ -93.520830999943499, 44.828003318741857 ], [ -93.52083100017731, 44.829211999703091 ], [ -93.520831000226764, 44.828078000336383 ], [ -93.520830999943499, 44.828003318741857 ] ], [ [ -93.520830999859868, 44.827571000215315 ], [ -93.520830999924712, 44.82790616187183 ], [ -93.520831000599571, 44.827803000332267 ], [ -93.520830999859868, 44.827571000215315 ] ], [ [ -93.328481999647053, 44.717527999636005 ], [ -93.328479000443153, 44.717550000158106 ], [ -93.328513999935723, 44.729733999906344 ], [ -93.328481999647053, 44.717527999636005 ] ], [ [ -93.328513999935723, 44.729733999906344 ], [ -93.328519999697093, 44.732201999772066 ], [ -93.328521000625287, 44.732228000178978 ], [ -93.328513999935723, 44.729733999906344 ] ], [ [ -93.328521000625287, 44.732228000178978 ], [ -93.328602999580141, 44.73864299955612 ], [ -93.328612000255916, 44.739311999563078 ], [ -93.328521000625287, 44.732228000178978 ] ], [ [ -93.318357999990099, 44.678135999797917 ], [ -93.318428000139292, 44.673082000256777 ], [ -93.318461000311061, 44.667526000263955 ], [ -93.318331999899982, 44.674311999627946 ], [ -93.318357999990099, 44.678135999797917 ] ], [ [ -93.318556000572201, 44.652090999567193 ], [ -93.31855100042597, 44.652092000185 ], [ -93.318549999951927, 44.652334999600306 ], [ -93.318556000572201, 44.652090999567193 ] ], [ [ -93.318594999518965, 44.645148999971099 ], [ -93.318593999522946, 44.645149000059881 ], [ -93.318593999602626, 44.645157999845772 ], [ -93.318594999518965, 44.645148999971099 ] ], [ [ -93.28152099943506, 44.543955999655466 ], [ -93.281637999492247, 44.537026000436626 ], [ -93.281592999899743, 44.529770000424627 ], [ -93.28152099943506, 44.543955999655466 ] ], [ [ -93.329614000092533, 44.791071000181219 ], [ -93.329614999484946, 44.791085999557239 ], [ -93.329630999680418, 44.790621000314687 ], [ -93.329614000092533, 44.791071000181219 ] ], [ [ -93.329641999481112, 44.790254999791522 ], [ -93.329655000050607, 44.784873999672939 ], [ -93.32966600033312, 44.779505000284644 ], [ -93.329641999481112, 44.790254999791522 ] ], [ [ -93.329666000272098, 44.779482999625543 ], [ -93.329666999792678, 44.778643999973021 ], [ -93.32966600033312, 44.779505000284644 ], [ -93.329666000272098, 44.779482999625543 ] ], [ [ -93.329666999792678, 44.778643999973021 ], [ -93.329668000315849, 44.7784420004092 ], [ -93.329668000366183, 44.778212999596597 ], [ -93.329666999792678, 44.778643999973021 ] ], [ [ -93.328710999408656, 44.775761024725533 ], [ -93.328711000501528, 44.775760999606483 ], [ -93.32871200024826, 44.775272000024366 ], [ -93.328710999408656, 44.775761024725533 ] ], [ [ -93.481983000021714, 44.805783738446451 ], [ -93.481983000407908, 44.805783000097371 ], [ -93.481199000603709, 44.80457700023203 ], [ -93.481983000021714, 44.805783738446451 ] ], [ [ -93.448643999710512, 44.803774000297047 ], [ -93.448297000362203, 44.803874000424486 ], [ -93.448822000492115, 44.803743000270714 ], [ -93.448643999710512, 44.803774000297047 ] ], [ [ -93.445557999540483, 44.804753000053033 ], [ -93.446222000201004, 44.804479000130854 ], [ -93.446297999383788, 44.804451999832324 ], [ -93.445557999540483, 44.804753000053033 ] ], [ [ -93.444250000099615, 44.80545499989239 ], [ -93.444660000033039, 44.805207999804097 ], [ -93.444154999764791, 44.805516999585272 ], [ -93.444250000099615, 44.80545499989239 ] ], [ [ -93.440312999524267, 44.81262899965958 ], [ -93.440582671217257, 44.812398312951046 ], [ -93.440901000239677, 44.812125999629544 ], [ -93.440312999524267, 44.81262899965958 ] ], [ [ -93.399550000523661, 44.799382999660473 ], [ -93.400295999461306, 44.800081999573997 ], [ -93.401053999383819, 44.800826999745063 ], [ -93.399550000523661, 44.799382999660473 ] ], [ [ -93.3828680002689, 44.790575000037528 ], [ -93.382975000510285, 44.790761999840484 ], [ -93.382795000333147, 44.79029800043299 ], [ -93.3828680002689, 44.790575000037528 ] ], [ [ -93.363729000280301, 44.788934999647445 ], [ -93.36356799966255, 44.788909999895615 ], [ -93.364011000236331, 44.788983999791647 ], [ -93.363729000280301, 44.788934999647445 ] ], [ [ -93.351856999770618, 44.789966999609391 ], [ -93.351860000404088, 44.789963999814546 ], [ -93.351915879692314, 44.789903261348037 ], [ -93.351856999770618, 44.789966999609391 ] ], [ [ -93.274048000186141, 44.471775000364097 ], [ -93.268951000271301, 44.471837000359741 ], [ -93.278476000328993, 44.471912000362508 ], [ -93.274048000186141, 44.471775000364097 ] ], [ [ -93.247851999453161, 44.471685000179981 ], [ -93.251705999843992, 44.471719999559149 ], [ -93.259039999744815, 44.471755999835018 ], [ -93.247851999453161, 44.471685000179981 ] ], [ [ -93.23923200020883, 44.47160700019738 ], [ -93.243911999729008, 44.471649000214832 ], [ -93.237526000260118, 44.47159000018911 ], [ -93.23923200020883, 44.47160700019738 ] ], [ [ -93.248345000361567, 44.717448047577449 ], [ -93.248345000594696, 44.717448000398008 ], [ -93.248091866978299, 44.717447628460377 ], [ -93.248345000361567, 44.717448047577449 ] ], [ [ -93.243106000122452, 44.717439000005136 ], [ -93.243106003902852, 44.717439299776125 ], [ -93.244644987562211, 44.717441883529915 ], [ -93.243106000122452, 44.717439000005136 ] ], [ [ -93.24764100072349, 44.731954999765755 ], [ -93.247640999460586, 44.731954999768512 ], [ -93.247641016770871, 44.731954999795981 ], [ -93.24764100072349, 44.731954999765755 ] ], [ [ -93.23820600067117, 44.731915999442037 ], [ -93.23420900005037, 44.731906999656395 ], [ -93.244216000250347, 44.731939999647118 ], [ -93.23820600067117, 44.731915999442037 ] ], [ [ -93.228024000503964, 44.731896999277851 ], [ -93.228024000507517, 44.73189700017808 ], [ -93.229511000361398, 44.731897999727877 ], [ -93.228024000503964, 44.731896999277851 ] ], [ [ -93.240994000809152, 44.718284999943656 ], [ -93.241406000151059, 44.718240000197355 ], [ -93.240885751763358, 44.718308851258854 ], [ -93.240994000809152, 44.718284999943656 ] ], [ [ -93.240265999720606, 44.718494000668947 ], [ -93.240513289906403, 44.718407382404237 ], [ -93.239892999497485, 44.718684000212036 ], [ -93.240265999720606, 44.718494000668947 ] ], [ [ -93.238911000301485, 44.719523000091598 ], [ -93.238333999507134, 44.720537000125098 ], [ -93.238233000097026, 44.720825000363135 ], [ -93.238911000301485, 44.719523000091598 ] ], [ [ -93.238190000120838, 44.725138000562623 ], [ -93.238193999990145, 44.724179000295592 ], [ -93.23688199967161, 44.725136000183504 ], [ -93.238190000120838, 44.725138000562623 ] ], [ [ -93.227487999795827, 44.725956000478753 ], [ -93.227664497985586, 44.725865501000946 ], [ -93.226835000593724, 44.726285999772784 ], [ -93.227487999795827, 44.725956000478753 ] ], [ [ -93.222682000847371, 44.729034999935386 ], [ -93.222684999511571, 44.728134999752925 ], [ -93.222680000053799, 44.729939999737731 ], [ -93.222682000847371, 44.729034999935386 ] ], [ [ -93.248304016828186, 44.725553876785639 ], [ -93.248328999851395, 44.720685999832298 ], [ -93.2483396082512, 44.718539245273639 ], [ -93.248304016828186, 44.725553876785639 ] ], [ [ -93.248284000219755, 44.729503000440879 ], [ -93.248283863993734, 44.72950303854693 ], [ -93.248280401435181, 44.730182054890669 ], [ -93.248284000219755, 44.729503000440879 ] ], [ [ -93.294106000155963, 44.799007000356525 ], [ -93.289952999471609, 44.800129999974629 ], [ -93.29078077858837, 44.799906178221704 ], [ -93.294106000155963, 44.799007000356525 ] ], [ [ -92.918977999498082, 44.532908000274908 ], [ -92.918977000460075, 44.543247999865478 ], [ -92.918995000443317, 44.543248000029358 ], [ -92.918977999498082, 44.532908000274908 ] ], [ [ -92.918784000265561, 44.518068000127556 ], [ -92.918796000249273, 44.518339999718016 ], [ -92.918763999787899, 44.517597999563407 ], [ -92.918784000265561, 44.518068000127556 ] ], [ [ -93.152039999683808, 44.471358000132284 ], [ -93.151974999714156, 44.471360999931328 ], [ -93.152484999481743, 44.471358000195259 ], [ -93.152039999683808, 44.471358000132284 ] ], [ [ -93.145892000020694, 44.47129900008013 ], [ -93.145729999450921, 44.471297999618393 ], [ -93.14685599965712, 44.471310999655401 ], [ -93.145892000020694, 44.47129900008013 ] ], [ [ -93.167708999379485, 44.471346999949859 ], [ -93.16935700024429, 44.4713509998519 ], [ -93.166636999927704, 44.471344000048774 ], [ -93.167708999379485, 44.471346999949859 ] ], [ [ -93.17514000017249, 44.471335000017483 ], [ -93.175557999960404, 44.471332999785716 ], [ -93.174244000529143, 44.471339000112557 ], [ -93.17514000017249, 44.471335000017483 ] ], [ [ -93.171190000305387, 44.471351999821991 ], [ -93.169740999576348, 44.471351999916116 ], [ -93.170720000317132, 44.471353999684545 ], [ -93.171190000305387, 44.471351999821991 ] ], [ [ -93.135771999664328, 44.471298000017129 ], [ -93.119513999698782, 44.471367000217633 ], [ -93.113998000416146, 44.471531000049481 ], [ -93.135771999664328, 44.471298000017129 ] ], [ [ -93.105979999519832, 44.471539000201282 ], [ -93.103105999573046, 44.471635000191327 ], [ -93.107332000233228, 44.471599999932778 ], [ -93.105979999519832, 44.471539000201282 ] ], [ [ -93.090682999764169, 44.47170999958518 ], [ -93.090559999895632, 44.471729999581839 ], [ -93.092750999644309, 44.471703000357692 ], [ -93.090682999764169, 44.47170999958518 ] ], [ [ -93.06116500013114, 44.47179399964061 ], [ -93.057404999492661, 44.471906000131426 ], [ -93.069559999787188, 44.471854000141583 ], [ -93.06116500013114, 44.47179399964061 ] ], [ [ -93.03940304471422, 44.479052081457588 ], [ -93.039402999706667, 44.479055999892992 ], [ -93.039401999734338, 44.479176999919929 ], [ -93.03940304471422, 44.479052081457588 ] ], [ [ -92.964487000513131, 44.514613000179217 ], [ -92.964487009320607, 44.514613000181946 ], [ -92.964501999652811, 44.51461300034051 ], [ -92.964487000513131, 44.514613000179217 ] ], [ [ -92.974244000617233, 44.77187900015506 ], [ -92.968607878949314, 44.770052256788773 ], [ -92.979339000153047, 44.773518999986948 ], [ -92.974244000617233, 44.77187900015506 ] ], [ [ -93.009472999483123, 44.847919999970152 ], [ -93.008680000492191, 44.852043000360148 ], [ -93.009511061176326, 44.847788436476108 ], [ -93.009472999483123, 44.847919999970152 ] ], [ [ -93.017865922716439, 44.778017036757518 ], [ -93.016192999918815, 44.775863000044836 ], [ -93.017865923575044, 44.778017038474701 ], [ -93.017865922716439, 44.778017036757518 ] ], [ [ -93.021396309723741, 44.789679642145636 ], [ -93.021396310026446, 44.789679635040486 ], [ -93.021396309676462, 44.78967964235153 ], [ -93.021396309723741, 44.789679642145636 ] ], [ [ -92.983952866080287, 44.774725823134986 ], [ -92.983500999568761, 44.774662999655519 ], [ -92.983952744920586, 44.774725807240777 ], [ -92.983952866080287, 44.774725823134986 ] ], [ [ -92.982721000519646, 44.774491000100774 ], [ -92.983238754505976, 44.774605172208098 ], [ -92.983500999568761, 44.774662999655519 ], [ -92.982721000519646, 44.774491000100774 ] ], [ [ -92.792713000354226, 44.543235999699277 ], [ -92.792683000410335, 44.543166000066464 ], [ -92.792699999899725, 44.543205999983385 ], [ -92.792713000354226, 44.543235999699277 ] ] ], [ [ [ -93.317803999851023, 44.288030999761737 ], [ -93.318167000031764, 44.287981000080094 ], [ -93.317792000306525, 44.288154000406784 ], [ -93.317803999851023, 44.288030999761737 ] ] ], [ [ [ -93.307909999472187, 44.288183999732659 ], [ -93.302872999832914, 44.283210999983879 ], [ -93.307126000411216, 44.283160999721659 ], [ -93.307909999472187, 44.288183999732659 ] ] ] ] } },
{ "type": "Feature", "properties": { "district_id": 5, "voting_age_pop": 502616, "lib_votes": 0, "grn_votes": 0, "con_votes": 0, "ref_votes": 0, "total_pop": 685125, "dem_votes_sum": 174551, "rep_votes_sum": 189588, "lib_votes_sum": 0, "grn_votes_sum": 0, "con_votes_sum": 0, "ref_votes_sum": 0, "minority_pop_sum": 176126, "dem_pct": 0.47935266477910909, "rep_pct": 0.52064733522089091, "lib_pct": 0.0, "grn_pct": 0.0, "con_pct": 0.0, "ref_pct": 0.0, "minority_pct": 0.25707133734719939, "compactness": 0.20964266213062668 }, "geometry": { "type": "Polygon", "coordinates": [ [ [ -94.254076000183048, 44.717854999890498 ], [ -94.2547189999826, 44.630310999684013 ], [ -94.497834999657641, 44.629920999846412 ], [ -94.498073999946897, 44.717170999955343 ], [ -94.752178999869997, 44.717026999997643 ], [ -94.751986000098483, 44.804455999657662 ], [ -94.497761999455321, 44.80499499983042 ], [ -94.497729999452702, 44.892333999658312 ], [ -94.502187999660023, 45.066316999728471 ], [ -94.634881000309292, 45.065837999905014 ], [ -94.634756000619831, 45.152523999948407 ], [ -94.681038000519308, 45.160036999923427 ], [ -94.685724999870189, 45.153000999994404 ], [ -94.7569039996215, 45.153424000064234 ], [ -94.76308000050571, 45.326100000215547 ], [ -94.556820000459837, 45.325893000050868 ], [ -94.53572200046068, 45.33656199961829 ], [ -94.535017000343387, 45.326110999928716 ], [ -94.383743999684313, 45.326726999786125 ], [ -94.383851999450272, 45.427823999880054 ], [ -94.261212000027299, 45.428654999884884 ], [ -94.260571000291378, 45.486129000058135 ], [ -94.178950000245607, 45.485709000038639 ], [ -94.177770000481146, 45.536729999599721 ], [ -94.165570000600155, 45.536729999951589 ], [ -94.177609999998324, 45.553879999839651 ], [ -94.191780000370983, 45.536860000338763 ], [ -94.214072999434322, 45.540704999945895 ], [ -94.213779999676419, 45.553420000172046 ], [ -94.257804999449988, 45.554258999578252 ], [ -94.192942000580288, 45.562457999656012 ], [ -94.205699999783874, 45.565909999591703 ], [ -94.199460000303773, 45.586150000149196 ], [ -94.168667999891639, 45.586065999633227 ], [ -94.183718000375293, 45.599852000242414 ], [ -94.172932000468151, 45.614424999845106 ], [ -94.196661000295663, 45.608967999618997 ], [ -94.204670000060219, 45.63566600022677 ], [ -94.185907000466742, 45.617204000417985 ], [ -94.175250999790066, 45.628090999996502 ], [ -94.147548000044196, 45.595685000242796 ], [ -94.155403999590305, 45.577562999582426 ], [ -94.14181300045631, 45.559179999890418 ], [ -93.634854999710271, 45.559611999697907 ], [ -93.633602000463668, 45.472132000400912 ], [ -93.280987999693494, 45.471368000345862 ], [ -93.331958000396455, 45.417248000104593 ], [ -93.36328300029902, 45.408361000222015 ], [ -93.357828999905962, 45.376952000403719 ], [ -93.381549000314891, 45.376501999661464 ], [ -93.378187000494407, 45.3846939999478 ], [ -93.509792000043475, 45.385512999783515 ], [ -93.521085000504115, 45.322520000248929 ], [ -93.548555000597716, 45.307472999732731 ], [ -93.545042000074588, 45.299682999955728 ], [ -93.510991999891971, 45.299346000304539 ], [ -93.509984999875584, 45.250010000007215 ], [ -93.460116999478927, 45.255639999646917 ], [ -93.426154999834623, 45.247699000195631 ], [ -93.420459999805544, 45.217382999682364 ], [ -93.386336999878495, 45.204981000427075 ], [ -93.392467000070752, 45.195471000270423 ], [ -93.302580000199143, 45.175682000341354 ], [ -93.245797999538269, 45.143235999625269 ], [ -93.263915999780252, 45.107132000124295 ], [ -93.287945999383993, 45.110735999778804 ], [ -93.282217999507466, 45.051124999970419 ], [ -93.338525000149872, 45.039110000426916 ], [ -93.326446999861361, 45.036666000091294 ], [ -93.318472999455878, 44.991556000437072 ], [ -93.338722999484332, 44.991692999787979 ], [ -93.338804999966015, 45.016903000081278 ], [ -93.360061254024885, 45.018235025850977 ], [ -93.360065000421855, 45.025567000391504 ], [ -93.360061253736419, 45.018234169771375 ], [ -93.370207253232593, 45.018247167457758 ], [ -93.42085100049178, 45.033138999698927 ], [ -93.420781000503837, 45.021931000064932 ], [ -93.442337999886661, 45.021880999882065 ], [ -93.429806000594013, 44.999706999893306 ], [ -93.439560999875141, 44.99703900002087 ], [ -93.457286000614928, 45.010938000447638 ], [ -93.4526539994107, 45.028517999567939 ], [ -93.516094000460726, 45.038045999756406 ], [ -93.522226000017469, 45.116505999897392 ], [ -93.563784000359831, 45.105874000209035 ], [ -93.605240000217165, 45.120824999585665 ], [ -93.605128000305371, 45.10916099973835 ], [ -93.645962999603128, 45.109020999768923 ], [ -93.645662999653013, 45.012438999855931 ], [ -93.676392000221639, 45.014907999989966 ], [ -93.676283999575219, 45.004034999605572 ], [ -93.64564999962235, 45.002764000417713 ], [ -93.645656999506556, 44.978644999924711 ], [ -93.766445000062532, 44.97768800010968 ], [ -93.767040999457251, 44.890861999788562 ], [ -93.887915999776681, 44.884883999672446 ], [ -93.888244000348521, 44.804661999879357 ], [ -94.010021000174248, 44.803989000250183 ], [ -94.010493999484424, 44.717463999911452 ], [ -94.254076000183048, 44.717854999890498 ] ], [ [ -93.400631999721924, 45.205656999794151 ], [ -93.400795000228484, 45.20517499965716 ], [ -93.400557000474564, 45.205086000409693 ], [ -93.400631999721924, 45.205656999794151 ] ], [ [ -93.714452000087178, 45.120728999637926 ], [ -93.714515999617547, 45.120645000101725 ], [ -93.714392999996434, 45.120785000364542 ], [ -93.714452000087178, 45.120728999637926 ] ], [ [ -93.720376000288056, 45.114763000391321 ], [ -93.72048999964808, 45.11461199977375 ], [ -93.72007399946726, 45.115090000355515 ], [ -93.720376000288056, 45.114763000391321 ] ], [ [ -93.72904199962214, 45.089843000302508 ], [ -93.7290340002059, 45.089852000044161 ], [ -93.729028999830049, 45.089861000444344 ], [ -93.72904199962214, 45.089843000302508 ] ], [ [ -93.757015999954788, 45.081568999899829 ], [ -93.757013000236697, 45.08154899978333 ], [ -93.756970999892758, 45.081415000148546 ], [ -93.757015999954788, 45.081568999899829 ] ], [ [ -93.76001899941258, 45.082471999595647 ], [ -93.760340000455457, 45.082303000138083 ], [ -93.759871000564971, 45.082506000334753 ], [ -93.76001899941258, 45.082471999595647 ] ], [ [ -93.760836999924635, 45.082053000320862 ], [ -93.760670000151094, 45.082130999848303 ], [ -93.760588999799353, 45.08217299982563 ], [ -93.760836999924635, 45.082053000320862 ] ], [ [ -93.762673000249734, 45.072329999907119 ], [ -93.76290299983151, 45.072177000050921 ], [ -93.762538999544844, 45.072411000064434 ], [ -93.762673000249734, 45.072329999907119 ] ], [ [ -93.763868999881993, 45.069925000317156 ], [ -93.763868303651392, 45.069924908153858 ], [ -93.764562000150363, 45.070162000444633 ], [ -93.763868999881993, 45.069925000317156 ] ], [ [ -93.763173999587849, 45.069832999811183 ], [ -93.763322999875797, 45.069867000352254 ], [ -93.76386829333849, 45.0699249067887 ], [ -93.763173999587849, 45.069832999811183 ] ], [ [ -93.76199648448484, 45.069739037731757 ], [ -93.761996484561905, 45.069739037780316 ], [ -93.762428000169493, 45.069773000357081 ], [ -93.76199648448484, 45.069739037731757 ] ], [ [ -93.765837848137039, 45.064510769736323 ], [ -93.765837839402835, 45.064510941036502 ], [ -93.765832000308464, 45.064632999936869 ], [ -93.765837848137039, 45.064510769736323 ] ], [ [ -93.766783999920222, 45.058049999676221 ], [ -93.766809999615546, 45.057322999751875 ], [ -93.766812999865209, 45.050202000316098 ], [ -93.766783999920222, 45.058049999676221 ] ], [ [ -93.766813999541625, 45.049814000450304 ], [ -93.766848000119225, 45.042792000311898 ], [ -93.766845000033499, 45.035568999697148 ], [ -93.766813999541625, 45.049814000450304 ] ], [ [ -93.767344999946616, 44.980425999817385 ], [ -93.767358000491754, 44.979779999562034 ], [ -93.767363999518665, 44.978361999582468 ], [ -93.767344999946616, 44.980425999817385 ] ], [ [ -93.878622999868199, 44.88744399971273 ], [ -93.881080000331096, 44.891221000432878 ], [ -93.881098000338113, 44.887402000290429 ], [ -93.878622999868199, 44.88744399971273 ] ], [ [ -93.51174700004006, 45.245543000004922 ], [ -93.513156915546759, 45.245969521807034 ], [ -93.511088000228668, 45.245319999607091 ], [ -93.51174700004006, 45.245543000004922 ] ], [ [ -93.509524000380708, 45.244791999977984 ], [ -93.510490000228174, 45.245120999921106 ], [ -93.511088000228668, 45.245319999607091 ], [ -93.509524000380708, 45.244791999977984 ] ], [ [ -93.5215049997405, 45.2465979997326 ], [ -93.521599000027749, 45.246615000155067 ], [ -93.521436095972504, 45.246584379187887 ], [ -93.5215049997405, 45.2465979997326 ] ], [ [ -93.521697000117356, 45.246495000403499 ], [ -93.521673735995762, 45.246560034600883 ], [ -93.521675000383127, 45.246556999978687 ], [ -93.521697000117356, 45.246495000403499 ] ], [ [ -93.521744686400197, 45.246367716837199 ], [ -93.521729999753674, 45.246408000107429 ], [ -93.521744696468247, 45.246367689707249 ], [ -93.521744686400197, 45.246367716837199 ] ], [ [ -93.521788000388369, 45.246251000327959 ], [ -93.521772935827926, 45.246291594236745 ], [ -93.521786000171474, 45.246258000062085 ], [ -93.521788000388369, 45.246251000327959 ] ], [ [ -93.521896000592918, 45.245956999945584 ], [ -93.521916701281185, 45.245897074811623 ], [ -93.521842000060872, 45.246106999916648 ], [ -93.521896000592918, 45.245956999945584 ] ], [ [ -93.522213000216865, 45.245294999877629 ], [ -93.522069999488224, 45.245684999995916 ], [ -93.522176999824055, 45.245403000243151 ], [ -93.522213000216865, 45.245294999877629 ] ], [ [ -93.522431548286178, 45.244362880420972 ], [ -93.522430605610538, 45.24436918213835 ], [ -93.522431999884546, 45.244364999567324 ], [ -93.522431548286178, 45.244362880420972 ] ], [ [ -93.522324066252835, 45.244039379028429 ], [ -93.522387999571279, 45.24415100010993 ], [ -93.522266000468818, 45.243938000038852 ], [ -93.522324066252835, 45.244039379028429 ] ], [ [ -93.522082999584384, 45.2436710002886 ], [ -93.521973000219376, 45.243520999950086 ], [ -93.522266000468818, 45.243938000038852 ], [ -93.522082999584384, 45.2436710002886 ] ], [ [ -93.521168000124945, 45.242732000132655 ], [ -93.521449999494379, 45.242961000395255 ], [ -93.521443000062163, 45.242954000345136 ], [ -93.521168000124945, 45.242732000132655 ] ], [ [ -93.520127999732878, 45.242361000414149 ], [ -93.520127237629609, 45.242360844557481 ], [ -93.520134999585778, 45.242365000328348 ], [ -93.520127999732878, 45.242361000414149 ] ], [ [ -93.522230999794658, 45.209835999903937 ], [ -93.522241000109332, 45.206311999767117 ], [ -93.52223100011652, 45.20983199959273 ], [ -93.522230999794658, 45.209835999903937 ] ], [ [ -93.643061999436796, 45.177865000401532 ], [ -93.643502999388431, 45.178196999645877 ], [ -93.643443999427348, 45.178148000339547 ], [ -93.643061999436796, 45.177865000401532 ] ], [ [ -93.650081999911393, 45.181615000225747 ], [ -93.650365999814909, 45.181815000280736 ], [ -93.650263999912866, 45.181740999783507 ], [ -93.650081999911393, 45.181615000225747 ] ], [ [ -93.65467500036246, 45.198602000365845 ], [ -93.655127062250415, 45.198451312350485 ], [ -93.654450000183374, 45.198651000287718 ], [ -93.65467500036246, 45.198602000365845 ] ], [ [ -93.633999000589071, 45.207851000149255 ], [ -93.634034000031846, 45.207989000232594 ], [ -93.633949999850671, 45.207501000038626 ], [ -93.633999000589071, 45.207851000149255 ] ], [ [ -93.601832999979536, 45.209057000126791 ], [ -93.601849000556896, 45.208921999841522 ], [ -93.601823000625473, 45.209094999959618 ], [ -93.601832999979536, 45.209057000126791 ] ], [ [ -93.59383800003836, 45.216464000150403 ], [ -93.593751579840429, 45.216635130629534 ], [ -93.593758999554268, 45.216624000032184 ], [ -93.59383800003836, 45.216464000150403 ] ], [ [ -93.638649898387285, 45.174152616809238 ], [ -93.63864989893294, 45.174152618534777 ], [ -93.638713999634064, 45.174294000102293 ], [ -93.638649898387285, 45.174152616809238 ] ], [ [ -93.549203000521729, 45.226522999900055 ], [ -93.549339000017241, 45.226534000169671 ], [ -93.54940899995259, 45.226538999586076 ], [ -93.549203000521729, 45.226522999900055 ] ], [ [ -93.547546000075656, 45.226882000090512 ], [ -93.547530999526273, 45.22691000027806 ], [ -93.547601999487185, 45.226856999788666 ], [ -93.547546000075656, 45.226882000090512 ] ], [ [ -93.544815000437822, 45.230149000318029 ], [ -93.544882000519678, 45.23009800007474 ], [ -93.544752999673207, 45.230189000167428 ], [ -93.544815000437822, 45.230149000318029 ] ], [ [ -93.541667999978074, 45.232306000060092 ], [ -93.541729999914722, 45.232340000145051 ], [ -93.542066000023169, 45.232513000203213 ], [ -93.541667999978074, 45.232306000060092 ] ], [ [ -93.531416000557854, 45.222999999950126 ], [ -93.531844999752153, 45.223452000213989 ], [ -93.531933999464329, 45.223548999883604 ], [ -93.531639000076183, 45.223194000175404 ], [ -93.531416000557854, 45.222999999950126 ] ], [ [ -93.525557000061113, 45.225164999857512 ], [ -93.525444999552448, 45.225526000276311 ], [ -93.525574999773042, 45.225142999997253 ], [ -93.525557000061113, 45.225164999857512 ] ], [ [ -93.561198000035347, 45.226326000354781 ], [ -93.561198000156026, 45.226322165123435 ], [ -93.561188999734526, 45.226389999845068 ], [ -93.561198000035347, 45.226326000354781 ] ], [ [ -93.555747999708103, 45.226269999640358 ], [ -93.555886123800803, 45.226078608439629 ], [ -93.555691000065892, 45.226322000018314 ], [ -93.555747999708103, 45.226269999640358 ] ], [ [ -93.455535000569597, 45.219884000308653 ], [ -93.45582700043046, 45.219908000097675 ], [ -93.45559900006505, 45.219888000072579 ], [ -93.455535000569597, 45.219884000308653 ] ], [ [ -93.452212999562292, 45.219608000077265 ], [ -93.452478999546898, 45.21963099967482 ], [ -93.450717999906374, 45.219478000216903 ], [ -93.452212999562292, 45.219608000077265 ] ], [ [ -93.43895000002621, 45.216792000136095 ], [ -93.439651000523753, 45.216655000145899 ], [ -93.438987999729392, 45.216777999743819 ], [ -93.43895000002621, 45.216792000136095 ] ], [ [ -93.435953000356136, 45.217710000088523 ], [ -93.436151999799264, 45.217660999926323 ], [ -93.435539999855848, 45.217787000075575 ], [ -93.435953000356136, 45.217710000088523 ] ], [ [ -93.415654999380038, 45.201296999903036 ], [ -93.416112999936104, 45.201979999941607 ], [ -93.415916999541167, 45.201665000450674 ], [ -93.415654999380038, 45.201296999903036 ] ], [ [ -93.296128000253731, 45.121948999629318 ], [ -93.296095000636271, 45.121868000265039 ], [ -93.29609500060478, 45.121897000252964 ], [ -93.296128000253731, 45.121948999629318 ] ], [ [ -93.29314500015731, 45.113420000262877 ], [ -93.292736999855094, 45.113111999658429 ], [ -93.29238999953877, 45.112889999864706 ], [ -93.29314500015731, 45.113420000262877 ] ] ] } },
{ "type": "Feature", "properties": { "district_id": 6, "voting_age_pop": 507929, "lib_votes": 0, "grn_votes": 0, "con_votes": 0, "ref_votes": 0, "total_pop": 676544, "dem_votes_sum": 192525, "rep_votes_sum": 189897, "lib_votes_sum": 0, "grn_votes_sum": 0, "con_votes_sum": 0, "ref_votes_sum": 0, "minority_pop_sum": 139044, "dem_pct": 0.50343599479109469, "rep_pct": 0.49656400520890537, "lib_pct": 0.0, "grn_pct": 0.0, "con_pct": 0.0, "ref_pct": 0.0, "minority_pct": 0.20552100085138586, "compactness": 0.32698348778288844 }, "geometry": { "type": "MultiPolygon", "coordinates": [ [ [ [ -93.207634000549263, 45.006131000128697 ], [ -93.263040000106486, 45.027610000408679 ], [ -93.263132000408646, 45.013167000014818 ], [ -93.274504000011177, 45.013132000380459 ], [ -93.299664000213482, 45.04702800021375 ], [ -93.282217999507466, 45.051124999970419 ], [ -93.287945999383993, 45.110735999778804 ], [ -93.263915999780252, 45.107132000124295 ], [ -93.245797999538269, 45.143235999625269 ], [ -93.302580000199143, 45.175682000341354 ], [ -93.392467000070752, 45.195471000270423 ], [ -93.386336999878495, 45.204981000427075 ], [ -93.420459999805544, 45.217382999682364 ], [ -93.426154999834623, 45.247699000195631 ], [ -93.460116999478927, 45.255639999646917 ], [ -93.509984999875584, 45.250010000007215 ], [ -93.510991999891971, 45.299346000304539 ], [ -93.546483999402227, 45.300292999915314 ], [ -93.541488999417268, 45.315366999727004 ], [ -93.521085000504115, 45.322520000248929 ], [ -93.509792000043475, 45.385512999783515 ], [ -93.378187000494407, 45.3846939999478 ], [ -93.381549000314891, 45.376501999661464 ], [ -93.357828999905962, 45.376952000403719 ], [ -93.36328300029902, 45.408361000222015 ], [ -93.331958000396455, 45.417248000104593 ], [ -93.281110000431227, 45.460377999917505 ], [ -93.280987999693494, 45.471368000345862 ], [ -93.510588999564845, 45.47187900003437 ], [ -93.512796000121256, 45.64515700029429 ], [ -93.388908000062358, 45.645030999626258 ], [ -93.388981999987266, 45.730716999976146 ], [ -93.265895000005585, 45.730659000338505 ], [ -93.265985000573551, 45.817406000206937 ], [ -93.021603000204706, 45.816777999820893 ], [ -93.021489999583764, 45.788490000029682 ], [ -92.777001000176597, 45.787809000064023 ], [ -92.805346999982945, 45.747491000144514 ], [ -92.869193000238297, 45.717568000177387 ], [ -92.889432999529916, 45.641202000353907 ], [ -92.883749000605476, 45.575483000432151 ], [ -92.823309000007598, 45.560934000045734 ], [ -92.773412000141036, 45.568234999588718 ], [ -92.745591000154846, 45.553015999933912 ], [ -92.724761999412777, 45.538617000252401 ], [ -92.726676999513685, 45.514462000263812 ], [ -92.646505000145098, 45.440338000309445 ], [ -92.650284000007005, 45.398769000300668 ], [ -92.70272300056169, 45.358468000341006 ], [ -92.704794000219181, 45.326526000179364 ], [ -92.762003999374599, 45.288212999851297 ], [ -92.751707999919333, 45.218665999882319 ], [ -92.766808000283902, 45.185466000272797 ], [ -92.752403999681945, 45.173915999766386 ], [ -92.757351999822234, 45.152351000008167 ], [ -92.739582999919378, 45.115597999979606 ], [ -92.803123999415845, 45.062572999810001 ], [ -92.762059999830726, 45.024320000287645 ], [ -92.770303999733414, 44.992066999789472 ], [ -92.862827999732801, 44.992531999762839 ], [ -92.862673000110362, 44.948805000107086 ], [ -92.934529999880496, 44.948832999559961 ], [ -92.944064000448108, 44.991346999953279 ], [ -93.044992999492962, 44.969611000424621 ], [ -93.052035999848798, 44.992013000354099 ], [ -93.066074999876804, 44.991985000405997 ], [ -93.054858000291688, 45.011796000444058 ], [ -93.089749999816831, 45.006253000375573 ], [ -93.106214000094937, 45.035892000023964 ], [ -93.208091999385317, 45.03574400030918 ], [ -93.207634000549263, 45.006131000128697 ] ], [ [ -93.262036999786616, 45.035544999638418 ], [ -93.263121799011458, 45.035543376113608 ], [ -93.261087999765138, 45.035543999935513 ], [ -93.262036999786616, 45.035544999638418 ] ], [ [ -93.228320674914244, 45.03566599379657 ], [ -93.228320278285025, 45.035665997402397 ], [ -93.229188999665666, 45.035659000158695 ], [ -93.228320674914244, 45.03566599379657 ] ], [ [ -92.8592370003837, 45.031567000420537 ], [ -92.859250494969316, 45.031254701417602 ], [ -92.859258000573078, 45.031080999631847 ], [ -92.8592370003837, 45.031567000420537 ] ], [ [ -92.943878000255808, 45.002544000453618 ], [ -92.943879999392976, 45.003994999627167 ], [ -92.943877999952448, 45.001862000317139 ], [ -92.943878000255808, 45.002544000453618 ] ], [ [ -92.989264642671472, 45.12376045852092 ], [ -92.990015999553918, 45.123761000165885 ], [ -92.984620999922043, 45.123757000265954 ], [ -92.989264642671472, 45.12376045852092 ] ], [ [ -92.803003000258741, 45.079318000454165 ], [ -92.80347199996892, 45.07929200020348 ], [ -92.802543999722161, 45.079313999559524 ], [ -92.803003000258741, 45.079318000454165 ] ] ], [ [ [ -93.400834999924456, 45.205709000007545 ], [ -93.400557000474564, 45.205086000409693 ], [ -93.400751000210292, 45.205086000373875 ], [ -93.400834999924456, 45.205709000007545 ] ] ] ] } },
{ "type": "Feature", "properties": { "district_id": 7, "voting_age_pop": 497876, "lib_votes": 0, "grn_votes": 0, "con_votes": 0, "ref_votes": 0, "total_pop": 642314, "dem_votes_sum": 242511, "rep_votes_sum": 146916, "lib_votes_sum": 0, "grn_votes_sum": 0, "con_votes_sum": 0, "ref_votes_sum": 0, "minority_pop_sum": 215294, "dem_pct": 0.62273802278732604, "rep_pct": 0.37726197721267402, "lib_pct": 0.0, "grn_pct": 0.0, "con_pct": 0.0, "ref_pct": 0.0, "minority_pct": 0.33518497183620471, "compactness": 0.16079128201362186 }, "geometry": { "type": "MultiPolygon", "coordinates": [ [ [ [ -93.641569999574287, 44.83632100033492 ], [ -93.642380000332892, 44.750736999702283 ], [ -93.655367000218376, 44.744671999865325 ], [ -93.643629999747844, 44.732861999892307 ], [ -93.663602999995632, 44.73265800025947 ], [ -93.663799999701212, 44.71796000020209 ], [ -94.010493999484424, 44.717463999911452 ], [ -94.010021000174248, 44.803989000250183 ], [ -93.888244000348521, 44.804661999879357 ], [ -93.887915999776681, 44.884883999672446 ], [ -93.767040999457251, 44.890861999788562 ], [ -93.766445000062532, 44.97768800010968 ], [ -93.645656999506556, 44.978644999924711 ], [ -93.64564999962235, 45.002764000417713 ], [ -93.676283999575219, 45.004034999605572 ], [ -93.676392000221639, 45.014907999989966 ], [ -93.645662999653013, 45.012438999855931 ], [ -93.645962999603128, 45.109020999768923 ], [ -93.605128000305371, 45.10916099973835 ], [ -93.605240000217165, 45.120824999585665 ], [ -93.563784000359831, 45.105874000209035 ], [ -93.522226000017469, 45.116505999897392 ], [ -93.522342999914258, 45.042414000313919 ], [ -93.4526539994107, 45.028517999567939 ], [ -93.457286000614928, 45.010938000447638 ], [ -93.439560999875141, 44.99703900002087 ], [ -93.429806000594013, 44.999706999893306 ], [ -93.442337999886661, 45.021880999882065 ], [ -93.433652000060491, 45.016553999736978 ], [ -93.42085100049178, 45.033138999698927 ], [ -93.400551000457384, 45.03331300018251 ], [ -93.400521000517017, 45.022036999992672 ], [ -93.338804999966015, 45.016903000081278 ], [ -93.338722999484332, 44.991692999787979 ], [ -93.318472999455878, 44.991556000437072 ], [ -93.326446999861361, 45.036666000091294 ], [ -93.338525000149872, 45.039110000426916 ], [ -93.319436999920384, 45.04395599987393 ], [ -93.299426000088459, 45.043918000106345 ], [ -93.274504000011177, 45.013132000380459 ], [ -93.263132000408646, 45.013167000014818 ], [ -93.260081999722743, 45.027604999603852 ], [ -93.207540000455836, 45.006153999850198 ], [ -93.207587000111815, 44.988072000030385 ], [ -93.25752899972656, 44.998709999623834 ], [ -93.265704000597722, 44.9780459998411 ], [ -93.281522999601535, 44.978929999634616 ], [ -93.269561000288178, 44.965947999898098 ], [ -93.288002000410032, 44.964395000330057 ], [ -93.288093000229622, 44.948363999592843 ], [ -93.274778000328112, 44.948353999928109 ], [ -93.262657999995767, 44.903410999960485 ], [ -93.232289999825269, 44.895088000389308 ], [ -93.222878999569147, 44.905370999653066 ], [ -93.193942999798949, 44.905370999887886 ], [ -93.177201000569752, 44.893793000168699 ], [ -93.197900999468104, 44.861934999979653 ], [ -93.288410999991555, 44.861910999850501 ], [ -93.288585999662686, 44.840709999771477 ], [ -93.32926199960059, 44.842204000216832 ], [ -93.329445999380212, 44.827366000179943 ], [ -93.350385000038088, 44.825902999739384 ], [ -93.350436999828219, 44.807803999927749 ], [ -93.395957999647322, 44.796895999742553 ], [ -93.429932000627801, 44.833337000102503 ], [ -93.445519999429948, 44.828166999646626 ], [ -93.480551999854455, 44.838362999796097 ], [ -93.484824000600014, 44.851633999812691 ], [ -93.533461000004763, 44.85288999977886 ], [ -93.545739999856067, 44.840719999952086 ], [ -93.572858999956111, 44.841139000166947 ], [ -93.586972000237239, 44.856085999880207 ], [ -93.618432999382577, 44.852950999643497 ], [ -93.622937000402615, 44.867271000243349 ], [ -93.693381999685599, 44.861534000427717 ], [ -93.693599000028613, 44.841316999660954 ], [ -93.641569999574287, 44.83632100033492 ] ], [ [ -93.595033995571114, 44.90588399673242 ], [ -93.595147501806395, 44.905983443468251 ], [ -93.595034000090635, 44.905884000267449 ], [ -93.595033995571114, 44.90588399673242 ] ], [ [ -93.606708000432945, 44.891362000156803 ], [ -93.60817700058908, 44.891362000322815 ], [ -93.607075000036758, 44.891361999700365 ], [ -93.606708000432945, 44.891362000156803 ] ], [ [ -93.706077999839223, 44.890661999919857 ], [ -93.705438999688241, 44.89066199972558 ], [ -93.711138999994574, 44.890662000400283 ], [ -93.706077999839223, 44.890661999919857 ] ], [ [ -93.703083349924199, 44.890867925739677 ], [ -93.703456000198585, 44.890830999816508 ], [ -93.702689000455308, 44.890907000436009 ], [ -93.703083349924199, 44.890867925739677 ] ], [ [ -93.662373999939291, 44.891318000238364 ], [ -93.66233848464978, 44.89131477125423 ], [ -93.662383999487957, 44.891318999986055 ], [ -93.662373999939291, 44.891318000238364 ] ], [ [ -93.645479024013639, 44.891056203419161 ], [ -93.652491999495865, 44.890963999999613 ], [ -93.64503700049211, 44.891062000202055 ], [ -93.645479024013639, 44.891056203419161 ] ], [ [ -93.598403999764642, 44.92417599970188 ], [ -93.598499421580954, 44.924116326707214 ], [ -93.595162424160748, 44.926202571531825 ], [ -93.598403999764642, 44.92417599970188 ] ], [ [ -93.549669000356971, 44.880994000286407 ], [ -93.549679593570161, 44.880646453320935 ], [ -93.549690000330358, 44.880304999861742 ], [ -93.549669000356971, 44.880994000286407 ] ], [ [ -93.568183982862649, 44.891063001248313 ], [ -93.568689999958693, 44.891062999556809 ], [ -93.567442000281645, 44.89106300041994 ], [ -93.568183982862649, 44.891063001248313 ] ], [ [ -93.566227000215846, 44.891062999574245 ], [ -93.566779324213726, 44.891063000897717 ], [ -93.567164999934192, 44.891063000006866 ], [ -93.566227000215846, 44.891062999574245 ] ], [ [ -93.523345999559865, 44.891460000208589 ], [ -93.523853999649901, 44.891300000289398 ], [ -93.523713999894369, 44.891344000089461 ], [ -93.523345999559865, 44.891460000208589 ] ] ], [ [ [ -93.878622999868199, 44.88744399971273 ], [ -93.881080000331096, 44.891221000432878 ], [ -93.87857400054051, 44.891216999595237 ], [ -93.878622999868199, 44.88744399971273 ] ] ] ] } }
]
}
