{
"type": "FeatureCollection",
"name": "mississippi_enacted_districts",
"crs": { "type": "name", "properties": { "name": "urn:ogc:def:crs:OGC:1.3:CRS84" } },
"features": [
{ "type": "Feature", "properties": { "enacted_district": 1, "population": 740340.0, "voting_age_pop": 570100.0, "dem_votes": 97382.0, "rep_votes": 180302.0, "minority_pop": 188497.0, "dem_pct": 0.35069359403109518, "rep_pct": 0.64930640560878317 }, "geometry": { "type": "Polygon", "coordinates": [ [ [ -89.915636000001669, 34.553692000003082 ], [ -90.032660000002053, 34.554078000002676 ], [ -90.056564000002012, 34.554176000002627 ], [ -90.091865000002244, 34.554115000002618 ], [ -90.149593000001644, 34.554207000002648 ], [ -90.162252000002596, 34.554260000002813 ], [ -90.198631000001996, 34.554425000002638 ], [ -90.221489000001938, 34.58246100000266 ], [ -90.237262000001721, 34.598181000002484 ], [ -90.239971000001958, 34.626237000002796 ], [ -90.216325000002286, 34.646874000002313 ], [ -90.221112000001781, 34.670392000003169 ], [ -90.231583000001905, 34.699525000003185 ], [ -90.20019900000176, 34.724418000003169 ], [ -90.202008000001882, 34.801101000002994 ], [ -90.202126000002437, 34.860374000002373 ], [ -90.247160000002324, 34.860653000002614 ], [ -90.304561000002138, 34.860587000002546 ], [ -90.243208000002397, 34.90910000000315 ], [ -90.243757000001679, 34.945270000002729 ], [ -90.295159000002002, 34.975634000002763 ], [ -90.308361000001824, 34.995694000002892 ], [ -90.21976600000184, 34.995380000002896 ], [ -90.096338000002405, 34.994762000002957 ], [ -90.02507200000197, 34.994858000002459 ], [ -89.972197000002581, 34.995020000002626 ], [ -89.901464000002434, 34.994663000002333 ], [ -89.878364000002222, 34.994327000002919 ], [ -89.865146000002127, 34.994259000003083 ], [ -89.813133000001926, 34.994514000002873 ], [ -89.784612000001616, 34.994316000002812 ], [ -89.724324000002611, 34.994790000003121 ], [ -89.647268000001674, 34.995293000003137 ], [ -89.617973000001612, 34.995217000002363 ], [ -89.565060000001708, 34.994989000002604 ], [ -89.493835000001638, 34.994221000002426 ], [ -89.40570400000199, 34.993927000002429 ], [ -89.352679000001771, 34.993863000002364 ], [ -89.233190000002381, 34.994646000002845 ], [ -89.017127000002091, 34.994971000002359 ], [ -88.964424000002083, 34.994891000003108 ], [ -88.925176000002111, 34.994844000002757 ], [ -88.85824500000173, 34.99513600000283 ], [ -88.823051000002337, 34.995221000003212 ], [ -88.684438000001805, 34.995387000002474 ], [ -88.52849700000246, 34.995827000002507 ], [ -88.47415900000189, 34.996033000002669 ], [ -88.363531000002098, 34.995475000002472 ], [ -88.200341000001643, 34.995630000003146 ], [ -88.160729000002263, 34.930769000003245 ], [ -88.097888000001646, 34.892202000003181 ], [ -88.107560000001854, 34.811628000002941 ], [ -88.115410000001617, 34.753422000003106 ], [ -88.123052000002119, 34.695367000002875 ], [ -88.142139000001876, 34.566143000003173 ], [ -88.150510000001759, 34.506635000002916 ], [ -88.156292000001883, 34.463214000003084 ], [ -88.177287000002451, 34.29226300000272 ], [ -88.190678000001782, 34.190123000002664 ], [ -88.203864000002469, 34.086564000002703 ], [ -88.206032000001727, 34.068365000002686 ], [ -88.213318000002275, 34.010452000003056 ], [ -88.229092000001614, 33.891941000003122 ], [ -88.248916000002254, 33.744977000002557 ], [ -88.262018000001589, 33.635440000002411 ], [ -88.270781000002387, 33.564924000003124 ], [ -88.278267000002486, 33.504750000002531 ], [ -88.302759000002155, 33.30221100000302 ], [ -88.304434000002288, 33.288320000002784 ], [ -88.443358000001609, 33.288392000002986 ], [ -88.556689000002564, 33.28701000000251 ], [ -88.669076000001809, 33.286922000002932 ], [ -88.670378000002472, 33.40407100000315 ], [ -88.671051000002279, 33.462739000002408 ], [ -88.671250000001749, 33.506168000002717 ], [ -88.671250000002004, 33.506385000003242 ], [ -88.671526000002487, 33.565135000002968 ], [ -88.710111000002271, 33.55901600000275 ], [ -88.770596000002172, 33.565212000002596 ], [ -88.871503000001681, 33.564644000002538 ], [ -88.949824000001868, 33.564343000003269 ], [ -89.018613000002006, 33.562114000002573 ], [ -89.035677000001584, 33.562154000003133 ], [ -89.036119000001577, 33.512740000002729 ], [ -88.959617000002055, 33.498204000003057 ], [ -88.960004000001717, 33.462583000002887 ], [ -88.966500000001759, 33.446584000003043 ], [ -88.966845000002365, 33.37979700000308 ], [ -88.966825000002316, 33.379346000002663 ], [ -88.965963000001594, 33.28610800000255 ], [ -88.986793000002081, 33.286087000002865 ], [ -89.088255000002363, 33.286003000003177 ], [ -89.108886000001903, 33.285937000002775 ], [ -89.108900000001839, 33.198059000003191 ], [ -89.128902000002242, 33.197715000002653 ], [ -89.14566500000258, 33.197659000002552 ], [ -89.17806100000179, 33.197614000002936 ], [ -89.213456000002111, 33.191676000002396 ], [ -89.213675000002453, 33.153303000002389 ], [ -89.213921000001861, 33.109402000002966 ], [ -89.317855000002012, 33.108871000002459 ], [ -89.317557000002125, 33.182097000002642 ], [ -89.317427000002198, 33.198600000003225 ], [ -89.317321000001613, 33.212085000003 ], [ -89.316926000002056, 33.251995000002537 ], [ -89.31640800000163, 33.285556000002892 ], [ -89.368134000002144, 33.285886000003174 ], [ -89.401269000001989, 33.285915000002916 ], [ -89.453808000002454, 33.285942000002457 ], [ -89.453905000001598, 33.343766000002496 ], [ -89.454050000001857, 33.433200000002891 ], [ -89.411030000002214, 33.435872000002341 ], [ -89.381092000002127, 33.460307000003226 ], [ -89.417705000001703, 33.460107000003035 ], [ -89.506496000002087, 33.459806000003148 ], [ -89.50658500000165, 33.503428000002501 ], [ -89.506403000002123, 33.51847200000303 ], [ -89.506616000002296, 33.576289000002376 ], [ -89.506611000002621, 33.638503000002835 ], [ -89.506684000002338, 33.648854000002849 ], [ -89.50687200000246, 33.677605000002856 ], [ -89.507135000001895, 33.721819000002547 ], [ -89.507147000002348, 33.722162000003216 ], [ -89.507269000002196, 33.808960000002465 ], [ -89.507314000001841, 33.838202000003172 ], [ -89.507353000001913, 33.867469000002941 ], [ -89.507390000001777, 33.896770000002725 ], [ -89.507406000001751, 33.943238000002808 ], [ -89.507380000001788, 34.020541000002801 ], [ -89.507800000002518, 34.067197000002849 ], [ -89.509748000001593, 34.162082000002925 ], [ -89.52687400000228, 34.191003000002631 ], [ -89.537014000001761, 34.191070000003215 ], [ -89.636687000002468, 34.191646000002358 ], [ -89.721050000001867, 34.192545000002781 ], [ -89.720231000001831, 34.264038000002905 ], [ -89.721008000002584, 34.349182000002649 ], [ -89.721998000002131, 34.425796000002471 ], [ -89.721137000002216, 34.444606000002629 ], [ -89.721013000002159, 34.448581000002385 ], [ -89.720941000001631, 34.450933000002792 ], [ -89.721341000001871, 34.554274000002415 ], [ -89.774419000001743, 34.553857000002616 ], [ -89.862712000001849, 34.553807000002962 ], [ -89.898383000002156, 34.553660000002345 ], [ -89.915636000001669, 34.553692000003082 ] ] ] } },
{ "type": "Feature", "properties": { "enacted_district": 2, "population": 742204.0, "voting_age_pop": 573298.0, "dem_votes": 189511.0, "rep_votes": 106597.0, "minority_pop": 376174.0, "dem_pct": 0.64000634881867213, "rep_pct": 0.35999365084361323 }, "geometry": { "type": "Polygon", "coordinates": [ [ [ -91.396515000002637, 30.99904400000262 ], [ -91.414628000002395, 30.999010000002432 ], [ -91.636942000002676, 30.999416000002736 ], [ -91.590463000001833, 31.017270000002853 ], [ -91.564397000002486, 31.038965000002431 ], [ -91.5641500000024, 31.066830000002646 ], [ -91.6251990000018, 31.115963000002768 ], [ -91.589451000001759, 31.191140000002612 ], [ -91.644356000001721, 31.234414000002939 ], [ -91.641253000001754, 31.266917000002721 ], [ -91.558684000002344, 31.262176000002498 ], [ -91.518578000002677, 31.275283000002965 ], [ -91.510049000002155, 31.316822000003061 ], [ -91.548213000002704, 31.346084000002566 ], [ -91.546384000001794, 31.382763000003024 ], [ -91.578334000002599, 31.399067000002951 ], [ -91.548465000001883, 31.43266800000297 ], [ -91.532336000001777, 31.390275000002635 ], [ -91.50475600000216, 31.36498000000314 ], [ -91.472542000002633, 31.371069000002556 ], [ -91.472067000002085, 31.397076000003089 ], [ -91.513366000002236, 31.444396000003085 ], [ -91.51591900000254, 31.530729000002417 ], [ -91.443916000002361, 31.542466000002364 ], [ -91.407755000002098, 31.569640000003087 ], [ -91.422716000001955, 31.597065000002637 ], [ -91.486518000001766, 31.586566000003071 ], [ -91.517233000002037, 31.613460000002352 ], [ -91.497665000001703, 31.64537100000231 ], [ -91.463817000001825, 31.620365000002657 ], [ -91.423016000002264, 31.611265000002938 ], [ -91.400815000001927, 31.620465000002575 ], [ -91.397115000002557, 31.71136400000271 ], [ -91.369375000002378, 31.746903000002483 ], [ -91.317864000002658, 31.74976600000236 ], [ -91.313658000002519, 31.764825000002631 ], [ -91.365614000001742, 31.760763000002814 ], [ -91.345214000002684, 31.843861000002903 ], [ -91.294713000001764, 31.86046000000249 ], [ -91.283212000002521, 31.815762000002479 ], [ -91.245624000001996, 31.833165000003131 ], [ -91.248144000002327, 31.869848000002811 ], [ -91.184410000002444, 31.925330000003058 ], [ -91.188110000002297, 31.961358000002516 ], [ -91.164410000002405, 31.98255700000249 ], [ -91.106908000001681, 31.989357000003164 ], [ -91.075908000002045, 32.016827000003197 ], [ -91.098708000001864, 32.048355000003156 ], [ -91.080008000001726, 32.079154000002951 ], [ -91.030207000002363, 32.114353000003199 ], [ -91.002906000002326, 32.162052000002426 ], [ -91.04970700000176, 32.157352000002398 ], [ -91.110990000001962, 32.124644000003109 ], [ -91.162822000001938, 32.132694000002587 ], [ -91.174577000002401, 32.157311000002345 ], [ -91.164880000002682, 32.195743000002373 ], [ -91.11727000000262, 32.206668000002473 ], [ -91.083708000002034, 32.226450000002558 ], [ -91.061408000002402, 32.21865000000264 ], [ -91.034302000002398, 32.241548000002993 ], [ -91.0029060000019, 32.223050000002722 ], [ -90.993463000002635, 32.195245000002565 ], [ -90.98075400000252, 32.242485000002716 ], [ -90.98407700000206, 32.27995300000314 ], [ -90.947834000002558, 32.283486000002469 ], [ -90.906466000002197, 32.313929000002418 ], [ -90.885771000002421, 32.350800000003154 ], [ -90.875629000002505, 32.372644000003142 ], [ -90.890382000001864, 32.372462000002677 ], [ -90.912363000002287, 32.33945400000232 ], [ -90.986672000002201, 32.351760000002315 ], [ -91.004706000001718, 32.367244000002785 ], [ -90.994080000001958, 32.403861000002415 ], [ -90.965987000002684, 32.420654000002578 ], [ -90.993863000002364, 32.450851000002558 ], [ -91.027406000002557, 32.43394200000288 ], [ -91.093508000002245, 32.457441000003044 ], [ -91.11670800000168, 32.500138000002828 ], [ -91.093742000001683, 32.549127000002628 ], [ -91.049307000002557, 32.498539000003007 ], [ -91.00010600000212, 32.482290000002827 ], [ -90.987669000002086, 32.498481000002862 ], [ -91.057706000002597, 32.533777000002303 ], [ -91.080411000002584, 32.556468000002809 ], [ -91.043552000002435, 32.576271000002812 ], [ -91.013723000002514, 32.59841900000319 ], [ -91.003500000002234, 32.624845000003099 ], [ -91.025769000002157, 32.646572000002955 ], [ -91.049802000001918, 32.607185000002907 ], [ -91.121157000002597, 32.584806000003169 ], [ -91.14278200000166, 32.598899000002781 ], [ -91.152699000001917, 32.640757000002417 ], [ -91.126201000002595, 32.667135000002858 ], [ -91.069234000002396, 32.698639000002835 ], [ -91.060766000002474, 32.727494000002892 ], [ -91.16581400000166, 32.757841000002422 ], [ -91.161669000001837, 32.812465000002717 ], [ -91.143559000002526, 32.844738000003119 ], [ -91.105631000001964, 32.858396000002756 ], [ -91.065305000001743, 32.899825000002402 ], [ -91.064668000002555, 32.91797400000285 ], [ -91.086802000002379, 32.976266000002404 ], [ -91.135095000002281, 32.980108000002915 ], [ -91.131304000002046, 32.926918000002388 ], [ -91.163877000002515, 32.899476000003048 ], [ -91.212837000001883, 32.922103000002942 ], [ -91.201842000001918, 32.961212000003165 ], [ -91.166147000001999, 33.011329000002966 ], [ -91.128133000002038, 33.034451000002768 ], [ -91.124595000002003, 33.06418400000269 ], [ -91.200805000002077, 33.107765000002843 ], [ -91.18369800000238, 33.141744000002504 ], [ -91.102702000001855, 33.130374000002455 ], [ -91.082590000002241, 33.148520000003138 ], [ -91.08259200000262, 33.221826000002892 ], [ -91.054130000001919, 33.245990000003033 ], [ -91.047314000001876, 33.281932000002335 ], [ -91.127966000001663, 33.268471000002499 ], [ -91.141729000002599, 33.333349000003125 ], [ -91.142219000002484, 33.348989000002888 ], [ -91.103808000001976, 33.384876000002457 ], [ -91.070133000001761, 33.412192000002698 ], [ -91.057676000001919, 33.432361000002672 ], [ -91.120367000001835, 33.388866000002515 ], [ -91.16970200000236, 33.380351000002982 ], [ -91.20647700000174, 33.40014300000238 ], [ -91.132746000002527, 33.429622000002873 ], [ -91.118775000002515, 33.446485000002561 ], [ -91.131338000001961, 33.480927000002318 ], [ -91.177527000002556, 33.482986000003059 ], [ -91.183420000001718, 33.505062000002859 ], [ -91.218843000001655, 33.529382000002691 ], [ -91.228441000002505, 33.566938000002622 ], [ -91.178555000002675, 33.567305000002307 ], [ -91.132102000002519, 33.59590800000268 ], [ -91.131040000002315, 33.616028000002487 ], [ -91.177670000001982, 33.652050000002959 ], [ -91.211678000001982, 33.656791000002649 ], [ -91.223914000002367, 33.693739000002978 ], [ -91.16036700000258, 33.706602000002349 ], [ -91.128956000001835, 33.673631000002437 ], [ -91.079776000002539, 33.658036000002809 ], [ -91.033707000002323, 33.673844000002823 ], [ -91.06805100000166, 33.716198000003146 ], [ -91.125949000002478, 33.708948000002493 ], [ -91.144246000001985, 33.747036000003149 ], [ -91.108663000001926, 33.77166800000299 ], [ -91.053386000001893, 33.778283000002958 ], [ -91.027367000001718, 33.765114000002384 ], [ -90.991574000001762, 33.79230400000236 ], [ -91.022486000001834, 33.805259000002629 ], [ -91.049083000001644, 33.816026000002353 ], [ -91.073252000002455, 33.861980000003022 ], [ -91.061832000002624, 33.879159000002275 ], [ -91.010863000001663, 33.927310000002592 ], [ -91.018629000001937, 33.941908000003131 ], [ -91.081424000002258, 33.954931000002702 ], [ -91.090658000001994, 33.988730000002306 ], [ -91.018948000001956, 34.003225000003034 ], [ -90.999977000002204, 33.966386000002657 ], [ -90.962489000002634, 33.981302000002621 ], [ -90.988184000002278, 34.019211000002628 ], [ -90.893285000002535, 34.026584000002629 ], [ -90.87112200000216, 34.080249000002404 ], [ -90.921294000002405, 34.093514000002322 ], [ -90.956901000002119, 34.120091000002809 ], [ -90.958644000001954, 34.135484000002343 ], [ -90.909957000002564, 34.165511000002894 ], [ -90.868618000002044, 34.142516000003049 ], [ -90.836099000001795, 34.137876000002962 ], [ -90.809142000002637, 34.176961000002457 ], [ -90.886746000002006, 34.182501000002695 ], [ -90.934544000001878, 34.217854000002724 ], [ -90.906334000001763, 34.244382000002759 ], [ -90.881338000002685, 34.216377000003028 ], [ -90.847149000001735, 34.206130000002702 ], [ -90.833629000002404, 34.274074000002457 ], [ -90.760423000001921, 34.270733000002963 ], [ -90.7358730000024, 34.310687000003043 ], [ -90.765130000002245, 34.342511000003135 ], [ -90.757304000001739, 34.367392000002958 ], [ -90.707252000002484, 34.36118100000261 ], [ -90.693129000002017, 34.322570000002735 ], [ -90.660875000002662, 34.336693000002889 ], [ -90.652783000002515, 34.381682000002399 ], [ -90.59801400000228, 34.398187000002949 ], [ -90.579744000002236, 34.422735000002994 ], [ -90.593920000001916, 34.484176000002513 ], [ -90.567874000002007, 34.523999000002753 ], [ -90.540493000002286, 34.557871000002834 ], [ -90.591784000002093, 34.623794000002796 ], [ -90.569715000002645, 34.666350000002787 ], [ -90.546541000002605, 34.631018000003145 ], [ -90.517548000001639, 34.63075900000316 ], [ -90.469000000001841, 34.669770000002956 ], [ -90.463347000002074, 34.681354000002585 ], [ -90.474166000001844, 34.705277000003193 ], [ -90.533333000002116, 34.696388000002294 ], [ -90.571944000002077, 34.712777000002873 ], [ -90.539444000002163, 34.755277000002955 ], [ -90.54777800000204, 34.783333000002429 ], [ -90.521111000001881, 34.801944000002969 ], [ -90.492777000002107, 34.772499000002995 ], [ -90.524166000001756, 34.731388000002589 ], [ -90.474999000002597, 34.723888000002489 ], [ -90.448168000002042, 34.740103000002733 ], [ -90.465141000002518, 34.772786000003038 ], [ -90.455379000001884, 34.820785000002786 ], [ -90.483720000002094, 34.861018000003099 ], [ -90.444223000001855, 34.887628000002714 ], [ -90.429310000001877, 34.868752000002857 ], [ -90.438729000001757, 34.825248000003178 ], [ -90.389393000002684, 34.830665000003172 ], [ -90.33844900000264, 34.858517000002927 ], [ -90.304561000002138, 34.860587000002546 ], [ -90.247160000002324, 34.860653000002614 ], [ -90.202126000002437, 34.860374000002373 ], [ -90.202008000001882, 34.801101000002994 ], [ -90.20019900000176, 34.724418000003169 ], [ -90.231583000001905, 34.699525000003185 ], [ -90.221112000001781, 34.670392000003169 ], [ -90.216325000002286, 34.646874000002313 ], [ -90.239971000001958, 34.626237000002796 ], [ -90.237262000001721, 34.598181000002484 ], [ -90.221489000001938, 34.58246100000266 ], [ -90.198631000001996, 34.554425000002638 ], [ -90.162252000002596, 34.554260000002813 ], [ -90.149593000001644, 34.554207000002648 ], [ -90.091865000002244, 34.554115000002618 ], [ -90.056564000002012, 34.554176000002627 ], [ -90.032660000002053, 34.554078000002676 ], [ -89.915636000001669, 34.553692000003082 ], [ -89.898383000002156, 34.553660000002345 ], [ -89.862712000001849, 34.553807000002962 ], [ -89.774419000001743, 34.553857000002616 ], [ -89.721341000001871, 34.554274000002415 ], [ -89.720941000001631, 34.450933000002792 ], [ -89.721013000002159, 34.448581000002385 ], [ -89.721137000002216, 34.444606000002629 ], [ -89.721998000002131, 34.425796000002471 ], [ -89.721008000002584, 34.349182000002649 ], [ -89.720231000001831, 34.264038000002905 ], [ -89.721050000001867, 34.192545000002781 ], [ -89.636687000002468, 34.191646000002358 ], [ -89.537014000001761, 34.191070000003215 ], [ -89.52687400000228, 34.191003000002631 ], [ -89.509748000001593, 34.162082000002925 ], [ -89.507800000002518, 34.067197000002849 ], [ -89.507380000001788, 34.020541000002801 ], [ -89.507406000001751, 33.943238000002808 ], [ -89.507390000001777, 33.896770000002725 ], [ -89.507353000001913, 33.867469000002941 ], [ -89.507314000001841, 33.838202000003172 ], [ -89.507269000002196, 33.808960000002465 ], [ -89.507147000002348, 33.722162000003216 ], [ -89.507135000001895, 33.721819000002547 ], [ -89.50687200000246, 33.677605000002856 ], [ -89.506684000002338, 33.648854000002849 ], [ -89.506611000002621, 33.638503000002835 ], [ -89.506616000002296, 33.576289000002376 ], [ -89.506403000002123, 33.51847200000303 ], [ -89.50658500000165, 33.503428000002501 ], [ -89.506496000002087, 33.459806000003148 ], [ -89.417705000001703, 33.460107000003035 ], [ -89.381092000002127, 33.460307000003226 ], [ -89.411030000002214, 33.435872000002341 ], [ -89.454050000001857, 33.433200000002891 ], [ -89.453905000001598, 33.343766000002496 ], [ -89.453808000002454, 33.285942000002457 ], [ -89.401269000001989, 33.285915000002916 ], [ -89.368134000002144, 33.285886000003174 ], [ -89.31640800000163, 33.285556000002892 ], [ -89.316926000002056, 33.251995000002537 ], [ -89.317321000001613, 33.212085000003 ], [ -89.317427000002198, 33.198600000003225 ], [ -89.317557000002125, 33.182097000002642 ], [ -89.317855000002012, 33.108871000002459 ], [ -89.318223000001936, 33.06545200000258 ], [ -89.318639000001994, 33.020727000002402 ], [ -89.319163000002433, 32.931654000003093 ], [ -89.318977000001667, 32.872339000003102 ], [ -89.3184670000023, 32.867963000002902 ], [ -89.318613000001648, 32.804542000002364 ], [ -89.318642000002114, 32.791929000002703 ], [ -89.318393000002501, 32.73075500000261 ], [ -89.318284000002436, 32.70954100000305 ], [ -89.31798800000189, 32.689119000003167 ], [ -89.318002000002423, 32.657650000003265 ], [ -89.31793800000159, 32.649192000003005 ], [ -89.317588000001962, 32.576458000002567 ], [ -89.322598000002586, 32.576433000003107 ], [ -89.368438000002058, 32.57632200000247 ], [ -89.453159000002628, 32.57637300000313 ], [ -89.472093000002232, 32.576405000002737 ], [ -89.574356000002638, 32.576360000002744 ], [ -89.609858000001765, 32.576352000002949 ], [ -89.661073000001835, 32.576637000002577 ], [ -89.730152000002619, 32.577248000002896 ], [ -89.730304000002349, 32.634228000003212 ], [ -89.784123000001983, 32.586891000002908 ], [ -89.861159000001862, 32.583162000002872 ], [ -89.871346000002276, 32.561002000002347 ], [ -89.936362000002518, 32.513262000003088 ], [ -89.939758000002513, 32.513744000002639 ], [ -89.995191000002521, 32.541587000002757 ], [ -89.995226000002148, 32.560392000002452 ], [ -90.025590000002452, 32.560502000002565 ], [ -90.060108000002018, 32.560599000002817 ], [ -90.081255000001605, 32.560703000002405 ], [ -90.08898300000196, 32.549532000002763 ], [ -90.136250000001894, 32.553292000002514 ], [ -90.136499000002118, 32.583064000002608 ], [ -90.215789000002118, 32.553328000002921 ], [ -90.243720000002, 32.557080000002934 ], [ -90.245169000001979, 32.558940000002792 ], [ -90.310272000001817, 32.545920000002795 ], [ -90.363788000001762, 32.603331000002498 ], [ -90.409338000002421, 32.574783000002313 ], [ -90.438344000002118, 32.585715000002885 ], [ -90.450037000001885, 32.573783000002983 ], [ -90.449918000001674, 32.489181000002795 ], [ -90.398819000002419, 32.48773100000259 ], [ -90.356288000002166, 32.487745000002469 ], [ -90.347194000001906, 32.487787000002747 ], [ -90.279875000002434, 32.487635000002562 ], [ -90.243641000002398, 32.487533000002706 ], [ -90.243793000001958, 32.440894000003219 ], [ -90.243764000001875, 32.400098000002544 ], [ -90.218094000001656, 32.400056000002436 ], [ -90.192290000001961, 32.400132000002507 ], [ -90.176566000001642, 32.4002350000031 ], [ -90.162061000001842, 32.410318000002761 ], [ -90.147519000001907, 32.409705000002617 ], [ -90.145892000001624, 32.405665000002699 ], [ -90.148831000002616, 32.400257000002398 ], [ -90.145021000002004, 32.399782000003128 ], [ -90.134441000001956, 32.399492000002951 ], [ -90.114899000002183, 32.399491000002442 ], [ -90.108652000002238, 32.399507000003219 ], [ -90.117994000002597, 32.383415000002707 ], [ -90.123080000001877, 32.384313000002727 ], [ -90.141911000002153, 32.383900000003038 ], [ -90.127781000001619, 32.370444000002422 ], [ -90.149353000001682, 32.366716000002434 ], [ -90.149679000001981, 32.366730000002953 ], [ -90.149853000002423, 32.365848000002465 ], [ -90.151818000002237, 32.355797000002482 ], [ -90.154391000001638, 32.34835200000294 ], [ -90.164070000002155, 32.350046000002486 ], [ -90.175349000001944, 32.350190000002911 ], [ -90.180002000001878, 32.350577000003199 ], [ -90.18026500000262, 32.350003000002417 ], [ -90.181942000001783, 32.341618000003074 ], [ -90.186816000002523, 32.326762000003235 ], [ -90.175663000001805, 32.326712000003049 ], [ -90.178014000002193, 32.312174000003161 ], [ -90.170243000002515, 32.312138000002847 ], [ -90.160981000002323, 32.308156000003187 ], [ -90.156187000002063, 32.297346000002811 ], [ -90.167893000001797, 32.28738500000285 ], [ -90.179701000002296, 32.276162000002657 ], [ -90.204191000001799, 32.23973600000285 ], [ -90.19099400000232, 32.209660000002749 ], [ -90.181908000002636, 32.201912000003063 ], [ -90.244164000002399, 32.165722000003122 ], [ -90.240997000002594, 32.121712000003079 ], [ -90.230331000001598, 32.049728000002716 ], [ -90.218197000001979, 32.022602000002422 ], [ -90.22258200000266, 31.988585000002569 ], [ -90.193043000001964, 31.953088000003213 ], [ -90.169786000001736, 31.917640000003153 ], [ -90.13834100000264, 31.875319000003007 ], [ -90.140757000002338, 31.789353000002571 ], [ -90.110981000002553, 31.789266000002627 ], [ -90.122565000002481, 31.75268000000268 ], [ -90.123103000002075, 31.751972000003057 ], [ -90.17705200000222, 31.737194000002798 ], [ -90.245191000002393, 31.717524000002925 ], [ -90.259003000002437, 31.703916000003215 ], [ -90.312064000001641, 31.700013000002489 ], [ -90.372085000001874, 31.700258000002432 ], [ -90.379369000002526, 31.700247000003198 ], [ -90.408665000002301, 31.685307000002886 ], [ -90.419646000002601, 31.700481000003155 ], [ -90.463356000001838, 31.699163000002791 ], [ -90.497461000002161, 31.699066000002382 ], [ -90.579704000001996, 31.698318000002637 ], [ -90.736824000001818, 31.698491000002964 ], [ -90.737330000001762, 31.611124000002711 ], [ -90.726478000001677, 31.611157000002539 ], [ -90.686532000002046, 31.611339000002413 ], [ -90.633231000002539, 31.611409000003103 ], [ -90.633260000002082, 31.513745000002459 ], [ -90.633167000002445, 31.480770000002614 ], [ -90.633071000002502, 31.457203000002401 ], [ -90.633130000001998, 31.444660000003161 ], [ -90.633302000001763, 31.349306000002645 ], [ -90.616268000001966, 31.349348000002703 ], [ -90.556854000001707, 31.349474000002701 ], [ -90.548199000002086, 31.349574000002509 ], [ -90.548162000002094, 31.291333000002428 ], [ -90.5483510000021, 31.263050000002728 ], [ -90.548387000002194, 31.223382000002676 ], [ -90.548108000002074, 31.203612000002387 ], [ -90.547930000002623, 31.147490000002431 ], [ -90.547987000001996, 31.116812000003009 ], [ -90.547806000002481, 31.058506000002925 ], [ -90.547697000002245, 31.027967000002626 ], [ -90.547616000002193, 30.999720000002881 ], [ -90.753343000001664, 30.999290000003171 ], [ -90.783689000002354, 30.999445000003018 ], [ -90.922683000002237, 30.999470000003029 ], [ -90.928742000002444, 30.999401000002479 ], [ -91.060219000002164, 30.998927000002571 ], [ -91.23153100000188, 30.999273000003111 ], [ -91.396515000002637, 30.99904400000262 ] ] ] } },
{ "type": "Feature", "properties": { "enacted_district": 3, "population": 738414.0, "voting_age_pop": 566471.0, "dem_votes": 112445.0, "rep_votes": 184285.0, "minority_pop": 217173.0, "dem_pct": 0.37894719092139412, "rep_pct": 0.62105280874159918 }, "geometry": { "type": "Polygon", "coordinates": [ [ [ -90.548387000002194, 31.223382000002676 ], [ -90.5483510000021, 31.263050000002728 ], [ -90.548162000002094, 31.291333000002428 ], [ -90.548199000002086, 31.349574000002509 ], [ -90.556854000001707, 31.349474000002701 ], [ -90.616268000001966, 31.349348000002703 ], [ -90.633302000001763, 31.349306000002645 ], [ -90.633130000001998, 31.444660000003161 ], [ -90.633071000002502, 31.457203000002401 ], [ -90.633167000002445, 31.480770000002614 ], [ -90.633260000002082, 31.513745000002459 ], [ -90.633231000002539, 31.611409000003103 ], [ -90.686532000002046, 31.611339000002413 ], [ -90.726478000001677, 31.611157000002539 ], [ -90.737330000001762, 31.611124000002711 ], [ -90.736824000001818, 31.698491000002964 ], [ -90.579704000001996, 31.698318000002637 ], [ -90.497461000002161, 31.699066000002382 ], [ -90.463356000001838, 31.699163000002791 ], [ -90.419646000002601, 31.700481000003155 ], [ -90.408665000002301, 31.685307000002886 ], [ -90.379369000002526, 31.700247000003198 ], [ -90.372085000001874, 31.700258000002432 ], [ -90.312064000001641, 31.700013000002489 ], [ -90.259003000002437, 31.703916000003215 ], [ -90.245191000002393, 31.717524000002925 ], [ -90.17705200000222, 31.737194000002798 ], [ -90.123103000002075, 31.751972000003057 ], [ -90.122565000002481, 31.75268000000268 ], [ -90.110981000002553, 31.789266000002627 ], [ -90.140757000002338, 31.789353000002571 ], [ -90.13834100000264, 31.875319000003007 ], [ -90.169786000001736, 31.917640000003153 ], [ -90.193043000001964, 31.953088000003213 ], [ -90.22258200000266, 31.988585000002569 ], [ -90.218197000001979, 32.022602000002422 ], [ -90.230331000001598, 32.049728000002716 ], [ -90.240997000002594, 32.121712000003079 ], [ -90.244164000002399, 32.165722000003122 ], [ -90.181908000002636, 32.201912000003063 ], [ -90.19099400000232, 32.209660000002749 ], [ -90.204191000001799, 32.23973600000285 ], [ -90.179701000002296, 32.276162000002657 ], [ -90.167893000001797, 32.28738500000285 ], [ -90.156187000002063, 32.297346000002811 ], [ -90.160981000002323, 32.308156000003187 ], [ -90.170243000002515, 32.312138000002847 ], [ -90.178014000002193, 32.312174000003161 ], [ -90.175663000001805, 32.326712000003049 ], [ -90.186816000002523, 32.326762000003235 ], [ -90.181942000001783, 32.341618000003074 ], [ -90.18026500000262, 32.350003000002417 ], [ -90.180002000001878, 32.350577000003199 ], [ -90.175349000001944, 32.350190000002911 ], [ -90.164070000002155, 32.350046000002486 ], [ -90.154391000001638, 32.34835200000294 ], [ -90.151818000002237, 32.355797000002482 ], [ -90.149853000002423, 32.365848000002465 ], [ -90.149679000001981, 32.366730000002953 ], [ -90.149353000001682, 32.366716000002434 ], [ -90.127781000001619, 32.370444000002422 ], [ -90.141911000002153, 32.383900000003038 ], [ -90.123080000001877, 32.384313000002727 ], [ -90.117994000002597, 32.383415000002707 ], [ -90.108652000002238, 32.399507000003219 ], [ -90.114899000002183, 32.399491000002442 ], [ -90.134441000001956, 32.399492000002951 ], [ -90.145021000002004, 32.399782000003128 ], [ -90.148831000002616, 32.400257000002398 ], [ -90.145892000001624, 32.405665000002699 ], [ -90.147519000001907, 32.409705000002617 ], [ -90.162061000001842, 32.410318000002761 ], [ -90.176566000001642, 32.4002350000031 ], [ -90.192290000001961, 32.400132000002507 ], [ -90.218094000001656, 32.400056000002436 ], [ -90.243764000001875, 32.400098000002544 ], [ -90.243793000001958, 32.440894000003219 ], [ -90.243641000002398, 32.487533000002706 ], [ -90.279875000002434, 32.487635000002562 ], [ -90.347194000001906, 32.487787000002747 ], [ -90.356288000002166, 32.487745000002469 ], [ -90.398819000002419, 32.48773100000259 ], [ -90.449918000001674, 32.489181000002795 ], [ -90.450037000001885, 32.573783000002983 ], [ -90.438344000002118, 32.585715000002885 ], [ -90.409338000002421, 32.574783000002313 ], [ -90.363788000001762, 32.603331000002498 ], [ -90.310272000001817, 32.545920000002795 ], [ -90.245169000001979, 32.558940000002792 ], [ -90.243720000002, 32.557080000002934 ], [ -90.215789000002118, 32.553328000002921 ], [ -90.136499000002118, 32.583064000002608 ], [ -90.136250000001894, 32.553292000002514 ], [ -90.08898300000196, 32.549532000002763 ], [ -90.081255000001605, 32.560703000002405 ], [ -90.060108000002018, 32.560599000002817 ], [ -90.025590000002452, 32.560502000002565 ], [ -89.995226000002148, 32.560392000002452 ], [ -89.995191000002521, 32.541587000002757 ], [ -89.939758000002513, 32.513744000002639 ], [ -89.936362000002518, 32.513262000003088 ], [ -89.871346000002276, 32.561002000002347 ], [ -89.861159000001862, 32.583162000002872 ], [ -89.784123000001983, 32.586891000002908 ], [ -89.730304000002349, 32.634228000003212 ], [ -89.730152000002619, 32.577248000002896 ], [ -89.661073000001835, 32.576637000002577 ], [ -89.609858000001765, 32.576352000002949 ], [ -89.574356000002638, 32.576360000002744 ], [ -89.472093000002232, 32.576405000002737 ], [ -89.453159000002628, 32.57637300000313 ], [ -89.368438000002058, 32.57632200000247 ], [ -89.322598000002586, 32.576433000003107 ], [ -89.317588000001962, 32.576458000002567 ], [ -89.31793800000159, 32.649192000003005 ], [ -89.318002000002423, 32.657650000003265 ], [ -89.31798800000189, 32.689119000003167 ], [ -89.318284000002436, 32.70954100000305 ], [ -89.318393000002501, 32.73075500000261 ], [ -89.318642000002114, 32.791929000002703 ], [ -89.318613000001648, 32.804542000002364 ], [ -89.3184670000023, 32.867963000002902 ], [ -89.318977000001667, 32.872339000003102 ], [ -89.319163000002433, 32.931654000003093 ], [ -89.318639000001994, 33.020727000002402 ], [ -89.318223000001936, 33.06545200000258 ], [ -89.317855000002012, 33.108871000002459 ], [ -89.213921000001861, 33.109402000002966 ], [ -89.213675000002453, 33.153303000002389 ], [ -89.213456000002111, 33.191676000002396 ], [ -89.17806100000179, 33.197614000002936 ], [ -89.14566500000258, 33.197659000002552 ], [ -89.128902000002242, 33.197715000002653 ], [ -89.108900000001839, 33.198059000003191 ], [ -89.108886000001903, 33.285937000002775 ], [ -89.088255000002363, 33.286003000003177 ], [ -88.986793000002081, 33.286087000002865 ], [ -88.965963000001594, 33.28610800000255 ], [ -88.966825000002316, 33.379346000002663 ], [ -88.966845000002365, 33.37979700000308 ], [ -88.966500000001759, 33.446584000003043 ], [ -88.960004000001717, 33.462583000002887 ], [ -88.959617000002055, 33.498204000003057 ], [ -89.036119000001577, 33.512740000002729 ], [ -89.035677000001584, 33.562154000003133 ], [ -89.018613000002006, 33.562114000002573 ], [ -88.949824000001868, 33.564343000003269 ], [ -88.871503000001681, 33.564644000002538 ], [ -88.770596000002172, 33.565212000002596 ], [ -88.710111000002271, 33.55901600000275 ], [ -88.671526000002487, 33.565135000002968 ], [ -88.671250000002004, 33.506385000003242 ], [ -88.671250000001749, 33.506168000002717 ], [ -88.671051000002279, 33.462739000002408 ], [ -88.670378000002472, 33.40407100000315 ], [ -88.669076000001809, 33.286922000002932 ], [ -88.556689000002564, 33.28701000000251 ], [ -88.443358000001609, 33.288392000002986 ], [ -88.304434000002288, 33.288320000002784 ], [ -88.31575000000187, 33.198113000003033 ], [ -88.331010000002465, 33.072490000003278 ], [ -88.347887000001876, 32.929082000003042 ], [ -88.369055000002319, 32.742584000002623 ], [ -88.388797000001873, 32.578123000002861 ], [ -88.399971000001912, 32.485375000002819 ], [ -88.409957000001995, 32.399272000002789 ], [ -88.420824000002341, 32.31405000000305 ], [ -88.431379000001954, 32.227666000002891 ], [ -88.442910000002243, 32.13659500000329 ], [ -88.453394000002078, 32.053050000002884 ], [ -88.470109000002083, 31.920784000002559 ], [ -88.473227000002311, 31.893856000002895 ], [ -88.561731000001558, 31.872051000003079 ], [ -88.600308000002158, 31.862549000002755 ], [ -88.655193000001802, 31.851760000002979 ], [ -88.690922000001621, 31.846609000002889 ], [ -88.775150000002228, 31.83512000000313 ], [ -88.809174000001633, 31.832897000002738 ], [ -88.910459000001623, 31.826649000003044 ], [ -88.943355000002313, 31.824565000003247 ], [ -88.943169000002456, 31.784214000002919 ], [ -89.011396000001966, 31.784407000003284 ], [ -89.011358000002602, 31.769837000002976 ], [ -89.084112000002591, 31.769851000002891 ], [ -89.117490000002604, 31.726024000003139 ], [ -89.145703000002342, 31.740513000002579 ], [ -89.147096000002151, 31.711446000003271 ], [ -89.1621720000023, 31.71151900000304 ], [ -89.164538000001698, 31.711514000002708 ], [ -89.187909000001852, 31.769806000002632 ], [ -89.248341000002512, 31.769663000003135 ], [ -89.265690000002053, 31.769750000003199 ], [ -89.264668000002601, 31.805230000002425 ], [ -89.316560000002468, 31.80209000000325 ], [ -89.350182000001809, 31.799924000002591 ], [ -89.355234000002582, 31.799663000003235 ], [ -89.401227000001938, 31.796863000002556 ], [ -89.400650000002372, 31.708906000003154 ], [ -89.400539000002368, 31.686169000003225 ], [ -89.400298000002152, 31.637930000002907 ], [ -89.400241000002438, 31.623727000003203 ], [ -89.400208000002621, 31.609371000003144 ], [ -89.400206000002242, 31.609001000002507 ], [ -89.399503000002341, 31.507522000002528 ], [ -89.39917800000164, 31.434029000002635 ], [ -89.403872000001854, 31.434023000003144 ], [ -89.432278000002484, 31.434038000002573 ], [ -89.451616000002502, 31.434029000002823 ], [ -89.586819000002606, 31.433688000002839 ], [ -89.65421200000182, 31.433805000002831 ], [ -89.654400000001644, 31.404663000003055 ], [ -89.65408100000225, 31.315064000002504 ], [ -89.653800000001738, 31.283134000002441 ], [ -89.653999000002415, 31.229725000002944 ], [ -89.653803000002625, 31.212195000002687 ], [ -89.653754000002067, 31.127737000002497 ], [ -89.654038000002302, 31.002502000002945 ], [ -89.72811900000201, 31.002300000002371 ], [ -89.752642000002638, 31.001853000003042 ], [ -89.835908000002149, 31.002047000002847 ], [ -89.940973000002344, 31.001479000003169 ], [ -90.067545000002099, 31.00123800000242 ], [ -90.16450000000178, 31.001020000003205 ], [ -90.194299000002502, 31.000754000002591 ], [ -90.259555000002536, 31.00067900000316 ], [ -90.371463000002279, 31.000183000002593 ], [ -90.456982000002398, 30.99965800000292 ], [ -90.547616000002193, 30.999720000002881 ], [ -90.547697000002245, 31.027967000002626 ], [ -90.547806000002481, 31.058506000002925 ], [ -90.547987000001996, 31.116812000003009 ], [ -90.547930000002623, 31.147490000002431 ], [ -90.548108000002074, 31.203612000002387 ], [ -90.548387000002194, 31.223382000002676 ] ] ] } },
{ "type": "Feature", "properties": { "enacted_district": 4, "population": 740321.0, "voting_age_pop": 567730.0, "dem_votes": 79382.0, "rep_votes": 169084.0, "minority_pop": 180304.0, "dem_pct": 0.3194883805754154, "rep_pct": 0.68051161902211499 }, "geometry": { "type": "Polygon", "coordinates": [ [ [ -89.456818000002386, 30.165733000002728 ], [ -89.516891000001792, 30.164590000002864 ], [ -89.538635000002003, 30.195890000002848 ], [ -89.571907000001971, 30.180721000003231 ], [ -89.592369000001867, 30.20528700000304 ], [ -89.616828000002172, 30.225772000002394 ], [ -89.625312000002111, 30.26433100000315 ], [ -89.646965000002453, 30.291810000003014 ], [ -89.630622000002461, 30.337491000002416 ], [ -89.657287000001986, 30.357183000002397 ], [ -89.683708000001843, 30.405586000002963 ], [ -89.690035000002013, 30.459333000002477 ], [ -89.721405000002449, 30.488883000002943 ], [ -89.732383000002102, 30.492608000002623 ], [ -89.789680000002065, 30.544656000003005 ], [ -89.818771000002002, 30.592880000003195 ], [ -89.822570000001704, 30.624803000003187 ], [ -89.844172000002317, 30.691504000003007 ], [ -89.835963000002508, 30.735846000003217 ], [ -89.831537000001831, 30.767610000002929 ], [ -89.780513000001989, 30.847466000003234 ], [ -89.77026900000169, 30.899390000003063 ], [ -89.744789000001774, 30.918933000002845 ], [ -89.755948000002377, 30.944119000002942 ], [ -89.735686000001834, 30.966573000003045 ], [ -89.72811900000201, 31.002300000002371 ], [ -89.654038000002302, 31.002502000002945 ], [ -89.653754000002067, 31.127737000002497 ], [ -89.653803000002625, 31.212195000002687 ], [ -89.653999000002415, 31.229725000002944 ], [ -89.653800000001738, 31.283134000002441 ], [ -89.65408100000225, 31.315064000002504 ], [ -89.654400000001644, 31.404663000003055 ], [ -89.65421200000182, 31.433805000002831 ], [ -89.586819000002606, 31.433688000002839 ], [ -89.451616000002502, 31.434029000002823 ], [ -89.432278000002484, 31.434038000002573 ], [ -89.403872000001854, 31.434023000003144 ], [ -89.39917800000164, 31.434029000002635 ], [ -89.399503000002341, 31.507522000002528 ], [ -89.400206000002242, 31.609001000002507 ], [ -89.400208000002621, 31.609371000003144 ], [ -89.400241000002438, 31.623727000003203 ], [ -89.400298000002152, 31.637930000002907 ], [ -89.400539000002368, 31.686169000003225 ], [ -89.400650000002372, 31.708906000003154 ], [ -89.401227000001938, 31.796863000002556 ], [ -89.355234000002582, 31.799663000003235 ], [ -89.350182000001809, 31.799924000002591 ], [ -89.316560000002468, 31.80209000000325 ], [ -89.264668000002601, 31.805230000002425 ], [ -89.265690000002053, 31.769750000003199 ], [ -89.248341000002512, 31.769663000003135 ], [ -89.187909000001852, 31.769806000002632 ], [ -89.164538000001698, 31.711514000002708 ], [ -89.1621720000023, 31.71151900000304 ], [ -89.147096000002151, 31.711446000003271 ], [ -89.145703000002342, 31.740513000002579 ], [ -89.117490000002604, 31.726024000003139 ], [ -89.084112000002591, 31.769851000002891 ], [ -89.011358000002602, 31.769837000002976 ], [ -89.011396000001966, 31.784407000003284 ], [ -88.943169000002456, 31.784214000002919 ], [ -88.943355000002313, 31.824565000003247 ], [ -88.910459000001623, 31.826649000003044 ], [ -88.809174000001633, 31.832897000002738 ], [ -88.775150000002228, 31.83512000000313 ], [ -88.690922000001621, 31.846609000002889 ], [ -88.655193000001802, 31.851760000002979 ], [ -88.600308000002158, 31.862549000002755 ], [ -88.561731000001558, 31.872051000003079 ], [ -88.473227000002311, 31.893856000002895 ], [ -88.469035000002023, 31.800225000002449 ], [ -88.46503500000216, 31.714741000002551 ], [ -88.455446000002382, 31.546805000002841 ], [ -88.45329900000246, 31.509180000003187 ], [ -88.449438000001734, 31.435837000002468 ], [ -88.441281000001865, 31.289984000002494 ], [ -88.439929000002394, 31.267610000002776 ], [ -88.430512000001841, 31.08531800000257 ], [ -88.425432000002019, 30.99832300000282 ], [ -88.422089000002458, 30.925064000002703 ], [ -88.418135000001655, 30.85587600000332 ], [ -88.412612000001545, 30.735590000002652 ], [ -88.407093000002533, 30.617753000002718 ], [ -88.406034000001668, 30.587845000003043 ], [ -88.404239000001837, 30.559912000002679 ], [ -88.384431000001882, 30.158543000002961 ], [ -88.446987000002437, 30.146303000003329 ], [ -88.479934000001919, 30.149921000003289 ], [ -88.545855000002405, 30.176653000002982 ], [ -88.603881000002431, 30.170609000003076 ], [ -88.669418000002366, 30.178621000003066 ], [ -88.717386000002037, 30.190875000002681 ], [ -88.753899000001709, 30.188205000003201 ], [ -88.795147000002586, 30.199994000003073 ], [ -88.82138700000165, 30.217370000002511 ], [ -88.850390000002065, 30.192282000003271 ], [ -88.900330000001944, 30.169980000002884 ], [ -88.889030000002307, 30.139845000002431 ], [ -88.933198000002534, 30.145481000003151 ], [ -89.000175000002187, 30.153960000003263 ], [ -89.10028200000194, 30.167946000002782 ], [ -89.190170000002013, 30.209546000003165 ], [ -89.260977000002001, 30.181998000002498 ], [ -89.306135000001944, 30.177941000003283 ], [ -89.416711000001726, 30.177639000002724 ], [ -89.456818000002386, 30.165733000002728 ] ] ] } }
]
}
