{
"type": "FeatureCollection",
"name": "missouri_optimized_districts_all",
"crs": { "type": "name", "properties": { "name": "urn:ogc:def:crs:OGC:1.3:CRS84" } },
"features": [
{ "type": "Feature", "properties": { "opt_all": 1, "population": 765735.0, "voting_age_pop": 605598.0, "dem_votes": 259745.0, "rep_votes": 79416.0, "minority_pop": 332892.0, "dem_pct": 0.7658457190638529, "rep_pct": 0.23415428064130184 }, "geometry": { "type": "Polygon", "coordinates": [ [ [ -90.46276600000256, 38.588275000002611 ], [ -90.46288500000226, 38.586553000002851 ], [ -90.465067000002634, 38.578840000002231 ], [ -90.477908000002202, 38.596153000002353 ], [ -90.473929000002201, 38.596713000002232 ], [ -90.472533000001562, 38.596904000002397 ], [ -90.462339000002274, 38.604126000002893 ], [ -90.462686000001639, 38.604101000002778 ], [ -90.467375000001525, 38.60408800000306 ], [ -90.478836000002033, 38.627466000002585 ], [ -90.467242000001846, 38.626173000002638 ], [ -90.467014000002166, 38.638663000003049 ], [ -90.453119000002317, 38.640794000002735 ], [ -90.45759300000222, 38.64080100000259 ], [ -90.452784000001841, 38.648119000002218 ], [ -90.448251000002401, 38.655498000002986 ], [ -90.42924900000196, 38.655406000002898 ], [ -90.429450000001566, 38.648046000002402 ], [ -90.424676000001554, 38.64792900000284 ], [ -90.424650000002259, 38.647928000002679 ], [ -90.40544800000248, 38.64768900000248 ], [ -90.405318000002481, 38.655041000003003 ], [ -90.405209000002003, 38.661188000002987 ], [ -90.39521600000252, 38.661067000002333 ], [ -90.394623000002539, 38.661065000002594 ], [ -90.389108000001542, 38.661012000002557 ], [ -90.388482000002327, 38.673346000002802 ], [ -90.3867080000025, 38.673781000003032 ], [ -90.389240000002417, 38.684089000002373 ], [ -90.38981600000244, 38.685444000002938 ], [ -90.392899000002643, 38.68584400000271 ], [ -90.394015000002199, 38.685988000002197 ], [ -90.3947420000016, 38.686083000003059 ], [ -90.39847300000244, 38.686585000003049 ], [ -90.404753000002003, 38.687193000002566 ], [ -90.408951000002006, 38.69353700000233 ], [ -90.410424000002394, 38.694508000002173 ], [ -90.412584000002127, 38.696099000002867 ], [ -90.418503000002318, 38.698110000002245 ], [ -90.418827000001755, 38.69827300000221 ], [ -90.423637000001705, 38.699138000002577 ], [ -90.43179900000186, 38.697286000002229 ], [ -90.441612000001953, 38.714547000002952 ], [ -90.441530000001606, 38.71454700000254 ], [ -90.441483000002634, 38.722323000002248 ], [ -90.44140500000232, 38.722356000002463 ], [ -90.436675000002353, 38.726623000002213 ], [ -90.44438500000264, 38.727180000002932 ], [ -90.444681000002646, 38.725889000002461 ], [ -90.447851000002444, 38.727515000002953 ], [ -90.446857000002495, 38.725356000002776 ], [ -90.460776000001758, 38.7275230000024 ], [ -90.467576000001657, 38.734721000002885 ], [ -90.465930000002274, 38.735189000002961 ], [ -90.493394000002354, 38.75068700000304 ], [ -90.482455000001806, 38.764013000002926 ], [ -90.482299000001674, 38.764348000002975 ], [ -90.481325000002116, 38.766854000002773 ], [ -90.477468000001664, 38.778198000002362 ], [ -90.476499000001596, 38.780896000002933 ], [ -90.475318000001536, 38.783869000002788 ], [ -90.467811000001703, 38.797798000003041 ], [ -90.467317000002481, 38.798389000002992 ], [ -90.455164000002043, 38.813056000002717 ], [ -90.449556000002474, 38.819892000002945 ], [ -90.440924000001743, 38.827421000002843 ], [ -90.439251000002258, 38.82801600000284 ], [ -90.430975000002121, 38.82980600000289 ], [ -90.393111000001525, 38.8231050000023 ], [ -90.386446000002138, 38.822385000002505 ], [ -90.376153000002518, 38.822418000002621 ], [ -90.365801000002278, 38.825878000003037 ], [ -90.360302000001596, 38.829679000002152 ], [ -90.356301000002105, 38.834027000002834 ], [ -90.350337000001559, 38.84025300000264 ], [ -90.342414000001824, 38.861749000002533 ], [ -90.332022000001501, 38.886516000002892 ], [ -90.298743000001764, 38.887759000002688 ], [ -90.270476000001636, 38.864646000002793 ], [ -90.236557000002406, 38.843272000002749 ], [ -90.173501000002361, 38.820382000002461 ], [ -90.14160800000208, 38.829448000002941 ], [ -90.117707000002241, 38.805748000002545 ], [ -90.166271000002041, 38.77272900000245 ], [ -90.211178000002036, 38.722074000002252 ], [ -90.202202000002558, 38.693479000002526 ], [ -90.181042000002236, 38.659281000002437 ], [ -90.177727000002662, 38.64202700000223 ], [ -90.177959000001522, 38.635062000002726 ], [ -90.182415000002081, 38.618023000002552 ], [ -90.195733000001596, 38.594771000002865 ], [ -90.205555000002121, 38.586792000002589 ], [ -90.220727000002356, 38.577066000002539 ], [ -90.229176000002482, 38.568981000002601 ], [ -90.240044000002484, 38.555651000002534 ], [ -90.24464800000176, 38.550003000002818 ], [ -90.250279000002394, 38.542804000002548 ], [ -90.254107000002421, 38.537297000002695 ], [ -90.257782000002123, 38.53201200000229 ], [ -90.269100000001757, 38.537575000002228 ], [ -90.279957000001673, 38.551845000002722 ], [ -90.280563000002559, 38.552187000002696 ], [ -90.283372000001606, 38.553704000002995 ], [ -90.28700000000218, 38.555474000002889 ], [ -90.292421000002122, 38.558997000003011 ], [ -90.297022000002301, 38.562368000002458 ], [ -90.306958000002126, 38.572194000002874 ], [ -90.307182000002598, 38.572417000002581 ], [ -90.31001800000152, 38.575231000002823 ], [ -90.31041700000236, 38.575627000002392 ], [ -90.314044000002113, 38.579797000002927 ], [ -90.31488300000224, 38.581665000003007 ], [ -90.316240000001926, 38.584686000002634 ], [ -90.317449000001844, 38.587377000002846 ], [ -90.319635000001796, 38.592237000002605 ], [ -90.318976000001797, 38.598015000002533 ], [ -90.318858000002237, 38.598312000002721 ], [ -90.318423000002156, 38.599405000002584 ], [ -90.318869000002479, 38.599485000002488 ], [ -90.323016000002241, 38.612428000003057 ], [ -90.319690000001856, 38.612613000002817 ], [ -90.322313000001984, 38.615989000002173 ], [ -90.322166000002241, 38.616731000002552 ], [ -90.326038000001617, 38.621328000002933 ], [ -90.32586100000178, 38.622753000002923 ], [ -90.329814000002202, 38.622780000003011 ], [ -90.323357000002261, 38.627681000002951 ], [ -90.323300000002206, 38.629284000002563 ], [ -90.329778000002165, 38.629534000002664 ], [ -90.334955000002239, 38.629631000002838 ], [ -90.334936000002045, 38.62926100000287 ], [ -90.334438000002166, 38.622756000002376 ], [ -90.334471000002196, 38.61676500000285 ], [ -90.335180000002183, 38.609923000002816 ], [ -90.35777800000244, 38.608932000002497 ], [ -90.355132000002442, 38.618251000002203 ], [ -90.362394000001757, 38.619013000002617 ], [ -90.363349000001804, 38.61400900000222 ], [ -90.363528000002319, 38.609520000002298 ], [ -90.377828000002197, 38.605301000002548 ], [ -90.376990000002607, 38.603068000002793 ], [ -90.385330000001659, 38.603158000002452 ], [ -90.390777000001606, 38.601835000002822 ], [ -90.390766000001662, 38.602445000002746 ], [ -90.392194000002135, 38.603169000003035 ], [ -90.396764000001639, 38.603201000002478 ], [ -90.396756000001517, 38.603484000002879 ], [ -90.396578000001526, 38.610847000002195 ], [ -90.401315000001702, 38.610897000002936 ], [ -90.405814000002238, 38.618346000002354 ], [ -90.40594800000224, 38.618349000002858 ], [ -90.406160000002401, 38.618353000003005 ], [ -90.406124000002507, 38.622643000002526 ], [ -90.415559000002077, 38.623985000002634 ], [ -90.415627000001706, 38.618551000003002 ], [ -90.415626000002277, 38.61835200000278 ], [ -90.42675900000242, 38.61846000000223 ], [ -90.425145000002445, 38.61159900000299 ], [ -90.425209000001658, 38.606593000002434 ], [ -90.425287000001816, 38.599583000002774 ], [ -90.415838000002083, 38.598815000002851 ], [ -90.411072000002235, 38.59943000000267 ], [ -90.406301000001775, 38.60014900000256 ], [ -90.406309000001741, 38.593348000002997 ], [ -90.406308000001843, 38.583292000002864 ], [ -90.415510000001859, 38.583513000003059 ], [ -90.42484800000156, 38.582741000002748 ], [ -90.434729000001695, 38.576467000002573 ], [ -90.439723000002317, 38.580056000002585 ], [ -90.444032000001684, 38.581893000002481 ], [ -90.444374000001915, 38.575481000002952 ], [ -90.443389000002242, 38.574312000002543 ], [ -90.439933000002327, 38.567259000002707 ], [ -90.453893000001997, 38.565149000002265 ], [ -90.453662000001685, 38.572517000002982 ], [ -90.4526770000017, 38.57310000000237 ], [ -90.453526000002441, 38.578115000002633 ], [ -90.454856000002536, 38.579064000002496 ], [ -90.453437000002438, 38.580360000002692 ], [ -90.453556000002635, 38.590918000003043 ], [ -90.46276600000256, 38.588275000002611 ] ] ] } },
{ "type": "Feature", "properties": { "opt_all": 2, "population": 766707.0, "voting_age_pop": 600676.0, "dem_votes": 177761.0, "rep_votes": 215327.0, "minority_pop": 87547.0, "dem_pct": 0.45221680629980643, "rep_pct": 0.54778319344579762 }, "geometry": { "type": "Polygon", "coordinates": [ [ [ -90.712680000001825, 38.135135000002464 ], [ -90.7133300000026, 38.135799000002997 ], [ -90.780185000002518, 38.204112000002439 ], [ -90.773849000001761, 38.239067000003068 ], [ -90.760533000002397, 38.306405000002719 ], [ -90.755601000002358, 38.330052000002496 ], [ -90.748230000001641, 38.364420000002383 ], [ -90.743122000002316, 38.387402000002417 ], [ -90.736311000002559, 38.466643000002989 ], [ -90.736508000002047, 38.468129000003024 ], [ -90.736130000001737, 38.479236000002579 ], [ -90.735827000002203, 38.490018000002905 ], [ -90.73581400000198, 38.490369000002751 ], [ -90.735739000001956, 38.492327000002369 ], [ -90.735566000001583, 38.497150000002215 ], [ -90.735324000002279, 38.504336000002652 ], [ -90.735301000001954, 38.505229000002679 ], [ -90.734446000002436, 38.533726000002723 ], [ -90.734408000001721, 38.534972000002711 ], [ -90.732628000002165, 38.576600000002337 ], [ -90.732441000001543, 38.600684000002552 ], [ -90.732231000002216, 38.621370000002855 ], [ -90.732328000002042, 38.639302000002289 ], [ -90.725727000002024, 38.641116000002562 ], [ -90.681160000002521, 38.664412000002841 ], [ -90.673840000002286, 38.659727000002846 ], [ -90.678600000002163, 38.666462000002184 ], [ -90.678159000002367, 38.667565000002163 ], [ -90.676448000002367, 38.673543000002788 ], [ -90.66274900000262, 38.687439000002257 ], [ -90.647342000001984, 38.69052000000287 ], [ -90.613305000002001, 38.685296000002481 ], [ -90.572063000002004, 38.683788000002266 ], [ -90.568311000002296, 38.683931000003014 ], [ -90.539288000002557, 38.686778000002199 ], [ -90.537130000001596, 38.688442000002226 ], [ -90.533018000002443, 38.720963000002214 ], [ -90.533489000002376, 38.724936000002998 ], [ -90.521552000001805, 38.736577000002939 ], [ -90.5131940000024, 38.740496000002366 ], [ -90.506270000002402, 38.743366000002624 ], [ -90.495354000002081, 38.748662000002717 ], [ -90.493394000002354, 38.75068700000304 ], [ -90.465930000002274, 38.735189000002961 ], [ -90.467576000001657, 38.734721000002885 ], [ -90.460776000001758, 38.7275230000024 ], [ -90.446857000002495, 38.725356000002776 ], [ -90.447851000002444, 38.727515000002953 ], [ -90.444681000002646, 38.725889000002461 ], [ -90.44438500000264, 38.727180000002932 ], [ -90.436675000002353, 38.726623000002213 ], [ -90.44140500000232, 38.722356000002463 ], [ -90.441483000002634, 38.722323000002248 ], [ -90.441530000001606, 38.71454700000254 ], [ -90.441612000001953, 38.714547000002952 ], [ -90.43179900000186, 38.697286000002229 ], [ -90.423637000001705, 38.699138000002577 ], [ -90.418827000001755, 38.69827300000221 ], [ -90.418503000002318, 38.698110000002245 ], [ -90.412584000002127, 38.696099000002867 ], [ -90.410424000002394, 38.694508000002173 ], [ -90.408951000002006, 38.69353700000233 ], [ -90.404753000002003, 38.687193000002566 ], [ -90.39847300000244, 38.686585000003049 ], [ -90.3947420000016, 38.686083000003059 ], [ -90.394015000002199, 38.685988000002197 ], [ -90.392899000002643, 38.68584400000271 ], [ -90.38981600000244, 38.685444000002938 ], [ -90.389240000002417, 38.684089000002373 ], [ -90.3867080000025, 38.673781000003032 ], [ -90.388482000002327, 38.673346000002802 ], [ -90.389108000001542, 38.661012000002557 ], [ -90.394623000002539, 38.661065000002594 ], [ -90.39521600000252, 38.661067000002333 ], [ -90.405209000002003, 38.661188000002987 ], [ -90.405318000002481, 38.655041000003003 ], [ -90.40544800000248, 38.64768900000248 ], [ -90.424650000002259, 38.647928000002679 ], [ -90.424676000001554, 38.64792900000284 ], [ -90.429450000001566, 38.648046000002402 ], [ -90.42924900000196, 38.655406000002898 ], [ -90.448251000002401, 38.655498000002986 ], [ -90.452784000001841, 38.648119000002218 ], [ -90.45759300000222, 38.64080100000259 ], [ -90.453119000002317, 38.640794000002735 ], [ -90.467014000002166, 38.638663000003049 ], [ -90.467242000001846, 38.626173000002638 ], [ -90.478836000002033, 38.627466000002585 ], [ -90.467375000001525, 38.60408800000306 ], [ -90.462686000001639, 38.604101000002778 ], [ -90.462339000002274, 38.604126000002893 ], [ -90.472533000001562, 38.596904000002397 ], [ -90.473929000002201, 38.596713000002232 ], [ -90.477908000002202, 38.596153000002353 ], [ -90.465067000002634, 38.578840000002231 ], [ -90.46288500000226, 38.586553000002851 ], [ -90.46276600000256, 38.588275000002611 ], [ -90.453556000002635, 38.590918000003043 ], [ -90.453437000002438, 38.580360000002692 ], [ -90.454856000002536, 38.579064000002496 ], [ -90.453526000002441, 38.578115000002633 ], [ -90.4526770000017, 38.57310000000237 ], [ -90.453662000001685, 38.572517000002982 ], [ -90.453893000001997, 38.565149000002265 ], [ -90.439933000002327, 38.567259000002707 ], [ -90.443389000002242, 38.574312000002543 ], [ -90.444374000001915, 38.575481000002952 ], [ -90.444032000001684, 38.581893000002481 ], [ -90.439723000002317, 38.580056000002585 ], [ -90.434729000001695, 38.576467000002573 ], [ -90.42484800000156, 38.582741000002748 ], [ -90.415510000001859, 38.583513000003059 ], [ -90.406308000001843, 38.583292000002864 ], [ -90.406309000001741, 38.593348000002997 ], [ -90.406301000001775, 38.60014900000256 ], [ -90.411072000002235, 38.59943000000267 ], [ -90.415838000002083, 38.598815000002851 ], [ -90.425287000001816, 38.599583000002774 ], [ -90.425209000001658, 38.606593000002434 ], [ -90.425145000002445, 38.61159900000299 ], [ -90.42675900000242, 38.61846000000223 ], [ -90.415626000002277, 38.61835200000278 ], [ -90.415627000001706, 38.618551000003002 ], [ -90.415559000002077, 38.623985000002634 ], [ -90.406124000002507, 38.622643000002526 ], [ -90.406160000002401, 38.618353000003005 ], [ -90.40594800000224, 38.618349000002858 ], [ -90.405814000002238, 38.618346000002354 ], [ -90.401315000001702, 38.610897000002936 ], [ -90.396578000001526, 38.610847000002195 ], [ -90.396756000001517, 38.603484000002879 ], [ -90.396764000001639, 38.603201000002478 ], [ -90.392194000002135, 38.603169000003035 ], [ -90.390766000001662, 38.602445000002746 ], [ -90.390777000001606, 38.601835000002822 ], [ -90.385330000001659, 38.603158000002452 ], [ -90.376990000002607, 38.603068000002793 ], [ -90.377828000002197, 38.605301000002548 ], [ -90.363528000002319, 38.609520000002298 ], [ -90.363349000001804, 38.61400900000222 ], [ -90.362394000001757, 38.619013000002617 ], [ -90.355132000002442, 38.618251000002203 ], [ -90.35777800000244, 38.608932000002497 ], [ -90.335180000002183, 38.609923000002816 ], [ -90.334471000002196, 38.61676500000285 ], [ -90.334438000002166, 38.622756000002376 ], [ -90.334936000002045, 38.62926100000287 ], [ -90.334955000002239, 38.629631000002838 ], [ -90.329778000002165, 38.629534000002664 ], [ -90.323300000002206, 38.629284000002563 ], [ -90.323357000002261, 38.627681000002951 ], [ -90.329814000002202, 38.622780000003011 ], [ -90.32586100000178, 38.622753000002923 ], [ -90.326038000001617, 38.621328000002933 ], [ -90.322166000002241, 38.616731000002552 ], [ -90.322313000001984, 38.615989000002173 ], [ -90.319690000001856, 38.612613000002817 ], [ -90.323016000002241, 38.612428000003057 ], [ -90.318869000002479, 38.599485000002488 ], [ -90.318423000002156, 38.599405000002584 ], [ -90.318858000002237, 38.598312000002721 ], [ -90.318976000001797, 38.598015000002533 ], [ -90.319635000001796, 38.592237000002605 ], [ -90.317449000001844, 38.587377000002846 ], [ -90.316240000001926, 38.584686000002634 ], [ -90.31488300000224, 38.581665000003007 ], [ -90.314044000002113, 38.579797000002927 ], [ -90.31041700000236, 38.575627000002392 ], [ -90.31001800000152, 38.575231000002823 ], [ -90.307182000002598, 38.572417000002581 ], [ -90.306958000002126, 38.572194000002874 ], [ -90.297022000002301, 38.562368000002458 ], [ -90.292421000002122, 38.558997000003011 ], [ -90.28700000000218, 38.555474000002889 ], [ -90.283372000001606, 38.553704000002995 ], [ -90.280563000002559, 38.552187000002696 ], [ -90.279957000001673, 38.551845000002722 ], [ -90.269100000001757, 38.537575000002228 ], [ -90.257782000002123, 38.53201200000229 ], [ -90.263339000001579, 38.522309000002295 ], [ -90.264228000002234, 38.520268000002247 ], [ -90.270538000001537, 38.501540000002585 ], [ -90.274711000002441, 38.486607000002941 ], [ -90.2767990000021, 38.482466000002439 ], [ -90.28092600000204, 38.466411000002608 ], [ -90.282864000001595, 38.456974000003029 ], [ -90.285673000002646, 38.445663000002256 ], [ -90.311170000002633, 38.415679000002477 ], [ -90.341446000001582, 38.388298000002798 ], [ -90.345118000002003, 38.382834000002546 ], [ -90.354995000001836, 38.363956000002268 ], [ -90.356536000002194, 38.359397000002211 ], [ -90.371405000002326, 38.322969000002693 ], [ -90.37269700000256, 38.287893000002221 ], [ -90.371754000002383, 38.280536000002584 ], [ -90.368444000001745, 38.2616340000029 ], [ -90.366948000001798, 38.248344000003051 ], [ -90.363926000001996, 38.236355000002618 ], [ -90.355430000001761, 38.216306000002625 ], [ -90.334172000002056, 38.189857000002483 ], [ -90.290629000002639, 38.170363000002418 ], [ -90.252666000002506, 38.127812000002955 ], [ -90.293114000002646, 38.089410000003092 ], [ -90.353645000002118, 38.079878000002381 ], [ -90.416022000002457, 38.042315000002588 ], [ -90.472435000002633, 38.02978300000246 ], [ -90.491507000001718, 38.025281000002401 ], [ -90.58332400000198, 38.003499000002449 ], [ -90.612787000001561, 38.015895000002907 ], [ -90.618065000002005, 38.073322000002491 ], [ -90.639980000001685, 38.076548000003058 ], [ -90.676987000001802, 38.096434000002247 ], [ -90.712680000001825, 38.135135000002464 ] ] ] } },
{ "type": "Feature", "properties": { "opt_all": 3, "population": 772391.0, "voting_age_pop": 593087.0, "dem_votes": 122264.0, "rep_votes": 234117.0, "minority_pop": 76731.0, "dem_pct": 0.3430710390444297, "rep_pct": 0.65692896067497175 }, "geometry": { "type": "Polygon", "coordinates": [ [ [ -93.384850000002317, 38.938859000002125 ], [ -93.4963770000018, 38.94283700000264 ], [ -93.493003000002474, 39.001580000002242 ], [ -93.490666000001639, 39.044752000002866 ], [ -93.485683000001856, 39.146484000002062 ], [ -93.485670000002202, 39.14674700000262 ], [ -93.477233000002684, 39.292796000002788 ], [ -93.41944100000228, 39.267917000002612 ], [ -93.420020000002637, 39.35558800000252 ], [ -93.420059000001913, 39.366358000002073 ], [ -93.496035000002166, 39.360902000002845 ], [ -93.495746000002683, 39.366117000002134 ], [ -93.531609000002561, 39.366337000002773 ], [ -93.532031000001624, 39.441152000002397 ], [ -93.645051000002695, 39.437815000002189 ], [ -93.758993000002164, 39.437368000002202 ], [ -93.759183000002324, 39.524558000002877 ], [ -93.758357000002306, 39.611407000002231 ], [ -93.758915000002517, 39.698322000002051 ], [ -93.758992000002479, 39.784674000002028 ], [ -93.759120000002099, 39.807410000002186 ], [ -93.759122000001796, 39.807535000002765 ], [ -93.761973000001802, 39.959552000002184 ], [ -93.7636900000021, 40.03124100000224 ], [ -93.764207000002713, 40.118268000002637 ], [ -93.764021000002344, 40.132909000002527 ], [ -93.763189000002157, 40.247868000002413 ], [ -93.763324000002498, 40.263988000002001 ], [ -93.763510000002697, 40.292626000002514 ], [ -93.763551000002096, 40.36551900000223 ], [ -93.764823000002167, 40.472515000002815 ], [ -93.774548000001758, 40.472350000002102 ], [ -93.774344000001719, 40.577548000002608 ], [ -93.623160000001619, 40.579005000002496 ], [ -93.489046000001835, 40.580384000002574 ], [ -93.374386000001962, 40.580333000002717 ], [ -93.204098000002261, 40.58176500000242 ], [ -93.0897840000016, 40.584262000002035 ], [ -92.976038000001878, 40.587042000002221 ], [ -92.861480000001663, 40.588213000002611 ], [ -92.74827700000256, 40.589030000002118 ], [ -92.714596000001876, 40.58942700000248 ], [ -92.559328000002566, 40.592909000002486 ], [ -92.461461000002302, 40.595377000002237 ], [ -92.35080700000232, 40.59727500000205 ], [ -92.053117000001606, 40.603203000002928 ], [ -91.943112000002557, 40.605827000002151 ], [ -91.832392000002045, 40.609805000002098 ], [ -91.729115000001741, 40.61364000000259 ], [ -91.688820000002536, 40.583409000002639 ], [ -91.681714000001577, 40.553035000002417 ], [ -91.625161000002237, 40.543500000002737 ], [ -91.602248000002007, 40.49784900000278 ], [ -91.567723000002445, 40.46228400000259 ], [ -91.526155000001793, 40.458625000002641 ], [ -91.524612000001682, 40.410765000002584 ], [ -91.492629000002381, 40.402782000002198 ], [ -91.483153000002559, 40.382492000002379 ], [ -91.441243000001876, 40.386255000002748 ], [ -91.492727000001821, 40.278217000002833 ], [ -91.496182000002364, 40.250439000002224 ], [ -91.497266000001758, 40.248763000002945 ], [ -91.513079000002165, 40.178537000002095 ], [ -91.502696000002359, 40.099007000002693 ], [ -91.494878000002274, 40.036453000002759 ], [ -91.435517000001681, 39.945222000002111 ], [ -91.420878000001565, 39.914865000002699 ], [ -91.443513000002497, 39.893583000002188 ], [ -91.439196000002198, 39.856567000002386 ], [ -91.433798000002, 39.841865000002478 ], [ -91.376488000002624, 39.810033000002782 ], [ -91.365799000002113, 39.772625000002705 ], [ -91.367854000001756, 39.729136000002669 ], [ -91.349681000002519, 39.713049000002442 ], [ -91.330727000001914, 39.699930000002617 ], [ -91.306693000002383, 39.684865000002425 ], [ -91.223328000002581, 39.617603000002617 ], [ -91.178012000002383, 39.598196000002339 ], [ -91.166723000002406, 39.562462000002661 ], [ -91.148275000001959, 39.545798000002385 ], [ -91.100911000001517, 39.539001000002315 ], [ -91.064305000002477, 39.494643000002739 ], [ -91.042580000002658, 39.452265000002555 ], [ -90.949608000002044, 39.407775000002452 ], [ -90.896462000001961, 39.369176000002454 ], [ -90.798208000001566, 39.312393000002807 ], [ -90.726981000001715, 39.25117300000236 ], [ -90.7218350000024, 39.224108000002353 ], [ -90.705168000002061, 39.143152000002637 ], [ -90.685230000001553, 39.115527000002459 ], [ -90.681994000002277, 39.090066000002416 ], [ -90.712541000002517, 39.057064000002526 ], [ -90.685046000002274, 39.001708000002957 ], [ -90.674362000001821, 38.95783000000224 ], [ -90.6631810000016, 38.934224000002423 ], [ -90.623356000002005, 38.887149000002829 ], [ -90.564620000002037, 38.869150000002875 ], [ -90.545710000002487, 38.875050000002354 ], [ -90.487058000001966, 38.925862000002233 ], [ -90.472122000002557, 38.958838000002423 ], [ -90.434405000001576, 38.965745000002372 ], [ -90.392721000001899, 38.959071000002631 ], [ -90.309454000002475, 38.924120000002432 ], [ -90.25024800000196, 38.919344000003029 ], [ -90.197610000002541, 38.887648000002734 ], [ -90.113327000001959, 38.849306000002898 ], [ -90.117707000002241, 38.805748000002545 ], [ -90.14160800000208, 38.829448000002941 ], [ -90.173501000002361, 38.820382000002461 ], [ -90.236557000002406, 38.843272000002749 ], [ -90.270476000001636, 38.864646000002793 ], [ -90.298743000001764, 38.887759000002688 ], [ -90.332022000001501, 38.886516000002892 ], [ -90.342414000001824, 38.861749000002533 ], [ -90.350337000001559, 38.84025300000264 ], [ -90.356301000002105, 38.834027000002834 ], [ -90.360302000001596, 38.829679000002152 ], [ -90.365801000002278, 38.825878000003037 ], [ -90.376153000002518, 38.822418000002621 ], [ -90.386446000002138, 38.822385000002505 ], [ -90.393111000001525, 38.8231050000023 ], [ -90.430975000002121, 38.82980600000289 ], [ -90.439251000002258, 38.82801600000284 ], [ -90.440924000001743, 38.827421000002843 ], [ -90.449556000002474, 38.819892000002945 ], [ -90.455164000002043, 38.813056000002717 ], [ -90.467317000002481, 38.798389000002992 ], [ -90.467811000001703, 38.797798000003041 ], [ -90.475318000001536, 38.783869000002788 ], [ -90.476499000001596, 38.780896000002933 ], [ -90.477468000001664, 38.778198000002362 ], [ -90.481325000002116, 38.766854000002773 ], [ -90.482299000001674, 38.764348000002975 ], [ -90.482455000001806, 38.764013000002926 ], [ -90.493394000002354, 38.75068700000304 ], [ -90.495354000002081, 38.748662000002717 ], [ -90.506270000002402, 38.743366000002624 ], [ -90.5131940000024, 38.740496000002366 ], [ -90.521552000001805, 38.736577000002939 ], [ -90.533489000002376, 38.724936000002998 ], [ -90.533018000002443, 38.720963000002214 ], [ -90.537130000001596, 38.688442000002226 ], [ -90.539288000002557, 38.686778000002199 ], [ -90.568311000002296, 38.683931000003014 ], [ -90.572063000002004, 38.683788000002266 ], [ -90.613305000002001, 38.685296000002481 ], [ -90.647342000001984, 38.69052000000287 ], [ -90.66274900000262, 38.687439000002257 ], [ -90.676448000002367, 38.673543000002788 ], [ -90.678159000002367, 38.667565000002163 ], [ -90.678600000002163, 38.666462000002184 ], [ -90.673840000002286, 38.659727000002846 ], [ -90.681160000002521, 38.664412000002841 ], [ -90.725727000002024, 38.641116000002562 ], [ -90.732328000002042, 38.639302000002289 ], [ -90.773622000001637, 38.594617000002557 ], [ -90.816536000002685, 38.583414000002314 ], [ -90.904764000001833, 38.537517000003071 ], [ -90.960370000002158, 38.545099000002359 ], [ -90.964461000002402, 38.547545000002515 ], [ -90.964267000002096, 38.603841000002504 ], [ -90.963358000002245, 38.659678000002387 ], [ -90.963130000002323, 38.67428000000222 ], [ -90.963124000001883, 38.693329000002677 ], [ -90.96301100000268, 38.695909000002487 ], [ -90.962526000002043, 38.745136000002496 ], [ -90.962390000002159, 38.760300000002822 ], [ -90.962200000001715, 38.774200000002189 ], [ -90.961794000002044, 38.791674000002935 ], [ -90.958536000002297, 38.870865000002965 ], [ -91.073730000002314, 38.872738000002691 ], [ -91.111251000002397, 38.87270900000258 ], [ -91.110603000001873, 38.909615000002894 ], [ -91.110187000002526, 38.931901000002505 ], [ -91.189348000001843, 38.932151000002527 ], [ -91.188390000001519, 38.992141000002597 ], [ -91.264287000001559, 38.99276200000282 ], [ -91.262564000002399, 39.070021000002733 ], [ -91.262481000002239, 39.072453000002966 ], [ -91.260232000002077, 39.139845000002431 ], [ -91.409033000002083, 39.142542000002166 ], [ -91.484936000001682, 39.144857000002695 ], [ -91.556238000001727, 39.146126000002219 ], [ -91.629598000002403, 39.147853000002648 ], [ -91.633998000002222, 39.059057000002589 ], [ -91.635243000002177, 39.028191000002465 ], [ -91.638708000001898, 38.946858000002997 ], [ -91.691376000002279, 38.948764000002683 ], [ -91.724830000002584, 38.974492000002321 ], [ -91.749945000001603, 38.970550000002845 ], [ -91.788160000001596, 38.97177100000259 ], [ -91.858356000002004, 38.958789000002447 ], [ -91.939809000002526, 38.989239000002328 ], [ -92.03494700000202, 39.004830000002862 ], [ -92.035839000002284, 38.975739000002605 ], [ -92.073526000001721, 38.976357000002771 ], [ -92.071621000001926, 39.020075000002613 ], [ -92.092682000002355, 39.027654000002251 ], [ -92.091254000002323, 39.064297000002085 ], [ -92.11038700000158, 39.064204000002661 ], [ -92.107738000002456, 39.137561000002322 ], [ -92.106954000002162, 39.152434000002614 ], [ -92.105424000002543, 39.216029000002315 ], [ -92.105348000002238, 39.218260000002168 ], [ -92.104374000001798, 39.239809000002197 ], [ -92.198630000002041, 39.242346000002691 ], [ -92.314471000002484, 39.246454000002281 ], [ -92.370556000001841, 39.247688000002675 ], [ -92.372492000002282, 39.247724000002705 ], [ -92.430229000002598, 39.248795000002175 ], [ -92.475415000002513, 39.162997000002385 ], [ -92.5303850000018, 39.058189000002841 ], [ -92.544125000001557, 39.034052000002383 ], [ -92.561986000002278, 39.00318100000208 ], [ -92.55808600000168, 38.970692000002202 ], [ -92.528268000002683, 38.946065000002413 ], [ -92.498377000002165, 38.922084000002606 ], [ -92.520627000002037, 38.881517000002574 ], [ -92.557311000001761, 38.809876000002234 ], [ -92.594978000001959, 38.737609000002173 ], [ -92.617147000001935, 38.680013000002923 ], [ -92.726706000002423, 38.683135000002324 ], [ -92.726692000001833, 38.684077000002965 ], [ -92.839837000001936, 38.683974000002706 ], [ -92.876826000002325, 38.684319000002795 ], [ -92.932435000002513, 38.685515000002894 ], [ -93.059974000002157, 38.693077000002582 ], [ -93.059140000002159, 38.709524000002787 ], [ -93.055499000002158, 38.797303000002834 ], [ -93.053643000001856, 38.841750000002243 ], [ -93.052043000002058, 38.884247000002809 ], [ -93.050453000002634, 38.928244000002138 ], [ -93.273760000002326, 38.935492000002192 ], [ -93.273782000001759, 38.935120000002769 ], [ -93.366079000001875, 38.938162000002784 ], [ -93.384850000002317, 38.938859000002125 ] ] ] } },
{ "type": "Feature", "properties": { "opt_all": 4, "population": 772296.0, "voting_age_pop": 597010.0, "dem_votes": 105020.0, "rep_votes": 228683.0, "minority_pop": 90784.0, "dem_pct": 0.31471098542275289, "rep_pct": 0.68528901427757949 }, "geometry": { "type": "Polygon", "coordinates": [ [ [ -94.426313000001755, 37.072989000002849 ], [ -94.460168000002255, 37.054764000002301 ], [ -94.463051000002181, 37.054846000002414 ], [ -94.469017000002694, 37.069512000002383 ], [ -94.468155000002113, 37.084029000002509 ], [ -94.477275000001754, 37.084210000002741 ], [ -94.494844000002516, 37.08990000000238 ], [ -94.513250000001875, 37.089636000002834 ], [ -94.513891000002076, 37.075067000002235 ], [ -94.531574000002422, 37.073594000002231 ], [ -94.531416000002181, 37.077194000002372 ], [ -94.518599000001714, 37.097165000002533 ], [ -94.532926000001837, 37.109660000002712 ], [ -94.552850000002493, 37.100384000002066 ], [ -94.566871000001925, 37.100754000002851 ], [ -94.618070000001794, 37.101866000002651 ], [ -94.618244000002704, 37.160184000002417 ], [ -94.618313000002686, 37.194687000002851 ], [ -94.617570000002161, 37.364170000002218 ], [ -94.617088000002767, 37.477776000002706 ], [ -94.617698000001724, 37.653578000002412 ], [ -94.617638000002003, 37.771949000002706 ], [ -94.61462200000274, 37.944093000002219 ], [ -94.614061000001655, 38.06005600000254 ], [ -94.612650000002716, 38.218569000002717 ], [ -94.612713000002074, 38.313115000002334 ], [ -94.613332000001876, 38.399877000002313 ], [ -94.612882000002259, 38.477597000002739 ], [ -94.511205000002434, 38.475651000002095 ], [ -94.507933000002041, 38.475495000002532 ], [ -94.399901000002046, 38.47337900000219 ], [ -94.398782000001958, 38.473356000002781 ], [ -94.312293000001844, 38.471497000002771 ], [ -94.289964000002399, 38.465352000002838 ], [ -94.249865000001961, 38.455912000002613 ], [ -94.176620000001634, 38.445921000002109 ], [ -94.157205000002193, 38.448630000002389 ], [ -94.087317000002557, 38.455727000002597 ], [ -94.065713000001878, 38.447087000002689 ], [ -94.064317000002362, 38.567380000002231 ], [ -93.952961000001736, 38.564919000002682 ], [ -93.842963000002086, 38.562901000002483 ], [ -93.788490000002, 38.562014000002534 ], [ -93.732796000002338, 38.561335000002821 ], [ -93.639803000002601, 38.559446000002687 ], [ -93.621888000001917, 38.559067000002621 ], [ -93.511030000002577, 38.556210000002224 ], [ -93.512743000002203, 38.512476000002572 ], [ -93.291851000001714, 38.506321000002238 ], [ -93.290454000002526, 38.535388000002783 ], [ -93.179307000001955, 38.534071000002683 ], [ -93.067291000002385, 38.529995000002408 ], [ -93.067292000002567, 38.530096000002331 ], [ -93.059974000002157, 38.693077000002582 ], [ -92.932435000002513, 38.685515000002894 ], [ -92.876826000002325, 38.684319000002795 ], [ -92.839837000001936, 38.683974000002706 ], [ -92.726692000001833, 38.684077000002965 ], [ -92.726706000002423, 38.683135000002324 ], [ -92.617147000001935, 38.680013000002923 ], [ -92.594978000001959, 38.737609000002173 ], [ -92.557311000001761, 38.809876000002234 ], [ -92.520627000002037, 38.881517000002574 ], [ -92.498377000002165, 38.922084000002606 ], [ -92.528268000002683, 38.946065000002413 ], [ -92.55808600000168, 38.970692000002202 ], [ -92.561986000002278, 39.00318100000208 ], [ -92.544125000001557, 39.034052000002383 ], [ -92.5303850000018, 39.058189000002841 ], [ -92.475415000002513, 39.162997000002385 ], [ -92.430229000002598, 39.248795000002175 ], [ -92.372492000002282, 39.247724000002705 ], [ -92.370556000001841, 39.247688000002675 ], [ -92.314471000002484, 39.246454000002281 ], [ -92.198630000002041, 39.242346000002691 ], [ -92.104374000001798, 39.239809000002197 ], [ -92.105348000002238, 39.218260000002168 ], [ -92.105424000002543, 39.216029000002315 ], [ -92.106954000002162, 39.152434000002614 ], [ -92.107738000002456, 39.137561000002322 ], [ -92.11038700000158, 39.064204000002661 ], [ -92.131512000002303, 39.06448400000243 ], [ -92.130220000002197, 39.023642000002468 ], [ -92.149790000002284, 38.954301000002701 ], [ -92.152722000002399, 38.940093000002378 ], [ -92.158287000002517, 38.888012000002163 ], [ -92.148035000002523, 38.861062000002967 ], [ -92.148722000002365, 38.846625000002305 ], [ -92.135397000002726, 38.815581000002688 ], [ -92.164228000001714, 38.783840000002428 ], [ -92.174652000002325, 38.758092000002662 ], [ -92.184110000002036, 38.743744000002891 ], [ -92.211908000001657, 38.720304000002137 ], [ -92.218365000002166, 38.687004000002766 ], [ -92.220661000001883, 38.643167000002833 ], [ -92.2024910000017, 38.604949000002946 ], [ -92.186632000002234, 38.591861000002162 ], [ -92.178480000002722, 38.587392000002303 ], [ -92.160233000002563, 38.577461000002984 ], [ -92.137908000001943, 38.569057000002815 ], [ -92.052652000002283, 38.559053000002464 ], [ -92.037278000002445, 38.562448000002568 ], [ -92.00898300000236, 38.57090000000214 ], [ -92.028727000002661, 38.53939200000233 ], [ -92.0085280000023, 38.494572000002542 ], [ -92.020554000001681, 38.476290000002429 ], [ -92.116275000001622, 38.457571000002432 ], [ -92.153739000001679, 38.474612000002246 ], [ -92.149291000002478, 38.431152000002967 ], [ -92.120277000002446, 38.393137000002902 ], [ -92.169318000002434, 38.377323000002455 ], [ -92.193178000001978, 38.370835000002671 ], [ -92.194476000002595, 38.335536000002449 ], [ -92.195675000002439, 38.292237000002253 ], [ -92.197350000002018, 38.189318000002395 ], [ -92.197773000002002, 38.161538000003013 ], [ -92.181416000001661, 38.161004000002286 ], [ -92.183779000002687, 38.073902000002747 ], [ -92.185370000001697, 38.016338000002619 ], [ -92.185370000002578, 38.015138000002693 ], [ -92.075455000002123, 38.011380000002198 ], [ -92.021165000002114, 38.010639000002392 ], [ -92.021960000001599, 37.927893000002747 ], [ -92.022863000002317, 37.880740000002405 ], [ -92.024600000002593, 37.793721000002847 ], [ -92.025132000002273, 37.769564000002717 ], [ -92.026163000001944, 37.728325000002734 ], [ -92.02925800000186, 37.60254200000297 ], [ -92.084770000001924, 37.603646000002918 ], [ -92.158296000002437, 37.604901000002577 ], [ -92.249463000002137, 37.604543000002778 ], [ -92.252240000002061, 37.473801000002332 ], [ -92.252261000002122, 37.472944000002308 ], [ -92.251943000002285, 37.342752000002243 ], [ -92.252102000001926, 37.316050000002761 ], [ -92.248038000002538, 37.219533000003011 ], [ -92.249004000002273, 37.146483000002213 ], [ -92.251359000001884, 37.059653000002285 ], [ -92.305426000001802, 37.06125100000218 ], [ -92.414350000001718, 37.062569000002171 ], [ -92.415310000002336, 37.062575000003015 ], [ -92.520502000001898, 37.063637000003027 ], [ -92.632492000002202, 37.066548000002648 ], [ -92.685867000002716, 37.067051000002174 ], [ -92.738977000002436, 37.067829000002988 ], [ -92.849076000002455, 37.068763000002441 ], [ -92.903273000002486, 37.070651000002563 ], [ -92.902922000002079, 37.085221000002825 ], [ -92.993629000002201, 37.087667000002867 ], [ -93.065274000001878, 37.088694000002405 ], [ -93.063778000002515, 37.161781000002357 ], [ -93.062142000002154, 37.235117000002354 ], [ -93.076778000002022, 37.270412000002658 ], [ -93.07510800000216, 37.352401000002303 ], [ -93.074486000002196, 37.378546000002672 ], [ -93.073380000001805, 37.414989000002635 ], [ -93.182489000002619, 37.417204000002393 ], [ -93.219022000001758, 37.418287000002231 ], [ -93.32759000000236, 37.420544000002337 ], [ -93.364351000001676, 37.421815000002766 ], [ -93.400563000002521, 37.422690000002824 ], [ -93.437230000001776, 37.423554000002184 ], [ -93.473797000001895, 37.424543000002458 ], [ -93.492260000002304, 37.4249620000028 ], [ -93.621153000002181, 37.427423000002577 ], [ -93.618147000002679, 37.514667000002738 ], [ -93.616033000002446, 37.572689000002619 ], [ -93.655834000001661, 37.573459000002828 ], [ -93.724992000001961, 37.575179000002585 ], [ -93.947012000001777, 37.579379000002469 ], [ -94.075385000001802, 37.581570000002429 ], [ -94.078316000002104, 37.465098000002079 ], [ -94.080789000002639, 37.378043000002336 ], [ -94.08208300000274, 37.349291000002466 ], [ -94.08383300000196, 37.290851000002391 ], [ -94.052313000002556, 37.290078000002261 ], [ -94.053299000002156, 37.251809000002403 ], [ -94.055533000001958, 37.179042000002553 ], [ -94.056463000001884, 37.150304000002883 ], [ -94.058358000002727, 37.077233000002657 ], [ -94.059211000002563, 37.048127000002729 ], [ -94.177216000002076, 37.050923000002136 ], [ -94.204280000002385, 37.051535000002367 ], [ -94.295404000002378, 37.053234000002227 ], [ -94.34967000000168, 37.053758000002411 ], [ -94.405480000002044, 37.054240000002416 ], [ -94.405050000001978, 37.065067000002664 ], [ -94.426313000001755, 37.072989000002849 ] ] ] } },
{ "type": "Feature", "properties": { "opt_all": 5, "population": 771523.0, "voting_age_pop": 596406.0, "dem_votes": 187344.0, "rep_votes": 136561.0, "minority_pop": 215501.0, "dem_pct": 0.57839181223556546, "rep_pct": 0.42160818745570205 }, "geometry": { "type": "Polygon", "coordinates": [ [ [ -94.60800500000208, 38.919924000002155 ], [ -94.608032000001685, 38.929260000002195 ], [ -94.607973000002744, 38.935134000002385 ], [ -94.607995000002219, 38.937090000002357 ], [ -94.608155000002156, 38.949325000002816 ], [ -94.608131000002743, 38.956722000002223 ], [ -94.608162000002594, 38.967500000002318 ], [ -94.608270000001681, 38.974700000002365 ], [ -94.608104000002314, 38.985630000002082 ], [ -94.607994000001895, 38.987619000002773 ], [ -94.607960000002606, 38.992945000002898 ], [ -94.60787200000162, 39.000178000002201 ], [ -94.607818000001714, 39.006948000002282 ], [ -94.607758000001681, 39.013883000002402 ], [ -94.607711000002595, 39.017634000002857 ], [ -94.607640000002405, 39.021091000002656 ], [ -94.607565000001799, 39.028344000002249 ], [ -94.607524000002641, 39.033868000002229 ], [ -94.60740300000262, 39.042818000002526 ], [ -94.607371000002559, 39.044640000002559 ], [ -94.607323000002367, 39.050236000002712 ], [ -94.607340000001756, 39.055390000002227 ], [ -94.607315000002245, 39.060565000002072 ], [ -94.60733400000224, 39.072431000002247 ], [ -94.607234000002364, 39.083301000002216 ], [ -94.607354000002445, 39.113444000002829 ], [ -94.589685000002603, 39.112530000002117 ], [ -94.578825000002624, 39.11747600000254 ], [ -94.566029000001876, 39.123151000002508 ], [ -94.5647240000024, 39.123460000002034 ], [ -94.535720000001859, 39.144947000002617 ], [ -94.534061000001756, 39.14590800000218 ], [ -94.531298000002039, 39.146864000002189 ], [ -94.498387000002566, 39.150460000002496 ], [ -94.484112000001758, 39.14500900000278 ], [ -94.467546000002642, 39.124780000002715 ], [ -94.455429000002724, 39.123104000002549 ], [ -94.444292000002363, 39.129007000002424 ], [ -94.419475000001597, 39.149318000002815 ], [ -94.401575000002097, 39.166823000002182 ], [ -94.408628000002594, 39.193603000002092 ], [ -94.390694000001645, 39.194013000002883 ], [ -94.378494000001737, 39.170365000002086 ], [ -94.374089000002286, 39.167239000002787 ], [ -94.356767000002264, 39.168623000002519 ], [ -94.33521300000244, 39.18333700000268 ], [ -94.289873000002515, 39.237107000002048 ], [ -94.243311000001796, 39.232004000002092 ], [ -94.217744000001758, 39.208452000002069 ], [ -94.26187000000256, 39.205645000002612 ], [ -94.314197000002679, 39.14975200000255 ], [ -94.324678000002038, 39.177637000002591 ], [ -94.35126300000212, 39.149705000002413 ], [ -94.358053000002513, 39.128886000002552 ], [ -94.35622500000224, 39.12877800000247 ], [ -94.348601000002176, 39.132754000002109 ], [ -94.313731000002463, 39.13665300000239 ], [ -94.216489000001744, 39.13139700000243 ], [ -94.218382000002563, 39.095219000002785 ], [ -94.219519000002265, 39.065392000002227 ], [ -94.23783400000238, 39.066075000002712 ], [ -94.269547000002603, 39.067304000002082 ], [ -94.275534000001741, 39.053023000002099 ], [ -94.271033000002475, 39.047795000002488 ], [ -94.266510000002, 39.045385000002121 ], [ -94.257719000001842, 39.037774000002848 ], [ -94.271483000002519, 39.038297000002309 ], [ -94.271803000001924, 39.030147000001989 ], [ -94.272064000002473, 39.023737000002747 ], [ -94.260614000001922, 39.012779000002723 ], [ -94.253745000001715, 39.013151000002331 ], [ -94.255071000001905, 38.999619000002532 ], [ -94.254819000001802, 38.990737000002042 ], [ -94.254981000001834, 38.986947000002409 ], [ -94.231724000001719, 38.989903000002869 ], [ -94.231803000001761, 38.964407000002218 ], [ -94.201154000002617, 38.962661000002313 ], [ -94.20117800000186, 38.938328000002613 ], [ -94.169317000002337, 38.940959000002259 ], [ -94.170692000002177, 38.922982000002776 ], [ -94.114175000002163, 38.917304000002659 ], [ -94.119096000001903, 38.833167000002462 ], [ -94.121361000002139, 38.803422000002861 ], [ -94.127235000002656, 38.69964600000236 ], [ -94.127952000002395, 38.684970000002238 ], [ -94.117961000002339, 38.61226700000261 ], [ -94.119664000002402, 38.568712000002471 ], [ -94.064317000002362, 38.567380000002231 ], [ -94.065713000001878, 38.447087000002689 ], [ -94.087317000002557, 38.455727000002597 ], [ -94.157205000002193, 38.448630000002389 ], [ -94.176620000001634, 38.445921000002109 ], [ -94.249865000001961, 38.455912000002613 ], [ -94.289964000002399, 38.465352000002838 ], [ -94.312293000001844, 38.471497000002771 ], [ -94.398782000001958, 38.473356000002781 ], [ -94.399901000002046, 38.47337900000219 ], [ -94.507933000002041, 38.475495000002532 ], [ -94.511205000002434, 38.475651000002095 ], [ -94.612882000002259, 38.477597000002739 ], [ -94.612167000002202, 38.565534000002877 ], [ -94.61056600000218, 38.672619000002456 ], [ -94.609100000002357, 38.738568000002353 ], [ -94.608707000001914, 38.760604000002616 ], [ -94.608033000002763, 38.847207000002591 ], [ -94.607958000002682, 38.890942000002148 ], [ -94.607983000001767, 38.898670000002809 ], [ -94.607974000001917, 38.906697000002893 ], [ -94.607986000002683, 38.912924000002128 ], [ -94.60800500000208, 38.919924000002155 ] ] ] } },
{ "type": "Feature", "properties": { "opt_all": 6, "population": 769349.0, "voting_age_pop": 586711.0, "dem_votes": 129633.0, "rep_votes": 206549.0, "minority_pop": 96732.0, "dem_pct": 0.38560363125164238, "rep_pct": 0.61439636845089973 }, "geometry": { "type": "Polygon", "coordinates": [ [ [ -94.917660000002201, 39.385713000002802 ], [ -95.014861000002043, 39.452868000002738 ], [ -95.044668000002716, 39.471256000001951 ], [ -95.050552000001957, 39.497514000002141 ], [ -95.10288800000194, 39.53334700000228 ], [ -95.113069000002398, 39.559178000002035 ], [ -95.092150000002164, 39.581116000002368 ], [ -95.056897000001982, 39.580567000002588 ], [ -95.055152000002238, 39.621657000002138 ], [ -95.024595000001824, 39.668485000002704 ], [ -94.991829000002639, 39.676778000002592 ], [ -94.969333000002365, 39.690730000002787 ], [ -94.971334000001704, 39.725706000002248 ], [ -94.947541000001678, 39.745337000002287 ], [ -94.902612000002676, 39.724202000002016 ], [ -94.860563000002657, 39.749015000002032 ], [ -94.860618000002077, 39.762462000002046 ], [ -94.863767000002696, 39.768138000002629 ], [ -94.871145000002059, 39.772980000002029 ], [ -94.912293000002634, 39.759338000002117 ], [ -94.919550000002403, 39.790291000002178 ], [ -94.880644000002079, 39.797894000002813 ], [ -94.876344000001779, 39.806894000002039 ], [ -94.876558000002234, 39.820883000002667 ], [ -94.88101300000254, 39.8289220000025 ], [ -94.939854000002157, 39.852044000002181 ], [ -94.934907000001687, 39.89378400000269 ], [ -94.993382000002384, 39.897906000002209 ], [ -95.035246000001877, 39.865921000001961 ], [ -95.085003000002004, 39.861883000002386 ], [ -95.181381000001977, 39.899996000002233 ], [ -95.20526600000268, 39.939750000002441 ], [ -95.250254000001917, 39.948644000002545 ], [ -95.308156000001674, 39.999046000002387 ], [ -95.363983000001681, 40.031498000002358 ], [ -95.391527000002199, 40.027058000001936 ], [ -95.419999000001624, 40.050440000002112 ], [ -95.393106000002376, 40.117637000002475 ], [ -95.431351000001982, 40.139163000001936 ], [ -95.440694000001884, 40.162282000001952 ], [ -95.477920000001802, 40.18384400000194 ], [ -95.478694000001695, 40.243661000002426 ], [ -95.554817000002345, 40.264460000002515 ], [ -95.553292000001875, 40.291158000002646 ], [ -95.653729000002457, 40.322582000002534 ], [ -95.622684000001641, 40.342323000002047 ], [ -95.661440000002202, 40.415917000002565 ], [ -95.657633000002079, 40.440777000002335 ], [ -95.693133000001723, 40.469396000002625 ], [ -95.69720200000242, 40.528475000002331 ], [ -95.757110000001916, 40.525990000002182 ], [ -95.765645000001953, 40.58520800000246 ], [ -95.545306000002284, 40.58250000000249 ], [ -95.431075000002636, 40.581167000002331 ], [ -95.202265000001887, 40.578488000002189 ], [ -95.021836000002565, 40.576181000001917 ], [ -94.896773000001843, 40.574737000002457 ], [ -94.745519000001622, 40.572726000002802 ], [ -94.632030000002274, 40.571367000002169 ], [ -94.460662000002259, 40.571098000002323 ], [ -94.403432000001757, 40.571295000002813 ], [ -94.346197000002718, 40.57141100000203 ], [ -94.23224000000252, 40.571901000002477 ], [ -93.889048000002205, 40.576021000002221 ], [ -93.774344000001719, 40.577548000002608 ], [ -93.774548000001758, 40.472350000002102 ], [ -93.764823000002167, 40.472515000002815 ], [ -93.763551000002096, 40.36551900000223 ], [ -93.763510000002697, 40.292626000002514 ], [ -93.763324000002498, 40.263988000002001 ], [ -93.763189000002157, 40.247868000002413 ], [ -93.764021000002344, 40.132909000002527 ], [ -93.764207000002713, 40.118268000002637 ], [ -93.7636900000021, 40.03124100000224 ], [ -93.761973000001802, 39.959552000002184 ], [ -93.759122000001796, 39.807535000002765 ], [ -93.759120000002099, 39.807410000002186 ], [ -93.758992000002479, 39.784674000002028 ], [ -93.758915000002517, 39.698322000002051 ], [ -93.758357000002306, 39.611407000002231 ], [ -93.759183000002324, 39.524558000002877 ], [ -93.758993000002164, 39.437368000002202 ], [ -93.645051000002695, 39.437815000002189 ], [ -93.532031000001624, 39.441152000002397 ], [ -93.531609000002561, 39.366337000002773 ], [ -93.495746000002683, 39.366117000002134 ], [ -93.496035000002166, 39.360902000002845 ], [ -93.420059000001913, 39.366358000002073 ], [ -93.420020000002637, 39.35558800000252 ], [ -93.41944100000228, 39.267917000002612 ], [ -93.477233000002684, 39.292796000002788 ], [ -93.485670000002202, 39.14674700000262 ], [ -93.485683000001856, 39.146484000002062 ], [ -93.490666000001639, 39.044752000002866 ], [ -93.493003000002474, 39.001580000002242 ], [ -93.4963770000018, 38.94283700000264 ], [ -93.384850000002317, 38.938859000002125 ], [ -93.366079000001875, 38.938162000002784 ], [ -93.273782000001759, 38.935120000002769 ], [ -93.273760000002326, 38.935492000002192 ], [ -93.050453000002634, 38.928244000002138 ], [ -93.052043000002058, 38.884247000002809 ], [ -93.053643000001856, 38.841750000002243 ], [ -93.055499000002158, 38.797303000002834 ], [ -93.059140000002159, 38.709524000002787 ], [ -93.059974000002157, 38.693077000002582 ], [ -93.067292000002567, 38.530096000002331 ], [ -93.067291000002385, 38.529995000002408 ], [ -93.179307000001955, 38.534071000002683 ], [ -93.290454000002526, 38.535388000002783 ], [ -93.291851000001714, 38.506321000002238 ], [ -93.512743000002203, 38.512476000002572 ], [ -93.511030000002577, 38.556210000002224 ], [ -93.621888000001917, 38.559067000002621 ], [ -93.639803000002601, 38.559446000002687 ], [ -93.732796000002338, 38.561335000002821 ], [ -93.788490000002, 38.562014000002534 ], [ -93.842963000002086, 38.562901000002483 ], [ -93.952961000001736, 38.564919000002682 ], [ -94.064317000002362, 38.567380000002231 ], [ -94.119664000002402, 38.568712000002471 ], [ -94.117961000002339, 38.61226700000261 ], [ -94.127952000002395, 38.684970000002238 ], [ -94.127235000002656, 38.69964600000236 ], [ -94.121361000002139, 38.803422000002861 ], [ -94.119096000001903, 38.833167000002462 ], [ -94.114175000002163, 38.917304000002659 ], [ -94.170692000002177, 38.922982000002776 ], [ -94.169317000002337, 38.940959000002259 ], [ -94.20117800000186, 38.938328000002613 ], [ -94.201154000002617, 38.962661000002313 ], [ -94.231803000001761, 38.964407000002218 ], [ -94.231724000001719, 38.989903000002869 ], [ -94.254981000001834, 38.986947000002409 ], [ -94.254819000001802, 38.990737000002042 ], [ -94.255071000001905, 38.999619000002532 ], [ -94.253745000001715, 39.013151000002331 ], [ -94.260614000001922, 39.012779000002723 ], [ -94.272064000002473, 39.023737000002747 ], [ -94.271803000001924, 39.030147000001989 ], [ -94.271483000002519, 39.038297000002309 ], [ -94.257719000001842, 39.037774000002848 ], [ -94.266510000002, 39.045385000002121 ], [ -94.271033000002475, 39.047795000002488 ], [ -94.275534000001741, 39.053023000002099 ], [ -94.269547000002603, 39.067304000002082 ], [ -94.23783400000238, 39.066075000002712 ], [ -94.219519000002265, 39.065392000002227 ], [ -94.218382000002563, 39.095219000002785 ], [ -94.216489000001744, 39.13139700000243 ], [ -94.313731000002463, 39.13665300000239 ], [ -94.348601000002176, 39.132754000002109 ], [ -94.35622500000224, 39.12877800000247 ], [ -94.358053000002513, 39.128886000002552 ], [ -94.35126300000212, 39.149705000002413 ], [ -94.324678000002038, 39.177637000002591 ], [ -94.314197000002679, 39.14975200000255 ], [ -94.26187000000256, 39.205645000002612 ], [ -94.217744000001758, 39.208452000002069 ], [ -94.243311000001796, 39.232004000002092 ], [ -94.289873000002515, 39.237107000002048 ], [ -94.33521300000244, 39.18333700000268 ], [ -94.356767000002264, 39.168623000002519 ], [ -94.374089000002286, 39.167239000002787 ], [ -94.378494000001737, 39.170365000002086 ], [ -94.390694000001645, 39.194013000002883 ], [ -94.408628000002594, 39.193603000002092 ], [ -94.401575000002097, 39.166823000002182 ], [ -94.419475000001597, 39.149318000002815 ], [ -94.444292000002363, 39.129007000002424 ], [ -94.455429000002724, 39.123104000002549 ], [ -94.467546000002642, 39.124780000002715 ], [ -94.484112000001758, 39.14500900000278 ], [ -94.498387000002566, 39.150460000002496 ], [ -94.531298000002039, 39.146864000002189 ], [ -94.534061000001756, 39.14590800000218 ], [ -94.535720000001859, 39.144947000002617 ], [ -94.5647240000024, 39.123460000002034 ], [ -94.566029000001876, 39.123151000002508 ], [ -94.578825000002624, 39.11747600000254 ], [ -94.589685000002603, 39.112530000002117 ], [ -94.607354000002445, 39.113444000002829 ], [ -94.601733000002497, 39.159603000002825 ], [ -94.650647000001982, 39.154092000002542 ], [ -94.659371000002523, 39.174406000002037 ], [ -94.752803000002245, 39.173493000002509 ], [ -94.771196000002647, 39.19162000000204 ], [ -94.831679000001841, 39.215938000002289 ], [ -94.83785500000198, 39.262417000001967 ], [ -94.898516000002687, 39.298450000002774 ], [ -94.910017000002185, 39.352543000002861 ], [ -94.880200000002219, 39.382093000002442 ], [ -94.917660000002201, 39.385713000002802 ] ] ] } },
{ "type": "Feature", "properties": { "opt_all": 7, "population": 768262.0, "voting_age_pop": 598211.0, "dem_votes": 93777.0, "rep_votes": 241425.0, "minority_pop": 82984.0, "dem_pct": 0.27976265049738286, "rep_pct": 0.7202373492042895 }, "geometry": { "type": "Polygon", "coordinates": [ [ [ -94.554645000002438, 36.499409000002593 ], [ -94.617857000002161, 36.499532000002148 ], [ -94.617709000002236, 36.624745000002626 ], [ -94.618157000001858, 36.708582000002643 ], [ -94.618307000002176, 36.766560000002343 ], [ -94.617946000001922, 36.926131000002371 ], [ -94.617947000002644, 37.012144000002522 ], [ -94.617849000002167, 37.056797000002803 ], [ -94.618070000001794, 37.101866000002651 ], [ -94.566871000001925, 37.100754000002851 ], [ -94.552850000002493, 37.100384000002066 ], [ -94.532926000001837, 37.109660000002712 ], [ -94.518599000001714, 37.097165000002533 ], [ -94.531416000002181, 37.077194000002372 ], [ -94.531574000002422, 37.073594000002231 ], [ -94.513891000002076, 37.075067000002235 ], [ -94.513250000001875, 37.089636000002834 ], [ -94.494844000002516, 37.08990000000238 ], [ -94.477275000001754, 37.084210000002741 ], [ -94.468155000002113, 37.084029000002509 ], [ -94.469017000002694, 37.069512000002383 ], [ -94.463051000002181, 37.054846000002414 ], [ -94.460168000002255, 37.054764000002301 ], [ -94.426313000001755, 37.072989000002849 ], [ -94.405050000001978, 37.065067000002664 ], [ -94.405480000002044, 37.054240000002416 ], [ -94.34967000000168, 37.053758000002411 ], [ -94.295404000002378, 37.053234000002227 ], [ -94.204280000002385, 37.051535000002367 ], [ -94.177216000002076, 37.050923000002136 ], [ -94.059211000002563, 37.048127000002729 ], [ -94.058358000002727, 37.077233000002657 ], [ -94.056463000001884, 37.150304000002883 ], [ -94.055533000001958, 37.179042000002553 ], [ -94.053299000002156, 37.251809000002403 ], [ -94.052313000002556, 37.290078000002261 ], [ -94.08383300000196, 37.290851000002391 ], [ -94.08208300000274, 37.349291000002466 ], [ -94.080789000002639, 37.378043000002336 ], [ -94.078316000002104, 37.465098000002079 ], [ -94.075385000001802, 37.581570000002429 ], [ -93.947012000001777, 37.579379000002469 ], [ -93.724992000001961, 37.575179000002585 ], [ -93.655834000001661, 37.573459000002828 ], [ -93.616033000002446, 37.572689000002619 ], [ -93.618147000002679, 37.514667000002738 ], [ -93.621153000002181, 37.427423000002577 ], [ -93.492260000002304, 37.4249620000028 ], [ -93.473797000001895, 37.424543000002458 ], [ -93.437230000001776, 37.423554000002184 ], [ -93.400563000002521, 37.422690000002824 ], [ -93.364351000001676, 37.421815000002766 ], [ -93.32759000000236, 37.420544000002337 ], [ -93.219022000001758, 37.418287000002231 ], [ -93.182489000002619, 37.417204000002393 ], [ -93.073380000001805, 37.414989000002635 ], [ -93.074486000002196, 37.378546000002672 ], [ -93.07510800000216, 37.352401000002303 ], [ -93.076778000002022, 37.270412000002658 ], [ -93.062142000002154, 37.235117000002354 ], [ -93.063778000002515, 37.161781000002357 ], [ -93.065274000001878, 37.088694000002405 ], [ -92.993629000002201, 37.087667000002867 ], [ -92.902922000002079, 37.085221000002825 ], [ -92.903273000002486, 37.070651000002563 ], [ -92.849076000002455, 37.068763000002441 ], [ -92.738977000002436, 37.067829000002988 ], [ -92.685867000002716, 37.067051000002174 ], [ -92.632492000002202, 37.066548000002648 ], [ -92.520502000001898, 37.063637000003027 ], [ -92.415310000002336, 37.062575000003015 ], [ -92.414350000001718, 37.062569000002171 ], [ -92.305426000001802, 37.06125100000218 ], [ -92.251359000001884, 37.059653000002285 ], [ -92.249004000002273, 37.146483000002213 ], [ -92.248038000002538, 37.219533000003011 ], [ -92.252102000001926, 37.316050000002761 ], [ -92.251943000002285, 37.342752000002243 ], [ -92.252261000002122, 37.472944000002308 ], [ -92.252240000002061, 37.473801000002332 ], [ -92.249463000002137, 37.604543000002778 ], [ -92.158296000002437, 37.604901000002577 ], [ -92.084770000001924, 37.603646000002918 ], [ -92.086071000001724, 37.516293000002747 ], [ -91.935088000002125, 37.513325000002737 ], [ -91.935482000001883, 37.600502000002805 ], [ -91.90247800000256, 37.599834000002275 ], [ -91.809105000002035, 37.598863000002581 ], [ -91.754693000001836, 37.584210000002912 ], [ -91.755040000002083, 37.42411000000255 ], [ -91.6466260000022, 37.422731000002464 ], [ -91.605685000002154, 37.421952000002797 ], [ -91.591699000001597, 37.421703000002786 ], [ -91.427323000001834, 37.418043000002406 ], [ -91.303903000002563, 37.416930000002736 ], [ -91.211863000001756, 37.415277000002192 ], [ -91.175405000002115, 37.414805000002268 ], [ -91.176068000001763, 37.341704000002686 ], [ -91.158429000002158, 37.312917000003019 ], [ -91.159321000002464, 37.25503800000223 ], [ -91.123170000002162, 37.240041000002812 ], [ -91.126028000001995, 37.199480000002488 ], [ -91.095746000002379, 37.203186000002503 ], [ -91.071046000001957, 37.162712000002777 ], [ -91.034346000002074, 37.169343000002748 ], [ -91.016904000002114, 37.14354900000275 ], [ -91.017766000001913, 37.095677000002851 ], [ -91.066736000002166, 37.093775000002225 ], [ -91.109740000001878, 37.084057000002581 ], [ -91.217150000001567, 37.086197000002862 ], [ -91.222830000002602, 36.883857000003005 ], [ -91.224825000001843, 36.825679000002815 ], [ -91.115926000002005, 36.82367200000229 ], [ -91.120814000002099, 36.730601000002451 ], [ -91.122897000001998, 36.643766000002401 ], [ -91.123514000001776, 36.614640000002375 ], [ -91.126522000002623, 36.497665000003003 ], [ -91.172386000002476, 36.497546000002352 ], [ -91.327468000002, 36.497366000002216 ], [ -91.45001900000166, 36.497672000003064 ], [ -91.672334000002678, 36.499392000002501 ], [ -91.8369290000022, 36.498912000002854 ], [ -91.954593000002234, 36.498547000002254 ], [ -92.12039300000248, 36.498779000002656 ], [ -92.259457000002001, 36.498048000002754 ], [ -92.370252000001997, 36.49726400000268 ], [ -92.482802000001982, 36.498704000003009 ], [ -92.617322000001636, 36.498140000002522 ], [ -92.772339000002518, 36.497839000002848 ], [ -92.929366000002105, 36.497900000002673 ], [ -93.013745000002402, 36.498176000002474 ], [ -93.15116000000198, 36.497925000003015 ], [ -93.210000000002083, 36.498099000003002 ], [ -93.315323000002167, 36.498451000002234 ], [ -93.477713000002595, 36.498943000002832 ], [ -93.584262000001999, 36.499167000002359 ], [ -93.691422000001779, 36.499131000002293 ], [ -93.834042000001844, 36.498854000002247 ], [ -94.07708900000236, 36.498669000002302 ], [ -94.19642600000256, 36.498859000002312 ], [ -94.339315000001719, 36.499486000002932 ], [ -94.447362000002443, 36.499428000002332 ], [ -94.476292000002715, 36.499236000002561 ], [ -94.554645000002438, 36.499409000002593 ] ] ] } },
{ "type": "Feature", "properties": { "opt_all": 8, "population": 768650.0, "voting_age_pop": 597913.0, "dem_votes": 88546.0, "rep_votes": 242927.0, "minority_pop": 68799.0, "dem_pct": 0.26712884600944004, "rep_pct": 0.73287115368887623 }, "geometry": { "type": "Polygon", "coordinates": [ [ [ -92.185370000002578, 38.015138000002693 ], [ -92.185370000001697, 38.016338000002619 ], [ -92.183779000002687, 38.073902000002747 ], [ -92.181416000001661, 38.161004000002286 ], [ -92.197773000002002, 38.161538000003013 ], [ -92.197350000002018, 38.189318000002395 ], [ -92.195675000002439, 38.292237000002253 ], [ -92.194476000002595, 38.335536000002449 ], [ -92.193178000001978, 38.370835000002671 ], [ -92.169318000002434, 38.377323000002455 ], [ -92.120277000002446, 38.393137000002902 ], [ -92.149291000002478, 38.431152000002967 ], [ -92.153739000001679, 38.474612000002246 ], [ -92.116275000001622, 38.457571000002432 ], [ -92.020554000001681, 38.476290000002429 ], [ -92.0085280000023, 38.494572000002542 ], [ -92.028727000002661, 38.53939200000233 ], [ -92.00898300000236, 38.57090000000214 ], [ -92.037278000002445, 38.562448000002568 ], [ -92.052652000002283, 38.559053000002464 ], [ -92.137908000001943, 38.569057000002815 ], [ -92.160233000002563, 38.577461000002984 ], [ -92.178480000002722, 38.587392000002303 ], [ -92.186632000002234, 38.591861000002162 ], [ -92.2024910000017, 38.604949000002946 ], [ -92.220661000001883, 38.643167000002833 ], [ -92.218365000002166, 38.687004000002766 ], [ -92.211908000001657, 38.720304000002137 ], [ -92.184110000002036, 38.743744000002891 ], [ -92.174652000002325, 38.758092000002662 ], [ -92.164228000001714, 38.783840000002428 ], [ -92.135397000002726, 38.815581000002688 ], [ -92.148722000002365, 38.846625000002305 ], [ -92.148035000002523, 38.861062000002967 ], [ -92.158287000002517, 38.888012000002163 ], [ -92.152722000002399, 38.940093000002378 ], [ -92.149790000002284, 38.954301000002701 ], [ -92.130220000002197, 39.023642000002468 ], [ -92.131512000002303, 39.06448400000243 ], [ -92.11038700000158, 39.064204000002661 ], [ -92.091254000002323, 39.064297000002085 ], [ -92.092682000002355, 39.027654000002251 ], [ -92.071621000001926, 39.020075000002613 ], [ -92.073526000001721, 38.976357000002771 ], [ -92.035839000002284, 38.975739000002605 ], [ -92.03494700000202, 39.004830000002862 ], [ -91.939809000002526, 38.989239000002328 ], [ -91.858356000002004, 38.958789000002447 ], [ -91.788160000001596, 38.97177100000259 ], [ -91.749945000001603, 38.970550000002845 ], [ -91.724830000002584, 38.974492000002321 ], [ -91.691376000002279, 38.948764000002683 ], [ -91.638708000001898, 38.946858000002997 ], [ -91.635243000002177, 39.028191000002465 ], [ -91.633998000002222, 39.059057000002589 ], [ -91.629598000002403, 39.147853000002648 ], [ -91.556238000001727, 39.146126000002219 ], [ -91.484936000001682, 39.144857000002695 ], [ -91.409033000002083, 39.142542000002166 ], [ -91.260232000002077, 39.139845000002431 ], [ -91.262481000002239, 39.072453000002966 ], [ -91.262564000002399, 39.070021000002733 ], [ -91.264287000001559, 38.99276200000282 ], [ -91.188390000001519, 38.992141000002597 ], [ -91.189348000001843, 38.932151000002527 ], [ -91.110187000002526, 38.931901000002505 ], [ -91.110603000001873, 38.909615000002894 ], [ -91.111251000002397, 38.87270900000258 ], [ -91.073730000002314, 38.872738000002691 ], [ -90.958536000002297, 38.870865000002965 ], [ -90.961794000002044, 38.791674000002935 ], [ -90.962200000001715, 38.774200000002189 ], [ -90.962390000002159, 38.760300000002822 ], [ -90.962526000002043, 38.745136000002496 ], [ -90.96301100000268, 38.695909000002487 ], [ -90.963124000001883, 38.693329000002677 ], [ -90.963130000002323, 38.67428000000222 ], [ -90.963358000002245, 38.659678000002387 ], [ -90.964267000002096, 38.603841000002504 ], [ -90.964461000002402, 38.547545000002515 ], [ -90.960370000002158, 38.545099000002359 ], [ -90.904764000001833, 38.537517000003071 ], [ -90.816536000002685, 38.583414000002314 ], [ -90.773622000001637, 38.594617000002557 ], [ -90.732328000002042, 38.639302000002289 ], [ -90.732231000002216, 38.621370000002855 ], [ -90.732441000001543, 38.600684000002552 ], [ -90.732628000002165, 38.576600000002337 ], [ -90.734408000001721, 38.534972000002711 ], [ -90.734446000002436, 38.533726000002723 ], [ -90.735301000001954, 38.505229000002679 ], [ -90.735324000002279, 38.504336000002652 ], [ -90.735566000001583, 38.497150000002215 ], [ -90.735739000001956, 38.492327000002369 ], [ -90.73581400000198, 38.490369000002751 ], [ -90.735827000002203, 38.490018000002905 ], [ -90.736130000001737, 38.479236000002579 ], [ -90.736508000002047, 38.468129000003024 ], [ -90.736311000002559, 38.466643000002989 ], [ -90.743122000002316, 38.387402000002417 ], [ -90.748230000001641, 38.364420000002383 ], [ -90.755601000002358, 38.330052000002496 ], [ -90.760533000002397, 38.306405000002719 ], [ -90.773849000001761, 38.239067000003068 ], [ -90.780185000002518, 38.204112000002439 ], [ -90.7133300000026, 38.135799000002997 ], [ -90.712680000001825, 38.135135000002464 ], [ -90.676987000001802, 38.096434000002247 ], [ -90.639980000001685, 38.076548000003058 ], [ -90.618065000002005, 38.073322000002491 ], [ -90.612787000001561, 38.015895000002907 ], [ -90.58332400000198, 38.003499000002449 ], [ -90.491507000001718, 38.025281000002401 ], [ -90.472435000002633, 38.02978300000246 ], [ -90.416022000002457, 38.042315000002588 ], [ -90.353645000002118, 38.079878000002381 ], [ -90.293114000002646, 38.089410000003092 ], [ -90.252666000002506, 38.127812000002955 ], [ -90.207128000002683, 38.088205000002425 ], [ -90.130788000001601, 38.062341000002505 ], [ -90.114080000002559, 38.028978000002759 ], [ -90.110819000002323, 38.026748000002897 ], [ -90.065045000002584, 38.016875000002408 ], [ -89.988108000002157, 37.961749000003024 ], [ -89.940687000002043, 37.970874000002986 ], [ -89.931267000001966, 37.948277000003095 ], [ -89.974825000001559, 37.926293000002843 ], [ -89.938608000001523, 37.874304000003093 ], [ -89.898338000002354, 37.870931000003019 ], [ -89.872327000001548, 37.887726000002985 ], [ -89.850524000001911, 37.90417200000303 ], [ -89.799329000002643, 37.881516000002485 ], [ -89.797542000001542, 37.862128000003075 ], [ -89.739875000002314, 37.846921000002993 ], [ -89.669644000001995, 37.799922000002645 ], [ -89.662024000001622, 37.773757000002803 ], [ -89.665991000001583, 37.753571000002317 ], [ -89.613185000002503, 37.740505000003125 ], [ -89.584989000002437, 37.71479000000248 ], [ -89.512009000001598, 37.685525000002976 ], [ -89.517718000002617, 37.6412170000023 ], [ -89.478399000001787, 37.598869000003027 ], [ -89.521855000002574, 37.56621400000239 ], [ -89.51686000000214, 37.536735000002516 ], [ -89.471201000002537, 37.466473000003049 ], [ -89.428729000002079, 37.414320000002299 ], [ -89.420542000001888, 37.388007000002595 ], [ -89.436040000002109, 37.344441000002497 ], [ -89.489312000001974, 37.333079000003096 ], [ -89.508672000001951, 37.315203000002995 ], [ -89.515280000001525, 37.296930000002874 ], [ -89.51807800000158, 37.290659000002272 ], [ -89.518404000002363, 37.289074000002813 ], [ -89.488720000001578, 37.251457000002958 ], [ -89.454125000002534, 37.185069000002365 ], [ -89.425580000001517, 37.138235000003078 ], [ -89.388976000002316, 37.10827700000246 ], [ -89.376432000002112, 37.077696000002717 ], [ -89.376632000001635, 37.038482000003114 ], [ -89.31332400000197, 37.009499000002293 ], [ -89.292130000001933, 36.99218900000276 ], [ -89.25760800000225, 37.015496000002734 ], [ -89.301368000002441, 37.044982000002861 ], [ -89.259935000002301, 37.064070000002872 ], [ -89.203408000002071, 37.018856000002323 ], [ -89.195039000001699, 36.989768000002961 ], [ -89.170009000002096, 36.970298000002465 ], [ -89.125352000001925, 36.983529000002349 ], [ -89.098968000002372, 36.956067000003152 ], [ -89.122275000001707, 36.879065000002896 ], [ -89.138109000002387, 36.847323000002689 ], [ -89.170443000002251, 36.841840000003096 ], [ -89.178223000001793, 36.808614000002507 ], [ -89.116983000001923, 36.775595000002902 ], [ -89.125967000001964, 36.751809000002631 ], [ -89.169785000001852, 36.759641000002894 ], [ -89.200647000001894, 36.718751000002634 ], [ -89.169426000001721, 36.688771000002816 ], [ -89.165580000002365, 36.659344000002754 ], [ -89.197753000001626, 36.628971000002977 ], [ -89.227046000001693, 36.569537000003017 ], [ -89.269546000002393, 36.569716000003126 ], [ -89.327588000001612, 36.632276000002818 ], [ -89.365797000001933, 36.625126000002282 ], [ -89.417275000002206, 36.499011000002625 ], [ -89.453514000002528, 36.461789000002895 ], [ -89.494119000001902, 36.476268000002463 ], [ -89.465390000002174, 36.534451000002477 ], [ -89.471234000001672, 36.554670000002531 ], [ -89.488106000001665, 36.572925000002861 ], [ -89.530638000002057, 36.581710000002296 ], [ -89.570780000002429, 36.557321000002702 ], [ -89.55686800000241, 36.519293000002854 ], [ -89.538316000001913, 36.496933000002883 ], [ -89.520642000002056, 36.4786680000025 ], [ -89.542337000001524, 36.42010300000252 ], [ -89.509722000001702, 36.373626000002361 ], [ -89.545006000001663, 36.336809000002312 ], [ -89.610689000001813, 36.340442000002881 ], [ -89.620166000002413, 36.322805000002546 ], [ -89.578492000001617, 36.28831700000277 ], [ -89.536441000002029, 36.272827000002614 ], [ -89.534676000002094, 36.252771000003115 ], [ -89.611145000002423, 36.23927100000261 ], [ -89.693752000002547, 36.252727000002317 ], [ -89.685092000002356, 36.219746000002374 ], [ -89.598450000001719, 36.161421000002967 ], [ -89.593070000001745, 36.129699000002788 ], [ -89.621297000002428, 36.110420000002648 ], [ -89.680029000002065, 36.082494000002519 ], [ -89.685395000002288, 36.045897000002341 ], [ -89.706932000002126, 36.000981000002298 ], [ -89.770191000002583, 36.000714000003171 ], [ -89.859730000002443, 35.999907000002402 ], [ -89.959376000001939, 35.999241000002456 ], [ -90.1157250000022, 35.997948000002857 ], [ -90.195032000002286, 35.997217000003047 ], [ -90.247733000002484, 35.996772000002856 ], [ -90.377900000001915, 35.99574500000314 ], [ -90.292928000002021, 36.114499000002354 ], [ -90.248518000001681, 36.130830000002383 ], [ -90.225213000002086, 36.177696000002669 ], [ -90.142393000001618, 36.227327000002838 ], [ -90.117175000002646, 36.262992000002583 ], [ -90.083795000002056, 36.271938000002429 ], [ -90.068004000002148, 36.309240000002944 ], [ -90.082381000002144, 36.321979000002983 ], [ -90.063698000002532, 36.384185000003022 ], [ -90.104464000002281, 36.405446000002918 ], [ -90.135975000002233, 36.41333400000255 ], [ -90.134054000002578, 36.438699000003083 ], [ -90.159244000002403, 36.479711000002339 ], [ -90.152307000001684, 36.497982000002686 ], [ -90.220732000002457, 36.497859000002748 ], [ -90.285126000001824, 36.497931000002289 ], [ -90.431709000001717, 36.49824200000274 ], [ -90.467422000001719, 36.498430000002479 ], [ -90.57617900000254, 36.498547000002901 ], [ -90.693005000002444, 36.498241000002579 ], [ -90.802629000001716, 36.498612000002332 ], [ -90.940441000002323, 36.498440000002944 ], [ -91.126522000002623, 36.497665000003003 ], [ -91.123514000001776, 36.614640000002375 ], [ -91.122897000001998, 36.643766000002401 ], [ -91.120814000002099, 36.730601000002451 ], [ -91.115926000002005, 36.82367200000229 ], [ -91.224825000001843, 36.825679000002815 ], [ -91.222830000002602, 36.883857000003005 ], [ -91.217150000001567, 37.086197000002862 ], [ -91.109740000001878, 37.084057000002581 ], [ -91.066736000002166, 37.093775000002225 ], [ -91.017766000001913, 37.095677000002851 ], [ -91.016904000002114, 37.14354900000275 ], [ -91.034346000002074, 37.169343000002748 ], [ -91.071046000001957, 37.162712000002777 ], [ -91.095746000002379, 37.203186000002503 ], [ -91.126028000001995, 37.199480000002488 ], [ -91.123170000002162, 37.240041000002812 ], [ -91.159321000002464, 37.25503800000223 ], [ -91.158429000002158, 37.312917000003019 ], [ -91.176068000001763, 37.341704000002686 ], [ -91.175405000002115, 37.414805000002268 ], [ -91.211863000001756, 37.415277000002192 ], [ -91.303903000002563, 37.416930000002736 ], [ -91.427323000001834, 37.418043000002406 ], [ -91.591699000001597, 37.421703000002786 ], [ -91.605685000002154, 37.421952000002797 ], [ -91.6466260000022, 37.422731000002464 ], [ -91.755040000002083, 37.42411000000255 ], [ -91.754693000001836, 37.584210000002912 ], [ -91.809105000002035, 37.598863000002581 ], [ -91.90247800000256, 37.599834000002275 ], [ -91.935482000001883, 37.600502000002805 ], [ -91.935088000002125, 37.513325000002737 ], [ -92.086071000001724, 37.516293000002747 ], [ -92.084770000001924, 37.603646000002918 ], [ -92.02925800000186, 37.60254200000297 ], [ -92.026163000001944, 37.728325000002734 ], [ -92.025132000002273, 37.769564000002717 ], [ -92.024600000002593, 37.793721000002847 ], [ -92.022863000002317, 37.880740000002405 ], [ -92.021960000001599, 37.927893000002747 ], [ -92.021165000002114, 38.010639000002392 ], [ -92.075455000002123, 38.011380000002198 ], [ -92.185370000002578, 38.015138000002693 ] ] ] } }
]
}
