{
"type": "FeatureCollection",
"name": "mississippi_optimized_districts_all",
"crs": { "type": "name", "properties": { "name": "urn:ogc:def:crs:OGC:1.3:CRS84" } },
"features": [
{ "type": "Feature", "properties": { "opt_all": 1, "population": 737473.0, "voting_age_pop": 566622.0, "dem_votes": 100232.0, "rep_votes": 173220.0, "minority_pop": 197467.0, "dem_pct": 0.36654330545523772, "rep_pct": 0.63345669417906736 }, "geometry": { "type": "Polygon", "coordinates": [ [ [ -90.294502000001785, 33.750981000002994 ], [ -90.250086000002526, 33.763147000002427 ], [ -90.204205000002503, 33.759446000002768 ], [ -90.171440000002406, 33.789671000002755 ], [ -90.182584000002421, 33.809322000002368 ], [ -90.223868000001659, 33.809859000002483 ], [ -90.451643000002619, 33.811390000002412 ], [ -90.450696000001741, 33.898298000002484 ], [ -90.450529000002007, 33.908609000002791 ], [ -90.451012000001683, 33.985689000002331 ], [ -90.590625000002362, 33.986897000002415 ], [ -90.65700200000208, 33.987586000003027 ], [ -90.66035700000208, 33.98758500000303 ], [ -90.659537000002018, 34.088614000003084 ], [ -90.659457000001694, 34.11886700000273 ], [ -90.749582000002519, 34.119434000002698 ], [ -90.799346000002402, 34.12061400000249 ], [ -90.956901000002119, 34.120091000002809 ], [ -90.958644000001954, 34.135484000002343 ], [ -90.909957000002564, 34.165511000002894 ], [ -90.868618000002044, 34.142516000003049 ], [ -90.836099000001795, 34.137876000002962 ], [ -90.809142000002637, 34.176961000002457 ], [ -90.886746000002006, 34.182501000002695 ], [ -90.934544000001878, 34.217854000002724 ], [ -90.906334000001763, 34.244382000002759 ], [ -90.881338000002685, 34.216377000003028 ], [ -90.847149000001735, 34.206130000002702 ], [ -90.833629000002404, 34.274074000002457 ], [ -90.760423000001921, 34.270733000002963 ], [ -90.7358730000024, 34.310687000003043 ], [ -90.765130000002245, 34.342511000003135 ], [ -90.757304000001739, 34.367392000002958 ], [ -90.707252000002484, 34.36118100000261 ], [ -90.693129000002017, 34.322570000002735 ], [ -90.660875000002662, 34.336693000002889 ], [ -90.652783000002515, 34.381682000002399 ], [ -90.59801400000228, 34.398187000002949 ], [ -90.579744000002236, 34.422735000002994 ], [ -90.593920000001916, 34.484176000002513 ], [ -90.567874000002007, 34.523999000002753 ], [ -90.540493000002286, 34.557871000002834 ], [ -90.591784000002093, 34.623794000002796 ], [ -90.569715000002645, 34.666350000002787 ], [ -90.546541000002605, 34.631018000003145 ], [ -90.517548000001639, 34.63075900000316 ], [ -90.469000000001841, 34.669770000002956 ], [ -90.463347000002074, 34.681354000002585 ], [ -90.474166000001844, 34.705277000003193 ], [ -90.533333000002116, 34.696388000002294 ], [ -90.571944000002077, 34.712777000002873 ], [ -90.539444000002163, 34.755277000002955 ], [ -90.54777800000204, 34.783333000002429 ], [ -90.521111000001881, 34.801944000002969 ], [ -90.492777000002107, 34.772499000002995 ], [ -90.524166000001756, 34.731388000002589 ], [ -90.474999000002597, 34.723888000002489 ], [ -90.448168000002042, 34.740103000002733 ], [ -90.465141000002518, 34.772786000003038 ], [ -90.455379000001884, 34.820785000002786 ], [ -90.483720000002094, 34.861018000003099 ], [ -90.444223000001855, 34.887628000002714 ], [ -90.429310000001877, 34.868752000002857 ], [ -90.438729000001757, 34.825248000003178 ], [ -90.389393000002684, 34.830665000003172 ], [ -90.33844900000264, 34.858517000002927 ], [ -90.304561000002138, 34.860587000002546 ], [ -90.243208000002397, 34.90910000000315 ], [ -90.243757000001679, 34.945270000002729 ], [ -90.295159000002002, 34.975634000002763 ], [ -90.308361000001824, 34.995694000002892 ], [ -90.21976600000184, 34.995380000002896 ], [ -90.096338000002405, 34.994762000002957 ], [ -90.02507200000197, 34.994858000002459 ], [ -89.972197000002581, 34.995020000002626 ], [ -89.901464000002434, 34.994663000002333 ], [ -89.878364000002222, 34.994327000002919 ], [ -89.865146000002127, 34.994259000003083 ], [ -89.813133000001926, 34.994514000002873 ], [ -89.784612000001616, 34.994316000002812 ], [ -89.724324000002611, 34.994790000003121 ], [ -89.647268000001674, 34.995293000003137 ], [ -89.617973000001612, 34.995217000002363 ], [ -89.565060000001708, 34.994989000002604 ], [ -89.493835000001638, 34.994221000002426 ], [ -89.40570400000199, 34.993927000002429 ], [ -89.352679000001771, 34.993863000002364 ], [ -89.233190000002381, 34.994646000002845 ], [ -89.017127000002091, 34.994971000002359 ], [ -88.964424000002083, 34.994891000003108 ], [ -88.925176000002111, 34.994844000002757 ], [ -88.85824500000173, 34.99513600000283 ], [ -88.823051000002337, 34.995221000003212 ], [ -88.684438000001805, 34.995387000002474 ], [ -88.52849700000246, 34.995827000002507 ], [ -88.47415900000189, 34.996033000002669 ], [ -88.363531000002098, 34.995475000002472 ], [ -88.200341000001643, 34.995630000003146 ], [ -88.160729000002263, 34.930769000003245 ], [ -88.097888000001646, 34.892202000003181 ], [ -88.107560000001854, 34.811628000002941 ], [ -88.115410000001617, 34.753422000003106 ], [ -88.123052000002119, 34.695367000002875 ], [ -88.142139000001876, 34.566143000003173 ], [ -88.150510000001759, 34.506635000002916 ], [ -88.156292000001883, 34.463214000003084 ], [ -88.177287000002451, 34.29226300000272 ], [ -88.190678000001782, 34.190123000002664 ], [ -88.203864000002469, 34.086564000002703 ], [ -88.206032000001727, 34.068365000002686 ], [ -88.213318000002275, 34.010452000003056 ], [ -88.229092000001614, 33.891941000003122 ], [ -88.248916000002254, 33.744977000002557 ], [ -88.31843200000209, 33.745096000003009 ], [ -88.330480000001856, 33.718600000002532 ], [ -88.384614000002244, 33.689654000003124 ], [ -88.408498000002155, 33.67523400000303 ], [ -88.47736400000214, 33.666493000002923 ], [ -88.513917000002252, 33.65020900000242 ], [ -88.497147000002087, 33.680181000002918 ], [ -88.632491000002204, 33.68024600000313 ], [ -88.633118000001758, 33.680236000002715 ], [ -88.696787000002487, 33.68008600000244 ], [ -88.71962600000154, 33.6802530000028 ], [ -88.719567000001661, 33.723771000002962 ], [ -88.719979000002539, 33.811330000002769 ], [ -88.746039000002099, 33.810868000002998 ], [ -88.849790000002287, 33.811694000002468 ], [ -88.909459000002514, 33.812152000002968 ], [ -88.931230000002401, 33.804922000002477 ], [ -88.93160400000194, 33.754312000002479 ], [ -88.974177000001859, 33.754299000002398 ], [ -89.034498000002458, 33.739430000002727 ], [ -89.051741000002053, 33.739332000002982 ], [ -89.191781000002095, 33.73860200000307 ], [ -89.191789000001734, 33.73768500000282 ], [ -89.216593000002433, 33.721979000002449 ], [ -89.372124000001961, 33.721647000003202 ], [ -89.39365000000258, 33.721721000002688 ], [ -89.507135000001895, 33.721819000002547 ], [ -89.507147000002348, 33.722162000003216 ], [ -89.507269000002196, 33.808960000002465 ], [ -89.507314000001841, 33.838202000003172 ], [ -89.507353000001913, 33.867469000002941 ], [ -89.699312000002493, 33.867120000003077 ], [ -89.717329000002223, 33.867142000002389 ], [ -89.769050000001769, 33.86733400000319 ], [ -89.769296000002356, 33.897137000002878 ], [ -89.821958000001985, 33.897560000002727 ], [ -89.926099000002012, 33.897957000002933 ], [ -89.92612600000173, 33.892739000002727 ], [ -89.926132000002099, 33.871959000003066 ], [ -89.9262940000024, 33.823854000002953 ], [ -89.971937000001702, 33.824043000002504 ], [ -89.995939000001968, 33.809711000002686 ], [ -90.007750000001764, 33.809749000002391 ], [ -90.136491000002295, 33.80931900000283 ], [ -90.136787000001817, 33.721648000002709 ], [ -90.220439000001761, 33.722122000002429 ], [ -90.252340000001595, 33.730316000002581 ], [ -90.269105000001673, 33.697208000002377 ], [ -90.301138000001799, 33.699192000002668 ], [ -90.313859000002381, 33.725746000002758 ], [ -90.294502000001785, 33.750981000002994 ] ] ] } },
{ "type": "Feature", "properties": { "opt_all": 2, "population": 741961.0, "voting_age_pop": 573475.0, "dem_votes": 177474.0, "rep_votes": 122147.0, "minority_pop": 347077.0, "dem_pct": 0.5923283078982019, "rep_pct": 0.40767169176804308 }, "geometry": { "type": "Polygon", "coordinates": [ [ [ -91.564397000002486, 31.038965000002431 ], [ -91.5641500000024, 31.066830000002646 ], [ -91.6251990000018, 31.115963000002768 ], [ -91.589451000001759, 31.191140000002612 ], [ -91.644356000001721, 31.234414000002939 ], [ -91.641253000001754, 31.266917000002721 ], [ -91.558684000002344, 31.262176000002498 ], [ -91.518578000002677, 31.275283000002965 ], [ -91.510049000002155, 31.316822000003061 ], [ -91.548213000002704, 31.346084000002566 ], [ -91.546384000001794, 31.382763000003024 ], [ -91.578334000002599, 31.399067000002951 ], [ -91.548465000001883, 31.43266800000297 ], [ -91.532336000001777, 31.390275000002635 ], [ -91.50475600000216, 31.36498000000314 ], [ -91.472542000002633, 31.371069000002556 ], [ -91.472067000002085, 31.397076000003089 ], [ -91.513366000002236, 31.444396000003085 ], [ -91.51591900000254, 31.530729000002417 ], [ -91.443916000002361, 31.542466000002364 ], [ -91.407755000002098, 31.569640000003087 ], [ -91.422716000001955, 31.597065000002637 ], [ -91.486518000001766, 31.586566000003071 ], [ -91.517233000002037, 31.613460000002352 ], [ -91.497665000001703, 31.64537100000231 ], [ -91.463817000001825, 31.620365000002657 ], [ -91.423016000002264, 31.611265000002938 ], [ -91.400815000001927, 31.620465000002575 ], [ -91.397115000002557, 31.71136400000271 ], [ -91.369375000002378, 31.746903000002483 ], [ -91.317864000002658, 31.74976600000236 ], [ -91.313658000002519, 31.764825000002631 ], [ -91.365614000001742, 31.760763000002814 ], [ -91.345214000002684, 31.843861000002903 ], [ -91.294713000001764, 31.86046000000249 ], [ -91.283212000002521, 31.815762000002479 ], [ -91.245624000001996, 31.833165000003131 ], [ -91.248144000002327, 31.869848000002811 ], [ -91.184410000002444, 31.925330000003058 ], [ -91.188110000002297, 31.961358000002516 ], [ -91.164410000002405, 31.98255700000249 ], [ -91.106908000001681, 31.989357000003164 ], [ -91.075908000002045, 32.016827000003197 ], [ -91.098708000001864, 32.048355000003156 ], [ -91.080008000001726, 32.079154000002951 ], [ -91.030207000002363, 32.114353000003199 ], [ -91.002906000002326, 32.162052000002426 ], [ -91.04970700000176, 32.157352000002398 ], [ -91.110990000001962, 32.124644000003109 ], [ -91.162822000001938, 32.132694000002587 ], [ -91.174577000002401, 32.157311000002345 ], [ -91.164880000002682, 32.195743000002373 ], [ -91.11727000000262, 32.206668000002473 ], [ -91.083708000002034, 32.226450000002558 ], [ -91.061408000002402, 32.21865000000264 ], [ -91.034302000002398, 32.241548000002993 ], [ -91.0029060000019, 32.223050000002722 ], [ -90.993463000002635, 32.195245000002565 ], [ -90.98075400000252, 32.242485000002716 ], [ -90.98407700000206, 32.27995300000314 ], [ -90.947834000002558, 32.283486000002469 ], [ -90.906466000002197, 32.313929000002418 ], [ -90.885771000002421, 32.350800000003154 ], [ -90.875629000002505, 32.372644000003142 ], [ -90.890382000001864, 32.372462000002677 ], [ -90.912363000002287, 32.33945400000232 ], [ -90.986672000002201, 32.351760000002315 ], [ -91.004706000001718, 32.367244000002785 ], [ -90.994080000001958, 32.403861000002415 ], [ -90.965987000002684, 32.420654000002578 ], [ -90.993863000002364, 32.450851000002558 ], [ -91.027406000002557, 32.43394200000288 ], [ -91.093508000002245, 32.457441000003044 ], [ -91.11670800000168, 32.500138000002828 ], [ -91.093742000001683, 32.549127000002628 ], [ -91.049307000002557, 32.498539000003007 ], [ -91.00010600000212, 32.482290000002827 ], [ -90.987669000002086, 32.498481000002862 ], [ -91.057706000002597, 32.533777000002303 ], [ -91.080411000002584, 32.556468000002809 ], [ -91.043552000002435, 32.576271000002812 ], [ -91.013723000002514, 32.59841900000319 ], [ -91.003500000002234, 32.624845000003099 ], [ -91.025769000002157, 32.646572000002955 ], [ -91.049802000001918, 32.607185000002907 ], [ -91.121157000002597, 32.584806000003169 ], [ -91.14278200000166, 32.598899000002781 ], [ -91.152699000001917, 32.640757000002417 ], [ -91.126201000002595, 32.667135000002858 ], [ -91.069234000002396, 32.698639000002835 ], [ -91.060766000002474, 32.727494000002892 ], [ -91.16581400000166, 32.757841000002422 ], [ -91.161669000001837, 32.812465000002717 ], [ -91.143559000002526, 32.844738000003119 ], [ -91.105631000001964, 32.858396000002756 ], [ -91.065305000001743, 32.899825000002402 ], [ -91.064668000002555, 32.91797400000285 ], [ -91.086802000002379, 32.976266000002404 ], [ -91.135095000002281, 32.980108000002915 ], [ -91.131304000002046, 32.926918000002388 ], [ -91.163877000002515, 32.899476000003048 ], [ -91.212837000001883, 32.922103000002942 ], [ -91.201842000001918, 32.961212000003165 ], [ -91.166147000001999, 33.011329000002966 ], [ -91.128133000002038, 33.034451000002768 ], [ -91.124595000002003, 33.06418400000269 ], [ -91.200805000002077, 33.107765000002843 ], [ -91.18369800000238, 33.141744000002504 ], [ -91.102702000001855, 33.130374000002455 ], [ -91.082590000002241, 33.148520000003138 ], [ -91.08259200000262, 33.221826000002892 ], [ -91.054130000001919, 33.245990000003033 ], [ -91.047314000001876, 33.281932000002335 ], [ -91.127966000001663, 33.268471000002499 ], [ -91.141729000002599, 33.333349000003125 ], [ -91.142219000002484, 33.348989000002888 ], [ -91.103808000001976, 33.384876000002457 ], [ -91.070133000001761, 33.412192000002698 ], [ -91.057676000001919, 33.432361000002672 ], [ -91.120367000001835, 33.388866000002515 ], [ -91.16970200000236, 33.380351000002982 ], [ -91.20647700000174, 33.40014300000238 ], [ -91.132746000002527, 33.429622000002873 ], [ -91.118775000002515, 33.446485000002561 ], [ -91.131338000001961, 33.480927000002318 ], [ -91.177527000002556, 33.482986000003059 ], [ -91.183420000001718, 33.505062000002859 ], [ -91.218843000001655, 33.529382000002691 ], [ -91.228441000002505, 33.566938000002622 ], [ -91.178555000002675, 33.567305000002307 ], [ -91.132102000002519, 33.59590800000268 ], [ -91.131040000002315, 33.616028000002487 ], [ -91.177670000001982, 33.652050000002959 ], [ -91.211678000001982, 33.656791000002649 ], [ -91.223914000002367, 33.693739000002978 ], [ -91.16036700000258, 33.706602000002349 ], [ -91.128956000001835, 33.673631000002437 ], [ -91.079776000002539, 33.658036000002809 ], [ -91.033707000002323, 33.673844000002823 ], [ -91.06805100000166, 33.716198000003146 ], [ -91.125949000002478, 33.708948000002493 ], [ -91.144246000001985, 33.747036000003149 ], [ -91.108663000001926, 33.77166800000299 ], [ -91.053386000001893, 33.778283000002958 ], [ -91.027367000001718, 33.765114000002384 ], [ -90.991574000001762, 33.79230400000236 ], [ -91.022486000001834, 33.805259000002629 ], [ -91.049083000001644, 33.816026000002353 ], [ -91.073252000002455, 33.861980000003022 ], [ -91.061832000002624, 33.879159000002275 ], [ -91.010863000001663, 33.927310000002592 ], [ -91.018629000001937, 33.941908000003131 ], [ -91.081424000002258, 33.954931000002702 ], [ -91.090658000001994, 33.988730000002306 ], [ -91.018948000001956, 34.003225000003034 ], [ -90.999977000002204, 33.966386000002657 ], [ -90.962489000002634, 33.981302000002621 ], [ -90.988184000002278, 34.019211000002628 ], [ -90.893285000002535, 34.026584000002629 ], [ -90.87112200000216, 34.080249000002404 ], [ -90.921294000002405, 34.093514000002322 ], [ -90.956901000002119, 34.120091000002809 ], [ -90.799346000002402, 34.12061400000249 ], [ -90.749582000002519, 34.119434000002698 ], [ -90.659457000001694, 34.11886700000273 ], [ -90.659537000002018, 34.088614000003084 ], [ -90.66035700000208, 33.98758500000303 ], [ -90.65700200000208, 33.987586000003027 ], [ -90.590625000002362, 33.986897000002415 ], [ -90.451012000001683, 33.985689000002331 ], [ -90.450529000002007, 33.908609000002791 ], [ -90.450696000001741, 33.898298000002484 ], [ -90.451643000002619, 33.811390000002412 ], [ -90.223868000001659, 33.809859000002483 ], [ -90.182584000002421, 33.809322000002368 ], [ -90.171440000002406, 33.789671000002755 ], [ -90.204205000002503, 33.759446000002768 ], [ -90.250086000002526, 33.763147000002427 ], [ -90.294502000001785, 33.750981000002994 ], [ -90.313859000002381, 33.725746000002758 ], [ -90.301138000001799, 33.699192000002668 ], [ -90.269105000001673, 33.697208000002377 ], [ -90.252340000001595, 33.730316000002581 ], [ -90.220439000001761, 33.722122000002429 ], [ -90.136787000001817, 33.721648000002709 ], [ -90.127775000002487, 33.67695600000264 ], [ -89.979143000002608, 33.67624600000314 ], [ -89.927475000001593, 33.676487000002879 ], [ -89.878344000001661, 33.676532000002396 ], [ -89.85656400000255, 33.676576000003053 ], [ -89.795587000001831, 33.67670000000286 ], [ -89.786890000002174, 33.67672700000309 ], [ -89.785851000002367, 33.590071000002872 ], [ -89.785765000001803, 33.546074000002413 ], [ -89.785472000002159, 33.440564000003207 ], [ -89.785227000002109, 33.416275000002493 ], [ -89.727268000002582, 33.416726000003209 ], [ -89.699180000001661, 33.402179000002917 ], [ -89.64631400000178, 33.402544000002642 ], [ -89.646085000001662, 33.366391000003006 ], [ -89.645280000002245, 33.285515000002704 ], [ -89.701474000002563, 33.285515000002363 ], [ -89.749441000002633, 33.214478000002607 ], [ -89.889573000001818, 33.252977000003192 ], [ -89.9149410000025, 33.260125000002645 ], [ -89.927040000002037, 33.263535000002427 ], [ -90.0672170000026, 33.303125000002431 ], [ -90.097851000002024, 33.31178500000258 ], [ -90.174614000001753, 33.333378000002945 ], [ -90.321308000001906, 33.375050000002872 ], [ -90.279627000001994, 33.339509000003083 ], [ -90.291690000002205, 33.319010000002379 ], [ -90.331589000002353, 33.302825000002407 ], [ -90.331297000001896, 33.286052000002975 ], [ -90.330491000002354, 33.186684000002785 ], [ -90.330312000002081, 33.137818000002369 ], [ -90.383098000001766, 33.121422000002624 ], [ -90.431950000001663, 33.095917000002636 ], [ -90.429783000002402, 33.060991000002637 ], [ -90.391456000002293, 33.049990000002836 ], [ -90.364031000002598, 33.010596000002877 ], [ -90.354911000002559, 33.011980000002474 ], [ -90.33833900000262, 33.010131000002424 ], [ -90.293188000001678, 32.99535300000322 ], [ -90.173932000002281, 32.952697000002345 ], [ -90.170202000001836, 32.951375000003004 ], [ -90.157272000002536, 32.946820000002631 ], [ -90.09921900000208, 32.926309000002718 ], [ -90.037196000002311, 32.904539000002494 ], [ -89.965882000002551, 32.879573000002985 ], [ -89.995234000001673, 32.836163000002792 ], [ -90.018675000002332, 32.821689000002642 ], [ -90.022666000001863, 32.784887000002811 ], [ -90.042441000001901, 32.744143000002879 ], [ -89.993590000002413, 32.731810000002376 ], [ -89.94837700000177, 32.741563000003225 ], [ -89.929473000002076, 32.725381000002777 ], [ -89.936231000002095, 32.629419000002933 ], [ -89.9924130000025, 32.611576000002529 ], [ -90.034902000002248, 32.612606000002948 ], [ -90.040853000002528, 32.612584000002663 ], [ -90.042168000002292, 32.612591000002929 ], [ -90.06945300000227, 32.606045000002823 ], [ -90.081255000001605, 32.560703000002405 ], [ -90.060108000002018, 32.560599000002817 ], [ -90.025590000002452, 32.560502000002565 ], [ -89.995226000002148, 32.560392000002452 ], [ -89.995191000002521, 32.541587000002757 ], [ -89.939758000002513, 32.513744000002639 ], [ -90.013819000002016, 32.480117000002409 ], [ -90.020800000001643, 32.472180000002588 ], [ -90.068068000002256, 32.438606000002466 ], [ -90.065697000001975, 32.399529000002367 ], [ -90.066986000002672, 32.39897200000263 ], [ -90.095369000002165, 32.383198000002643 ], [ -90.103019000001964, 32.37048900000287 ], [ -90.104526000002295, 32.360568000003042 ], [ -90.113088000002563, 32.354527000002761 ], [ -90.117078000001598, 32.342256000002685 ], [ -90.124459000002076, 32.335533000002997 ], [ -90.129056000002478, 32.331677000003076 ], [ -90.15295700000182, 32.320775000002918 ], [ -90.160981000002323, 32.308156000003187 ], [ -90.156187000002063, 32.297346000002811 ], [ -90.167893000001797, 32.28738500000285 ], [ -90.179701000002296, 32.276162000002657 ], [ -90.204191000001799, 32.23973600000285 ], [ -90.19099400000232, 32.209660000002749 ], [ -90.181908000002636, 32.201912000003063 ], [ -90.244164000002399, 32.165722000003122 ], [ -90.240997000002594, 32.121712000003079 ], [ -90.230331000001598, 32.049728000002716 ], [ -90.218197000001979, 32.022602000002422 ], [ -90.22258200000266, 31.988585000002569 ], [ -90.193043000001964, 31.953088000003213 ], [ -90.169786000001736, 31.917640000003153 ], [ -90.13834100000264, 31.875319000003007 ], [ -90.140757000002338, 31.789353000002571 ], [ -90.110981000002553, 31.789266000002627 ], [ -90.122565000002481, 31.75268000000268 ], [ -90.123103000002075, 31.751972000003057 ], [ -90.17705200000222, 31.737194000002798 ], [ -90.245191000002393, 31.717524000002925 ], [ -90.245186000001766, 31.716187000002503 ], [ -90.244762000002282, 31.626919000002363 ], [ -90.244797000001697, 31.607744000002821 ], [ -90.244608000002003, 31.569762000003017 ], [ -90.244614000002485, 31.54878100000267 ], [ -90.244459000002323, 31.509225000003024 ], [ -90.244523000002644, 31.487929000002492 ], [ -90.24448700000184, 31.467036000003013 ], [ -90.244324000001754, 31.446485000002479 ], [ -90.244264000002644, 31.408499000002504 ], [ -90.243890000001755, 31.350274000002873 ], [ -90.167762000002284, 31.350605000002769 ], [ -90.159082000002115, 31.350638000002533 ], [ -90.10865100000224, 31.350869000002486 ], [ -90.060855000002192, 31.328778000002583 ], [ -90.04046600000234, 31.336014000002478 ], [ -90.040386000002101, 31.271847000002513 ], [ -90.031857000002248, 31.226844000002679 ], [ -90.0318430000018, 31.21947400000299 ], [ -90.031896000002476, 31.175727000002411 ], [ -90.006138000002153, 31.175605000002442 ], [ -90.005936000002194, 31.132300000002356 ], [ -89.954826000002299, 31.132852000002369 ], [ -89.938108000001819, 31.118956000002783 ], [ -89.920973000002292, 31.089306000002999 ], [ -89.883315000002142, 31.07475500000244 ], [ -89.83587300000211, 31.074926000002915 ], [ -89.835908000002149, 31.002047000002847 ], [ -89.940973000002344, 31.001479000003169 ], [ -90.067545000002099, 31.00123800000242 ], [ -90.16450000000178, 31.001020000003205 ], [ -90.194299000002502, 31.000754000002591 ], [ -90.259555000002536, 31.00067900000316 ], [ -90.371463000002279, 31.000183000002593 ], [ -90.456982000002398, 30.99965800000292 ], [ -90.547616000002193, 30.999720000002881 ], [ -90.753343000001664, 30.999290000003171 ], [ -90.783689000002354, 30.999445000003018 ], [ -90.922683000002237, 30.999470000003029 ], [ -90.928742000002444, 30.999401000002479 ], [ -91.060219000002164, 30.998927000002571 ], [ -91.23153100000188, 30.999273000003111 ], [ -91.396515000002637, 30.99904400000262 ], [ -91.414628000002395, 30.999010000002432 ], [ -91.636942000002676, 30.999416000002736 ], [ -91.590463000001833, 31.017270000002853 ], [ -91.564397000002486, 31.038965000002431 ] ] ] } },
{ "type": "Feature", "properties": { "opt_all": 3, "population": 742137.0, "voting_age_pop": 569996.0, "dem_votes": 106600.0, "rep_votes": 179757.0, "minority_pop": 213114.0, "dem_pct": 0.37226259516189142, "rep_pct": 0.62773740448889415 }, "geometry": { "type": "Polygon", "coordinates": [ [ [ -90.167762000002284, 31.350605000002769 ], [ -90.243890000001755, 31.350274000002873 ], [ -90.244264000002644, 31.408499000002504 ], [ -90.244324000001754, 31.446485000002479 ], [ -90.24448700000184, 31.467036000003013 ], [ -90.244523000002644, 31.487929000002492 ], [ -90.244459000002323, 31.509225000003024 ], [ -90.244614000002485, 31.54878100000267 ], [ -90.244608000002003, 31.569762000003017 ], [ -90.244797000001697, 31.607744000002821 ], [ -90.244762000002282, 31.626919000002363 ], [ -90.245186000001766, 31.716187000002503 ], [ -90.245191000002393, 31.717524000002925 ], [ -90.17705200000222, 31.737194000002798 ], [ -90.123103000002075, 31.751972000003057 ], [ -90.122565000002481, 31.75268000000268 ], [ -90.110981000002553, 31.789266000002627 ], [ -90.140757000002338, 31.789353000002571 ], [ -90.13834100000264, 31.875319000003007 ], [ -90.169786000001736, 31.917640000003153 ], [ -90.193043000001964, 31.953088000003213 ], [ -90.22258200000266, 31.988585000002569 ], [ -90.218197000001979, 32.022602000002422 ], [ -90.230331000001598, 32.049728000002716 ], [ -90.240997000002594, 32.121712000003079 ], [ -90.244164000002399, 32.165722000003122 ], [ -90.181908000002636, 32.201912000003063 ], [ -90.19099400000232, 32.209660000002749 ], [ -90.204191000001799, 32.23973600000285 ], [ -90.179701000002296, 32.276162000002657 ], [ -90.167893000001797, 32.28738500000285 ], [ -90.156187000002063, 32.297346000002811 ], [ -90.160981000002323, 32.308156000003187 ], [ -90.15295700000182, 32.320775000002918 ], [ -90.129056000002478, 32.331677000003076 ], [ -90.124459000002076, 32.335533000002997 ], [ -90.117078000001598, 32.342256000002685 ], [ -90.113088000002563, 32.354527000002761 ], [ -90.104526000002295, 32.360568000003042 ], [ -90.103019000001964, 32.37048900000287 ], [ -90.095369000002165, 32.383198000002643 ], [ -90.066986000002672, 32.39897200000263 ], [ -90.065697000001975, 32.399529000002367 ], [ -90.068068000002256, 32.438606000002466 ], [ -90.020800000001643, 32.472180000002588 ], [ -90.013819000002016, 32.480117000002409 ], [ -89.939758000002513, 32.513744000002639 ], [ -89.995191000002521, 32.541587000002757 ], [ -89.995226000002148, 32.560392000002452 ], [ -90.025590000002452, 32.560502000002565 ], [ -90.060108000002018, 32.560599000002817 ], [ -90.081255000001605, 32.560703000002405 ], [ -90.06945300000227, 32.606045000002823 ], [ -90.042168000002292, 32.612591000002929 ], [ -90.040853000002528, 32.612584000002663 ], [ -90.034902000002248, 32.612606000002948 ], [ -89.9924130000025, 32.611576000002529 ], [ -89.936231000002095, 32.629419000002933 ], [ -89.929473000002076, 32.725381000002777 ], [ -89.94837700000177, 32.741563000003225 ], [ -89.993590000002413, 32.731810000002376 ], [ -90.042441000001901, 32.744143000002879 ], [ -90.022666000001863, 32.784887000002811 ], [ -90.018675000002332, 32.821689000002642 ], [ -89.995234000001673, 32.836163000002792 ], [ -89.965882000002551, 32.879573000002985 ], [ -90.037196000002311, 32.904539000002494 ], [ -90.09921900000208, 32.926309000002718 ], [ -90.157272000002536, 32.946820000002631 ], [ -90.170202000001836, 32.951375000003004 ], [ -90.173932000002281, 32.952697000002345 ], [ -90.293188000001678, 32.99535300000322 ], [ -90.33833900000262, 33.010131000002424 ], [ -90.354911000002559, 33.011980000002474 ], [ -90.364031000002598, 33.010596000002877 ], [ -90.391456000002293, 33.049990000002836 ], [ -90.429783000002402, 33.060991000002637 ], [ -90.431950000001663, 33.095917000002636 ], [ -90.383098000001766, 33.121422000002624 ], [ -90.330312000002081, 33.137818000002369 ], [ -90.330491000002354, 33.186684000002785 ], [ -90.331297000001896, 33.286052000002975 ], [ -90.331589000002353, 33.302825000002407 ], [ -90.291690000002205, 33.319010000002379 ], [ -90.279627000001994, 33.339509000003083 ], [ -90.321308000001906, 33.375050000002872 ], [ -90.174614000001753, 33.333378000002945 ], [ -90.097851000002024, 33.31178500000258 ], [ -90.0672170000026, 33.303125000002431 ], [ -89.927040000002037, 33.263535000002427 ], [ -89.9149410000025, 33.260125000002645 ], [ -89.889573000001818, 33.252977000003192 ], [ -89.749441000002633, 33.214478000002607 ], [ -89.701474000002563, 33.285515000002363 ], [ -89.645280000002245, 33.285515000002704 ], [ -89.646085000001662, 33.366391000003006 ], [ -89.64631400000178, 33.402544000002642 ], [ -89.699180000001661, 33.402179000002917 ], [ -89.727268000002582, 33.416726000003209 ], [ -89.785227000002109, 33.416275000002493 ], [ -89.785472000002159, 33.440564000003207 ], [ -89.785765000001803, 33.546074000002413 ], [ -89.785851000002367, 33.590071000002872 ], [ -89.786890000002174, 33.67672700000309 ], [ -89.795587000001831, 33.67670000000286 ], [ -89.85656400000255, 33.676576000003053 ], [ -89.878344000001661, 33.676532000002396 ], [ -89.927475000001593, 33.676487000002879 ], [ -89.979143000002608, 33.67624600000314 ], [ -90.127775000002487, 33.67695600000264 ], [ -90.136787000001817, 33.721648000002709 ], [ -90.136491000002295, 33.80931900000283 ], [ -90.007750000001764, 33.809749000002391 ], [ -89.995939000001968, 33.809711000002686 ], [ -89.971937000001702, 33.824043000002504 ], [ -89.9262940000024, 33.823854000002953 ], [ -89.926132000002099, 33.871959000003066 ], [ -89.92612600000173, 33.892739000002727 ], [ -89.926099000002012, 33.897957000002933 ], [ -89.821958000001985, 33.897560000002727 ], [ -89.769296000002356, 33.897137000002878 ], [ -89.769050000001769, 33.86733400000319 ], [ -89.717329000002223, 33.867142000002389 ], [ -89.699312000002493, 33.867120000003077 ], [ -89.507353000001913, 33.867469000002941 ], [ -89.507314000001841, 33.838202000003172 ], [ -89.507269000002196, 33.808960000002465 ], [ -89.507147000002348, 33.722162000003216 ], [ -89.507135000001895, 33.721819000002547 ], [ -89.39365000000258, 33.721721000002688 ], [ -89.372124000001961, 33.721647000003202 ], [ -89.216593000002433, 33.721979000002449 ], [ -89.191789000001734, 33.73768500000282 ], [ -89.191781000002095, 33.73860200000307 ], [ -89.051741000002053, 33.739332000002982 ], [ -89.034498000002458, 33.739430000002727 ], [ -88.974177000001859, 33.754299000002398 ], [ -88.93160400000194, 33.754312000002479 ], [ -88.931230000002401, 33.804922000002477 ], [ -88.909459000002514, 33.812152000002968 ], [ -88.849790000002287, 33.811694000002468 ], [ -88.746039000002099, 33.810868000002998 ], [ -88.719979000002539, 33.811330000002769 ], [ -88.719567000001661, 33.723771000002962 ], [ -88.71962600000154, 33.6802530000028 ], [ -88.696787000002487, 33.68008600000244 ], [ -88.633118000001758, 33.680236000002715 ], [ -88.632491000002204, 33.68024600000313 ], [ -88.497147000002087, 33.680181000002918 ], [ -88.513917000002252, 33.65020900000242 ], [ -88.4788220000016, 33.607079000002919 ], [ -88.478374000002191, 33.606691000002712 ], [ -88.494864000001797, 33.579522000003273 ], [ -88.480299000001608, 33.522741000003109 ], [ -88.524183000001784, 33.550949000002973 ], [ -88.56375200000187, 33.527014000002815 ], [ -88.609389000001627, 33.50675100000273 ], [ -88.671250000001749, 33.506168000002717 ], [ -88.671051000002279, 33.462739000002408 ], [ -88.670378000002472, 33.40407100000315 ], [ -88.669076000001809, 33.286922000002932 ], [ -88.671954000001577, 33.28690900000241 ], [ -88.813053000001929, 33.286424000003009 ], [ -88.813172000001572, 33.173511000002399 ], [ -88.813722000002215, 33.089209000002519 ], [ -88.81355500000258, 33.034873000002484 ], [ -88.81329800000195, 33.014874000003253 ], [ -88.812782000002386, 32.925973000002827 ], [ -88.91441300000244, 32.926600000002743 ], [ -88.914315000002404, 32.860198000002796 ], [ -88.914560000001757, 32.838832000002682 ], [ -88.914842000002437, 32.805958000002512 ], [ -88.914821000001652, 32.805874000002412 ], [ -88.915235000001843, 32.726407000003213 ], [ -88.915276000001825, 32.708716000002383 ], [ -88.914516000001612, 32.57695500000316 ], [ -88.948989000002499, 32.576866000002823 ], [ -88.966047000002035, 32.576677000002917 ], [ -88.974448000002127, 32.487441000003045 ], [ -89.000044000002291, 32.456432000002792 ], [ -89.000045000002473, 32.398520000002549 ], [ -89.08097600000221, 32.409852000002473 ], [ -89.068033000002416, 32.369955000002669 ], [ -89.100312000001921, 32.354763000003217 ], [ -89.092849000002317, 32.272425000002393 ], [ -89.098599000001613, 32.223957000002642 ], [ -89.117675000002279, 32.223972000002441 ], [ -89.185831000001656, 32.22379300000253 ], [ -89.322692000002192, 32.223472000002914 ], [ -89.322597000001906, 32.147305000002959 ], [ -89.322594000002283, 32.113225000002387 ], [ -89.322210000002556, 32.019933000002837 ], [ -89.32182600000182, 31.963210000002697 ], [ -89.321127000001653, 31.885149000002595 ], [ -89.320748000002382, 31.874338000002897 ], [ -89.316560000002468, 31.80209000000325 ], [ -89.350182000001809, 31.799924000002591 ], [ -89.355234000002582, 31.799663000003235 ], [ -89.401227000001938, 31.796863000002556 ], [ -89.400650000002372, 31.708906000003154 ], [ -89.400539000002368, 31.686169000003225 ], [ -89.400298000002152, 31.637930000002907 ], [ -89.400241000002438, 31.623727000003203 ], [ -89.400208000002621, 31.609371000003144 ], [ -89.400206000002242, 31.609001000002507 ], [ -89.399503000002341, 31.507522000002528 ], [ -89.39917800000164, 31.434029000002635 ], [ -89.319762000002342, 31.434045000002527 ], [ -89.299027000002525, 31.434149000002744 ], [ -89.23176300000209, 31.433931000002691 ], [ -89.230528000001613, 31.43393500000295 ], [ -89.146092000002241, 31.434052000003089 ], [ -89.146104000002609, 31.34497400000242 ], [ -89.14598100000191, 31.315204000002712 ], [ -89.145750000002337, 31.271808000002775 ], [ -89.145594000002291, 31.224317000002845 ], [ -89.145476000001935, 31.197346000002561 ], [ -89.145713000002516, 31.088190000002474 ], [ -89.145858000001809, 31.065793000003151 ], [ -89.146176000002569, 31.000447000002975 ], [ -89.137967000001638, 30.909877000002908 ], [ -89.171076000001904, 30.909872000002697 ], [ -89.198684000002473, 30.909925000002776 ], [ -89.340806000001692, 30.90991200000262 ], [ -89.340906000001652, 30.876962000002969 ], [ -89.340896000002076, 30.857628000003064 ], [ -89.341264000001999, 30.785968000002995 ], [ -89.341393000002384, 30.695093000002434 ], [ -89.341446000001753, 30.647720000002664 ], [ -89.459332000001893, 30.647923000002717 ], [ -89.544232000001671, 30.648368000002375 ], [ -89.544045000001901, 30.627740000002493 ], [ -89.544023000002227, 30.546218000003108 ], [ -89.544510000001921, 30.516862000003059 ], [ -89.599154000001704, 30.502474000002849 ], [ -89.629090000001838, 30.502390000003004 ], [ -89.647072000002026, 30.502738000002587 ], [ -89.646961000002122, 30.45889200000267 ], [ -89.690035000002013, 30.459333000002477 ], [ -89.721405000002449, 30.488883000002943 ], [ -89.732383000002102, 30.492608000002623 ], [ -89.789680000002065, 30.544656000003005 ], [ -89.818771000002002, 30.592880000003195 ], [ -89.822570000001704, 30.624803000003187 ], [ -89.844172000002317, 30.691504000003007 ], [ -89.835963000002508, 30.735846000003217 ], [ -89.831537000001831, 30.767610000002929 ], [ -89.780513000001989, 30.847466000003234 ], [ -89.77026900000169, 30.899390000003063 ], [ -89.744789000001774, 30.918933000002845 ], [ -89.755948000002377, 30.944119000002942 ], [ -89.735686000001834, 30.966573000003045 ], [ -89.72811900000201, 31.002300000002371 ], [ -89.752642000002638, 31.001853000003042 ], [ -89.835908000002149, 31.002047000002847 ], [ -89.83587300000211, 31.074926000002915 ], [ -89.883315000002142, 31.07475500000244 ], [ -89.920973000002292, 31.089306000002999 ], [ -89.938108000001819, 31.118956000002783 ], [ -89.954826000002299, 31.132852000002369 ], [ -90.005936000002194, 31.132300000002356 ], [ -90.006138000002153, 31.175605000002442 ], [ -90.031896000002476, 31.175727000002411 ], [ -90.0318430000018, 31.21947400000299 ], [ -90.031857000002248, 31.226844000002679 ], [ -90.040386000002101, 31.271847000002513 ], [ -90.04046600000234, 31.336014000002478 ], [ -90.060855000002192, 31.328778000002583 ], [ -90.10865100000224, 31.350869000002486 ], [ -90.159082000002115, 31.350638000002533 ], [ -90.167762000002284, 31.350605000002769 ] ] ] } },
{ "type": "Feature", "properties": { "opt_all": 4, "population": 739708.0, "voting_age_pop": 567506.0, "dem_votes": 94414.0, "rep_votes": 165144.0, "minority_pop": 204490.0, "dem_pct": 0.3637491426333424, "rep_pct": 0.63625085698138728 }, "geometry": { "type": "Polygon", "coordinates": [ [ [ -89.416711000001726, 30.177639000002724 ], [ -89.456818000002386, 30.165733000002728 ], [ -89.516891000001792, 30.164590000002864 ], [ -89.538635000002003, 30.195890000002848 ], [ -89.571907000001971, 30.180721000003231 ], [ -89.592369000001867, 30.20528700000304 ], [ -89.616828000002172, 30.225772000002394 ], [ -89.625312000002111, 30.26433100000315 ], [ -89.646965000002453, 30.291810000003014 ], [ -89.630622000002461, 30.337491000002416 ], [ -89.657287000001986, 30.357183000002397 ], [ -89.683708000001843, 30.405586000002963 ], [ -89.690035000002013, 30.459333000002477 ], [ -89.646961000002122, 30.45889200000267 ], [ -89.647072000002026, 30.502738000002587 ], [ -89.629090000001838, 30.502390000003004 ], [ -89.599154000001704, 30.502474000002849 ], [ -89.544510000001921, 30.516862000003059 ], [ -89.544023000002227, 30.546218000003108 ], [ -89.544045000001901, 30.627740000002493 ], [ -89.544232000001671, 30.648368000002375 ], [ -89.459332000001893, 30.647923000002717 ], [ -89.341446000001753, 30.647720000002664 ], [ -89.341393000002384, 30.695093000002434 ], [ -89.341264000001999, 30.785968000002995 ], [ -89.340896000002076, 30.857628000003064 ], [ -89.340906000001652, 30.876962000002969 ], [ -89.340806000001692, 30.90991200000262 ], [ -89.198684000002473, 30.909925000002776 ], [ -89.171076000001904, 30.909872000002697 ], [ -89.137967000001638, 30.909877000002908 ], [ -89.146176000002569, 31.000447000002975 ], [ -89.145858000001809, 31.065793000003151 ], [ -89.145713000002516, 31.088190000002474 ], [ -89.145476000001935, 31.197346000002561 ], [ -89.145594000002291, 31.224317000002845 ], [ -89.145750000002337, 31.271808000002775 ], [ -89.14598100000191, 31.315204000002712 ], [ -89.146104000002609, 31.34497400000242 ], [ -89.146092000002241, 31.434052000003089 ], [ -89.230528000001613, 31.43393500000295 ], [ -89.23176300000209, 31.433931000002691 ], [ -89.299027000002525, 31.434149000002744 ], [ -89.319762000002342, 31.434045000002527 ], [ -89.39917800000164, 31.434029000002635 ], [ -89.399503000002341, 31.507522000002528 ], [ -89.400206000002242, 31.609001000002507 ], [ -89.400208000002621, 31.609371000003144 ], [ -89.400241000002438, 31.623727000003203 ], [ -89.400298000002152, 31.637930000002907 ], [ -89.400539000002368, 31.686169000003225 ], [ -89.400650000002372, 31.708906000003154 ], [ -89.401227000001938, 31.796863000002556 ], [ -89.355234000002582, 31.799663000003235 ], [ -89.350182000001809, 31.799924000002591 ], [ -89.316560000002468, 31.80209000000325 ], [ -89.320748000002382, 31.874338000002897 ], [ -89.321127000001653, 31.885149000002595 ], [ -89.32182600000182, 31.963210000002697 ], [ -89.322210000002556, 32.019933000002837 ], [ -89.322594000002283, 32.113225000002387 ], [ -89.322597000001906, 32.147305000002959 ], [ -89.322692000002192, 32.223472000002914 ], [ -89.185831000001656, 32.22379300000253 ], [ -89.117675000002279, 32.223972000002441 ], [ -89.098599000001613, 32.223957000002642 ], [ -89.092849000002317, 32.272425000002393 ], [ -89.100312000001921, 32.354763000003217 ], [ -89.068033000002416, 32.369955000002669 ], [ -89.08097600000221, 32.409852000002473 ], [ -89.000045000002473, 32.398520000002549 ], [ -89.000044000002291, 32.456432000002792 ], [ -88.974448000002127, 32.487441000003045 ], [ -88.966047000002035, 32.576677000002917 ], [ -88.948989000002499, 32.576866000002823 ], [ -88.914516000001612, 32.57695500000316 ], [ -88.915276000001825, 32.708716000002383 ], [ -88.915235000001843, 32.726407000003213 ], [ -88.914821000001652, 32.805874000002412 ], [ -88.914842000002437, 32.805958000002512 ], [ -88.914560000001757, 32.838832000002682 ], [ -88.914315000002404, 32.860198000002796 ], [ -88.91441300000244, 32.926600000002743 ], [ -88.812782000002386, 32.925973000002827 ], [ -88.81329800000195, 33.014874000003253 ], [ -88.81355500000258, 33.034873000002484 ], [ -88.813722000002215, 33.089209000002519 ], [ -88.813172000001572, 33.173511000002399 ], [ -88.813053000001929, 33.286424000003009 ], [ -88.671954000001577, 33.28690900000241 ], [ -88.669076000001809, 33.286922000002932 ], [ -88.670378000002472, 33.40407100000315 ], [ -88.671051000002279, 33.462739000002408 ], [ -88.671250000001749, 33.506168000002717 ], [ -88.609389000001627, 33.50675100000273 ], [ -88.56375200000187, 33.527014000002815 ], [ -88.524183000001784, 33.550949000002973 ], [ -88.480299000001608, 33.522741000003109 ], [ -88.494864000001797, 33.579522000003273 ], [ -88.478374000002191, 33.606691000002712 ], [ -88.4788220000016, 33.607079000002919 ], [ -88.513917000002252, 33.65020900000242 ], [ -88.47736400000214, 33.666493000002923 ], [ -88.408498000002155, 33.67523400000303 ], [ -88.384614000002244, 33.689654000003124 ], [ -88.330480000001856, 33.718600000002532 ], [ -88.31843200000209, 33.745096000003009 ], [ -88.248916000002254, 33.744977000002557 ], [ -88.262018000001589, 33.635440000002411 ], [ -88.270781000002387, 33.564924000003124 ], [ -88.278267000002486, 33.504750000002531 ], [ -88.302759000002155, 33.30221100000302 ], [ -88.304434000002288, 33.288320000002784 ], [ -88.31575000000187, 33.198113000003033 ], [ -88.331010000002465, 33.072490000003278 ], [ -88.347887000001876, 32.929082000003042 ], [ -88.369055000002319, 32.742584000002623 ], [ -88.388797000001873, 32.578123000002861 ], [ -88.399971000001912, 32.485375000002819 ], [ -88.409957000001995, 32.399272000002789 ], [ -88.420824000002341, 32.31405000000305 ], [ -88.431379000001954, 32.227666000002891 ], [ -88.442910000002243, 32.13659500000329 ], [ -88.453394000002078, 32.053050000002884 ], [ -88.470109000002083, 31.920784000002559 ], [ -88.473227000002311, 31.893856000002895 ], [ -88.469035000002023, 31.800225000002449 ], [ -88.46503500000216, 31.714741000002551 ], [ -88.455446000002382, 31.546805000002841 ], [ -88.45329900000246, 31.509180000003187 ], [ -88.449438000001734, 31.435837000002468 ], [ -88.441281000001865, 31.289984000002494 ], [ -88.439929000002394, 31.267610000002776 ], [ -88.430512000001841, 31.08531800000257 ], [ -88.425432000002019, 30.99832300000282 ], [ -88.422089000002458, 30.925064000002703 ], [ -88.418135000001655, 30.85587600000332 ], [ -88.412612000001545, 30.735590000002652 ], [ -88.407093000002533, 30.617753000002718 ], [ -88.406034000001668, 30.587845000003043 ], [ -88.404239000001837, 30.559912000002679 ], [ -88.384431000001882, 30.158543000002961 ], [ -88.446987000002437, 30.146303000003329 ], [ -88.479934000001919, 30.149921000003289 ], [ -88.545855000002405, 30.176653000002982 ], [ -88.603881000002431, 30.170609000003076 ], [ -88.669418000002366, 30.178621000003066 ], [ -88.717386000002037, 30.190875000002681 ], [ -88.753899000001709, 30.188205000003201 ], [ -88.795147000002586, 30.199994000003073 ], [ -88.82138700000165, 30.217370000002511 ], [ -88.850390000002065, 30.192282000003271 ], [ -88.900330000001944, 30.169980000002884 ], [ -88.889030000002307, 30.139845000002431 ], [ -88.933198000002534, 30.145481000003151 ], [ -89.000175000002187, 30.153960000003263 ], [ -89.10028200000194, 30.167946000002782 ], [ -89.190170000002013, 30.209546000003165 ], [ -89.260977000002001, 30.181998000002498 ], [ -89.306135000001944, 30.177941000003283 ], [ -89.416711000001726, 30.177639000002724 ] ] ] } }
]
}
