{
"type": "FeatureCollection",
"name": "missouri_enacted_districts",
"crs": { "type": "name", "properties": { "name": "urn:ogc:def:crs:OGC:1.3:CRS84" } },
"features": [
{ "type": "Feature", "properties": { "enacted_district": 1.0, "population": 771099.0, "voting_age_pop": 610711.0, "dem_votes": 262957.0, "rep_votes": 74805.0, "minority_pop": 339916.0, "dem_pct": 0.77852748361907864, "rep_pct": 0.22147251608485485 }, "geometry": { "type": "Polygon", "coordinates": [ [ [ -90.428929000002043, 38.671839000002592 ], [ -90.429615000002556, 38.67153900000222 ], [ -90.435409000001982, 38.671272000002666 ], [ -90.449279000001553, 38.67216100000217 ], [ -90.450194000002327, 38.672351000002415 ], [ -90.44999600000186, 38.672961000002786 ], [ -90.454121000001606, 38.67370600000249 ], [ -90.458184000001964, 38.67477400000233 ], [ -90.460658000002198, 38.676710000002629 ], [ -90.461639000002634, 38.675738000002362 ], [ -90.462109000002002, 38.675306000002877 ], [ -90.468839000002362, 38.678034000002199 ], [ -90.468958000002118, 38.678194000002406 ], [ -90.476980000002101, 38.681213000002259 ], [ -90.480484000001965, 38.682541000002502 ], [ -90.486509000002584, 38.68239400000234 ], [ -90.486954000001944, 38.682361000002757 ], [ -90.488538000002634, 38.683173000002455 ], [ -90.481263000001562, 38.686839000002557 ], [ -90.480934000001639, 38.697784000002628 ], [ -90.476546000002287, 38.697877000002215 ], [ -90.477187000001877, 38.69720000000224 ], [ -90.476129000002047, 38.69547100000235 ], [ -90.473412000002639, 38.689648000002656 ], [ -90.472006000001784, 38.699886000003012 ], [ -90.469872000002383, 38.697033000002413 ], [ -90.468700000002485, 38.698179000002504 ], [ -90.468340000001504, 38.698440000003039 ], [ -90.468061000002194, 38.698084000002474 ], [ -90.464844000002003, 38.697638000002534 ], [ -90.464786000002405, 38.695994000002656 ], [ -90.464740000001839, 38.694737000002554 ], [ -90.455390000002041, 38.693624000002544 ], [ -90.455020000002307, 38.69356300000269 ], [ -90.45170900000204, 38.693125000002667 ], [ -90.450301000002383, 38.69291100000293 ], [ -90.450514000001519, 38.696304000002243 ], [ -90.453802000001616, 38.697808000002958 ], [ -90.457430000001523, 38.703016000003011 ], [ -90.457613000001942, 38.703245000002205 ], [ -90.456841000001759, 38.705110000002719 ], [ -90.456213000001924, 38.707668000002428 ], [ -90.453867000002177, 38.714555000002818 ], [ -90.454003000001919, 38.714553000002375 ], [ -90.448432000002256, 38.720670000002492 ], [ -90.450466000001995, 38.721859000002453 ], [ -90.448436000002005, 38.721850000002412 ], [ -90.446857000002495, 38.725356000002776 ], [ -90.460776000001758, 38.7275230000024 ], [ -90.467576000001657, 38.734721000002885 ], [ -90.465930000002274, 38.735189000002961 ], [ -90.493394000002354, 38.75068700000304 ], [ -90.482455000001806, 38.764013000002926 ], [ -90.482299000001674, 38.764348000002975 ], [ -90.481325000002116, 38.766854000002773 ], [ -90.477468000001664, 38.778198000002362 ], [ -90.476499000001596, 38.780896000002933 ], [ -90.475318000001536, 38.783869000002788 ], [ -90.467811000001703, 38.797798000003041 ], [ -90.467317000002481, 38.798389000002992 ], [ -90.455164000002043, 38.813056000002717 ], [ -90.449556000002474, 38.819892000002945 ], [ -90.440924000001743, 38.827421000002843 ], [ -90.439251000002258, 38.82801600000284 ], [ -90.430975000002121, 38.82980600000289 ], [ -90.393111000001525, 38.8231050000023 ], [ -90.386446000002138, 38.822385000002505 ], [ -90.376153000002518, 38.822418000002621 ], [ -90.365801000002278, 38.825878000003037 ], [ -90.360302000001596, 38.829679000002152 ], [ -90.356301000002105, 38.834027000002834 ], [ -90.350337000001559, 38.84025300000264 ], [ -90.342414000001824, 38.861749000002533 ], [ -90.332022000001501, 38.886516000002892 ], [ -90.298743000001764, 38.887759000002688 ], [ -90.270476000001636, 38.864646000002793 ], [ -90.236557000002406, 38.843272000002749 ], [ -90.173501000002361, 38.820382000002461 ], [ -90.14160800000208, 38.829448000002941 ], [ -90.117707000002241, 38.805748000002545 ], [ -90.166271000002041, 38.77272900000245 ], [ -90.211178000002036, 38.722074000002252 ], [ -90.202202000002558, 38.693479000002526 ], [ -90.181042000002236, 38.659281000002437 ], [ -90.177727000002662, 38.64202700000223 ], [ -90.177959000001522, 38.635062000002726 ], [ -90.182415000002081, 38.618023000002552 ], [ -90.195733000001596, 38.594771000002865 ], [ -90.205555000002121, 38.586792000002589 ], [ -90.220727000002356, 38.577066000002539 ], [ -90.229176000002482, 38.568981000002601 ], [ -90.240044000002484, 38.555651000002534 ], [ -90.24464800000176, 38.550003000002818 ], [ -90.250279000002394, 38.542804000002548 ], [ -90.254107000002421, 38.537297000002695 ], [ -90.257782000002123, 38.53201200000229 ], [ -90.269100000001757, 38.537575000002228 ], [ -90.279957000001673, 38.551845000002722 ], [ -90.280563000002559, 38.552187000002696 ], [ -90.283372000001606, 38.553704000002995 ], [ -90.28700000000218, 38.555474000002889 ], [ -90.292421000002122, 38.558997000003011 ], [ -90.297022000002301, 38.562368000002458 ], [ -90.306958000002126, 38.572194000002874 ], [ -90.307182000002598, 38.572417000002581 ], [ -90.31001800000152, 38.575231000002823 ], [ -90.31041700000236, 38.575627000002392 ], [ -90.314044000002113, 38.579797000002927 ], [ -90.31488300000224, 38.581665000003007 ], [ -90.316240000001926, 38.584686000002634 ], [ -90.317449000001844, 38.587377000002846 ], [ -90.319635000001796, 38.592237000002605 ], [ -90.318976000001797, 38.598015000002533 ], [ -90.318858000002237, 38.598312000002721 ], [ -90.318423000002156, 38.599405000002584 ], [ -90.313275000001738, 38.612339000002308 ], [ -90.31090700000216, 38.618284000002504 ], [ -90.310370000002322, 38.621725000003025 ], [ -90.310100000002166, 38.62310200000298 ], [ -90.309341000001567, 38.626966000002845 ], [ -90.308912000002621, 38.629161000002782 ], [ -90.308743000001741, 38.63002200000237 ], [ -90.3064330000024, 38.633590000002719 ], [ -90.318301000001739, 38.634735000002806 ], [ -90.318883000002486, 38.633104000002668 ], [ -90.319269000002237, 38.631040000002599 ], [ -90.323300000002206, 38.629284000002563 ], [ -90.329778000002165, 38.629534000002664 ], [ -90.334955000002239, 38.629631000002838 ], [ -90.334936000002045, 38.62926100000287 ], [ -90.334438000002166, 38.622756000002376 ], [ -90.334471000002196, 38.61676500000285 ], [ -90.335180000002183, 38.609923000002816 ], [ -90.334497000002045, 38.606620000002941 ], [ -90.331971000002298, 38.603215000002507 ], [ -90.326017000001926, 38.6010620000025 ], [ -90.326463000002519, 38.600873000002387 ], [ -90.331714000002037, 38.596999000002434 ], [ -90.332367000002435, 38.593580000002625 ], [ -90.333893000002618, 38.591520000002312 ], [ -90.33646600000192, 38.588145000003003 ], [ -90.345366000002642, 38.585441000003016 ], [ -90.358795000002559, 38.58111200000242 ], [ -90.36763400000244, 38.578531000002506 ], [ -90.377200000002105, 38.576143000002496 ], [ -90.377275000002641, 38.57612500000279 ], [ -90.37725500000208, 38.58259000000232 ], [ -90.37725500000154, 38.582642000002465 ], [ -90.377221000001796, 38.584065000002461 ], [ -90.377245000001963, 38.586487000002542 ], [ -90.377140000001674, 38.59230700000272 ], [ -90.377097000002621, 38.595743000002706 ], [ -90.377033000002086, 38.600303000002199 ], [ -90.377000000001559, 38.602435000002608 ], [ -90.376990000002607, 38.603068000002793 ], [ -90.377828000002197, 38.605301000002548 ], [ -90.380383000001601, 38.604536000002575 ], [ -90.379693000001595, 38.609264000002419 ], [ -90.378901000002514, 38.614093000002207 ], [ -90.363349000001804, 38.61400900000222 ], [ -90.362394000001757, 38.619013000002617 ], [ -90.362375000002515, 38.623076000002918 ], [ -90.355712000001958, 38.62414900000288 ], [ -90.348432000002603, 38.624066000002706 ], [ -90.348362000001742, 38.626405000002279 ], [ -90.348319000002405, 38.629242000003003 ], [ -90.349413000001874, 38.629239000002805 ], [ -90.357606000002562, 38.629199000003062 ], [ -90.362272000002378, 38.630544000002246 ], [ -90.3618240000024, 38.631839000002394 ], [ -90.361868000002076, 38.641138000002982 ], [ -90.363184000001525, 38.641401000002531 ], [ -90.36687300000176, 38.641329000002749 ], [ -90.373383000002164, 38.641038000002276 ], [ -90.375487000002536, 38.649096000002963 ], [ -90.366657000002178, 38.653440000002327 ], [ -90.371889000002639, 38.65349800000272 ], [ -90.372367000002583, 38.653502000002575 ], [ -90.37370500000182, 38.653516000002909 ], [ -90.373571000001718, 38.660861000002825 ], [ -90.375944000002264, 38.660892000003052 ], [ -90.384676000001917, 38.660980000002382 ], [ -90.389108000001542, 38.661012000002557 ], [ -90.394623000002539, 38.661065000002594 ], [ -90.39521600000252, 38.661067000002333 ], [ -90.395394000002042, 38.654957000002753 ], [ -90.405318000002481, 38.655041000003003 ], [ -90.40544800000248, 38.64768900000248 ], [ -90.405685000002364, 38.635602000002642 ], [ -90.415432000002383, 38.635650000002606 ], [ -90.433333000001554, 38.637675000002368 ], [ -90.433321000001698, 38.638404000002573 ], [ -90.43331800000152, 38.638667000003018 ], [ -90.424676000001554, 38.64792900000284 ], [ -90.424650000002259, 38.647928000002679 ], [ -90.424552000002379, 38.655226000002799 ], [ -90.422279000001595, 38.655206000002508 ], [ -90.421947000001722, 38.673377000002397 ], [ -90.421979000002494, 38.673384000002464 ], [ -90.423447000002596, 38.673601000002868 ], [ -90.428929000002043, 38.671839000002592 ] ] ] } },
{ "type": "Feature", "properties": { "enacted_district": 2.0, "population": 760556.0, "voting_age_pop": 592720.0, "dem_votes": 172155.0, "rep_votes": 226399.0, "minority_pop": 82914.0, "dem_pct": 0.43194899551078425, "rep_pct": 0.56805100423830868 }, "geometry": { "type": "Polygon", "coordinates": [ [ [ -91.365898000002161, 38.299846000002965 ], [ -91.365565000001538, 38.322086000002727 ], [ -91.367753000002423, 38.42029600000253 ], [ -91.367770000002324, 38.434604000002579 ], [ -91.367622000001958, 38.480272000002969 ], [ -91.368520000001624, 38.509366000002949 ], [ -91.368337000002313, 38.553650000002449 ], [ -91.368002000001681, 38.583700000002139 ], [ -91.368358000002203, 38.598592000002192 ], [ -91.369192000001661, 38.699324000002186 ], [ -91.401175000002638, 38.708915000002904 ], [ -91.418637000002306, 38.709778000002849 ], [ -91.41752700000184, 38.757442000002392 ], [ -91.416981000002195, 38.781542000002766 ], [ -91.416604000002579, 38.830921000002689 ], [ -91.415832000002354, 38.845300000002148 ], [ -91.350449000002556, 38.84450200000223 ], [ -91.301898000002524, 38.8443100000027 ], [ -91.264927000002643, 38.843833000002256 ], [ -91.265269000002107, 38.874737000002142 ], [ -91.18945300000172, 38.872820000003017 ], [ -91.156779000001677, 38.821145000002431 ], [ -91.135874000001763, 38.853641000002391 ], [ -91.141517000001599, 38.8113710000029 ], [ -91.136470000002404, 38.811869000002766 ], [ -91.12205900000238, 38.818427000002821 ], [ -91.117511000001684, 38.818426000002489 ], [ -91.074053000002237, 38.82365600000302 ], [ -91.074042000001555, 38.824181000002966 ], [ -91.052514000002162, 38.83557300000296 ], [ -91.012109000002056, 38.835095000002184 ], [ -90.998341000002284, 38.824425000002542 ], [ -91.044965000001881, 38.825961000002373 ], [ -91.074059000001725, 38.822895000002852 ], [ -91.074473000002556, 38.806597000002519 ], [ -90.990172000002104, 38.780722000002186 ], [ -90.962526000002043, 38.745136000002496 ], [ -90.962390000002159, 38.760300000002822 ], [ -90.962200000001715, 38.774200000002189 ], [ -90.961794000002044, 38.791674000002935 ], [ -90.925031000001795, 38.79827900000285 ], [ -90.869177000001926, 38.792372000003034 ], [ -90.865652000002086, 38.774189000002416 ], [ -90.86316000000204, 38.773990000002776 ], [ -90.840305000001976, 38.788843000002274 ], [ -90.831251000002041, 38.80360200000257 ], [ -90.804048000001799, 38.787128000002326 ], [ -90.799300000001637, 38.784250000002352 ], [ -90.769730000002156, 38.766140000002942 ], [ -90.769366000002123, 38.766150000002575 ], [ -90.770060000001621, 38.773448000002553 ], [ -90.770087000002562, 38.799288000002626 ], [ -90.772251000001958, 38.803960000002803 ], [ -90.770700000002137, 38.803920000002755 ], [ -90.752174000001901, 38.80345400000239 ], [ -90.746717000001766, 38.793808000002272 ], [ -90.735944000001993, 38.796559000002539 ], [ -90.733150000002482, 38.802970000002858 ], [ -90.700100000001783, 38.802320000002389 ], [ -90.698580000002082, 38.792220000003006 ], [ -90.699840000001842, 38.780210000002711 ], [ -90.708800000002356, 38.778276000002492 ], [ -90.708938000002036, 38.770964000002785 ], [ -90.700079000001978, 38.768552000002629 ], [ -90.686216000001806, 38.768966000002521 ], [ -90.685932000002325, 38.773529000002533 ], [ -90.678057000001544, 38.773952000002517 ], [ -90.673050000002164, 38.765540000002211 ], [ -90.681291000001735, 38.765182000002319 ], [ -90.694250000002199, 38.75453200000279 ], [ -90.700210000002201, 38.756930000002704 ], [ -90.695040000001583, 38.740599000002462 ], [ -90.682973000002661, 38.731407000002399 ], [ -90.679440000001605, 38.726420000002221 ], [ -90.659426000002398, 38.724010000002451 ], [ -90.66274900000262, 38.687439000002257 ], [ -90.647342000001984, 38.69052000000287 ], [ -90.613305000002001, 38.685296000002481 ], [ -90.572063000002004, 38.683788000002266 ], [ -90.568311000002296, 38.683931000003014 ], [ -90.539288000002557, 38.686778000002199 ], [ -90.537130000001596, 38.688442000002226 ], [ -90.533018000002443, 38.720963000002214 ], [ -90.533489000002376, 38.724936000002998 ], [ -90.521552000001805, 38.736577000002939 ], [ -90.5131940000024, 38.740496000002366 ], [ -90.506270000002402, 38.743366000002624 ], [ -90.495354000002081, 38.748662000002717 ], [ -90.493394000002354, 38.75068700000304 ], [ -90.465930000002274, 38.735189000002961 ], [ -90.467576000001657, 38.734721000002885 ], [ -90.460776000001758, 38.7275230000024 ], [ -90.446857000002495, 38.725356000002776 ], [ -90.448436000002005, 38.721850000002412 ], [ -90.450466000001995, 38.721859000002453 ], [ -90.448432000002256, 38.720670000002492 ], [ -90.454003000001919, 38.714553000002375 ], [ -90.453867000002177, 38.714555000002818 ], [ -90.456213000001924, 38.707668000002428 ], [ -90.456841000001759, 38.705110000002719 ], [ -90.457613000001942, 38.703245000002205 ], [ -90.457430000001523, 38.703016000003011 ], [ -90.453802000001616, 38.697808000002958 ], [ -90.450514000001519, 38.696304000002243 ], [ -90.450301000002383, 38.69291100000293 ], [ -90.45170900000204, 38.693125000002667 ], [ -90.455020000002307, 38.69356300000269 ], [ -90.455390000002041, 38.693624000002544 ], [ -90.464740000001839, 38.694737000002554 ], [ -90.464786000002405, 38.695994000002656 ], [ -90.464844000002003, 38.697638000002534 ], [ -90.468061000002194, 38.698084000002474 ], [ -90.468340000001504, 38.698440000003039 ], [ -90.468700000002485, 38.698179000002504 ], [ -90.469872000002383, 38.697033000002413 ], [ -90.472006000001784, 38.699886000003012 ], [ -90.473412000002639, 38.689648000002656 ], [ -90.476129000002047, 38.69547100000235 ], [ -90.477187000001877, 38.69720000000224 ], [ -90.476546000002287, 38.697877000002215 ], [ -90.480934000001639, 38.697784000002628 ], [ -90.481263000001562, 38.686839000002557 ], [ -90.488538000002634, 38.683173000002455 ], [ -90.486954000001944, 38.682361000002757 ], [ -90.486509000002584, 38.68239400000234 ], [ -90.480484000001965, 38.682541000002502 ], [ -90.476980000002101, 38.681213000002259 ], [ -90.468958000002118, 38.678194000002406 ], [ -90.468839000002362, 38.678034000002199 ], [ -90.462109000002002, 38.675306000002877 ], [ -90.461639000002634, 38.675738000002362 ], [ -90.460658000002198, 38.676710000002629 ], [ -90.458184000001964, 38.67477400000233 ], [ -90.454121000001606, 38.67370600000249 ], [ -90.44999600000186, 38.672961000002786 ], [ -90.450194000002327, 38.672351000002415 ], [ -90.449279000001553, 38.67216100000217 ], [ -90.435409000001982, 38.671272000002666 ], [ -90.429615000002556, 38.67153900000222 ], [ -90.428929000002043, 38.671839000002592 ], [ -90.423447000002596, 38.673601000002868 ], [ -90.421979000002494, 38.673384000002464 ], [ -90.421947000001722, 38.673377000002397 ], [ -90.422279000001595, 38.655206000002508 ], [ -90.424552000002379, 38.655226000002799 ], [ -90.424650000002259, 38.647928000002679 ], [ -90.424676000001554, 38.64792900000284 ], [ -90.43331800000152, 38.638667000003018 ], [ -90.433321000001698, 38.638404000002573 ], [ -90.433333000001554, 38.637675000002368 ], [ -90.415432000002383, 38.635650000002606 ], [ -90.405685000002364, 38.635602000002642 ], [ -90.40544800000248, 38.64768900000248 ], [ -90.405318000002481, 38.655041000003003 ], [ -90.395394000002042, 38.654957000002753 ], [ -90.39521600000252, 38.661067000002333 ], [ -90.394623000002539, 38.661065000002594 ], [ -90.389108000001542, 38.661012000002557 ], [ -90.384676000001917, 38.660980000002382 ], [ -90.375944000002264, 38.660892000003052 ], [ -90.373571000001718, 38.660861000002825 ], [ -90.37370500000182, 38.653516000002909 ], [ -90.372367000002583, 38.653502000002575 ], [ -90.371889000002639, 38.65349800000272 ], [ -90.366657000002178, 38.653440000002327 ], [ -90.375487000002536, 38.649096000002963 ], [ -90.373383000002164, 38.641038000002276 ], [ -90.36687300000176, 38.641329000002749 ], [ -90.363184000001525, 38.641401000002531 ], [ -90.361868000002076, 38.641138000002982 ], [ -90.3618240000024, 38.631839000002394 ], [ -90.362272000002378, 38.630544000002246 ], [ -90.357606000002562, 38.629199000003062 ], [ -90.349413000001874, 38.629239000002805 ], [ -90.348319000002405, 38.629242000003003 ], [ -90.348362000001742, 38.626405000002279 ], [ -90.348432000002603, 38.624066000002706 ], [ -90.355712000001958, 38.62414900000288 ], [ -90.362375000002515, 38.623076000002918 ], [ -90.362394000001757, 38.619013000002617 ], [ -90.363349000001804, 38.61400900000222 ], [ -90.378901000002514, 38.614093000002207 ], [ -90.379693000001595, 38.609264000002419 ], [ -90.380383000001601, 38.604536000002575 ], [ -90.377828000002197, 38.605301000002548 ], [ -90.376990000002607, 38.603068000002793 ], [ -90.377000000001559, 38.602435000002608 ], [ -90.377033000002086, 38.600303000002199 ], [ -90.377097000002621, 38.595743000002706 ], [ -90.377140000001674, 38.59230700000272 ], [ -90.377245000001963, 38.586487000002542 ], [ -90.377221000001796, 38.584065000002461 ], [ -90.37725500000154, 38.582642000002465 ], [ -90.37725500000208, 38.58259000000232 ], [ -90.377275000002641, 38.57612500000279 ], [ -90.377200000002105, 38.576143000002496 ], [ -90.36763400000244, 38.578531000002506 ], [ -90.358795000002559, 38.58111200000242 ], [ -90.345366000002642, 38.585441000003016 ], [ -90.33646600000192, 38.588145000003003 ], [ -90.333893000002618, 38.591520000002312 ], [ -90.332367000002435, 38.593580000002625 ], [ -90.331714000002037, 38.596999000002434 ], [ -90.326463000002519, 38.600873000002387 ], [ -90.326017000001926, 38.6010620000025 ], [ -90.331971000002298, 38.603215000002507 ], [ -90.334497000002045, 38.606620000002941 ], [ -90.335180000002183, 38.609923000002816 ], [ -90.334471000002196, 38.61676500000285 ], [ -90.334438000002166, 38.622756000002376 ], [ -90.334936000002045, 38.62926100000287 ], [ -90.334955000002239, 38.629631000002838 ], [ -90.329778000002165, 38.629534000002664 ], [ -90.323300000002206, 38.629284000002563 ], [ -90.319269000002237, 38.631040000002599 ], [ -90.318883000002486, 38.633104000002668 ], [ -90.318301000001739, 38.634735000002806 ], [ -90.3064330000024, 38.633590000002719 ], [ -90.308743000001741, 38.63002200000237 ], [ -90.308912000002621, 38.629161000002782 ], [ -90.309341000001567, 38.626966000002845 ], [ -90.310100000002166, 38.62310200000298 ], [ -90.310370000002322, 38.621725000003025 ], [ -90.31090700000216, 38.618284000002504 ], [ -90.313275000001738, 38.612339000002308 ], [ -90.318423000002156, 38.599405000002584 ], [ -90.318858000002237, 38.598312000002721 ], [ -90.318976000001797, 38.598015000002533 ], [ -90.319635000001796, 38.592237000002605 ], [ -90.317449000001844, 38.587377000002846 ], [ -90.316240000001926, 38.584686000002634 ], [ -90.31488300000224, 38.581665000003007 ], [ -90.314044000002113, 38.579797000002927 ], [ -90.31041700000236, 38.575627000002392 ], [ -90.31001800000152, 38.575231000002823 ], [ -90.307182000002598, 38.572417000002581 ], [ -90.306958000002126, 38.572194000002874 ], [ -90.297022000002301, 38.562368000002458 ], [ -90.292421000002122, 38.558997000003011 ], [ -90.28700000000218, 38.555474000002889 ], [ -90.283372000001606, 38.553704000002995 ], [ -90.280563000002559, 38.552187000002696 ], [ -90.279957000001673, 38.551845000002722 ], [ -90.269100000001757, 38.537575000002228 ], [ -90.257782000002123, 38.53201200000229 ], [ -90.263339000001579, 38.522309000002295 ], [ -90.264228000002234, 38.520268000002247 ], [ -90.270538000001537, 38.501540000002585 ], [ -90.274711000002441, 38.486607000002941 ], [ -90.2767990000021, 38.482466000002439 ], [ -90.28092600000204, 38.466411000002608 ], [ -90.282864000001595, 38.456974000003029 ], [ -90.285673000002646, 38.445663000002256 ], [ -90.311170000002633, 38.415679000002477 ], [ -90.341446000001582, 38.388298000002798 ], [ -90.347120000002064, 38.419488000002509 ], [ -90.344993000002376, 38.437570000002601 ], [ -90.335685000002599, 38.448655000002219 ], [ -90.338918000002323, 38.455347000002952 ], [ -90.360605000002565, 38.456721000002915 ], [ -90.376783000001879, 38.452868000002418 ], [ -90.390985000002303, 38.454400000002877 ], [ -90.400087000001605, 38.455570000003043 ], [ -90.415010000002198, 38.462940000002192 ], [ -90.422175000002142, 38.480695000002648 ], [ -90.414513000001961, 38.480821000002599 ], [ -90.405620000002003, 38.488453000002366 ], [ -90.405262000001557, 38.501153000002212 ], [ -90.405573000001965, 38.501153000002994 ], [ -90.448612000002356, 38.501689000002649 ], [ -90.459402000002399, 38.501850000002278 ], [ -90.466184000001519, 38.501810000002749 ], [ -90.475321000002154, 38.50155400000245 ], [ -90.491390000001701, 38.501187000002211 ], [ -90.510362000001805, 38.501361000002632 ], [ -90.521490000002601, 38.501454000002546 ], [ -90.53151200000228, 38.501453000002208 ], [ -90.560764000001598, 38.501572000002788 ], [ -90.591123000001915, 38.501652000002835 ], [ -90.595914000001713, 38.493750000002656 ], [ -90.598745000002594, 38.487999000002191 ], [ -90.622212000001639, 38.473919000002738 ], [ -90.62623100000252, 38.475849000002853 ], [ -90.633746000002617, 38.485782000002231 ], [ -90.63817600000182, 38.486750000002814 ], [ -90.660703000002144, 38.479195000002967 ], [ -90.679576000002342, 38.446635000002537 ], [ -90.695658000001899, 38.470539000002283 ], [ -90.732030000001714, 38.48215300000254 ], [ -90.736311000002559, 38.466643000002989 ], [ -90.743122000002316, 38.387402000002417 ], [ -90.748230000001641, 38.364420000002383 ], [ -90.755601000002358, 38.330052000002496 ], [ -90.760533000002397, 38.306405000002719 ], [ -90.773849000001761, 38.239067000003068 ], [ -90.780185000002518, 38.204112000002439 ], [ -90.857393000001593, 38.20509000000218 ], [ -90.934015000002617, 38.205244000002615 ], [ -90.970187000001644, 38.206687000002958 ], [ -91.095765000002302, 38.204083000002917 ], [ -91.140334000002554, 38.204219000002261 ], [ -91.144616000002117, 38.204214000003034 ], [ -91.177049000002114, 38.204085000003047 ], [ -91.187445000001759, 38.204085000002237 ], [ -91.199387000002559, 38.204088000002216 ], [ -91.217467000001633, 38.204093000002935 ], [ -91.248168000002636, 38.204093000003034 ], [ -91.311190000002597, 38.204048000002594 ], [ -91.367482000002056, 38.209741000002175 ], [ -91.365898000002161, 38.299846000002965 ] ] ] } },
{ "type": "Feature", "properties": { "enacted_district": 3.0, "population": 778854.0, "voting_age_pop": 608206.0, "dem_votes": 135078.0, "rep_votes": 227810.0, "minority_pop": 83594.0, "dem_pct": 0.37223055037029867, "rep_pct": 0.62776944935413426 }, "geometry": { "type": "Polygon", "coordinates": [ [ [ -92.711646000002361, 38.102822000002142 ], [ -92.737357000002064, 38.141759000002601 ], [ -92.776147000002481, 38.156903000002337 ], [ -92.767943000002646, 38.18965000000297 ], [ -92.764539000002301, 38.189619000002722 ], [ -92.736675000001881, 38.220733000002411 ], [ -92.695886000001778, 38.222031000002332 ], [ -92.693083000002105, 38.273961000002643 ], [ -92.689834000002563, 38.348472000002545 ], [ -92.633756000002023, 38.348082000002691 ], [ -92.632726000002378, 38.373747000002417 ], [ -92.625189000002393, 38.430778000002768 ], [ -92.660092000001725, 38.457628000002984 ], [ -92.673999000002595, 38.468284000002619 ], [ -92.750300000002099, 38.52694700000292 ], [ -92.788056000002143, 38.555741000002243 ], [ -92.791077000002076, 38.558054000002656 ], [ -92.841871000002698, 38.596792000002331 ], [ -92.841515000002005, 38.610306000002261 ], [ -92.840064000002258, 38.66725600000219 ], [ -92.839837000001936, 38.683974000002706 ], [ -92.876826000002325, 38.684319000002795 ], [ -92.932435000002513, 38.685515000002894 ], [ -93.059974000002157, 38.693077000002582 ], [ -93.059140000002159, 38.709524000002787 ], [ -93.055499000002158, 38.797303000002834 ], [ -93.053643000001856, 38.841750000002243 ], [ -93.052043000002058, 38.884247000002809 ], [ -93.050453000002634, 38.928244000002138 ], [ -93.037185000002523, 38.981480000002627 ], [ -92.934569000002583, 39.064547000002172 ], [ -92.914477000002094, 39.021188000002738 ], [ -92.847561000002216, 38.980943000002384 ], [ -92.829152000002381, 38.978844000002304 ], [ -92.779855000002598, 38.971770000002749 ], [ -92.715643000002217, 38.98401100000293 ], [ -92.665822000002237, 38.97623700000284 ], [ -92.55808600000168, 38.970692000002202 ], [ -92.561986000002278, 39.00318100000208 ], [ -92.544125000001557, 39.034052000002383 ], [ -92.506262000001996, 39.033324000002573 ], [ -92.497010000001865, 38.989440000002098 ], [ -92.410307000001922, 38.971019000002741 ], [ -92.398691000001875, 38.97057700000213 ], [ -92.389514000001924, 38.969989000002151 ], [ -92.382108000002077, 38.969464000002397 ], [ -92.391650000001917, 38.955800000002704 ], [ -92.3814000000026, 38.954865000002727 ], [ -92.380733000001641, 38.954830000002403 ], [ -92.371400000002126, 38.953940000002142 ], [ -92.364200000002683, 38.953208000002107 ], [ -92.357600000002279, 38.952560000002691 ], [ -92.352870000002298, 38.952110000002243 ], [ -92.343690000002582, 38.951270000002772 ], [ -92.342287000001846, 38.951378000002499 ], [ -92.334110000002539, 38.951650000002978 ], [ -92.321540000001917, 38.956360000002206 ], [ -92.321850000001561, 38.951410000002127 ], [ -92.305608000002039, 38.947946000002652 ], [ -92.291428000001844, 38.946298000002955 ], [ -92.279690000001594, 38.949840000002418 ], [ -92.279483000002713, 38.949862000002888 ], [ -92.279004000002203, 38.961319000002419 ], [ -92.269655000001819, 38.960904000002479 ], [ -92.255770000002201, 38.960291000002073 ], [ -92.227498000002683, 38.960237000002877 ], [ -92.204022000001885, 38.958749000002847 ], [ -92.149790000002284, 38.954301000002701 ], [ -92.130220000002197, 39.023642000002468 ], [ -92.131512000002303, 39.06448400000243 ], [ -92.11038700000158, 39.064204000002661 ], [ -92.091254000002323, 39.064297000002085 ], [ -91.937252000002516, 39.061905000002142 ], [ -91.863324000002223, 39.061531000002255 ], [ -91.804064000001802, 39.060937000002816 ], [ -91.745579000001939, 39.059991000002213 ], [ -91.728517000002284, 39.059928000002479 ], [ -91.633998000002222, 39.059057000002589 ], [ -91.629598000002403, 39.147853000002648 ], [ -91.556238000001727, 39.146126000002219 ], [ -91.484936000001682, 39.144857000002695 ], [ -91.409033000002083, 39.142542000002166 ], [ -91.260232000002077, 39.139845000002431 ], [ -91.262481000002239, 39.072453000002966 ], [ -91.262564000002399, 39.070021000002733 ], [ -91.264287000001559, 38.99276200000282 ], [ -91.188390000001519, 38.992141000002597 ], [ -91.189348000001843, 38.932151000002527 ], [ -91.110187000002526, 38.931901000002505 ], [ -91.110603000001873, 38.909615000002894 ], [ -91.111251000002397, 38.87270900000258 ], [ -91.073730000002314, 38.872738000002691 ], [ -90.958536000002297, 38.870865000002965 ], [ -90.95755500000206, 38.893285000002741 ], [ -90.918668000002057, 38.887919000002277 ], [ -90.826982000001564, 38.878964000002561 ], [ -90.826462000001939, 38.878435000002789 ], [ -90.794349000002256, 38.916455000002287 ], [ -90.750955000002321, 38.922999000002839 ], [ -90.724520000001675, 38.90978600000242 ], [ -90.694001000001961, 38.933863000003022 ], [ -90.6631810000016, 38.934224000002423 ], [ -90.623356000002005, 38.887149000002829 ], [ -90.564620000002037, 38.869150000002875 ], [ -90.545710000002487, 38.875050000002354 ], [ -90.487058000001966, 38.925862000002233 ], [ -90.472122000002557, 38.958838000002423 ], [ -90.434405000001576, 38.965745000002372 ], [ -90.392721000001899, 38.959071000002631 ], [ -90.309454000002475, 38.924120000002432 ], [ -90.25024800000196, 38.919344000003029 ], [ -90.197610000002541, 38.887648000002734 ], [ -90.113327000001959, 38.849306000002898 ], [ -90.117707000002241, 38.805748000002545 ], [ -90.14160800000208, 38.829448000002941 ], [ -90.173501000002361, 38.820382000002461 ], [ -90.236557000002406, 38.843272000002749 ], [ -90.270476000001636, 38.864646000002793 ], [ -90.298743000001764, 38.887759000002688 ], [ -90.332022000001501, 38.886516000002892 ], [ -90.342414000001824, 38.861749000002533 ], [ -90.350337000001559, 38.84025300000264 ], [ -90.356301000002105, 38.834027000002834 ], [ -90.360302000001596, 38.829679000002152 ], [ -90.365801000002278, 38.825878000003037 ], [ -90.376153000002518, 38.822418000002621 ], [ -90.386446000002138, 38.822385000002505 ], [ -90.393111000001525, 38.8231050000023 ], [ -90.430975000002121, 38.82980600000289 ], [ -90.439251000002258, 38.82801600000284 ], [ -90.440924000001743, 38.827421000002843 ], [ -90.449556000002474, 38.819892000002945 ], [ -90.455164000002043, 38.813056000002717 ], [ -90.467317000002481, 38.798389000002992 ], [ -90.467811000001703, 38.797798000003041 ], [ -90.475318000001536, 38.783869000002788 ], [ -90.476499000001596, 38.780896000002933 ], [ -90.477468000001664, 38.778198000002362 ], [ -90.481325000002116, 38.766854000002773 ], [ -90.482299000001674, 38.764348000002975 ], [ -90.482455000001806, 38.764013000002926 ], [ -90.493394000002354, 38.75068700000304 ], [ -90.495354000002081, 38.748662000002717 ], [ -90.506270000002402, 38.743366000002624 ], [ -90.5131940000024, 38.740496000002366 ], [ -90.521552000001805, 38.736577000002939 ], [ -90.533489000002376, 38.724936000002998 ], [ -90.533018000002443, 38.720963000002214 ], [ -90.537130000001596, 38.688442000002226 ], [ -90.539288000002557, 38.686778000002199 ], [ -90.568311000002296, 38.683931000003014 ], [ -90.572063000002004, 38.683788000002266 ], [ -90.613305000002001, 38.685296000002481 ], [ -90.647342000001984, 38.69052000000287 ], [ -90.66274900000262, 38.687439000002257 ], [ -90.659426000002398, 38.724010000002451 ], [ -90.679440000001605, 38.726420000002221 ], [ -90.682973000002661, 38.731407000002399 ], [ -90.695040000001583, 38.740599000002462 ], [ -90.700210000002201, 38.756930000002704 ], [ -90.694250000002199, 38.75453200000279 ], [ -90.681291000001735, 38.765182000002319 ], [ -90.673050000002164, 38.765540000002211 ], [ -90.678057000001544, 38.773952000002517 ], [ -90.685932000002325, 38.773529000002533 ], [ -90.686216000001806, 38.768966000002521 ], [ -90.700079000001978, 38.768552000002629 ], [ -90.708938000002036, 38.770964000002785 ], [ -90.708800000002356, 38.778276000002492 ], [ -90.699840000001842, 38.780210000002711 ], [ -90.698580000002082, 38.792220000003006 ], [ -90.700100000001783, 38.802320000002389 ], [ -90.733150000002482, 38.802970000002858 ], [ -90.735944000001993, 38.796559000002539 ], [ -90.746717000001766, 38.793808000002272 ], [ -90.752174000001901, 38.80345400000239 ], [ -90.770700000002137, 38.803920000002755 ], [ -90.772251000001958, 38.803960000002803 ], [ -90.770087000002562, 38.799288000002626 ], [ -90.770060000001621, 38.773448000002553 ], [ -90.769366000002123, 38.766150000002575 ], [ -90.769730000002156, 38.766140000002942 ], [ -90.799300000001637, 38.784250000002352 ], [ -90.804048000001799, 38.787128000002326 ], [ -90.831251000002041, 38.80360200000257 ], [ -90.840305000001976, 38.788843000002274 ], [ -90.86316000000204, 38.773990000002776 ], [ -90.865652000002086, 38.774189000002416 ], [ -90.869177000001926, 38.792372000003034 ], [ -90.925031000001795, 38.79827900000285 ], [ -90.961794000002044, 38.791674000002935 ], [ -90.962200000001715, 38.774200000002189 ], [ -90.962390000002159, 38.760300000002822 ], [ -90.962526000002043, 38.745136000002496 ], [ -90.990172000002104, 38.780722000002186 ], [ -91.074473000002556, 38.806597000002519 ], [ -91.074059000001725, 38.822895000002852 ], [ -91.044965000001881, 38.825961000002373 ], [ -90.998341000002284, 38.824425000002542 ], [ -91.012109000002056, 38.835095000002184 ], [ -91.052514000002162, 38.83557300000296 ], [ -91.074042000001555, 38.824181000002966 ], [ -91.074053000002237, 38.82365600000302 ], [ -91.117511000001684, 38.818426000002489 ], [ -91.12205900000238, 38.818427000002821 ], [ -91.136470000002404, 38.811869000002766 ], [ -91.141517000001599, 38.8113710000029 ], [ -91.135874000001763, 38.853641000002391 ], [ -91.156779000001677, 38.821145000002431 ], [ -91.18945300000172, 38.872820000003017 ], [ -91.265269000002107, 38.874737000002142 ], [ -91.264927000002643, 38.843833000002256 ], [ -91.301898000002524, 38.8443100000027 ], [ -91.350449000002556, 38.84450200000223 ], [ -91.415832000002354, 38.845300000002148 ], [ -91.416604000002579, 38.830921000002689 ], [ -91.416981000002195, 38.781542000002766 ], [ -91.41752700000184, 38.757442000002392 ], [ -91.418637000002306, 38.709778000002849 ], [ -91.401175000002638, 38.708915000002904 ], [ -91.369192000001661, 38.699324000002186 ], [ -91.368358000002203, 38.598592000002192 ], [ -91.368002000001681, 38.583700000002139 ], [ -91.368337000002313, 38.553650000002449 ], [ -91.368520000001624, 38.509366000002949 ], [ -91.367622000001958, 38.480272000002969 ], [ -91.367770000002324, 38.434604000002579 ], [ -91.367753000002423, 38.42029600000253 ], [ -91.365565000001538, 38.322086000002727 ], [ -91.365898000002161, 38.299846000002965 ], [ -91.367482000002056, 38.209741000002175 ], [ -91.311190000002597, 38.204048000002594 ], [ -91.248168000002636, 38.204093000003034 ], [ -91.217467000001633, 38.204093000002935 ], [ -91.199387000002559, 38.204088000002216 ], [ -91.187445000001759, 38.204085000002237 ], [ -91.177049000002114, 38.204085000003047 ], [ -91.144616000002117, 38.204214000003034 ], [ -91.140334000002554, 38.204219000002261 ], [ -91.095765000002302, 38.204083000002917 ], [ -90.970187000001644, 38.206687000002958 ], [ -90.934015000002617, 38.205244000002615 ], [ -90.857393000001593, 38.20509000000218 ], [ -90.780185000002518, 38.204112000002439 ], [ -90.773849000001761, 38.239067000003068 ], [ -90.760533000002397, 38.306405000002719 ], [ -90.755601000002358, 38.330052000002496 ], [ -90.748230000001641, 38.364420000002383 ], [ -90.743122000002316, 38.387402000002417 ], [ -90.736311000002559, 38.466643000002989 ], [ -90.732030000001714, 38.48215300000254 ], [ -90.695658000001899, 38.470539000002283 ], [ -90.679576000002342, 38.446635000002537 ], [ -90.660703000002144, 38.479195000002967 ], [ -90.63817600000182, 38.486750000002814 ], [ -90.633746000002617, 38.485782000002231 ], [ -90.62623100000252, 38.475849000002853 ], [ -90.622212000001639, 38.473919000002738 ], [ -90.598745000002594, 38.487999000002191 ], [ -90.595914000001713, 38.493750000002656 ], [ -90.591123000001915, 38.501652000002835 ], [ -90.560764000001598, 38.501572000002788 ], [ -90.53151200000228, 38.501453000002208 ], [ -90.515155000001727, 38.480840000002225 ], [ -90.512414000001996, 38.480664000002726 ], [ -90.512721000001562, 38.450342000002649 ], [ -90.513062000001739, 38.424597000002947 ], [ -90.513472000001897, 38.400162000002737 ], [ -90.513739000001621, 38.325231000003065 ], [ -90.51690400000156, 38.223000000002841 ], [ -90.517770000002244, 38.21191000000303 ], [ -90.482075000001984, 38.190105000002816 ], [ -90.48373900000216, 38.145757000002483 ], [ -90.507415000001657, 38.139024000002649 ], [ -90.506527000001526, 38.101133000002335 ], [ -90.511605000002007, 38.095030000002225 ], [ -90.559880000001797, 38.105710000002674 ], [ -90.592933000001565, 38.086838000002402 ], [ -90.618065000002005, 38.073322000002491 ], [ -90.639980000001685, 38.076548000003058 ], [ -90.640474000002314, 38.055882000002931 ], [ -90.6413700000017, 37.969181000002429 ], [ -90.64139600000172, 37.96498800000245 ], [ -90.641491000002645, 37.950026000002367 ], [ -90.642761000002366, 37.875588000002608 ], [ -90.643052000002641, 37.864447000002279 ], [ -90.643438000002121, 37.826463000002263 ], [ -90.644374000002458, 37.764159000002643 ], [ -90.645135000001702, 37.734813000002504 ], [ -90.700622000001687, 37.73616900000232 ], [ -90.818769000002064, 37.735525000003051 ], [ -90.929053000001815, 37.736844000002513 ], [ -90.982499000002463, 37.740330000002885 ], [ -91.100017000002566, 37.740012000003027 ], [ -91.146521000001982, 37.740811000002246 ], [ -91.153345000002616, 37.697340000002725 ], [ -91.276270000002285, 37.699400000002392 ], [ -91.310655000002114, 37.700048000002297 ], [ -91.308426000001603, 37.787186000002485 ], [ -91.376780000002057, 37.788187000002416 ], [ -91.528797000002442, 37.788989000002758 ], [ -91.526713000002161, 37.919317000002259 ], [ -91.526367000001741, 37.955150000002256 ], [ -91.526355000002042, 37.961920000002976 ], [ -91.526306000002236, 37.968751000002257 ], [ -91.525712000001903, 38.048979000002909 ], [ -91.525310000002165, 38.077960000002875 ], [ -91.525025000001961, 38.152433000002361 ], [ -91.53438400000168, 38.152593000002682 ], [ -91.630554000002078, 38.153519000002291 ], [ -91.6324310000022, 38.050951000002534 ], [ -91.724165000002344, 38.052836000002173 ], [ -91.747707000001597, 38.053195000002383 ], [ -91.802108000002377, 38.051916000002464 ], [ -91.812533000001807, 38.051687000002403 ], [ -91.895132000001894, 38.051199000002626 ], [ -91.966333000002606, 38.009683000002148 ], [ -92.021165000002114, 38.010639000002392 ], [ -92.075455000002123, 38.011380000002198 ], [ -92.185370000002578, 38.015138000002693 ], [ -92.185370000001697, 38.016338000002619 ], [ -92.40627500000214, 38.021179000002178 ], [ -92.515979000001977, 38.022336000002802 ], [ -92.515580000002245, 38.036936000002349 ], [ -92.570227000002447, 38.069272000002357 ], [ -92.570045000001642, 38.07819400000281 ], [ -92.59676100000172, 38.110754000002927 ], [ -92.604957000002216, 38.157688000002409 ], [ -92.646361000002258, 38.143592000002435 ], [ -92.688796000002057, 38.111711000002401 ], [ -92.687683000001954, 38.093369000002902 ], [ -92.68925200000244, 38.090664000002512 ], [ -92.711646000002361, 38.102822000002142 ] ] ] } },
{ "type": "Feature", "properties": { "enacted_district": 4.0, "population": 767171.0, "voting_age_pop": 587556.0, "dem_votes": 103835.0, "rep_votes": 228433.0, "minority_pop": 87155.0, "dem_pct": 0.31250376192937512, "rep_pct": 0.68749623776966295 }, "geometry": { "type": "Polygon", "coordinates": [ [ [ -94.612650000002716, 38.218569000002717 ], [ -94.612713000002074, 38.313115000002334 ], [ -94.613332000001876, 38.399877000002313 ], [ -94.612882000002259, 38.477597000002739 ], [ -94.612167000002202, 38.565534000002877 ], [ -94.61056600000218, 38.672619000002456 ], [ -94.609100000002357, 38.738568000002353 ], [ -94.608707000001914, 38.760604000002616 ], [ -94.608033000002763, 38.847207000002591 ], [ -94.585319000002556, 38.84619100000242 ], [ -94.562690000002675, 38.844992000002748 ], [ -94.541828000001999, 38.843994000002141 ], [ -94.530087000002055, 38.843678000002633 ], [ -94.529564000001599, 38.843652000002827 ], [ -94.515079000002004, 38.842703000002842 ], [ -94.492130000002035, 38.841707000002657 ], [ -94.490031000002361, 38.84171300000235 ], [ -94.472449000001674, 38.841062000002438 ], [ -94.441401000002116, 38.83994300000257 ], [ -94.436806000002562, 38.839713000002114 ], [ -94.432321000002062, 38.839634000002626 ], [ -94.431168000002714, 38.839615000002546 ], [ -94.426801000001944, 38.839506000002579 ], [ -94.418523000002438, 38.839316000002526 ], [ -94.399447000002553, 38.838809000002861 ], [ -94.3760020000026, 38.838005000002141 ], [ -94.361971000002086, 38.837602000002668 ], [ -94.348105000002164, 38.837115000002626 ], [ -94.343430000001916, 38.837018000002793 ], [ -94.316570000001818, 38.836101000002571 ], [ -94.287593000002104, 38.835084000002468 ], [ -94.278167000002398, 38.835056000002751 ], [ -94.266714000001841, 38.856812000002172 ], [ -94.266661000002443, 38.857721000002826 ], [ -94.264819000001964, 38.890675000002247 ], [ -94.264659000002325, 38.893980000002671 ], [ -94.264329000001837, 38.90019300000224 ], [ -94.263096000001994, 38.91563800000251 ], [ -94.266513000002476, 38.921716000002597 ], [ -94.271927000001753, 38.928452000002402 ], [ -94.273132000001695, 38.93014200000254 ], [ -94.27522300000274, 38.933377000002537 ], [ -94.275373000001721, 38.933620000002882 ], [ -94.277032000001967, 38.933722000002454 ], [ -94.275944000002639, 38.935854000002102 ], [ -94.275158000001923, 38.936784000002071 ], [ -94.273843000002685, 38.940063000002269 ], [ -94.274992000002698, 38.940110000002001 ], [ -94.275540000001683, 38.943957000002776 ], [ -94.274492000001942, 38.965714000002656 ], [ -94.273931000002406, 38.980255000002089 ], [ -94.273552000002553, 38.987479000002736 ], [ -94.273447000002378, 38.9895370000025 ], [ -94.272951000002323, 39.000954000002402 ], [ -94.272926000002201, 39.001944000002851 ], [ -94.27263800000236, 39.009134000002291 ], [ -94.272628000001674, 39.009261000002255 ], [ -94.27234200000234, 39.018214000002189 ], [ -94.272064000002473, 39.023737000002747 ], [ -94.304447000002241, 39.026334000002393 ], [ -94.304350000002486, 39.028291000002078 ], [ -94.305364000001859, 39.03416800000246 ], [ -94.305426000002484, 39.034753000002226 ], [ -94.302854000002199, 39.053717000002749 ], [ -94.336352000001995, 39.061951000002317 ], [ -94.310860000002023, 39.090267000002051 ], [ -94.309271000001843, 39.091932000002622 ], [ -94.269547000002603, 39.067304000002082 ], [ -94.23783400000238, 39.066075000002712 ], [ -94.219519000002265, 39.065392000002227 ], [ -94.201157000001686, 39.064995000002327 ], [ -94.181205000001967, 39.093894000002187 ], [ -94.176826000001924, 39.093746000002881 ], [ -94.106764000001959, 39.091703000002326 ], [ -94.105223000002539, 39.131441000002233 ], [ -94.10522500000242, 39.131501000002785 ], [ -94.104823000002355, 39.14350700000238 ], [ -94.059118000001959, 39.134801000002781 ], [ -94.028708000001998, 39.152132000002219 ], [ -94.028822000001696, 39.191595000002657 ], [ -93.968047000002201, 39.199284000002223 ], [ -93.948345000002362, 39.152661000002801 ], [ -93.940043000002035, 39.179690000002346 ], [ -93.89941700000216, 39.184539000002793 ], [ -93.885122000001886, 39.196075000002303 ], [ -93.873678000001959, 39.205047000002722 ], [ -93.84014700000192, 39.215467000002448 ], [ -93.788494000001634, 39.201030000002554 ], [ -93.758463000002578, 39.207021000002413 ], [ -93.722891000002477, 39.207098000002787 ], [ -93.643351000001914, 39.245391000002272 ], [ -93.595939000002559, 39.242062000002846 ], [ -93.559544000002219, 39.218797000002695 ], [ -93.516063000002603, 39.215289000002841 ], [ -93.487885000002564, 39.228875000002091 ], [ -93.496221000001839, 39.264891000002557 ], [ -93.477233000002684, 39.292796000002788 ], [ -93.41944100000228, 39.267917000002612 ], [ -93.403794000001938, 39.227437000002517 ], [ -93.333337000002402, 39.250012000002904 ], [ -93.343782000002278, 39.287104000002422 ], [ -93.332252000001759, 39.309606000002617 ], [ -93.292635000002406, 39.309283000002388 ], [ -93.255922000002144, 39.337837000002814 ], [ -93.206753000001598, 39.352390000002138 ], [ -93.164322000001874, 39.405007000002172 ], [ -93.139631000002339, 39.378643000002242 ], [ -93.106071000002402, 39.383724000002488 ], [ -93.104485000001887, 39.383656000002894 ], [ -93.080289000001983, 39.371752000002274 ], [ -93.072915000002723, 39.335520000002127 ], [ -93.044755000002581, 39.317666000002397 ], [ -92.958148000001884, 39.31114200000205 ], [ -92.958978000002162, 39.283041000002093 ], [ -92.915469000002417, 39.253379000002091 ], [ -92.906142000002561, 39.22233900000262 ], [ -92.849224000002238, 39.226218000002547 ], [ -92.7903690000023, 39.343586000002098 ], [ -92.76315500000176, 39.336220000002776 ], [ -92.707367000001881, 39.321614000002654 ], [ -92.651848000001635, 39.30716500000262 ], [ -92.568533000002645, 39.285326000002676 ], [ -92.559530000001701, 39.282970000002472 ], [ -92.47662600000244, 39.261035000002188 ], [ -92.430229000002598, 39.248795000002175 ], [ -92.372492000002282, 39.247724000002705 ], [ -92.370556000001841, 39.247688000002675 ], [ -92.314471000002484, 39.246454000002281 ], [ -92.198630000002041, 39.242346000002691 ], [ -92.104374000001798, 39.239809000002197 ], [ -92.105348000002238, 39.218260000002168 ], [ -92.105424000002543, 39.216029000002315 ], [ -92.106954000002162, 39.152434000002614 ], [ -92.107738000002456, 39.137561000002322 ], [ -92.11038700000158, 39.064204000002661 ], [ -92.131512000002303, 39.06448400000243 ], [ -92.130220000002197, 39.023642000002468 ], [ -92.149790000002284, 38.954301000002701 ], [ -92.204022000001885, 38.958749000002847 ], [ -92.227498000002683, 38.960237000002877 ], [ -92.255770000002201, 38.960291000002073 ], [ -92.269655000001819, 38.960904000002479 ], [ -92.279004000002203, 38.961319000002419 ], [ -92.279483000002713, 38.949862000002888 ], [ -92.279690000001594, 38.949840000002418 ], [ -92.291428000001844, 38.946298000002955 ], [ -92.305608000002039, 38.947946000002652 ], [ -92.321850000001561, 38.951410000002127 ], [ -92.321540000001917, 38.956360000002206 ], [ -92.334110000002539, 38.951650000002978 ], [ -92.342287000001846, 38.951378000002499 ], [ -92.343690000002582, 38.951270000002772 ], [ -92.352870000002298, 38.952110000002243 ], [ -92.357600000002279, 38.952560000002691 ], [ -92.364200000002683, 38.953208000002107 ], [ -92.371400000002126, 38.953940000002142 ], [ -92.380733000001641, 38.954830000002403 ], [ -92.3814000000026, 38.954865000002727 ], [ -92.391650000001917, 38.955800000002704 ], [ -92.382108000002077, 38.969464000002397 ], [ -92.389514000001924, 38.969989000002151 ], [ -92.398691000001875, 38.97057700000213 ], [ -92.410307000001922, 38.971019000002741 ], [ -92.497010000001865, 38.989440000002098 ], [ -92.506262000001996, 39.033324000002573 ], [ -92.544125000001557, 39.034052000002383 ], [ -92.561986000002278, 39.00318100000208 ], [ -92.55808600000168, 38.970692000002202 ], [ -92.665822000002237, 38.97623700000284 ], [ -92.715643000002217, 38.98401100000293 ], [ -92.779855000002598, 38.971770000002749 ], [ -92.829152000002381, 38.978844000002304 ], [ -92.847561000002216, 38.980943000002384 ], [ -92.914477000002094, 39.021188000002738 ], [ -92.934569000002583, 39.064547000002172 ], [ -93.037185000002523, 38.981480000002627 ], [ -93.050453000002634, 38.928244000002138 ], [ -93.052043000002058, 38.884247000002809 ], [ -93.053643000001856, 38.841750000002243 ], [ -93.055499000002158, 38.797303000002834 ], [ -93.059140000002159, 38.709524000002787 ], [ -93.059974000002157, 38.693077000002582 ], [ -92.932435000002513, 38.685515000002894 ], [ -92.876826000002325, 38.684319000002795 ], [ -92.839837000001936, 38.683974000002706 ], [ -92.840064000002258, 38.66725600000219 ], [ -92.841515000002005, 38.610306000002261 ], [ -92.841871000002698, 38.596792000002331 ], [ -92.791077000002076, 38.558054000002656 ], [ -92.788056000002143, 38.555741000002243 ], [ -92.750300000002099, 38.52694700000292 ], [ -92.673999000002595, 38.468284000002619 ], [ -92.660092000001725, 38.457628000002984 ], [ -92.625189000002393, 38.430778000002768 ], [ -92.632726000002378, 38.373747000002417 ], [ -92.633756000002023, 38.348082000002691 ], [ -92.689834000002563, 38.348472000002545 ], [ -92.693083000002105, 38.273961000002643 ], [ -92.695886000001778, 38.222031000002332 ], [ -92.736675000001881, 38.220733000002411 ], [ -92.764539000002301, 38.189619000002722 ], [ -92.767943000002646, 38.18965000000297 ], [ -92.776147000002481, 38.156903000002337 ], [ -92.737357000002064, 38.141759000002601 ], [ -92.711646000002361, 38.102822000002142 ], [ -92.68925200000244, 38.090664000002512 ], [ -92.687683000001954, 38.093369000002902 ], [ -92.688796000002057, 38.111711000002401 ], [ -92.646361000002258, 38.143592000002435 ], [ -92.604957000002216, 38.157688000002409 ], [ -92.59676100000172, 38.110754000002927 ], [ -92.570045000001642, 38.07819400000281 ], [ -92.570227000002447, 38.069272000002357 ], [ -92.515580000002245, 38.036936000002349 ], [ -92.515979000001977, 38.022336000002802 ], [ -92.40627500000214, 38.021179000002178 ], [ -92.185370000001697, 38.016338000002619 ], [ -92.185370000002578, 38.015138000002693 ], [ -92.075455000002123, 38.011380000002198 ], [ -92.021165000002114, 38.010639000002392 ], [ -92.021960000001599, 37.927893000002747 ], [ -92.022863000002317, 37.880740000002405 ], [ -92.024600000002593, 37.793721000002847 ], [ -92.025132000002273, 37.769564000002717 ], [ -92.026163000001944, 37.728325000002734 ], [ -92.02925800000186, 37.60254200000297 ], [ -92.084770000001924, 37.603646000002918 ], [ -92.158296000002437, 37.604901000002577 ], [ -92.249463000002137, 37.604543000002778 ], [ -92.252240000002061, 37.473801000002332 ], [ -92.252261000002122, 37.472944000002308 ], [ -92.411705000002684, 37.474741000002709 ], [ -92.468207000001883, 37.475702000002826 ], [ -92.522300000001778, 37.477062000002732 ], [ -92.559000000001845, 37.478734000002788 ], [ -92.587208000002633, 37.479132000002885 ], [ -92.686671000002676, 37.481545000002114 ], [ -92.689197000001599, 37.37890700000267 ], [ -92.689571000001706, 37.350647000002915 ], [ -92.690471000002645, 37.350647000002169 ], [ -92.692303000002241, 37.263514000002935 ], [ -92.678970000002522, 37.263149000002201 ], [ -92.679659000002161, 37.242363000002449 ], [ -92.807215000002444, 37.24324000000302 ], [ -92.843606000002737, 37.244060000002477 ], [ -92.898646000001605, 37.241851000002434 ], [ -92.91657300000206, 37.246122000002529 ], [ -92.97186100000232, 37.233506000002855 ], [ -92.966181000002564, 37.301716000002521 ], [ -92.953044000001782, 37.327936000002552 ], [ -92.982949000001994, 37.303954000002939 ], [ -93.076778000002022, 37.270412000002658 ], [ -93.07510800000216, 37.352401000002303 ], [ -93.074486000002196, 37.378546000002672 ], [ -93.073380000001805, 37.414989000002635 ], [ -93.182489000002619, 37.417204000002393 ], [ -93.219022000001758, 37.418287000002231 ], [ -93.32759000000236, 37.420544000002337 ], [ -93.364351000001676, 37.421815000002766 ], [ -93.400563000002521, 37.422690000002824 ], [ -93.437230000001776, 37.423554000002184 ], [ -93.473797000001895, 37.424543000002458 ], [ -93.492260000002304, 37.4249620000028 ], [ -93.621153000002181, 37.427423000002577 ], [ -93.621671000002678, 37.412805000002272 ], [ -93.622231000002515, 37.398265000002162 ], [ -93.622412000002342, 37.394041000002645 ], [ -93.623040000002717, 37.369176000002277 ], [ -93.624372000001941, 37.331079000002568 ], [ -93.625844000002687, 37.282011000002768 ], [ -93.747049000001766, 37.284551000002736 ], [ -93.785395000001799, 37.285379000002386 ], [ -93.855237000002717, 37.286662000002146 ], [ -93.864036000002358, 37.28685600000216 ], [ -93.954739000002036, 37.288086000002913 ], [ -94.052313000002556, 37.290078000002261 ], [ -94.08383300000196, 37.290851000002391 ], [ -94.08208300000274, 37.349291000002466 ], [ -94.173294000002514, 37.351492000002366 ], [ -94.283088000001996, 37.353839000002921 ], [ -94.310581000002401, 37.354834000002562 ], [ -94.392845000002495, 37.356430000002739 ], [ -94.501608000002363, 37.360408000002785 ], [ -94.501709000001725, 37.360436000002963 ], [ -94.617570000002161, 37.364170000002218 ], [ -94.617088000002767, 37.477776000002706 ], [ -94.617698000001724, 37.653578000002412 ], [ -94.617638000002003, 37.771949000002706 ], [ -94.61462200000274, 37.944093000002219 ], [ -94.614061000001655, 38.06005600000254 ], [ -94.612650000002716, 38.218569000002717 ] ] ] } },
{ "type": "Feature", "properties": { "enacted_district": 5.0, "population": 768608.0, "voting_age_pop": 596799.0, "dem_votes": 193375.0, "rep_votes": 120946.0, "minority_pop": 227630.0, "dem_pct": 0.61521501884531571, "rep_pct": 0.38478498083653812 }, "geometry": { "type": "Polygon", "coordinates": [ [ [ -94.607986000002683, 38.912924000002128 ], [ -94.60800500000208, 38.919924000002155 ], [ -94.608032000001685, 38.929260000002195 ], [ -94.607973000002744, 38.935134000002385 ], [ -94.607995000002219, 38.937090000002357 ], [ -94.608155000002156, 38.949325000002816 ], [ -94.608131000002743, 38.956722000002223 ], [ -94.608162000002594, 38.967500000002318 ], [ -94.608270000001681, 38.974700000002365 ], [ -94.608104000002314, 38.985630000002082 ], [ -94.607994000001895, 38.987619000002773 ], [ -94.607960000002606, 38.992945000002898 ], [ -94.60787200000162, 39.000178000002201 ], [ -94.607818000001714, 39.006948000002282 ], [ -94.607758000001681, 39.013883000002402 ], [ -94.607711000002595, 39.017634000002857 ], [ -94.607640000002405, 39.021091000002656 ], [ -94.607565000001799, 39.028344000002249 ], [ -94.607524000002641, 39.033868000002229 ], [ -94.60740300000262, 39.042818000002526 ], [ -94.607371000002559, 39.044640000002559 ], [ -94.607323000002367, 39.050236000002712 ], [ -94.607340000001756, 39.055390000002227 ], [ -94.607315000002245, 39.060565000002072 ], [ -94.60733400000224, 39.072431000002247 ], [ -94.607234000002364, 39.083301000002216 ], [ -94.607354000002445, 39.113444000002829 ], [ -94.601733000002497, 39.159603000002825 ], [ -94.6014630000018, 39.18176600000271 ], [ -94.601316000002726, 39.188715000002496 ], [ -94.601111000002234, 39.195857000002185 ], [ -94.601030000001785, 39.210091000002528 ], [ -94.601056000002558, 39.214857000002645 ], [ -94.601010000001637, 39.224595000002267 ], [ -94.601004000002661, 39.231818000002612 ], [ -94.600966000001961, 39.246494000002563 ], [ -94.600677000001966, 39.267546000002625 ], [ -94.600358000002601, 39.29675500000257 ], [ -94.600902000001639, 39.325613000002711 ], [ -94.600765000001687, 39.333149000002486 ], [ -94.584378000002317, 39.333306000002594 ], [ -94.56597400000264, 39.33316500000285 ], [ -94.555863000001878, 39.318626000002638 ], [ -94.49197700000208, 39.317940000002366 ], [ -94.492221000002516, 39.2958040000021 ], [ -94.492556000002097, 39.288524000002688 ], [ -94.492322000002062, 39.266831000002341 ], [ -94.493029000002394, 39.244288000002797 ], [ -94.4929870000026, 39.223540000002025 ], [ -94.493005000002242, 39.216552000002089 ], [ -94.493170000002564, 39.20926400000242 ], [ -94.475102000001996, 39.20627400000258 ], [ -94.473722000002638, 39.194806000002835 ], [ -94.475188000002404, 39.194837000002785 ], [ -94.475307000002175, 39.180425000002153 ], [ -94.484112000001758, 39.14500900000278 ], [ -94.467546000002642, 39.124780000002715 ], [ -94.455429000002724, 39.123104000002549 ], [ -94.444292000002363, 39.129007000002424 ], [ -94.419475000001597, 39.149318000002815 ], [ -94.407391000002519, 39.130421000002372 ], [ -94.406649000002076, 39.130404000002045 ], [ -94.384523000001963, 39.12948100000272 ], [ -94.379228000002342, 39.128904000002407 ], [ -94.358053000002513, 39.128886000002552 ], [ -94.35622500000224, 39.12877800000247 ], [ -94.348601000002176, 39.132754000002109 ], [ -94.313731000002463, 39.13665300000239 ], [ -94.31331400000218, 39.133284000002497 ], [ -94.2815270000021, 39.109761000002713 ], [ -94.300703000002073, 39.100305000002635 ], [ -94.30399100000264, 39.096637000002403 ], [ -94.309271000001843, 39.091932000002622 ], [ -94.310860000002023, 39.090267000002051 ], [ -94.336352000001995, 39.061951000002317 ], [ -94.302854000002199, 39.053717000002749 ], [ -94.305426000002484, 39.034753000002226 ], [ -94.305364000001859, 39.03416800000246 ], [ -94.304350000002486, 39.028291000002078 ], [ -94.304447000002241, 39.026334000002393 ], [ -94.272064000002473, 39.023737000002747 ], [ -94.27234200000234, 39.018214000002189 ], [ -94.272628000001674, 39.009261000002255 ], [ -94.27263800000236, 39.009134000002291 ], [ -94.272926000002201, 39.001944000002851 ], [ -94.272951000002323, 39.000954000002402 ], [ -94.273447000002378, 38.9895370000025 ], [ -94.273552000002553, 38.987479000002736 ], [ -94.273931000002406, 38.980255000002089 ], [ -94.274492000001942, 38.965714000002656 ], [ -94.275540000001683, 38.943957000002776 ], [ -94.274992000002698, 38.940110000002001 ], [ -94.273843000002685, 38.940063000002269 ], [ -94.275158000001923, 38.936784000002071 ], [ -94.275944000002639, 38.935854000002102 ], [ -94.277032000001967, 38.933722000002454 ], [ -94.275373000001721, 38.933620000002882 ], [ -94.27522300000274, 38.933377000002537 ], [ -94.273132000001695, 38.93014200000254 ], [ -94.271927000001753, 38.928452000002402 ], [ -94.266513000002476, 38.921716000002597 ], [ -94.263096000001994, 38.91563800000251 ], [ -94.264329000001837, 38.90019300000224 ], [ -94.264659000002325, 38.893980000002671 ], [ -94.264819000001964, 38.890675000002247 ], [ -94.266661000002443, 38.857721000002826 ], [ -94.266714000001841, 38.856812000002172 ], [ -94.278167000002398, 38.835056000002751 ], [ -94.287593000002104, 38.835084000002468 ], [ -94.316570000001818, 38.836101000002571 ], [ -94.343430000001916, 38.837018000002793 ], [ -94.348105000002164, 38.837115000002626 ], [ -94.361971000002086, 38.837602000002668 ], [ -94.3760020000026, 38.838005000002141 ], [ -94.399447000002553, 38.838809000002861 ], [ -94.418523000002438, 38.839316000002526 ], [ -94.426801000001944, 38.839506000002579 ], [ -94.431168000002714, 38.839615000002546 ], [ -94.432321000002062, 38.839634000002626 ], [ -94.436806000002562, 38.839713000002114 ], [ -94.441401000002116, 38.83994300000257 ], [ -94.472449000001674, 38.841062000002438 ], [ -94.490031000002361, 38.84171300000235 ], [ -94.492130000002035, 38.841707000002657 ], [ -94.515079000002004, 38.842703000002842 ], [ -94.529564000001599, 38.843652000002827 ], [ -94.530087000002055, 38.843678000002633 ], [ -94.541828000001999, 38.843994000002141 ], [ -94.562690000002675, 38.844992000002748 ], [ -94.585319000002556, 38.84619100000242 ], [ -94.608033000002763, 38.847207000002591 ], [ -94.607958000002682, 38.890942000002148 ], [ -94.607983000001767, 38.898670000002809 ], [ -94.607974000001917, 38.906697000002893 ], [ -94.607986000002683, 38.912924000002128 ] ] ] } },
{ "type": "Feature", "properties": { "enacted_district": 6.0, "population": 770289.0, "voting_age_pop": 589036.0, "dem_votes": 112388.0, "rep_votes": 228948.0, "minority_pop": 71863.0, "dem_pct": 0.32925914631645675, "rep_pct": 0.67074085339057676 }, "geometry": { "type": "Polygon", "coordinates": [ [ [ -94.880200000002219, 39.382093000002442 ], [ -94.917660000002201, 39.385713000002802 ], [ -95.014861000002043, 39.452868000002738 ], [ -95.044668000002716, 39.471256000001951 ], [ -95.050552000001957, 39.497514000002141 ], [ -95.10288800000194, 39.53334700000228 ], [ -95.113069000002398, 39.559178000002035 ], [ -95.092150000002164, 39.581116000002368 ], [ -95.056897000001982, 39.580567000002588 ], [ -95.055152000002238, 39.621657000002138 ], [ -95.024595000001824, 39.668485000002704 ], [ -94.991829000002639, 39.676778000002592 ], [ -94.969333000002365, 39.690730000002787 ], [ -94.971334000001704, 39.725706000002248 ], [ -94.947541000001678, 39.745337000002287 ], [ -94.902612000002676, 39.724202000002016 ], [ -94.860563000002657, 39.749015000002032 ], [ -94.860618000002077, 39.762462000002046 ], [ -94.863767000002696, 39.768138000002629 ], [ -94.871145000002059, 39.772980000002029 ], [ -94.912293000002634, 39.759338000002117 ], [ -94.919550000002403, 39.790291000002178 ], [ -94.880644000002079, 39.797894000002813 ], [ -94.876344000001779, 39.806894000002039 ], [ -94.876558000002234, 39.820883000002667 ], [ -94.88101300000254, 39.8289220000025 ], [ -94.939854000002157, 39.852044000002181 ], [ -94.934907000001687, 39.89378400000269 ], [ -94.993382000002384, 39.897906000002209 ], [ -95.035246000001877, 39.865921000001961 ], [ -95.085003000002004, 39.861883000002386 ], [ -95.181381000001977, 39.899996000002233 ], [ -95.20526600000268, 39.939750000002441 ], [ -95.250254000001917, 39.948644000002545 ], [ -95.308156000001674, 39.999046000002387 ], [ -95.363983000001681, 40.031498000002358 ], [ -95.391527000002199, 40.027058000001936 ], [ -95.419999000001624, 40.050440000002112 ], [ -95.393106000002376, 40.117637000002475 ], [ -95.431351000001982, 40.139163000001936 ], [ -95.440694000001884, 40.162282000001952 ], [ -95.477920000001802, 40.18384400000194 ], [ -95.478694000001695, 40.243661000002426 ], [ -95.554817000002345, 40.264460000002515 ], [ -95.553292000001875, 40.291158000002646 ], [ -95.653729000002457, 40.322582000002534 ], [ -95.622684000001641, 40.342323000002047 ], [ -95.661440000002202, 40.415917000002565 ], [ -95.657633000002079, 40.440777000002335 ], [ -95.693133000001723, 40.469396000002625 ], [ -95.69720200000242, 40.528475000002331 ], [ -95.757110000001916, 40.525990000002182 ], [ -95.765645000001953, 40.58520800000246 ], [ -95.545306000002284, 40.58250000000249 ], [ -95.431075000002636, 40.581167000002331 ], [ -95.202265000001887, 40.578488000002189 ], [ -95.021836000002565, 40.576181000001917 ], [ -94.896773000001843, 40.574737000002457 ], [ -94.745519000001622, 40.572726000002802 ], [ -94.632030000002274, 40.571367000002169 ], [ -94.460662000002259, 40.571098000002323 ], [ -94.403432000001757, 40.571295000002813 ], [ -94.346197000002718, 40.57141100000203 ], [ -94.23224000000252, 40.571901000002477 ], [ -93.889048000002205, 40.576021000002221 ], [ -93.774344000001719, 40.577548000002608 ], [ -93.623160000001619, 40.579005000002496 ], [ -93.489046000001835, 40.580384000002574 ], [ -93.374386000001962, 40.580333000002717 ], [ -93.204098000002261, 40.58176500000242 ], [ -93.0897840000016, 40.584262000002035 ], [ -92.976038000001878, 40.587042000002221 ], [ -92.861480000001663, 40.588213000002611 ], [ -92.74827700000256, 40.589030000002118 ], [ -92.714596000001876, 40.58942700000248 ], [ -92.559328000002566, 40.592909000002486 ], [ -92.461461000002302, 40.595377000002237 ], [ -92.35080700000232, 40.59727500000205 ], [ -92.053117000001606, 40.603203000002928 ], [ -91.943112000002557, 40.605827000002151 ], [ -91.832392000002045, 40.609805000002098 ], [ -91.729115000001741, 40.61364000000259 ], [ -91.688820000002536, 40.583409000002639 ], [ -91.681714000001577, 40.553035000002417 ], [ -91.625161000002237, 40.543500000002737 ], [ -91.602248000002007, 40.49784900000278 ], [ -91.567723000002445, 40.46228400000259 ], [ -91.526155000001793, 40.458625000002641 ], [ -91.524612000001682, 40.410765000002584 ], [ -91.492629000002381, 40.402782000002198 ], [ -91.483153000002559, 40.382492000002379 ], [ -91.441243000001876, 40.386255000002748 ], [ -91.492727000001821, 40.278217000002833 ], [ -91.496182000002364, 40.250439000002224 ], [ -91.497266000001758, 40.248763000002945 ], [ -91.513079000002165, 40.178537000002095 ], [ -91.502696000002359, 40.099007000002693 ], [ -91.494878000002274, 40.036453000002759 ], [ -91.435517000001681, 39.945222000002111 ], [ -91.420878000001565, 39.914865000002699 ], [ -91.443513000002497, 39.893583000002188 ], [ -91.439196000002198, 39.856567000002386 ], [ -91.433798000002, 39.841865000002478 ], [ -91.376488000002624, 39.810033000002782 ], [ -91.365799000002113, 39.772625000002705 ], [ -91.367854000001756, 39.729136000002669 ], [ -91.349681000002519, 39.713049000002442 ], [ -91.330727000001914, 39.699930000002617 ], [ -91.306693000002383, 39.684865000002425 ], [ -91.223328000002581, 39.617603000002617 ], [ -91.178012000002383, 39.598196000002339 ], [ -91.166723000002406, 39.562462000002661 ], [ -91.148275000001959, 39.545798000002385 ], [ -91.100911000001517, 39.539001000002315 ], [ -91.064305000002477, 39.494643000002739 ], [ -91.042580000002658, 39.452265000002555 ], [ -90.949608000002044, 39.407775000002452 ], [ -90.896462000001961, 39.369176000002454 ], [ -90.798208000001566, 39.312393000002807 ], [ -90.726981000001715, 39.25117300000236 ], [ -90.7218350000024, 39.224108000002353 ], [ -90.705168000002061, 39.143152000002637 ], [ -90.685230000001553, 39.115527000002459 ], [ -90.681994000002277, 39.090066000002416 ], [ -90.712541000002517, 39.057064000002526 ], [ -90.685046000002274, 39.001708000002957 ], [ -90.674362000001821, 38.95783000000224 ], [ -90.6631810000016, 38.934224000002423 ], [ -90.694001000001961, 38.933863000003022 ], [ -90.724520000001675, 38.90978600000242 ], [ -90.750955000002321, 38.922999000002839 ], [ -90.794349000002256, 38.916455000002287 ], [ -90.826462000001939, 38.878435000002789 ], [ -90.826982000001564, 38.878964000002561 ], [ -90.918668000002057, 38.887919000002277 ], [ -90.95755500000206, 38.893285000002741 ], [ -90.958536000002297, 38.870865000002965 ], [ -91.073730000002314, 38.872738000002691 ], [ -91.111251000002397, 38.87270900000258 ], [ -91.110603000001873, 38.909615000002894 ], [ -91.110187000002526, 38.931901000002505 ], [ -91.189348000001843, 38.932151000002527 ], [ -91.188390000001519, 38.992141000002597 ], [ -91.264287000001559, 38.99276200000282 ], [ -91.262564000002399, 39.070021000002733 ], [ -91.262481000002239, 39.072453000002966 ], [ -91.260232000002077, 39.139845000002431 ], [ -91.409033000002083, 39.142542000002166 ], [ -91.484936000001682, 39.144857000002695 ], [ -91.556238000001727, 39.146126000002219 ], [ -91.629598000002403, 39.147853000002648 ], [ -91.633998000002222, 39.059057000002589 ], [ -91.728517000002284, 39.059928000002479 ], [ -91.745579000001939, 39.059991000002213 ], [ -91.804064000001802, 39.060937000002816 ], [ -91.863324000002223, 39.061531000002255 ], [ -91.937252000002516, 39.061905000002142 ], [ -92.091254000002323, 39.064297000002085 ], [ -92.11038700000158, 39.064204000002661 ], [ -92.107738000002456, 39.137561000002322 ], [ -92.106954000002162, 39.152434000002614 ], [ -92.105424000002543, 39.216029000002315 ], [ -92.105348000002238, 39.218260000002168 ], [ -92.104374000001798, 39.239809000002197 ], [ -92.198630000002041, 39.242346000002691 ], [ -92.314471000002484, 39.246454000002281 ], [ -92.370556000001841, 39.247688000002675 ], [ -92.372492000002282, 39.247724000002705 ], [ -92.430229000002598, 39.248795000002175 ], [ -92.47662600000244, 39.261035000002188 ], [ -92.559530000001701, 39.282970000002472 ], [ -92.568533000002645, 39.285326000002676 ], [ -92.651848000001635, 39.30716500000262 ], [ -92.707367000001881, 39.321614000002654 ], [ -92.76315500000176, 39.336220000002776 ], [ -92.7903690000023, 39.343586000002098 ], [ -92.849224000002238, 39.226218000002547 ], [ -92.906142000002561, 39.22233900000262 ], [ -92.915469000002417, 39.253379000002091 ], [ -92.958978000002162, 39.283041000002093 ], [ -92.958148000001884, 39.31114200000205 ], [ -93.044755000002581, 39.317666000002397 ], [ -93.072915000002723, 39.335520000002127 ], [ -93.080289000001983, 39.371752000002274 ], [ -93.104485000001887, 39.383656000002894 ], [ -93.106071000002402, 39.383724000002488 ], [ -93.139631000002339, 39.378643000002242 ], [ -93.164322000001874, 39.405007000002172 ], [ -93.206753000001598, 39.352390000002138 ], [ -93.255922000002144, 39.337837000002814 ], [ -93.292635000002406, 39.309283000002388 ], [ -93.332252000001759, 39.309606000002617 ], [ -93.343782000002278, 39.287104000002422 ], [ -93.333337000002402, 39.250012000002904 ], [ -93.403794000001938, 39.227437000002517 ], [ -93.41944100000228, 39.267917000002612 ], [ -93.477233000002684, 39.292796000002788 ], [ -93.496221000001839, 39.264891000002557 ], [ -93.487885000002564, 39.228875000002091 ], [ -93.516063000002603, 39.215289000002841 ], [ -93.559544000002219, 39.218797000002695 ], [ -93.595939000002559, 39.242062000002846 ], [ -93.643351000001914, 39.245391000002272 ], [ -93.722891000002477, 39.207098000002787 ], [ -93.758463000002578, 39.207021000002413 ], [ -93.788494000001634, 39.201030000002554 ], [ -93.84014700000192, 39.215467000002448 ], [ -93.873678000001959, 39.205047000002722 ], [ -93.885122000001886, 39.196075000002303 ], [ -93.89941700000216, 39.184539000002793 ], [ -93.940043000002035, 39.179690000002346 ], [ -93.948345000002362, 39.152661000002801 ], [ -93.968047000002201, 39.199284000002223 ], [ -94.028822000001696, 39.191595000002657 ], [ -94.028708000001998, 39.152132000002219 ], [ -94.059118000001959, 39.134801000002781 ], [ -94.104823000002355, 39.14350700000238 ], [ -94.10522500000242, 39.131501000002785 ], [ -94.105223000002539, 39.131441000002233 ], [ -94.106764000001959, 39.091703000002326 ], [ -94.176826000001924, 39.093746000002881 ], [ -94.181205000001967, 39.093894000002187 ], [ -94.201157000001686, 39.064995000002327 ], [ -94.219519000002265, 39.065392000002227 ], [ -94.23783400000238, 39.066075000002712 ], [ -94.269547000002603, 39.067304000002082 ], [ -94.309271000001843, 39.091932000002622 ], [ -94.30399100000264, 39.096637000002403 ], [ -94.300703000002073, 39.100305000002635 ], [ -94.2815270000021, 39.109761000002713 ], [ -94.31331400000218, 39.133284000002497 ], [ -94.313731000002463, 39.13665300000239 ], [ -94.348601000002176, 39.132754000002109 ], [ -94.35622500000224, 39.12877800000247 ], [ -94.358053000002513, 39.128886000002552 ], [ -94.379228000002342, 39.128904000002407 ], [ -94.384523000001963, 39.12948100000272 ], [ -94.406649000002076, 39.130404000002045 ], [ -94.407391000002519, 39.130421000002372 ], [ -94.419475000001597, 39.149318000002815 ], [ -94.444292000002363, 39.129007000002424 ], [ -94.455429000002724, 39.123104000002549 ], [ -94.467546000002642, 39.124780000002715 ], [ -94.484112000001758, 39.14500900000278 ], [ -94.475307000002175, 39.180425000002153 ], [ -94.475188000002404, 39.194837000002785 ], [ -94.473722000002638, 39.194806000002835 ], [ -94.475102000001996, 39.20627400000258 ], [ -94.493170000002564, 39.20926400000242 ], [ -94.493005000002242, 39.216552000002089 ], [ -94.4929870000026, 39.223540000002025 ], [ -94.493029000002394, 39.244288000002797 ], [ -94.492322000002062, 39.266831000002341 ], [ -94.492556000002097, 39.288524000002688 ], [ -94.492221000002516, 39.2958040000021 ], [ -94.49197700000208, 39.317940000002366 ], [ -94.555863000001878, 39.318626000002638 ], [ -94.56597400000264, 39.33316500000285 ], [ -94.584378000002317, 39.333306000002594 ], [ -94.600765000001687, 39.333149000002486 ], [ -94.600902000001639, 39.325613000002711 ], [ -94.600358000002601, 39.29675500000257 ], [ -94.600677000001966, 39.267546000002625 ], [ -94.600966000001961, 39.246494000002563 ], [ -94.601004000002661, 39.231818000002612 ], [ -94.601010000001637, 39.224595000002267 ], [ -94.601056000002558, 39.214857000002645 ], [ -94.601030000001785, 39.210091000002528 ], [ -94.601111000002234, 39.195857000002185 ], [ -94.601316000002726, 39.188715000002496 ], [ -94.6014630000018, 39.18176600000271 ], [ -94.601733000002497, 39.159603000002825 ], [ -94.650647000001982, 39.154092000002542 ], [ -94.659371000002523, 39.174406000002037 ], [ -94.752803000002245, 39.173493000002509 ], [ -94.771196000002647, 39.19162000000204 ], [ -94.831679000001841, 39.215938000002289 ], [ -94.83785500000198, 39.262417000001967 ], [ -94.898516000002687, 39.298450000002774 ], [ -94.910017000002185, 39.352543000002861 ], [ -94.880200000002219, 39.382093000002442 ] ] ] } },
{ "type": "Feature", "properties": { "enacted_district": 7.0, "population": 770109.0, "voting_age_pop": 595538.0, "dem_votes": 93534.0, "rep_votes": 235018.0, "minority_pop": 89149.0, "dem_pct": 0.28468552914464512, "rep_pct": 0.71531447055098907 }, "geometry": { "type": "Polygon", "coordinates": [ [ [ -94.618307000002176, 36.766560000002343 ], [ -94.617946000001922, 36.926131000002371 ], [ -94.617947000002644, 37.012144000002522 ], [ -94.617849000002167, 37.056797000002803 ], [ -94.618070000001794, 37.101866000002651 ], [ -94.618244000002704, 37.160184000002417 ], [ -94.618313000002686, 37.194687000002851 ], [ -94.617570000002161, 37.364170000002218 ], [ -94.501709000001725, 37.360436000002963 ], [ -94.501608000002363, 37.360408000002785 ], [ -94.392845000002495, 37.356430000002739 ], [ -94.310581000002401, 37.354834000002562 ], [ -94.283088000001996, 37.353839000002921 ], [ -94.173294000002514, 37.351492000002366 ], [ -94.08208300000274, 37.349291000002466 ], [ -94.08383300000196, 37.290851000002391 ], [ -94.052313000002556, 37.290078000002261 ], [ -93.954739000002036, 37.288086000002913 ], [ -93.864036000002358, 37.28685600000216 ], [ -93.855237000002717, 37.286662000002146 ], [ -93.785395000001799, 37.285379000002386 ], [ -93.747049000001766, 37.284551000002736 ], [ -93.625844000002687, 37.282011000002768 ], [ -93.624372000001941, 37.331079000002568 ], [ -93.623040000002717, 37.369176000002277 ], [ -93.622412000002342, 37.394041000002645 ], [ -93.622231000002515, 37.398265000002162 ], [ -93.621671000002678, 37.412805000002272 ], [ -93.621153000002181, 37.427423000002577 ], [ -93.492260000002304, 37.4249620000028 ], [ -93.473797000001895, 37.424543000002458 ], [ -93.437230000001776, 37.423554000002184 ], [ -93.400563000002521, 37.422690000002824 ], [ -93.364351000001676, 37.421815000002766 ], [ -93.32759000000236, 37.420544000002337 ], [ -93.219022000001758, 37.418287000002231 ], [ -93.182489000002619, 37.417204000002393 ], [ -93.073380000001805, 37.414989000002635 ], [ -93.074486000002196, 37.378546000002672 ], [ -93.07510800000216, 37.352401000002303 ], [ -93.076778000002022, 37.270412000002658 ], [ -92.982949000001994, 37.303954000002939 ], [ -92.953044000001782, 37.327936000002552 ], [ -92.966181000002564, 37.301716000002521 ], [ -92.97186100000232, 37.233506000002855 ], [ -92.91657300000206, 37.246122000002529 ], [ -92.898646000001605, 37.241851000002434 ], [ -92.843606000002737, 37.244060000002477 ], [ -92.807215000002444, 37.24324000000302 ], [ -92.679659000002161, 37.242363000002449 ], [ -92.680531000002674, 37.213203000002999 ], [ -92.683761000001624, 37.117991000002377 ], [ -92.685867000002716, 37.067051000002174 ], [ -92.738977000002436, 37.067829000002988 ], [ -92.849076000002455, 37.068763000002441 ], [ -92.903273000002486, 37.070651000002563 ], [ -92.90349400000224, 37.037644000002267 ], [ -92.905114000002342, 36.969185000002568 ], [ -92.905803000002365, 36.939291000002683 ], [ -92.907094000002445, 36.89671500000302 ], [ -92.909336000001801, 36.809178000002831 ], [ -92.855405000002662, 36.807953000002669 ], [ -92.764869000001767, 36.806097000002268 ], [ -92.76772200000218, 36.683469000002184 ], [ -92.769209000002277, 36.624746000002176 ], [ -92.772339000002518, 36.497839000002848 ], [ -92.929366000002105, 36.497900000002673 ], [ -93.013745000002402, 36.498176000002474 ], [ -93.15116000000198, 36.497925000003015 ], [ -93.210000000002083, 36.498099000003002 ], [ -93.315323000002167, 36.498451000002234 ], [ -93.477713000002595, 36.498943000002832 ], [ -93.584262000001999, 36.499167000002359 ], [ -93.691422000001779, 36.499131000002293 ], [ -93.834042000001844, 36.498854000002247 ], [ -94.07708900000236, 36.498669000002302 ], [ -94.19642600000256, 36.498859000002312 ], [ -94.339315000001719, 36.499486000002932 ], [ -94.447362000002443, 36.499428000002332 ], [ -94.476292000002715, 36.499236000002561 ], [ -94.554645000002438, 36.499409000002593 ], [ -94.617857000002161, 36.499532000002148 ], [ -94.617709000002236, 36.624745000002626 ], [ -94.618157000001858, 36.708582000002643 ], [ -94.618307000002176, 36.766560000002343 ] ] ] } },
{ "type": "Feature", "properties": { "enacted_district": 8.0, "population": 768227.0, "voting_age_pop": 595046.0, "dem_votes": 90768.0, "rep_votes": 242646.0, "minority_pop": 69749.0, "dem_pct": 0.27223811829370148, "rep_pct": 0.7277618814063711 }, "geometry": { "type": "Polygon", "coordinates": [ [ [ -92.909336000001801, 36.809178000002831 ], [ -92.907094000002445, 36.89671500000302 ], [ -92.905803000002365, 36.939291000002683 ], [ -92.905114000002342, 36.969185000002568 ], [ -92.90349400000224, 37.037644000002267 ], [ -92.903273000002486, 37.070651000002563 ], [ -92.849076000002455, 37.068763000002441 ], [ -92.738977000002436, 37.067829000002988 ], [ -92.685867000002716, 37.067051000002174 ], [ -92.683761000001624, 37.117991000002377 ], [ -92.680531000002674, 37.213203000002999 ], [ -92.679659000002161, 37.242363000002449 ], [ -92.678970000002522, 37.263149000002201 ], [ -92.692303000002241, 37.263514000002935 ], [ -92.690471000002645, 37.350647000002169 ], [ -92.689571000001706, 37.350647000002915 ], [ -92.689197000001599, 37.37890700000267 ], [ -92.686671000002676, 37.481545000002114 ], [ -92.587208000002633, 37.479132000002885 ], [ -92.559000000001845, 37.478734000002788 ], [ -92.522300000001778, 37.477062000002732 ], [ -92.468207000001883, 37.475702000002826 ], [ -92.411705000002684, 37.474741000002709 ], [ -92.252261000002122, 37.472944000002308 ], [ -92.252240000002061, 37.473801000002332 ], [ -92.249463000002137, 37.604543000002778 ], [ -92.158296000002437, 37.604901000002577 ], [ -92.084770000001924, 37.603646000002918 ], [ -92.02925800000186, 37.60254200000297 ], [ -92.026163000001944, 37.728325000002734 ], [ -92.025132000002273, 37.769564000002717 ], [ -92.024600000002593, 37.793721000002847 ], [ -92.022863000002317, 37.880740000002405 ], [ -92.021960000001599, 37.927893000002747 ], [ -92.021165000002114, 38.010639000002392 ], [ -91.966333000002606, 38.009683000002148 ], [ -91.895132000001894, 38.051199000002626 ], [ -91.812533000001807, 38.051687000002403 ], [ -91.802108000002377, 38.051916000002464 ], [ -91.747707000001597, 38.053195000002383 ], [ -91.724165000002344, 38.052836000002173 ], [ -91.6324310000022, 38.050951000002534 ], [ -91.630554000002078, 38.153519000002291 ], [ -91.53438400000168, 38.152593000002682 ], [ -91.525025000001961, 38.152433000002361 ], [ -91.525310000002165, 38.077960000002875 ], [ -91.525712000001903, 38.048979000002909 ], [ -91.526306000002236, 37.968751000002257 ], [ -91.526355000002042, 37.961920000002976 ], [ -91.526367000001741, 37.955150000002256 ], [ -91.526713000002161, 37.919317000002259 ], [ -91.528797000002442, 37.788989000002758 ], [ -91.376780000002057, 37.788187000002416 ], [ -91.308426000001603, 37.787186000002485 ], [ -91.310655000002114, 37.700048000002297 ], [ -91.276270000002285, 37.699400000002392 ], [ -91.153345000002616, 37.697340000002725 ], [ -91.146521000001982, 37.740811000002246 ], [ -91.100017000002566, 37.740012000003027 ], [ -90.982499000002463, 37.740330000002885 ], [ -90.929053000001815, 37.736844000002513 ], [ -90.818769000002064, 37.735525000003051 ], [ -90.700622000001687, 37.73616900000232 ], [ -90.645135000001702, 37.734813000002504 ], [ -90.644374000002458, 37.764159000002643 ], [ -90.643438000002121, 37.826463000002263 ], [ -90.643052000002641, 37.864447000002279 ], [ -90.642761000002366, 37.875588000002608 ], [ -90.641491000002645, 37.950026000002367 ], [ -90.64139600000172, 37.96498800000245 ], [ -90.6413700000017, 37.969181000002429 ], [ -90.640474000002314, 38.055882000002931 ], [ -90.639980000001685, 38.076548000003058 ], [ -90.618065000002005, 38.073322000002491 ], [ -90.592933000001565, 38.086838000002402 ], [ -90.559880000001797, 38.105710000002674 ], [ -90.511605000002007, 38.095030000002225 ], [ -90.506527000001526, 38.101133000002335 ], [ -90.507415000001657, 38.139024000002649 ], [ -90.48373900000216, 38.145757000002483 ], [ -90.482075000001984, 38.190105000002816 ], [ -90.517770000002244, 38.21191000000303 ], [ -90.51690400000156, 38.223000000002841 ], [ -90.513739000001621, 38.325231000003065 ], [ -90.513472000001897, 38.400162000002737 ], [ -90.513062000001739, 38.424597000002947 ], [ -90.512721000001562, 38.450342000002649 ], [ -90.512414000001996, 38.480664000002726 ], [ -90.515155000001727, 38.480840000002225 ], [ -90.53151200000228, 38.501453000002208 ], [ -90.521490000002601, 38.501454000002546 ], [ -90.510362000001805, 38.501361000002632 ], [ -90.491390000001701, 38.501187000002211 ], [ -90.475321000002154, 38.50155400000245 ], [ -90.466184000001519, 38.501810000002749 ], [ -90.459402000002399, 38.501850000002278 ], [ -90.448612000002356, 38.501689000002649 ], [ -90.405573000001965, 38.501153000002994 ], [ -90.405262000001557, 38.501153000002212 ], [ -90.405620000002003, 38.488453000002366 ], [ -90.414513000001961, 38.480821000002599 ], [ -90.422175000002142, 38.480695000002648 ], [ -90.415010000002198, 38.462940000002192 ], [ -90.400087000001605, 38.455570000003043 ], [ -90.390985000002303, 38.454400000002877 ], [ -90.376783000001879, 38.452868000002418 ], [ -90.360605000002565, 38.456721000002915 ], [ -90.338918000002323, 38.455347000002952 ], [ -90.335685000002599, 38.448655000002219 ], [ -90.344993000002376, 38.437570000002601 ], [ -90.347120000002064, 38.419488000002509 ], [ -90.341446000001582, 38.388298000002798 ], [ -90.345118000002003, 38.382834000002546 ], [ -90.354995000001836, 38.363956000002268 ], [ -90.356536000002194, 38.359397000002211 ], [ -90.371405000002326, 38.322969000002693 ], [ -90.37269700000256, 38.287893000002221 ], [ -90.371754000002383, 38.280536000002584 ], [ -90.368444000001745, 38.2616340000029 ], [ -90.366948000001798, 38.248344000003051 ], [ -90.363926000001996, 38.236355000002618 ], [ -90.355430000001761, 38.216306000002625 ], [ -90.334172000002056, 38.189857000002483 ], [ -90.290629000002639, 38.170363000002418 ], [ -90.252666000002506, 38.127812000002955 ], [ -90.207128000002683, 38.088205000002425 ], [ -90.130788000001601, 38.062341000002505 ], [ -90.114080000002559, 38.028978000002759 ], [ -90.110819000002323, 38.026748000002897 ], [ -90.065045000002584, 38.016875000002408 ], [ -89.988108000002157, 37.961749000003024 ], [ -89.940687000002043, 37.970874000002986 ], [ -89.931267000001966, 37.948277000003095 ], [ -89.974825000001559, 37.926293000002843 ], [ -89.938608000001523, 37.874304000003093 ], [ -89.898338000002354, 37.870931000003019 ], [ -89.872327000001548, 37.887726000002985 ], [ -89.850524000001911, 37.90417200000303 ], [ -89.799329000002643, 37.881516000002485 ], [ -89.797542000001542, 37.862128000003075 ], [ -89.739875000002314, 37.846921000002993 ], [ -89.669644000001995, 37.799922000002645 ], [ -89.662024000001622, 37.773757000002803 ], [ -89.665991000001583, 37.753571000002317 ], [ -89.613185000002503, 37.740505000003125 ], [ -89.584989000002437, 37.71479000000248 ], [ -89.512009000001598, 37.685525000002976 ], [ -89.517718000002617, 37.6412170000023 ], [ -89.478399000001787, 37.598869000003027 ], [ -89.521855000002574, 37.56621400000239 ], [ -89.51686000000214, 37.536735000002516 ], [ -89.471201000002537, 37.466473000003049 ], [ -89.428729000002079, 37.414320000002299 ], [ -89.420542000001888, 37.388007000002595 ], [ -89.436040000002109, 37.344441000002497 ], [ -89.489312000001974, 37.333079000003096 ], [ -89.508672000001951, 37.315203000002995 ], [ -89.515280000001525, 37.296930000002874 ], [ -89.51807800000158, 37.290659000002272 ], [ -89.518404000002363, 37.289074000002813 ], [ -89.488720000001578, 37.251457000002958 ], [ -89.454125000002534, 37.185069000002365 ], [ -89.425580000001517, 37.138235000003078 ], [ -89.388976000002316, 37.10827700000246 ], [ -89.376432000002112, 37.077696000002717 ], [ -89.376632000001635, 37.038482000003114 ], [ -89.31332400000197, 37.009499000002293 ], [ -89.292130000001933, 36.99218900000276 ], [ -89.25760800000225, 37.015496000002734 ], [ -89.301368000002441, 37.044982000002861 ], [ -89.259935000002301, 37.064070000002872 ], [ -89.203408000002071, 37.018856000002323 ], [ -89.195039000001699, 36.989768000002961 ], [ -89.170009000002096, 36.970298000002465 ], [ -89.125352000001925, 36.983529000002349 ], [ -89.098968000002372, 36.956067000003152 ], [ -89.122275000001707, 36.879065000002896 ], [ -89.138109000002387, 36.847323000002689 ], [ -89.170443000002251, 36.841840000003096 ], [ -89.178223000001793, 36.808614000002507 ], [ -89.116983000001923, 36.775595000002902 ], [ -89.125967000001964, 36.751809000002631 ], [ -89.169785000001852, 36.759641000002894 ], [ -89.200647000001894, 36.718751000002634 ], [ -89.169426000001721, 36.688771000002816 ], [ -89.165580000002365, 36.659344000002754 ], [ -89.197753000001626, 36.628971000002977 ], [ -89.227046000001693, 36.569537000003017 ], [ -89.269546000002393, 36.569716000003126 ], [ -89.327588000001612, 36.632276000002818 ], [ -89.365797000001933, 36.625126000002282 ], [ -89.417275000002206, 36.499011000002625 ], [ -89.453514000002528, 36.461789000002895 ], [ -89.494119000001902, 36.476268000002463 ], [ -89.465390000002174, 36.534451000002477 ], [ -89.471234000001672, 36.554670000002531 ], [ -89.488106000001665, 36.572925000002861 ], [ -89.530638000002057, 36.581710000002296 ], [ -89.570780000002429, 36.557321000002702 ], [ -89.55686800000241, 36.519293000002854 ], [ -89.538316000001913, 36.496933000002883 ], [ -89.520642000002056, 36.4786680000025 ], [ -89.542337000001524, 36.42010300000252 ], [ -89.509722000001702, 36.373626000002361 ], [ -89.545006000001663, 36.336809000002312 ], [ -89.610689000001813, 36.340442000002881 ], [ -89.620166000002413, 36.322805000002546 ], [ -89.578492000001617, 36.28831700000277 ], [ -89.536441000002029, 36.272827000002614 ], [ -89.534676000002094, 36.252771000003115 ], [ -89.611145000002423, 36.23927100000261 ], [ -89.693752000002547, 36.252727000002317 ], [ -89.685092000002356, 36.219746000002374 ], [ -89.598450000001719, 36.161421000002967 ], [ -89.593070000001745, 36.129699000002788 ], [ -89.621297000002428, 36.110420000002648 ], [ -89.680029000002065, 36.082494000002519 ], [ -89.685395000002288, 36.045897000002341 ], [ -89.706932000002126, 36.000981000002298 ], [ -89.770191000002583, 36.000714000003171 ], [ -89.859730000002443, 35.999907000002402 ], [ -89.959376000001939, 35.999241000002456 ], [ -90.1157250000022, 35.997948000002857 ], [ -90.195032000002286, 35.997217000003047 ], [ -90.247733000002484, 35.996772000002856 ], [ -90.377900000001915, 35.99574500000314 ], [ -90.292928000002021, 36.114499000002354 ], [ -90.248518000001681, 36.130830000002383 ], [ -90.225213000002086, 36.177696000002669 ], [ -90.142393000001618, 36.227327000002838 ], [ -90.117175000002646, 36.262992000002583 ], [ -90.083795000002056, 36.271938000002429 ], [ -90.068004000002148, 36.309240000002944 ], [ -90.082381000002144, 36.321979000002983 ], [ -90.063698000002532, 36.384185000003022 ], [ -90.104464000002281, 36.405446000002918 ], [ -90.135975000002233, 36.41333400000255 ], [ -90.134054000002578, 36.438699000003083 ], [ -90.159244000002403, 36.479711000002339 ], [ -90.152307000001684, 36.497982000002686 ], [ -90.220732000002457, 36.497859000002748 ], [ -90.285126000001824, 36.497931000002289 ], [ -90.431709000001717, 36.49824200000274 ], [ -90.467422000001719, 36.498430000002479 ], [ -90.57617900000254, 36.498547000002901 ], [ -90.693005000002444, 36.498241000002579 ], [ -90.802629000001716, 36.498612000002332 ], [ -90.940441000002323, 36.498440000002944 ], [ -91.126522000002623, 36.497665000003003 ], [ -91.172386000002476, 36.497546000002352 ], [ -91.327468000002, 36.497366000002216 ], [ -91.45001900000166, 36.497672000003064 ], [ -91.672334000002678, 36.499392000002501 ], [ -91.8369290000022, 36.498912000002854 ], [ -91.954593000002234, 36.498547000002254 ], [ -92.12039300000248, 36.498779000002656 ], [ -92.259457000002001, 36.498048000002754 ], [ -92.370252000001997, 36.49726400000268 ], [ -92.482802000001982, 36.498704000003009 ], [ -92.617322000001636, 36.498140000002522 ], [ -92.772339000002518, 36.497839000002848 ], [ -92.769209000002277, 36.624746000002176 ], [ -92.76772200000218, 36.683469000002184 ], [ -92.764869000001767, 36.806097000002268 ], [ -92.855405000002662, 36.807953000002669 ], [ -92.909336000001801, 36.809178000002831 ] ] ] } }
]
}
