{
"type": "FeatureCollection",
"name": "montana_optimized_districts_all",
"crs": { "type": "name", "properties": { "name": "urn:ogc:def:crs:OGC:1.3:CRS84" } },
"features": [
{ "type": "Feature", "properties": { "opt_all": 1, "population": 542220.0, "voting_age_pop": 431375.0, "dem_votes": 130552.0, "rep_votes": 148238.0, "minority_pop": 57032.0, "dem_pct": 0.46828078465214651, "rep_pct": 0.53171921498916053 }, "geometry": { "type": "Polygon", "coordinates": [ [ [ -114.674942000001437, 46.736826000000974 ], [ -114.922312000002279, 46.828602000001098 ], [ -114.936741000001618, 46.89727900000068 ], [ -115.063476000001074, 46.993159000001199 ], [ -115.198231000001584, 47.137123000001203 ], [ -115.24832200000202, 47.156926000000652 ], [ -115.262957000001819, 47.181751000000894 ], [ -115.340849000002081, 47.262850000001201 ], [ -115.528509000001961, 47.29924400000133 ], [ -115.548841000001033, 47.346958000001514 ], [ -115.746619000001246, 47.44231100000102 ], [ -115.629488000001999, 47.479610000000839 ], [ -115.751793000001157, 47.54198700000142 ], [ -115.695574000001898, 47.61485900000131 ], [ -115.722714000002156, 47.694855000001297 ], [ -115.823774000001464, 47.752611000001295 ], [ -116.023231000001687, 47.964852000000569 ], [ -116.049108000002036, 47.976842000001206 ], [ -116.048669000002221, 48.216128000001127 ], [ -116.04902500000162, 48.515334000000927 ], [ -116.048985000001963, 48.544626000001095 ], [ -116.049086000001182, 49.000846000001033 ], [ -115.964439000001676, 49.000945000001366 ], [ -115.415186000001881, 49.000236000001088 ], [ -114.727050000002137, 49.000514000000692 ], [ -114.474891000000923, 49.001095000001037 ], [ -114.068179000000995, 48.998863000001222 ], [ -112.962110000002085, 48.998558000001054 ], [ -112.368669000001901, 48.998693000001232 ], [ -112.193409000001239, 48.998682000000933 ], [ -111.269864000001363, 48.997244000001437 ], [ -111.273335000001566, 48.881708000001254 ], [ -111.275344000001894, 48.342510000001361 ], [ -111.275306000001336, 48.219531000001069 ], [ -111.409018000001723, 48.219542000001177 ], [ -111.409097000002404, 48.132218000000776 ], [ -111.408514000001659, 47.987178000001215 ], [ -111.408727000001619, 47.785298000001347 ], [ -111.408850000002204, 47.698123000000862 ], [ -111.409103000001437, 47.69812300000136 ], [ -111.645592000001997, 47.697842000001472 ], [ -111.66627000000112, 47.611951000000985 ], [ -111.752492000002363, 47.611268000001424 ], [ -111.922936000001499, 47.611231000001041 ], [ -111.922795000001955, 47.505064000001099 ], [ -112.047781000002303, 47.516034000001568 ], [ -112.27800000000228, 47.505623000001115 ], [ -112.405146000002105, 47.552317000001139 ], [ -112.454720000001217, 47.610271000001418 ], [ -112.529779000002137, 47.642186000001161 ], [ -112.770602000001176, 47.598616000001442 ], [ -112.913874000001897, 47.697199000001604 ], [ -112.913256000001994, 47.826216000001011 ], [ -112.984734000002177, 47.953918000001487 ], [ -113.062876000001694, 47.885563000001405 ], [ -113.080997000001673, 47.749917000001432 ], [ -113.165811000001398, 47.719764000001426 ], [ -113.144368000001563, 47.595507000000936 ], [ -113.466485000002166, 47.600057000000888 ], [ -113.466424000001894, 47.346305000001223 ], [ -113.466450000001686, 47.179186000001174 ], [ -113.30294300000196, 47.179643000001491 ], [ -113.302818000001636, 47.092068000001085 ], [ -113.303156000001763, 46.963371000001459 ], [ -113.302903000001805, 46.832159000000871 ], [ -113.416599000001995, 46.832113000001279 ], [ -113.479889000001805, 46.788228000001311 ], [ -113.551523000001865, 46.72796000000158 ], [ -113.668166000001719, 46.716229000001022 ], [ -113.667996000001438, 46.658372000001151 ], [ -113.827743000001163, 46.660896000000889 ], [ -113.814629000002057, 46.61675000000082 ], [ -113.848976000001102, 46.516744000001069 ], [ -113.867449000002082, 46.487141000001159 ], [ -113.816989000001726, 46.399778000001355 ], [ -113.782032000001323, 46.359518000001344 ], [ -113.778194000001804, 46.236860000001101 ], [ -113.794754000002058, 46.222386000001194 ], [ -113.41060800000156, 46.222443000001448 ], [ -113.41072400000192, 46.337926000001218 ], [ -113.120474000002318, 46.331760000000806 ], [ -113.036694000001717, 46.309796000001583 ], [ -113.036825000001457, 46.266826000001572 ], [ -112.750472000001153, 46.266399000001606 ], [ -112.558599000001166, 46.265821000000976 ], [ -112.577106000002075, 46.178981000001542 ], [ -112.50812200000172, 46.17884800000121 ], [ -112.459429000001521, 46.036704000001428 ], [ -112.432102000001606, 45.960523000001331 ], [ -112.41656700000236, 45.921476000001689 ], [ -112.419708000001904, 45.917860000001284 ], [ -112.401441000001341, 45.831851000000967 ], [ -112.190269000001237, 45.748503000001378 ], [ -112.136944000001378, 45.772807000001762 ], [ -112.088760000002083, 45.849050000001185 ], [ -111.964865000001282, 45.852934000001333 ], [ -111.928857000001756, 45.85697700000101 ], [ -111.805259000001783, 45.798306000001247 ], [ -111.660057000001601, 45.833500000001671 ], [ -111.419618000001677, 45.9963220000013 ], [ -111.423831000001485, 46.061951000001152 ], [ -111.349372000001196, 46.122607000001501 ], [ -111.346652000001484, 46.187785000001298 ], [ -111.242697000001684, 46.187785000001263 ], [ -111.061956000001885, 46.192834000001618 ], [ -110.993241000001461, 46.192795000001411 ], [ -110.783833000001877, 46.192699000001568 ], [ -110.789129000001395, 45.800776000001136 ], [ -110.795441000002455, 45.742872000001526 ], [ -110.795277000002216, 45.701870000001684 ], [ -110.795571000002283, 45.663373000001549 ], [ -110.794681000002285, 45.613406000001063 ], [ -110.919222000001341, 45.524861000001337 ], [ -110.917500000001823, 45.438584000001754 ], [ -110.917899000001484, 45.351273000001392 ], [ -111.038169000002483, 45.351391000000923 ], [ -111.165379000001764, 45.351185000001337 ], [ -111.232401000001801, 45.438680000001668 ], [ -111.350050000002298, 45.382983000001026 ], [ -111.373030000001663, 45.350521000001287 ], [ -111.372204000002341, 44.999703000001283 ], [ -111.377015000001762, 44.751443000001352 ], [ -111.474963000002447, 44.708773000001337 ], [ -111.468514000002287, 44.6787330000015 ], [ -111.584981000002159, 44.56236400000121 ], [ -111.704152000002296, 44.559648000000976 ], [ -111.801119000002359, 44.525985000001747 ], [ -111.863657000001567, 44.551244000001766 ], [ -112.096484000001624, 44.522992000001288 ], [ -112.288673000001396, 44.567910000001625 ], [ -112.358860000002039, 44.529053000001575 ], [ -112.387127000002366, 44.447391000001389 ], [ -112.473419000001314, 44.479359000001729 ], [ -112.755451000001315, 44.488496000001163 ], [ -112.885485000002319, 44.395545000001349 ], [ -113.001978000001998, 44.44985700000106 ], [ -113.006788000001535, 44.526208000001091 ], [ -113.0882920000018, 44.599663000001357 ], [ -113.055150000001305, 44.640356000001717 ], [ -113.101618000002318, 44.729465000001305 ], [ -113.247192000002343, 44.822954000001445 ], [ -113.357242000002202, 44.820651000001043 ], [ -113.455071000001823, 44.865424000001319 ], [ -113.452044000001521, 45.059174000000979 ], [ -113.565694000002367, 45.149602000001643 ], [ -113.69293700000236, 45.264197000001133 ], [ -113.773753000001875, 45.406359000001423 ], [ -113.765757000001599, 45.47653400000123 ], [ -113.833427000001635, 45.520536000001449 ], [ -113.806431000001396, 45.601630000000895 ], [ -113.938095000001937, 45.695740000000768 ], [ -114.269892000001278, 45.484552000000981 ], [ -114.344184000001235, 45.459683000000979 ], [ -114.439942000002063, 45.536983000001591 ], [ -114.558498000002317, 45.584463000001506 ], [ -114.499667000001537, 45.668513000001575 ], [ -114.566348000001625, 45.772739000001231 ], [ -114.415055000002127, 45.922318000001049 ], [ -114.480537000002073, 46.030439000001465 ], [ -114.445084000002282, 46.185937000001232 ], [ -114.468267000002115, 46.24866300000113 ], [ -114.414471000002123, 46.341501000001045 ], [ -114.379968000001384, 46.460906000001216 ], [ -114.330850000002201, 46.573609000001383 ], [ -114.332796000001153, 46.660581000001358 ], [ -114.466834000001839, 46.631801000000792 ], [ -114.613110000001981, 46.638470000001512 ], [ -114.674942000001437, 46.736826000000974 ] ] ] } },
{ "type": "Feature", "properties": { "opt_all": 2, "population": 542005.0, "voting_age_pop": 418748.0, "dem_votes": 100055.0, "rep_votes": 158572.0, "minority_pop": 65538.0, "dem_pct": 0.38686989355834084, "rep_pct": 0.61313010605500196 }, "geometry": { "type": "Polygon", "coordinates": [ [ [ -112.459429000001521, 46.036704000001428 ], [ -112.50812200000172, 46.17884800000121 ], [ -112.577106000002075, 46.178981000001542 ], [ -112.558599000001166, 46.265821000000976 ], [ -112.750472000001153, 46.266399000001606 ], [ -113.036825000001457, 46.266826000001572 ], [ -113.036694000001717, 46.309796000001583 ], [ -113.120474000002318, 46.331760000000806 ], [ -113.41072400000192, 46.337926000001218 ], [ -113.41060800000156, 46.222443000001448 ], [ -113.794754000002058, 46.222386000001194 ], [ -113.778194000001804, 46.236860000001101 ], [ -113.782032000001323, 46.359518000001344 ], [ -113.816989000001726, 46.399778000001355 ], [ -113.867449000002082, 46.487141000001159 ], [ -113.848976000001102, 46.516744000001069 ], [ -113.814629000002057, 46.61675000000082 ], [ -113.827743000001163, 46.660896000000889 ], [ -113.667996000001438, 46.658372000001151 ], [ -113.668166000001719, 46.716229000001022 ], [ -113.551523000001865, 46.72796000000158 ], [ -113.479889000001805, 46.788228000001311 ], [ -113.416599000001995, 46.832113000001279 ], [ -113.302903000001805, 46.832159000000871 ], [ -113.303156000001763, 46.963371000001459 ], [ -113.302818000001636, 47.092068000001085 ], [ -113.30294300000196, 47.179643000001491 ], [ -113.466450000001686, 47.179186000001174 ], [ -113.466424000001894, 47.346305000001223 ], [ -113.466485000002166, 47.600057000000888 ], [ -113.144368000001563, 47.595507000000936 ], [ -113.165811000001398, 47.719764000001426 ], [ -113.080997000001673, 47.749917000001432 ], [ -113.062876000001694, 47.885563000001405 ], [ -112.984734000002177, 47.953918000001487 ], [ -112.913256000001994, 47.826216000001011 ], [ -112.913874000001897, 47.697199000001604 ], [ -112.770602000001176, 47.598616000001442 ], [ -112.529779000002137, 47.642186000001161 ], [ -112.454720000001217, 47.610271000001418 ], [ -112.405146000002105, 47.552317000001139 ], [ -112.27800000000228, 47.505623000001115 ], [ -112.047781000002303, 47.516034000001568 ], [ -111.922795000001955, 47.505064000001099 ], [ -111.922936000001499, 47.611231000001041 ], [ -111.752492000002363, 47.611268000001424 ], [ -111.66627000000112, 47.611951000000985 ], [ -111.645592000001997, 47.697842000001472 ], [ -111.409103000001437, 47.69812300000136 ], [ -111.408850000002204, 47.698123000000862 ], [ -111.408727000001619, 47.785298000001347 ], [ -111.408514000001659, 47.987178000001215 ], [ -111.409097000002404, 48.132218000000776 ], [ -111.409018000001723, 48.219542000001177 ], [ -111.275306000001336, 48.219531000001069 ], [ -111.275344000001894, 48.342510000001361 ], [ -111.273335000001566, 48.881708000001254 ], [ -111.269864000001363, 48.997244000001437 ], [ -111.006242000002302, 48.997876000000922 ], [ -110.91851400000192, 48.998090000000829 ], [ -110.743064000001823, 48.99860600000094 ], [ -110.544066000001138, 48.998885000001593 ], [ -109.489549000001674, 49.000330000001092 ], [ -108.89608400000192, 48.999363000001019 ], [ -108.236360000001525, 48.999641000001731 ], [ -107.179812000001803, 49.000074000001128 ], [ -106.378002000001914, 48.999533000001335 ], [ -106.112058000001298, 48.999477000001825 ], [ -105.32217000000216, 48.999435000001078 ], [ -105.057635000002165, 48.99922800000131 ], [ -104.574539000002176, 48.999198000001805 ], [ -104.398731000001916, 48.999489000001773 ], [ -104.048692000001964, 48.999899000001285 ], [ -104.047882000002474, 48.621011000001417 ], [ -104.046766000002336, 48.38929800000156 ], [ -104.044044000002003, 47.996082000001401 ], [ -104.042493000001983, 47.806694000001983 ], [ -104.043625000001555, 47.677073000001414 ], [ -104.044871000001834, 47.397063000001552 ], [ -104.045234000002139, 46.641504000001987 ], [ -104.044194000001639, 45.881975000001837 ], [ -104.041334000002678, 45.480421000001968 ], [ -104.039694000001958, 44.998070000001732 ], [ -105.038249000002239, 45.000106000001843 ], [ -105.371303000002356, 45.000185000001593 ], [ -105.653768000002316, 45.000433000001671 ], [ -106.263715000001525, 44.993816000001445 ], [ -107.153381000002298, 44.999962000001709 ], [ -107.298576000002555, 45.000942000001942 ], [ -107.568294000002396, 45.000939000001331 ], [ -108.249412000002565, 44.999904000001273 ], [ -108.84295100000196, 44.999989000001925 ], [ -109.192809000002043, 45.005724000001109 ], [ -109.798483000002122, 45.002333000001265 ], [ -110.704476000001605, 44.992174000001285 ], [ -111.045066000001398, 45.000950000001446 ], [ -111.054556000002407, 44.999735000001394 ], [ -111.05243400000208, 44.4784110000015 ], [ -111.130659000001742, 44.500131000000991 ], [ -111.2193190000025, 44.622521000001171 ], [ -111.377015000001762, 44.751443000001352 ], [ -111.372204000002341, 44.999703000001283 ], [ -111.373030000001663, 45.350521000001287 ], [ -111.350050000002298, 45.382983000001026 ], [ -111.232401000001801, 45.438680000001668 ], [ -111.165379000001764, 45.351185000001337 ], [ -111.038169000002483, 45.351391000000923 ], [ -110.917899000001484, 45.351273000001392 ], [ -110.917500000001823, 45.438584000001754 ], [ -110.919222000001341, 45.524861000001337 ], [ -110.794681000002285, 45.613406000001063 ], [ -110.795571000002283, 45.663373000001549 ], [ -110.795277000002216, 45.701870000001684 ], [ -110.795441000002455, 45.742872000001526 ], [ -110.789129000001395, 45.800776000001136 ], [ -110.783833000001877, 46.192699000001568 ], [ -110.993241000001461, 46.192795000001411 ], [ -111.061956000001885, 46.192834000001618 ], [ -111.242697000001684, 46.187785000001263 ], [ -111.346652000001484, 46.187785000001298 ], [ -111.349372000001196, 46.122607000001501 ], [ -111.423831000001485, 46.061951000001152 ], [ -111.419618000001677, 45.9963220000013 ], [ -111.660057000001601, 45.833500000001671 ], [ -111.805259000001783, 45.798306000001247 ], [ -111.928857000001756, 45.85697700000101 ], [ -111.964865000001282, 45.852934000001333 ], [ -112.088760000002083, 45.849050000001185 ], [ -112.136944000001378, 45.772807000001762 ], [ -112.190269000001237, 45.748503000001378 ], [ -112.401441000001341, 45.831851000000967 ], [ -112.419708000001904, 45.917860000001284 ], [ -112.41656700000236, 45.921476000001689 ], [ -112.432102000001606, 45.960523000001331 ], [ -112.459429000001521, 46.036704000001428 ] ] ] } }
]
}
