{
"type": "FeatureCollection",
"name": "nebraska_optimized_districts_all",
"crs": { "type": "name", "properties": { "name": "urn:ogc:def:crs:OGC:1.3:CRS84" } },
"features": [
{ "type": "Feature", "properties": { "opt_all": 1, "population": 651523.0, "voting_age_pop": 492100.0, "dem_votes": 108353.0, "rep_votes": 152351.0, "minority_pop": 82797.0, "dem_pct": 0.41561694472826771, "rep_pct": 0.58438305488815545 }, "geometry": { "type": "Polygon", "coordinates": [ [ [ -97.2549870000027, 40.35005700000243 ], [ -97.368688000002464, 40.35039200000238 ], [ -97.368621000002605, 40.524496000002557 ], [ -97.368453000002006, 40.611545000002117 ], [ -97.368401000002422, 40.69862500000221 ], [ -97.482966000002122, 40.69865800000192 ], [ -97.596067000002364, 40.698733000002257 ], [ -97.711595000002205, 40.698623000001945 ], [ -97.824780000002178, 40.698537000001998 ], [ -97.825723000001886, 40.69855500000228 ], [ -97.825842000002439, 40.785473000002611 ], [ -97.82606200000194, 40.872397000002053 ], [ -97.826142000001724, 40.959432000002437 ], [ -97.826287000002139, 41.046581000002519 ], [ -97.828256000002739, 41.17343900000256 ], [ -97.825165000001917, 41.176979000002618 ], [ -97.819931000001674, 41.18003100000206 ], [ -97.747561000002307, 41.24849400000199 ], [ -97.598253000001606, 41.333119000002448 ], [ -97.521804000002675, 41.362025000002511 ], [ -97.425961000002602, 41.377541000002246 ], [ -97.368186000002353, 41.396416000002077 ], [ -97.368118000001843, 41.30830900000214 ], [ -97.368051000002737, 41.264606000002068 ], [ -97.368086000002265, 41.133980000002374 ], [ -97.368118000002326, 41.046947000002042 ], [ -97.139314000002443, 41.046474000002327 ], [ -97.138280000002339, 41.046483000002645 ], [ -97.024823000002684, 41.046313000002428 ], [ -96.910940000002043, 41.04611600000252 ], [ -96.908507000002103, 41.046091000002541 ], [ -96.908860000001781, 41.13326800000182 ], [ -96.908473000001905, 41.220402000002629 ], [ -96.905862000002159, 41.453389000002048 ], [ -96.790018000002235, 41.444378000001805 ], [ -96.746687000002524, 41.449750000002581 ], [ -96.674340000001763, 41.426179000002115 ], [ -96.559144000002377, 41.429881000002176 ], [ -96.470720000002601, 41.39323900000209 ], [ -96.424402000002303, 41.366121000002309 ], [ -96.385014000002641, 41.301492000002384 ], [ -96.379016000001556, 41.298837000002486 ], [ -96.370402000002755, 41.291599000001973 ], [ -96.349990000001554, 41.262899000002598 ], [ -96.365558000002082, 41.234136000002295 ], [ -96.327399000001961, 41.189999000002189 ], [ -96.234288000001797, 41.190349000002165 ], [ -96.215757000001744, 41.19050400000237 ], [ -96.206187000002203, 41.190568000002095 ], [ -96.196677000002722, 41.190654000002496 ], [ -96.187090000001717, 41.190626000002013 ], [ -96.177523000001997, 41.1906220000022 ], [ -96.174312000002715, 41.19064500000222 ], [ -96.163098000002279, 41.190729000002193 ], [ -96.158333000002116, 41.190762000002231 ], [ -96.153422000001598, 41.190782000002656 ], [ -96.148558000001685, 41.190791000002505 ], [ -96.138833000001938, 41.190810000002358 ], [ -96.1195990000016, 41.190588000002023 ], [ -96.101747000001836, 41.190597000002192 ], [ -96.101289000002566, 41.190592000001963 ], [ -96.100799000002183, 41.190595000002268 ], [ -96.081396000001817, 41.190756000001954 ], [ -96.071460000002119, 41.190728000002018 ], [ -96.062028000002513, 41.190704000002455 ], [ -96.061905000002355, 41.190704000002732 ], [ -96.051875000002781, 41.190698000002136 ], [ -96.042911000001965, 41.190686000002401 ], [ -96.038612000002118, 41.190704000002235 ], [ -96.031461000002366, 41.190716000001999 ], [ -96.023814000002005, 41.190697000002373 ], [ -96.009408000001997, 41.190705000002083 ], [ -96.005918000002566, 41.19066800000224 ], [ -95.986620000002262, 41.190757000002158 ], [ -95.96739600000268, 41.190849000002707 ], [ -95.967288000002753, 41.176415000002216 ], [ -95.94773900000196, 41.176433000002035 ], [ -95.92635500000226, 41.176448000002296 ], [ -95.918843000001615, 41.179118000002433 ], [ -95.921270000001684, 41.188401000001818 ], [ -95.882878000002634, 41.154679000001899 ], [ -95.879318000001859, 41.138586000001837 ], [ -95.871168000001802, 41.12879500000205 ], [ -95.866389000002044, 41.104062000002713 ], [ -95.879487000001845, 41.053299000002454 ], [ -95.866900000001806, 41.001026000001879 ], [ -95.833015000002007, 40.958724000002569 ], [ -95.838417000001641, 40.927408000002167 ], [ -95.81208300000236, 40.884239000002317 ], [ -95.840483000002081, 40.871377000001893 ], [ -95.834120000001619, 40.783783000002742 ], [ -95.881529000002715, 40.75061100000206 ], [ -95.883178000002076, 40.717579000002694 ], [ -95.847241000002697, 40.691086000002166 ], [ -95.78948500000196, 40.659388000002224 ], [ -95.752793000002683, 40.610200000002017 ], [ -95.774704000002274, 40.573574000002509 ], [ -95.757110000002683, 40.525990000001897 ], [ -95.709974000002703, 40.523798000002131 ], [ -95.708591000002244, 40.521551000002283 ], [ -95.699969000001843, 40.505275000002356 ], [ -95.693133000002362, 40.469396000002398 ], [ -95.655706000002141, 40.43594500000232 ], [ -95.639090000001687, 40.363764000002327 ], [ -95.653729000001661, 40.322582000002278 ], [ -95.553292000001846, 40.291158000002056 ], [ -95.552473000002294, 40.261904000001991 ], [ -95.671623000002384, 40.262121000002118 ], [ -95.728581000002421, 40.261924000002168 ], [ -95.784420000002541, 40.261749000002411 ], [ -95.89819500000236, 40.261224000002066 ], [ -96.010176000002005, 40.261482000002651 ], [ -96.066736000001981, 40.26203800000205 ], [ -96.067084000002566, 40.349130000002532 ], [ -96.066397000002084, 40.436181000002399 ], [ -96.067012000002279, 40.523148000001953 ], [ -96.122690000002635, 40.523256000002277 ], [ -96.236461000002635, 40.522790000002509 ], [ -96.463632000002804, 40.523013000001903 ], [ -96.463706000001693, 40.406970000002453 ], [ -96.463790000002376, 40.349043000002467 ], [ -96.463667000001635, 40.262173000002683 ], [ -96.463648000002635, 40.175183000002541 ], [ -96.463712000001877, 40.001023000002235 ], [ -96.689921000001675, 40.001337000002657 ], [ -96.916407000002479, 40.00151100000236 ], [ -96.916383000002639, 40.175643000002054 ], [ -96.916289000002493, 40.262720000002545 ], [ -96.916055000002515, 40.34972700000273 ], [ -97.141227000001905, 40.349827000001994 ], [ -97.142007000002096, 40.349811000002632 ], [ -97.2549870000027, 40.35005700000243 ] ] ] } },
{ "type": "Feature", "properties": { "opt_all": 2, "population": 655775.0, "voting_age_pop": 489781.0, "dem_votes": 119931.0, "rep_votes": 132310.0, "minority_pop": 139712.0, "dem_pct": 0.47546195881103309, "rep_pct": 0.52453804079252064 }, "geometry": { "type": "Polygon", "coordinates": [ [ [ -96.349990000001554, 41.262899000002598 ], [ -96.370402000002755, 41.291599000001973 ], [ -96.379016000001556, 41.298837000002486 ], [ -96.385014000002641, 41.301492000002384 ], [ -96.424402000002303, 41.366121000002309 ], [ -96.470720000002601, 41.39323900000209 ], [ -96.559144000002377, 41.429881000002176 ], [ -96.674340000001763, 41.426179000002115 ], [ -96.746687000002524, 41.449750000002581 ], [ -96.790018000002235, 41.444378000001805 ], [ -96.905862000002159, 41.453389000002048 ], [ -96.905910000002294, 41.456436000002626 ], [ -96.906022000001798, 41.611857000002558 ], [ -96.9059860000024, 41.655329000001927 ], [ -96.905922000002562, 41.742763000002263 ], [ -96.790196000002481, 41.742570000002338 ], [ -96.787518000002166, 41.742545000002274 ], [ -96.674984000002283, 41.742310000001929 ], [ -96.559217000001794, 41.74203000000248 ], [ -96.555172000001761, 41.742018000001849 ], [ -96.555155000002756, 41.915868000002348 ], [ -96.554866000002164, 42.015875000002488 ], [ -96.38580700000162, 42.016292000001947 ], [ -96.347071000001847, 42.015705000002079 ], [ -96.309645000002234, 42.015187000002243 ], [ -96.273120000001597, 42.04715800000254 ], [ -96.234356000001881, 42.040712000002074 ], [ -96.129186000002477, 41.965136000001998 ], [ -96.139863000002123, 41.916720000002158 ], [ -96.162067000001841, 41.903047000001941 ], [ -96.109746000002119, 41.823992000002335 ], [ -96.06489700000202, 41.791673000002504 ], [ -96.106185000002242, 41.739176000002423 ], [ -96.073100000002484, 41.709169000001886 ], [ -96.122604000002283, 41.683040000002656 ], [ -96.095254000002527, 41.650276000002613 ], [ -96.113640000002235, 41.60195500000237 ], [ -96.094471000002656, 41.556166000002307 ], [ -96.096504000002241, 41.545186000002715 ], [ -96.016608000002279, 41.481918000002715 ], [ -95.93634000000236, 41.465304000002511 ], [ -95.937791000002761, 41.390752000002401 ], [ -95.930845000001796, 41.364806000002531 ], [ -95.950388000002405, 41.336402000002245 ], [ -95.927206000002585, 41.322267000001851 ], [ -95.929602000002419, 41.290449000001971 ], [ -95.929619000002276, 41.285077000002566 ], [ -95.918187000002405, 41.274300000002725 ], [ -95.921669000002282, 41.259688000002086 ], [ -95.918833000002422, 41.252287000002447 ], [ -95.913015000002062, 41.243098000002398 ], [ -95.910889000001944, 41.23160400000247 ], [ -95.926190000002521, 41.211378000002668 ], [ -95.927985000001783, 41.202056000002521 ], [ -95.923678000002283, 41.190984000002082 ], [ -95.921270000001684, 41.188401000001818 ], [ -95.918843000001615, 41.179118000002433 ], [ -95.92635500000226, 41.176448000002296 ], [ -95.94773900000196, 41.176433000002035 ], [ -95.967288000002753, 41.176415000002216 ], [ -95.96739600000268, 41.190849000002707 ], [ -95.986620000002262, 41.190757000002158 ], [ -96.005918000002566, 41.19066800000224 ], [ -96.009408000001997, 41.190705000002083 ], [ -96.023814000002005, 41.190697000002373 ], [ -96.031461000002366, 41.190716000001999 ], [ -96.038612000002118, 41.190704000002235 ], [ -96.042911000001965, 41.190686000002401 ], [ -96.051875000002781, 41.190698000002136 ], [ -96.061905000002355, 41.190704000002732 ], [ -96.062028000002513, 41.190704000002455 ], [ -96.071460000002119, 41.190728000002018 ], [ -96.081396000001817, 41.190756000001954 ], [ -96.100799000002183, 41.190595000002268 ], [ -96.101289000002566, 41.190592000001963 ], [ -96.101747000001836, 41.190597000002192 ], [ -96.1195990000016, 41.190588000002023 ], [ -96.138833000001938, 41.190810000002358 ], [ -96.148558000001685, 41.190791000002505 ], [ -96.153422000001598, 41.190782000002656 ], [ -96.158333000002116, 41.190762000002231 ], [ -96.163098000002279, 41.190729000002193 ], [ -96.174312000002715, 41.19064500000222 ], [ -96.177523000001997, 41.1906220000022 ], [ -96.187090000001717, 41.190626000002013 ], [ -96.196677000002722, 41.190654000002496 ], [ -96.206187000002203, 41.190568000002095 ], [ -96.215757000001744, 41.19050400000237 ], [ -96.234288000001797, 41.190349000002165 ], [ -96.327399000001961, 41.189999000002189 ], [ -96.365558000002082, 41.234136000002295 ], [ -96.349990000001554, 41.262899000002598 ] ] ] } },
{ "type": "Feature", "properties": { "opt_all": 3, "population": 654206.0, "voting_age_pop": 494246.0, "dem_votes": 56104.0, "rep_votes": 197444.0, "minority_pop": 84363.0, "dem_pct": 0.22127565580431491, "rep_pct": 0.77872434380128241 }, "geometry": { "type": "MultiPolygon", "coordinates": [ [ [ [ -104.052287000001584, 41.39321400000204 ], [ -104.052688000001936, 41.697823000002224 ], [ -104.052795000002035, 41.98740900000162 ], [ -104.052644000002161, 42.001776000001541 ], [ -104.052804000001686, 42.347906000002247 ], [ -104.053028000002399, 43.000585000001408 ], [ -103.505100000002642, 43.000770000002049 ], [ -103.324620000001843, 43.000905000001474 ], [ -102.792111000001981, 42.999980000002282 ], [ -102.694193000002073, 42.99998100000164 ], [ -102.358760000001965, 42.999565000001503 ], [ -102.082546000001699, 42.999356000001463 ], [ -101.713906000002495, 42.996533000002252 ], [ -101.140807000001658, 42.997893000002058 ], [ -101.043147000001881, 42.99796000000201 ], [ -100.906928000002637, 42.998010000001784 ], [ -100.671495000002594, 42.998235000001927 ], [ -100.533528000002676, 42.998840000002332 ], [ -100.198413000002645, 42.998674000001579 ], [ -99.962985000002206, 42.997661000002005 ], [ -99.850788000002595, 42.998023000001645 ], [ -99.670015000001754, 42.997869000002019 ], [ -99.254455000001997, 42.998074000002184 ], [ -98.762356000002256, 42.998301000001725 ], [ -98.545099000002139, 42.998422000002115 ], [ -98.498550000002041, 42.998559000002267 ], [ -98.467356000001942, 42.947556000001782 ], [ -98.309771000002598, 42.882605000001817 ], [ -98.258276000002439, 42.874390000002506 ], [ -98.129223000001645, 42.821056000002237 ], [ -98.013072000001699, 42.762219000001977 ], [ -97.923587000002556, 42.786610000001872 ], [ -97.875531000002326, 42.858656000002 ], [ -97.831393000002606, 42.868960000002033 ], [ -97.774381000002407, 42.849740000001823 ], [ -97.686477000001744, 42.842212000001709 ], [ -97.603031000002076, 42.857962000002161 ], [ -97.484921000002515, 42.850368000001794 ], [ -97.417066000002762, 42.865918000002146 ], [ -97.366976000002396, 42.857673000001938 ], [ -97.306677000001955, 42.867604000002501 ], [ -97.218046000001962, 42.84511300000203 ], [ -97.212659000002446, 42.812069000002069 ], [ -97.141762000002601, 42.786300000002221 ], [ -97.130257000002715, 42.771541000001925 ], [ -97.015849000002504, 42.761338000001935 ], [ -96.979120000002524, 42.760090000002101 ], [ -96.937589000001935, 42.719597000002373 ], [ -96.907922000002415, 42.733857000002416 ], [ -96.806213000002643, 42.704154000001921 ], [ -96.780947000002399, 42.663547000002126 ], [ -96.687667000002563, 42.65312700000252 ], [ -96.710998000001837, 42.608129000002251 ], [ -96.63803000000236, 42.551959000002022 ], [ -96.631492000002126, 42.524318000002523 ], [ -96.603470000001764, 42.504460000002602 ], [ -96.541251000002418, 42.518856000002373 ], [ -96.501319000002482, 42.482749000002173 ], [ -96.428504000001894, 42.489126000002017 ], [ -96.413612000001876, 42.487969000002202 ], [ -96.385407000002417, 42.473094000002561 ], [ -96.38011400000228, 42.451580000002274 ], [ -96.384307000002124, 42.437294000002609 ], [ -96.398808000002262, 42.422494000001983 ], [ -96.413609000002523, 42.407894000002614 ], [ -96.415073000002735, 42.364369000002085 ], [ -96.356395000002166, 42.276494000002117 ], [ -96.323723000002204, 42.229887000002037 ], [ -96.347206000002274, 42.191328000002351 ], [ -96.3466880000028, 42.164686000001979 ], [ -96.26748600000208, 42.109780000001784 ], [ -96.273120000001597, 42.04715800000254 ], [ -96.309645000002234, 42.015187000002243 ], [ -96.347071000001847, 42.015705000002079 ], [ -96.38580700000162, 42.016292000001947 ], [ -96.554866000002164, 42.015875000002488 ], [ -96.555155000002756, 41.915868000002348 ], [ -96.555172000001761, 41.742018000001849 ], [ -96.559217000001794, 41.74203000000248 ], [ -96.674984000002283, 41.742310000001929 ], [ -96.787518000002166, 41.742545000002274 ], [ -96.790196000002481, 41.742570000002338 ], [ -96.905922000002562, 41.742763000002263 ], [ -96.9059860000024, 41.655329000001927 ], [ -96.906022000001798, 41.611857000002558 ], [ -96.905910000002294, 41.456436000002626 ], [ -96.905862000002159, 41.453389000002048 ], [ -96.908473000001905, 41.220402000002629 ], [ -96.908860000001781, 41.13326800000182 ], [ -96.908507000002103, 41.046091000002541 ], [ -96.910940000002043, 41.04611600000252 ], [ -97.024823000002684, 41.046313000002428 ], [ -97.138280000002339, 41.046483000002645 ], [ -97.139314000002443, 41.046474000002327 ], [ -97.368118000002326, 41.046947000002042 ], [ -97.368086000002265, 41.133980000002374 ], [ -97.368051000002737, 41.264606000002068 ], [ -97.368118000001843, 41.30830900000214 ], [ -97.368186000002353, 41.396416000002077 ], [ -97.425961000002602, 41.377541000002246 ], [ -97.521804000002675, 41.362025000002511 ], [ -97.598253000001606, 41.333119000002448 ], [ -97.747561000002307, 41.24849400000199 ], [ -97.819931000001674, 41.18003100000206 ], [ -97.825165000001917, 41.176979000002618 ], [ -97.828256000002739, 41.17343900000256 ], [ -97.826287000002139, 41.046581000002519 ], [ -97.826142000001724, 40.959432000002437 ], [ -97.82606200000194, 40.872397000002053 ], [ -97.825842000002439, 40.785473000002611 ], [ -97.825723000001886, 40.69855500000228 ], [ -97.824780000002178, 40.698537000001998 ], [ -97.711595000002205, 40.698623000001945 ], [ -97.596067000002364, 40.698733000002257 ], [ -97.482966000002122, 40.69865800000192 ], [ -97.368401000002422, 40.69862500000221 ], [ -97.368453000002006, 40.611545000002117 ], [ -97.368621000002605, 40.524496000002557 ], [ -97.368688000002464, 40.35039200000238 ], [ -97.2549870000027, 40.35005700000243 ], [ -97.142007000002096, 40.349811000002632 ], [ -97.141227000001905, 40.349827000001994 ], [ -96.916055000002515, 40.34972700000273 ], [ -96.916289000002493, 40.262720000002545 ], [ -96.916383000002639, 40.175643000002054 ], [ -96.916407000002479, 40.00151100000236 ], [ -97.029467000002356, 40.001347000001978 ], [ -97.36919900000224, 40.001966000001921 ], [ -97.821495000002074, 40.002047000002705 ], [ -98.047687000001886, 40.002190000001811 ], [ -98.274017000002203, 40.002662000002303 ], [ -98.386975000002636, 40.002403000002595 ], [ -98.499647000001843, 40.002488000002479 ], [ -98.7263730000018, 40.002400000001835 ], [ -98.952644000002564, 40.002300000002286 ], [ -99.179134000002037, 40.002013000002485 ], [ -99.29184600000228, 40.001940000002527 ], [ -99.404656000001637, 40.002192000002267 ], [ -99.628254000001647, 40.001847000002471 ], [ -99.854601000002077, 40.001595000002098 ], [ -100.080715000002087, 40.00159700000183 ], [ -100.19359900000174, 40.001663000002459 ], [ -100.53291600000216, 40.001919000002133 ], [ -100.758830000002078, 40.002302000002302 ], [ -100.871047000002633, 40.002157000002192 ], [ -101.098029000001659, 40.002441000002037 ], [ -101.32403600000184, 40.002697000002357 ], [ -101.531311000002404, 40.00266300000176 ], [ -101.8128060000017, 40.002850000001651 ], [ -102.051744000001761, 40.003078000001679 ], [ -102.051586000002359, 40.349213000002145 ], [ -102.051457000001804, 40.697539000001989 ], [ -102.051717000002085, 41.002359000001825 ], [ -102.336122000002007, 41.002195000001983 ], [ -102.621033000002726, 41.002597000002226 ], [ -102.735704000002485, 41.002213000001532 ], [ -102.963669000001943, 41.002186000002055 ], [ -103.306245000001937, 41.001912000001838 ], [ -103.382492000001619, 41.002252000001853 ], [ -103.534886000002018, 41.001421000002225 ], [ -103.763340000001904, 41.001468000002333 ], [ -104.053249000001557, 41.001406000001531 ], [ -104.052287000001584, 41.39321400000204 ] ] ], [ [ [ -96.010680000001685, 40.000651000002591 ], [ -96.237164000002778, 40.000922000002021 ], [ -96.463712000001877, 40.001023000002235 ], [ -96.463648000002635, 40.175183000002541 ], [ -96.463667000001635, 40.262173000002683 ], [ -96.463790000002376, 40.349043000002467 ], [ -96.463706000001693, 40.406970000002453 ], [ -96.463632000002804, 40.523013000001903 ], [ -96.236461000002635, 40.522790000002509 ], [ -96.122690000002635, 40.523256000002277 ], [ -96.067012000002279, 40.523148000001953 ], [ -96.066397000002084, 40.436181000002399 ], [ -96.067084000002566, 40.349130000002532 ], [ -96.066736000001981, 40.26203800000205 ], [ -96.010176000002005, 40.261482000002651 ], [ -95.89819500000236, 40.261224000002066 ], [ -95.784420000002541, 40.261749000002411 ], [ -95.728581000002421, 40.261924000002168 ], [ -95.671623000002384, 40.262121000002118 ], [ -95.552473000002294, 40.261904000001991 ], [ -95.478694000001639, 40.243661000002 ], [ -95.477920000002086, 40.183844000002424 ], [ -95.396549000002096, 40.124701000002418 ], [ -95.420897000002242, 40.05445800000242 ], [ -95.308290000002245, 39.99999800000279 ], [ -95.558156000001887, 40.000215000002186 ], [ -95.671368000002445, 40.000339000002626 ], [ -95.78449800000196, 40.000447000002701 ], [ -95.897400000002634, 40.000603000002471 ], [ -96.010680000001685, 40.000651000002591 ] ] ] ] } }
]
}
