{
"type": "FeatureCollection",
"name": "nebraska_enacted_districts",
"crs": { "type": "name", "properties": { "name": "urn:ogc:def:crs:OGC:1.3:CRS84" } },
"features": [
{ "type": "Feature", "properties": { "enacted_district": 1.0, "population": 649724.0, "voting_age_pop": 492380.0, "dem_votes": 102905.0, "rep_votes": 148926.0, "minority_pop": 93157.0, "dem_pct": 0.40862721412033182, "rep_pct": 0.59137278548257644 }, "geometry": { "type": "Polygon", "coordinates": [ [ [ -97.368118000002326, 41.046947000002042 ], [ -97.368086000002265, 41.133980000002374 ], [ -97.368051000002737, 41.264606000002068 ], [ -97.502538000001707, 41.264566000001942 ], [ -97.502879000001897, 41.20644000000204 ], [ -97.65582300000176, 41.206425000002646 ], [ -97.655949000001954, 41.177352000002337 ], [ -97.825165000001917, 41.176979000002618 ], [ -97.819931000001674, 41.18003100000206 ], [ -97.747561000002307, 41.24849400000199 ], [ -97.598253000001606, 41.333119000002448 ], [ -97.598694000001686, 41.395076000001815 ], [ -97.703765000001724, 41.394876000002142 ], [ -97.703881000002738, 41.420939000002143 ], [ -97.714213000002601, 41.526761000001926 ], [ -97.829846000002064, 41.526174000002207 ], [ -97.831059000002682, 41.604952000002015 ], [ -97.831215000002757, 41.655686000002376 ], [ -97.830493000002562, 41.74223800000221 ], [ -97.832242000002481, 41.742234000002398 ], [ -97.832823000001881, 41.800239000002612 ], [ -97.833288000001914, 41.916286000001747 ], [ -97.834060000002594, 42.034863000002041 ], [ -97.834068000002233, 42.036108000002145 ], [ -97.834134000001995, 42.051124000002353 ], [ -97.834140000001923, 42.051751000002227 ], [ -97.834536000001663, 42.089750000002489 ], [ -97.601478000002601, 42.090260000001933 ], [ -97.48483000000212, 42.09067600000246 ], [ -97.426811000002559, 42.090804000001789 ], [ -97.368404000001618, 42.090922000001925 ], [ -97.252433000002355, 42.090802000001858 ], [ -97.251708000002239, 42.090801000002223 ], [ -97.136809000001875, 42.090654000001997 ], [ -97.134690000002024, 42.09065600000239 ], [ -97.019359000002325, 42.090577000002114 ], [ -96.901210000001996, 42.09048100000178 ], [ -96.823670000002281, 42.09041100000244 ], [ -96.786597000002317, 42.090333000001785 ], [ -96.745503000001605, 42.09023200000216 ], [ -96.628752000001882, 42.090074000001827 ], [ -96.555511000002596, 42.089957000002357 ], [ -96.554866000002164, 42.015875000002488 ], [ -96.555155000002756, 41.915868000002348 ], [ -96.555172000001761, 41.742018000001849 ], [ -96.463463000002463, 41.741780000001974 ], [ -96.444785000002398, 41.683633000002651 ], [ -96.444317000001803, 41.567531000002298 ], [ -96.425211000002562, 41.480342000002629 ], [ -96.405936000001759, 41.480460000002665 ], [ -96.367336000001984, 41.436698000002323 ], [ -96.328923000002007, 41.436621000002248 ], [ -96.329012000001597, 41.393136000002258 ], [ -96.330720000002742, 41.393131000002285 ], [ -96.464015000001879, 41.39331100000237 ], [ -96.470720000002601, 41.39323900000209 ], [ -96.559144000002377, 41.429881000002176 ], [ -96.674340000001763, 41.426179000002115 ], [ -96.746687000002524, 41.449750000002581 ], [ -96.790018000002235, 41.444378000001805 ], [ -96.905862000002159, 41.453389000002048 ], [ -96.908473000001905, 41.220402000002629 ], [ -96.908860000001781, 41.13326800000182 ], [ -96.908507000002103, 41.046091000002541 ], [ -96.681403000002064, 41.045657000002009 ], [ -96.678970000002323, 41.045653000002268 ], [ -96.601110000002436, 41.045444000002519 ], [ -96.463869000002106, 41.045083000001902 ], [ -96.463861000002638, 41.016069000002027 ], [ -96.349470000002555, 41.015320000001971 ], [ -96.319191000002519, 41.044998000002181 ], [ -96.229589000002264, 40.999592000002309 ], [ -96.158528000002661, 41.013091000002248 ], [ -96.120799000001753, 41.037988000002088 ], [ -96.119077000001624, 41.038565000002066 ], [ -96.056256000002179, 41.06535600000219 ], [ -96.005191000002355, 41.060624000002207 ], [ -96.003980000002443, 41.09275100000243 ], [ -96.004436000002443, 41.104038000001907 ], [ -96.004474000001878, 41.118121000002262 ], [ -96.004508000002673, 41.139064000002371 ], [ -96.01404800000212, 41.137396000002248 ], [ -96.042847000001686, 41.140066000002172 ], [ -96.059434000001687, 41.141726000002691 ], [ -96.063420000002196, 41.144840000001928 ], [ -96.119586000002485, 41.132550000002233 ], [ -96.177582000001919, 41.132436000002315 ], [ -96.158735000002764, 41.147042000002124 ], [ -96.177373000002319, 41.161549000002395 ], [ -96.177356000001765, 41.176111000002102 ], [ -96.158319000002137, 41.186184000001937 ], [ -96.174312000002715, 41.19064500000222 ], [ -96.163098000002279, 41.190729000002193 ], [ -96.158333000002116, 41.190762000002231 ], [ -96.153422000001598, 41.190782000002656 ], [ -96.148558000001685, 41.190791000002505 ], [ -96.138833000001938, 41.190810000002358 ], [ -96.1195990000016, 41.190588000002023 ], [ -96.101747000001836, 41.190597000002192 ], [ -96.101289000002566, 41.190592000001963 ], [ -96.100799000002183, 41.190595000002268 ], [ -96.081396000001817, 41.190756000001954 ], [ -96.071460000002119, 41.190728000002018 ], [ -96.062028000002513, 41.190704000002455 ], [ -96.061905000002355, 41.190704000002732 ], [ -96.051875000002781, 41.190698000002136 ], [ -96.042911000001965, 41.190686000002401 ], [ -96.038612000002118, 41.190704000002235 ], [ -96.031461000002366, 41.190716000001999 ], [ -96.023814000002005, 41.190697000002373 ], [ -96.009408000001997, 41.190705000002083 ], [ -96.005918000002566, 41.19066800000224 ], [ -95.986620000002262, 41.190757000002158 ], [ -95.96739600000268, 41.190849000002707 ], [ -95.947933000001839, 41.190953000002537 ], [ -95.939479000002379, 41.190989000001899 ], [ -95.923678000002283, 41.190984000002082 ], [ -95.921270000001684, 41.188401000001818 ], [ -95.882878000002634, 41.154679000001899 ], [ -95.879318000001859, 41.138586000001837 ], [ -95.871168000001802, 41.12879500000205 ], [ -95.866389000002044, 41.104062000002713 ], [ -95.879487000001845, 41.053299000002454 ], [ -95.866900000001806, 41.001026000001879 ], [ -95.833015000002007, 40.958724000002569 ], [ -95.838417000001641, 40.927408000002167 ], [ -95.81208300000236, 40.884239000002317 ], [ -95.840483000002081, 40.871377000001893 ], [ -95.834120000001619, 40.783783000002742 ], [ -95.911753000002562, 40.784154000001955 ], [ -95.949768000002038, 40.784077000001936 ], [ -96.006899000001695, 40.784065000001888 ], [ -96.236322000002275, 40.78373400000239 ], [ -96.349979000001923, 40.78386300000254 ], [ -96.463764000002101, 40.783960000002679 ], [ -96.463807000002561, 40.754956000002394 ], [ -96.463838000001758, 40.696964000002367 ], [ -96.463745000002433, 40.609996000002525 ], [ -96.463632000002804, 40.523013000001903 ], [ -96.572196000002364, 40.523828000001849 ], [ -96.684932000002703, 40.523296000001977 ], [ -96.706893000002722, 40.523076000002483 ], [ -96.912637000001595, 40.523625000002319 ], [ -96.913918000001658, 40.610728000002645 ], [ -96.913642000002483, 40.668732000002173 ], [ -96.913493000002475, 40.697948000002278 ], [ -97.025322000002447, 40.698175000002635 ], [ -97.02716000000224, 40.698179000002497 ], [ -97.139704000002524, 40.69833400000261 ], [ -97.197823000002018, 40.698377000001869 ], [ -97.292316000002302, 40.698498000001962 ], [ -97.368401000002422, 40.69862500000221 ], [ -97.368420000001919, 40.771172000002075 ], [ -97.368332000002596, 40.872773000002319 ], [ -97.3681560000026, 40.959885000002146 ], [ -97.368118000002326, 41.046947000002042 ] ] ] } },
{ "type": "Feature", "properties": { "enacted_district": 2.0, "population": 656284.0, "voting_age_pop": 486429.0, "dem_votes": 120652.0, "rep_votes": 133550.0, "minority_pop": 136522.0, "dem_pct": 0.47463041184780985, "rep_pct": 0.52536958775880216 }, "geometry": { "type": "Polygon", "coordinates": [ [ [ -96.319191000002519, 41.044998000002181 ], [ -96.349470000002555, 41.015320000001971 ], [ -96.463861000002638, 41.016069000002027 ], [ -96.463869000002106, 41.045083000001902 ], [ -96.601110000002436, 41.045444000002519 ], [ -96.678970000002323, 41.045653000002268 ], [ -96.681403000002064, 41.045657000002009 ], [ -96.908507000002103, 41.046091000002541 ], [ -96.908860000001781, 41.13326800000182 ], [ -96.908473000001905, 41.220402000002629 ], [ -96.905862000002159, 41.453389000002048 ], [ -96.790018000002235, 41.444378000001805 ], [ -96.746687000002524, 41.449750000002581 ], [ -96.674340000001763, 41.426179000002115 ], [ -96.559144000002377, 41.429881000002176 ], [ -96.470720000002601, 41.39323900000209 ], [ -96.464015000001879, 41.39331100000237 ], [ -96.330720000002742, 41.393131000002285 ], [ -96.329012000001597, 41.393136000002258 ], [ -96.232744000002313, 41.393122000001867 ], [ -96.11744700000196, 41.393147000001868 ], [ -96.101086000002596, 41.393172000002572 ], [ -96.079017000002281, 41.393185000002681 ], [ -96.062303000001805, 41.393156000001994 ], [ -95.996837000002444, 41.393183000002175 ], [ -95.994832000001779, 41.39318200000254 ], [ -95.937791000002761, 41.390752000002401 ], [ -95.930845000001796, 41.364806000002531 ], [ -95.950388000002405, 41.336402000002245 ], [ -95.927206000002585, 41.322267000001851 ], [ -95.929602000002419, 41.290449000001971 ], [ -95.929619000002276, 41.285077000002566 ], [ -95.918187000002405, 41.274300000002725 ], [ -95.921669000002282, 41.259688000002086 ], [ -95.918833000002422, 41.252287000002447 ], [ -95.913015000002062, 41.243098000002398 ], [ -95.910889000001944, 41.23160400000247 ], [ -95.926190000002521, 41.211378000002668 ], [ -95.927985000001783, 41.202056000002521 ], [ -95.923678000002283, 41.190984000002082 ], [ -95.939479000002379, 41.190989000001899 ], [ -95.947933000001839, 41.190953000002537 ], [ -95.96739600000268, 41.190849000002707 ], [ -95.986620000002262, 41.190757000002158 ], [ -96.005918000002566, 41.19066800000224 ], [ -96.009408000001997, 41.190705000002083 ], [ -96.023814000002005, 41.190697000002373 ], [ -96.031461000002366, 41.190716000001999 ], [ -96.038612000002118, 41.190704000002235 ], [ -96.042911000001965, 41.190686000002401 ], [ -96.051875000002781, 41.190698000002136 ], [ -96.061905000002355, 41.190704000002732 ], [ -96.062028000002513, 41.190704000002455 ], [ -96.071460000002119, 41.190728000002018 ], [ -96.081396000001817, 41.190756000001954 ], [ -96.100799000002183, 41.190595000002268 ], [ -96.101289000002566, 41.190592000001963 ], [ -96.101747000001836, 41.190597000002192 ], [ -96.1195990000016, 41.190588000002023 ], [ -96.138833000001938, 41.190810000002358 ], [ -96.148558000001685, 41.190791000002505 ], [ -96.153422000001598, 41.190782000002656 ], [ -96.158333000002116, 41.190762000002231 ], [ -96.163098000002279, 41.190729000002193 ], [ -96.174312000002715, 41.19064500000222 ], [ -96.158319000002137, 41.186184000001937 ], [ -96.177356000001765, 41.176111000002102 ], [ -96.177373000002319, 41.161549000002395 ], [ -96.158735000002764, 41.147042000002124 ], [ -96.177582000001919, 41.132436000002315 ], [ -96.119586000002485, 41.132550000002233 ], [ -96.063420000002196, 41.144840000001928 ], [ -96.059434000001687, 41.141726000002691 ], [ -96.042847000001686, 41.140066000002172 ], [ -96.01404800000212, 41.137396000002248 ], [ -96.004508000002673, 41.139064000002371 ], [ -96.004474000001878, 41.118121000002262 ], [ -96.004436000002443, 41.104038000001907 ], [ -96.003980000002443, 41.09275100000243 ], [ -96.005191000002355, 41.060624000002207 ], [ -96.056256000002179, 41.06535600000219 ], [ -96.119077000001624, 41.038565000002066 ], [ -96.120799000001753, 41.037988000002088 ], [ -96.158528000002661, 41.013091000002248 ], [ -96.229589000002264, 40.999592000002309 ], [ -96.319191000002519, 41.044998000002181 ] ] ] } },
{ "type": "Feature", "properties": { "enacted_district": 3.0, "population": 655496.0, "voting_age_pop": 497318.0, "dem_votes": 60831.0, "rep_votes": 199629.0, "minority_pop": 77193.0, "dem_pct": 0.23355217682809176, "rep_pct": 0.76644782278797208 }, "geometry": { "type": "Polygon", "coordinates": [ [ [ -104.052287000001584, 41.39321400000204 ], [ -104.052688000001936, 41.697823000002224 ], [ -104.052795000002035, 41.98740900000162 ], [ -104.052644000002161, 42.001776000001541 ], [ -104.052804000001686, 42.347906000002247 ], [ -104.053028000002399, 43.000585000001408 ], [ -103.505100000002642, 43.000770000002049 ], [ -103.324620000001843, 43.000905000001474 ], [ -102.792111000001981, 42.999980000002282 ], [ -102.694193000002073, 42.99998100000164 ], [ -102.358760000001965, 42.999565000001503 ], [ -102.082546000001699, 42.999356000001463 ], [ -101.713906000002495, 42.996533000002252 ], [ -101.140807000001658, 42.997893000002058 ], [ -101.043147000001881, 42.99796000000201 ], [ -100.906928000002637, 42.998010000001784 ], [ -100.671495000002594, 42.998235000001927 ], [ -100.533528000002676, 42.998840000002332 ], [ -100.198413000002645, 42.998674000001579 ], [ -99.962985000002206, 42.997661000002005 ], [ -99.850788000002595, 42.998023000001645 ], [ -99.670015000001754, 42.997869000002019 ], [ -99.254455000001997, 42.998074000002184 ], [ -98.762356000002256, 42.998301000001725 ], [ -98.545099000002139, 42.998422000002115 ], [ -98.498550000002041, 42.998559000002267 ], [ -98.467356000001942, 42.947556000001782 ], [ -98.309771000002598, 42.882605000001817 ], [ -98.258276000002439, 42.874390000002506 ], [ -98.129223000001645, 42.821056000002237 ], [ -98.013072000001699, 42.762219000001977 ], [ -97.923587000002556, 42.786610000001872 ], [ -97.875531000002326, 42.858656000002 ], [ -97.831393000002606, 42.868960000002033 ], [ -97.774381000002407, 42.849740000001823 ], [ -97.686477000001744, 42.842212000001709 ], [ -97.603031000002076, 42.857962000002161 ], [ -97.484921000002515, 42.850368000001794 ], [ -97.417066000002762, 42.865918000002146 ], [ -97.366976000002396, 42.857673000001938 ], [ -97.306677000001955, 42.867604000002501 ], [ -97.218046000001962, 42.84511300000203 ], [ -97.212659000002446, 42.812069000002069 ], [ -97.141762000002601, 42.786300000002221 ], [ -97.130257000002715, 42.771541000001925 ], [ -97.015849000002504, 42.761338000001935 ], [ -96.979120000002524, 42.760090000002101 ], [ -96.937589000001935, 42.719597000002373 ], [ -96.907922000002415, 42.733857000002416 ], [ -96.806213000002643, 42.704154000001921 ], [ -96.780947000002399, 42.663547000002126 ], [ -96.687667000002563, 42.65312700000252 ], [ -96.710998000001837, 42.608129000002251 ], [ -96.63803000000236, 42.551959000002022 ], [ -96.631492000002126, 42.524318000002523 ], [ -96.603470000001764, 42.504460000002602 ], [ -96.541251000002418, 42.518856000002373 ], [ -96.501319000002482, 42.482749000002173 ], [ -96.428504000001894, 42.489126000002017 ], [ -96.413612000001876, 42.487969000002202 ], [ -96.385407000002417, 42.473094000002561 ], [ -96.38011400000228, 42.451580000002274 ], [ -96.384307000002124, 42.437294000002609 ], [ -96.398808000002262, 42.422494000001983 ], [ -96.413609000002523, 42.407894000002614 ], [ -96.415073000002735, 42.364369000002085 ], [ -96.356395000002166, 42.276494000002117 ], [ -96.323723000002204, 42.229887000002037 ], [ -96.347206000002274, 42.191328000002351 ], [ -96.3466880000028, 42.164686000001979 ], [ -96.26748600000208, 42.109780000001784 ], [ -96.273120000001597, 42.04715800000254 ], [ -96.234356000001881, 42.040712000002074 ], [ -96.129186000002477, 41.965136000001998 ], [ -96.139863000002123, 41.916720000002158 ], [ -96.162067000001841, 41.903047000001941 ], [ -96.109746000002119, 41.823992000002335 ], [ -96.06489700000202, 41.791673000002504 ], [ -96.106185000002242, 41.739176000002423 ], [ -96.073100000002484, 41.709169000001886 ], [ -96.122604000002283, 41.683040000002656 ], [ -96.095254000002527, 41.650276000002613 ], [ -96.113640000002235, 41.60195500000237 ], [ -96.094471000002656, 41.556166000002307 ], [ -96.096504000002241, 41.545186000002715 ], [ -96.016608000002279, 41.481918000002715 ], [ -95.93634000000236, 41.465304000002511 ], [ -95.937791000002761, 41.390752000002401 ], [ -95.994832000001779, 41.39318200000254 ], [ -95.996837000002444, 41.393183000002175 ], [ -96.062303000001805, 41.393156000001994 ], [ -96.079017000002281, 41.393185000002681 ], [ -96.101086000002596, 41.393172000002572 ], [ -96.11744700000196, 41.393147000001868 ], [ -96.232744000002313, 41.393122000001867 ], [ -96.329012000001597, 41.393136000002258 ], [ -96.328923000002007, 41.436621000002248 ], [ -96.367336000001984, 41.436698000002323 ], [ -96.405936000001759, 41.480460000002665 ], [ -96.425211000002562, 41.480342000002629 ], [ -96.444317000001803, 41.567531000002298 ], [ -96.444785000002398, 41.683633000002651 ], [ -96.463463000002463, 41.741780000001974 ], [ -96.555172000001761, 41.742018000001849 ], [ -96.555155000002756, 41.915868000002348 ], [ -96.554866000002164, 42.015875000002488 ], [ -96.555511000002596, 42.089957000002357 ], [ -96.628752000001882, 42.090074000001827 ], [ -96.745503000001605, 42.09023200000216 ], [ -96.786597000002317, 42.090333000001785 ], [ -96.823670000002281, 42.09041100000244 ], [ -96.901210000001996, 42.09048100000178 ], [ -97.019359000002325, 42.090577000002114 ], [ -97.134690000002024, 42.09065600000239 ], [ -97.136809000001875, 42.090654000001997 ], [ -97.251708000002239, 42.090801000002223 ], [ -97.252433000002355, 42.090802000001858 ], [ -97.368404000001618, 42.090922000001925 ], [ -97.426811000002559, 42.090804000001789 ], [ -97.48483000000212, 42.09067600000246 ], [ -97.601478000002601, 42.090260000001933 ], [ -97.834536000001663, 42.089750000002489 ], [ -97.834140000001923, 42.051751000002227 ], [ -97.834134000001995, 42.051124000002353 ], [ -97.834068000002233, 42.036108000002145 ], [ -97.834060000002594, 42.034863000002041 ], [ -97.833288000001914, 41.916286000001747 ], [ -97.832823000001881, 41.800239000002612 ], [ -97.832242000002481, 41.742234000002398 ], [ -97.830493000002562, 41.74223800000221 ], [ -97.831215000002757, 41.655686000002376 ], [ -97.831059000002682, 41.604952000002015 ], [ -97.829846000002064, 41.526174000002207 ], [ -97.714213000002601, 41.526761000001926 ], [ -97.703881000002738, 41.420939000002143 ], [ -97.703765000001724, 41.394876000002142 ], [ -97.598694000001686, 41.395076000001815 ], [ -97.598253000001606, 41.333119000002448 ], [ -97.747561000002307, 41.24849400000199 ], [ -97.819931000001674, 41.18003100000206 ], [ -97.825165000001917, 41.176979000002618 ], [ -97.655949000001954, 41.177352000002337 ], [ -97.65582300000176, 41.206425000002646 ], [ -97.502879000001897, 41.20644000000204 ], [ -97.502538000001707, 41.264566000001942 ], [ -97.368051000002737, 41.264606000002068 ], [ -97.368086000002265, 41.133980000002374 ], [ -97.368118000002326, 41.046947000002042 ], [ -97.3681560000026, 40.959885000002146 ], [ -97.368332000002596, 40.872773000002319 ], [ -97.368420000001919, 40.771172000002075 ], [ -97.368401000002422, 40.69862500000221 ], [ -97.292316000002302, 40.698498000001962 ], [ -97.197823000002018, 40.698377000001869 ], [ -97.139704000002524, 40.69833400000261 ], [ -97.02716000000224, 40.698179000002497 ], [ -97.025322000002447, 40.698175000002635 ], [ -96.913493000002475, 40.697948000002278 ], [ -96.913642000002483, 40.668732000002173 ], [ -96.913918000001658, 40.610728000002645 ], [ -96.912637000001595, 40.523625000002319 ], [ -96.706893000002722, 40.523076000002483 ], [ -96.684932000002703, 40.523296000001977 ], [ -96.572196000002364, 40.523828000001849 ], [ -96.463632000002804, 40.523013000001903 ], [ -96.463745000002433, 40.609996000002525 ], [ -96.463838000001758, 40.696964000002367 ], [ -96.463807000002561, 40.754956000002394 ], [ -96.463764000002101, 40.783960000002679 ], [ -96.349979000001923, 40.78386300000254 ], [ -96.236322000002275, 40.78373400000239 ], [ -96.006899000001695, 40.784065000001888 ], [ -95.949768000002038, 40.784077000001936 ], [ -95.911753000002562, 40.784154000001955 ], [ -95.834120000001619, 40.783783000002742 ], [ -95.881529000002715, 40.75061100000206 ], [ -95.883178000002076, 40.717579000002694 ], [ -95.847241000002697, 40.691086000002166 ], [ -95.78948500000196, 40.659388000002224 ], [ -95.752793000002683, 40.610200000002017 ], [ -95.774704000002274, 40.573574000002509 ], [ -95.757110000002683, 40.525990000001897 ], [ -95.709974000002703, 40.523798000002131 ], [ -95.708591000002244, 40.521551000002283 ], [ -95.699969000001843, 40.505275000002356 ], [ -95.693133000002362, 40.469396000002398 ], [ -95.655706000002141, 40.43594500000232 ], [ -95.639090000001687, 40.363764000002327 ], [ -95.653729000001661, 40.322582000002278 ], [ -95.553292000001846, 40.291158000002056 ], [ -95.552473000002294, 40.261904000001991 ], [ -95.478694000001639, 40.243661000002 ], [ -95.477920000002086, 40.183844000002424 ], [ -95.396549000002096, 40.124701000002418 ], [ -95.420897000002242, 40.05445800000242 ], [ -95.308290000002245, 39.99999800000279 ], [ -95.558156000001887, 40.000215000002186 ], [ -95.671368000002445, 40.000339000002626 ], [ -95.78449800000196, 40.000447000002701 ], [ -95.897400000002634, 40.000603000002471 ], [ -96.010680000001685, 40.000651000002591 ], [ -96.237164000002778, 40.000922000002021 ], [ -96.463712000001877, 40.001023000002235 ], [ -96.689921000001675, 40.001337000002657 ], [ -96.916407000002479, 40.00151100000236 ], [ -97.029467000002356, 40.001347000001978 ], [ -97.36919900000224, 40.001966000001921 ], [ -97.821495000002074, 40.002047000002705 ], [ -98.047687000001886, 40.002190000001811 ], [ -98.274017000002203, 40.002662000002303 ], [ -98.386975000002636, 40.002403000002595 ], [ -98.499647000001843, 40.002488000002479 ], [ -98.7263730000018, 40.002400000001835 ], [ -98.952644000002564, 40.002300000002286 ], [ -99.179134000002037, 40.002013000002485 ], [ -99.29184600000228, 40.001940000002527 ], [ -99.404656000001637, 40.002192000002267 ], [ -99.628254000001647, 40.001847000002471 ], [ -99.854601000002077, 40.001595000002098 ], [ -100.080715000002087, 40.00159700000183 ], [ -100.19359900000174, 40.001663000002459 ], [ -100.53291600000216, 40.001919000002133 ], [ -100.758830000002078, 40.002302000002302 ], [ -100.871047000002633, 40.002157000002192 ], [ -101.098029000001659, 40.002441000002037 ], [ -101.32403600000184, 40.002697000002357 ], [ -101.531311000002404, 40.00266300000176 ], [ -101.8128060000017, 40.002850000001651 ], [ -102.051744000001761, 40.003078000001679 ], [ -102.051586000002359, 40.349213000002145 ], [ -102.051457000001804, 40.697539000001989 ], [ -102.051717000002085, 41.002359000001825 ], [ -102.336122000002007, 41.002195000001983 ], [ -102.621033000002726, 41.002597000002226 ], [ -102.735704000002485, 41.002213000001532 ], [ -102.963669000001943, 41.002186000002055 ], [ -103.306245000001937, 41.001912000001838 ], [ -103.382492000001619, 41.002252000001853 ], [ -103.534886000002018, 41.001421000002225 ], [ -103.763340000001904, 41.001468000002333 ], [ -104.053249000001557, 41.001406000001531 ], [ -104.052287000001584, 41.39321400000204 ] ] ] } }
]
}
