{
"type": "FeatureCollection",
"name": "nevada_optimized_districts_all",
"crs": { "type": "name", "properties": { "name": "urn:ogc:def:crs:OGC:1.3:CRS84" } },
"features": [
{ "type": "Feature", "properties": { "opt_all": 1, "population": 777999.0, "voting_age_pop": 606876.0, "dem_votes": 124586.0, "rep_votes": 78464.0, "minority_pop": 381436.0, "dem_pct": 0.6135730112713258, "rep_pct": 0.38642698823618465 }, "geometry": { "type": "Polygon", "coordinates": [ [ [ -115.22495600000218, 36.107169000001718 ], [ -115.224869000002158, 36.114410000001094 ], [ -115.233900000001682, 36.114464000001455 ], [ -115.243036000002164, 36.114457000001295 ], [ -115.24304900000206, 36.121973000001454 ], [ -115.24306300000228, 36.129471000001637 ], [ -115.243033000001446, 36.144227000001173 ], [ -115.260940000001725, 36.14369700000195 ], [ -115.26162000000204, 36.151354000001277 ], [ -115.262318000002438, 36.15916700000119 ], [ -115.252990000001645, 36.159171000001251 ], [ -115.243791000002076, 36.159184000001538 ], [ -115.244380000001442, 36.166443000001415 ], [ -115.242067000002095, 36.166444000001832 ], [ -115.233051000001865, 36.168257000001908 ], [ -115.233155000001844, 36.173488000001058 ], [ -115.243809000002486, 36.176680000001291 ], [ -115.244058000001417, 36.176482000001798 ], [ -115.250894000001679, 36.177897000001465 ], [ -115.25111800000164, 36.188712000001601 ], [ -115.244624000002247, 36.188621000001561 ], [ -115.242289000001506, 36.188626000001193 ], [ -115.233164000001423, 36.188548000001134 ], [ -115.224044000002465, 36.188483000001547 ], [ -115.223957000001647, 36.193606000001438 ], [ -115.223884000002442, 36.195736000001837 ], [ -115.214901000002243, 36.19560900000107 ], [ -115.212656000002156, 36.195573000001382 ], [ -115.207757000001976, 36.195504000001421 ], [ -115.207475000002034, 36.195501000001805 ], [ -115.205951000001576, 36.195486000001409 ], [ -115.205827000001761, 36.201110000001144 ], [ -115.205814000002107, 36.20156200000153 ], [ -115.205457000001999, 36.209712000001822 ], [ -115.199111000002375, 36.202783000001091 ], [ -115.165301000001847, 36.202973000001158 ], [ -115.160784000002138, 36.203000000001154 ], [ -115.161225000001977, 36.217681000001335 ], [ -115.161607000001439, 36.224820000001657 ], [ -115.152469000002199, 36.224844000001838 ], [ -115.143069000002299, 36.217970000001898 ], [ -115.124146000001602, 36.217680000001792 ], [ -115.123179000002239, 36.217668000001339 ], [ -115.120882000001743, 36.217670000001881 ], [ -115.107503000001444, 36.217658000001954 ], [ -115.105776000002194, 36.210499000001271 ], [ -115.107645000002165, 36.20941600000171 ], [ -115.106968000001444, 36.203253000001517 ], [ -115.0984170000022, 36.203203000001452 ], [ -115.098393000002318, 36.195799000001159 ], [ -115.098284000001939, 36.188129000001133 ], [ -115.107209000001419, 36.188312000001837 ], [ -115.107238000002383, 36.181058000001507 ], [ -115.098280000001395, 36.180909000001769 ], [ -115.098250000001727, 36.177157000001969 ], [ -115.098241000002275, 36.173488000001136 ], [ -115.098217000001526, 36.16685700000145 ], [ -115.096415000002438, 36.166143000001746 ], [ -115.091537000001765, 36.15888400000145 ], [ -115.080198000001474, 36.159006000001661 ], [ -115.080498000001796, 36.166292000001569 ], [ -115.064329000001919, 36.166490000001303 ], [ -115.062164000002142, 36.166533000001721 ], [ -115.053190000002047, 36.166901000001374 ], [ -115.053351000002095, 36.159385000001805 ], [ -115.062350000001501, 36.159107000001754 ], [ -115.057110000001643, 36.146163000001238 ], [ -115.04728700000156, 36.144569000001241 ], [ -115.047382000002003, 36.139988000001807 ], [ -115.047366000002199, 36.137214000001634 ], [ -115.038436000002463, 36.137204000001127 ], [ -115.033615000002257, 36.144549000001689 ], [ -115.029145000002345, 36.144488000001346 ], [ -115.029129000002015, 36.137171000001686 ], [ -115.010798000001685, 36.158959000001268 ], [ -115.008004000001463, 36.158902000001319 ], [ -114.991041000001474, 36.15907400000134 ], [ -114.990521000001763, 36.196398000001629 ], [ -114.990476000002062, 36.201985000001258 ], [ -114.988857000001744, 36.247021000001212 ], [ -114.919224000002501, 36.246913000001918 ], [ -114.883625000001544, 36.246967000001639 ], [ -114.667957000001579, 36.247299000001547 ], [ -114.661833000001721, 36.118158000001166 ], [ -114.73408500000194, 36.104672000001301 ], [ -114.741129000002317, 36.065454000001694 ], [ -114.737290000001664, 36.016179000001614 ], [ -114.800092000002465, 36.043837000001098 ], [ -114.794609000002083, 36.074414000001227 ], [ -114.884693000002159, 36.118714000001972 ], [ -114.903689000001663, 36.099385000001305 ], [ -114.914291000002166, 35.977949000001132 ], [ -114.915351000002261, 35.978807000001538 ], [ -114.912900000002324, 35.972802000001806 ], [ -114.909909000001676, 35.970006000001938 ], [ -114.910677000002423, 35.968571000001667 ], [ -114.9543870000021, 35.983112000001078 ], [ -114.934071000002035, 35.995550000001344 ], [ -114.942516000002314, 36.004623000001374 ], [ -114.953334000001846, 36.014175000001245 ], [ -114.950490000001736, 36.016365000001755 ], [ -114.949786000001694, 36.027170000001469 ], [ -114.95913400000174, 36.027164000001449 ], [ -114.959129000001724, 36.036059000001501 ], [ -114.966623000001519, 36.037782000001663 ], [ -114.967228000002422, 36.037913000001645 ], [ -114.971182000002045, 36.030120000001595 ], [ -114.978702000001647, 36.036830000001601 ], [ -114.984442000001479, 36.034103000001679 ], [ -114.987754000002241, 36.027023000001769 ], [ -114.991940000001762, 36.027945000001182 ], [ -115.0057700000024, 36.028356000001565 ], [ -115.008855000001518, 36.02826200000127 ], [ -115.014540000002441, 36.030923000001621 ], [ -115.018159000002484, 36.033066000001227 ], [ -115.029501000002327, 36.031788000001242 ], [ -115.047150000001722, 36.029269000001968 ], [ -115.056072000001862, 36.028175000001248 ], [ -115.060178000001599, 36.034227000001238 ], [ -115.064942000001722, 36.033002000001559 ], [ -115.062707000002433, 36.027343000001338 ], [ -115.079154000001424, 36.025238000001636 ], [ -115.077914000001755, 36.030239000001323 ], [ -115.084587000002244, 36.034544000001603 ], [ -115.084868000001435, 36.024420000001349 ], [ -115.092492000002181, 36.023385000001149 ], [ -115.094088000002216, 36.03527000000112 ], [ -115.100227000001937, 36.034225000001179 ], [ -115.108931000001604, 36.034625000001355 ], [ -115.110949000001995, 36.027616000001508 ], [ -115.118383000001998, 36.033106000001112 ], [ -115.118498000002262, 36.023617000001451 ], [ -115.118605000001565, 36.020481000001624 ], [ -115.118698000002283, 36.016909000001775 ], [ -115.118778000001384, 36.013339000001579 ], [ -115.127732000002339, 36.013319000001594 ], [ -115.13672200000164, 36.013266000001963 ], [ -115.136436000002519, 36.020608000001459 ], [ -115.145305000001599, 36.020549000001203 ], [ -115.154579000002215, 36.020494000001705 ], [ -115.15460600000182, 36.016886000001946 ], [ -115.163431000002205, 36.017144000001927 ], [ -115.172337000001775, 36.017379000001952 ], [ -115.180691000001886, 36.017243000001727 ], [ -115.180627000001721, 36.028438000001728 ], [ -115.18060700000234, 36.0435630000012 ], [ -115.180606000001958, 36.057054000001081 ], [ -115.190247000001847, 36.057182000001681 ], [ -115.190124000001873, 36.066604000001135 ], [ -115.203126000002314, 36.068588000001142 ], [ -115.207832000001474, 36.071708000001586 ], [ -115.20789900000176, 36.086348000001323 ], [ -115.216547000001725, 36.093131000001222 ], [ -115.216501000002324, 36.100382000001751 ], [ -115.225040000002082, 36.0998850000014 ], [ -115.224995000001741, 36.103783000001783 ], [ -115.22495600000218, 36.107169000001718 ] ] ] } },
{ "type": "Feature", "properties": { "opt_all": 2, "population": 774745.0, "voting_age_pop": 609243.0, "dem_votes": 130770.0, "rep_votes": 173032.0, "minority_pop": 202823.0, "dem_pct": 0.43044482905627846, "rep_pct": 0.56955517061455974 }, "geometry": { "type": "Polygon", "coordinates": [ [ [ -120.005634000001166, 39.222610000001367 ], [ -120.005679000002004, 39.236249000000797 ], [ -120.006473000001677, 39.272878000001491 ], [ -120.006452000002199, 39.278897000001535 ], [ -120.006276000001606, 39.330683000001365 ], [ -120.006127000001641, 39.374106000001014 ], [ -120.003383000002046, 39.456849000001597 ], [ -120.003056000001465, 39.46318500000158 ], [ -120.002317000001923, 39.494657000001403 ], [ -120.002303000002115, 39.495515000001603 ], [ -120.002299000001997, 39.495799000001043 ], [ -120.002187000001484, 39.502567000001321 ], [ -120.002181000001954, 39.50288200000093 ], [ -120.002155000001565, 39.504362000000889 ], [ -120.001477000001799, 39.578827000001574 ], [ -120.000820000002122, 39.606828000001251 ], [ -120.001140000002167, 39.635795000001174 ], [ -120.001157000001101, 39.650294000001608 ], [ -120.001013000001876, 39.734189000001024 ], [ -120.000306000001245, 39.808523000001351 ], [ -119.999084000002142, 39.904257000001529 ], [ -119.996284000002078, 40.245449000001095 ], [ -119.995976000001875, 40.570550000000857 ], [ -119.999875000001197, 40.999894000001447 ], [ -119.999471000002018, 41.499894000000729 ], [ -119.999234000000982, 41.994944000001091 ], [ -119.324184000001495, 41.993923000000791 ], [ -118.67649900000184, 41.992154000001129 ], [ -118.3271920000021, 41.996540000001559 ], [ -117.626018000001196, 41.998096000001311 ], [ -117.018204000002243, 41.999715000001423 ], [ -116.378176000002199, 41.996472000001347 ], [ -115.986799000001994, 41.996523000001368 ], [ -115.352449000001755, 41.996317000001369 ], [ -115.033002000001474, 41.996245000001721 ], [ -114.851754000001762, 42.001716000000947 ], [ -114.598281000001677, 41.994594000001157 ], [ -114.396128000001355, 41.994490000001761 ], [ -114.041477000001834, 41.993873000001003 ], [ -114.040715000001384, 41.534048000001363 ], [ -114.041542000001684, 41.11670100000169 ], [ -114.043401000002376, 40.755552000001416 ], [ -114.043689000001393, 40.735776000001351 ], [ -114.043762000001323, 40.726034000001171 ], [ -114.04661400000164, 40.116936000001637 ], [ -114.046839000001555, 39.709111000001144 ], [ -114.048343000002006, 39.332135000001507 ], [ -114.049807000001621, 38.677365000001352 ], [ -114.267404000001605, 38.677345000001843 ], [ -114.962002000002286, 38.677312000001137 ], [ -115.000846000001658, 38.677322000001503 ], [ -115.049426000001745, 38.703715000001203 ], [ -115.510310000002121, 38.951991000001357 ], [ -115.621330000001606, 39.010551000001293 ], [ -115.842560000002237, 39.128325000001055 ], [ -115.907071000001537, 39.16184800000152 ], [ -115.907233000001398, 39.379337000001421 ], [ -115.907659000001914, 39.464432000000997 ], [ -115.842154000001699, 39.511244000001248 ], [ -115.813476000002396, 39.593521000000948 ], [ -115.833101000001804, 39.729412000001439 ], [ -115.810054000002282, 39.761854000001058 ], [ -115.794864000002264, 39.85310400000099 ], [ -115.835653000002139, 39.994689000001699 ], [ -115.834969000002246, 40.127842000001408 ], [ -116.000897000001515, 40.127376000001455 ], [ -116.009051000002046, 40.156387000001651 ], [ -116.120951000001924, 40.540952000001603 ], [ -116.15783400000204, 40.666389000001558 ], [ -116.15807800000124, 40.973141000001732 ], [ -116.158155000002225, 40.999912000001579 ], [ -116.586786000002206, 41.00039800000151 ], [ -117.01841900000116, 41.000254000001412 ], [ -117.018615000001745, 40.706310000001331 ], [ -117.018664000001337, 40.643035000001703 ], [ -117.246788000002297, 40.642445000001167 ], [ -117.30059700000136, 40.526136000001635 ], [ -117.541749000001886, 40.00103400000139 ], [ -117.478042000001523, 39.939617000001192 ], [ -117.4613400000014, 39.867818000001378 ], [ -117.488242000001847, 39.826625000000938 ], [ -117.49534400000222, 39.748364000001423 ], [ -117.4645860000022, 39.67947400000152 ], [ -117.486071000001161, 39.644966000001197 ], [ -117.485336000002064, 39.545322000000901 ], [ -117.58714000000144, 39.518521000001058 ], [ -117.646011000001621, 39.42660200000136 ], [ -117.763046000002007, 39.35283000000161 ], [ -117.719950000001276, 39.236821000001534 ], [ -117.7442340000012, 39.191425000001132 ], [ -117.793046000001823, 39.161099000001542 ], [ -117.775468000001965, 39.093425000001069 ], [ -117.865116000001322, 39.073654000001632 ], [ -118.196274000002077, 38.99992600000094 ], [ -118.196235000002062, 38.919058000001392 ], [ -117.802462000001242, 38.571970000001301 ], [ -117.733214000002164, 38.510606000001509 ], [ -117.691021000002195, 38.473797000001262 ], [ -118.223718000001995, 38.009145000001325 ], [ -118.351484000001861, 37.893705000001745 ], [ -118.42814400000232, 37.896220000001421 ], [ -118.461322000001545, 37.920152000001103 ], [ -119.155564000002045, 38.413763000001289 ], [ -119.330052000001913, 38.535961000000938 ], [ -119.656579000001216, 38.762436000000982 ], [ -119.695346000001081, 38.789305000001001 ], [ -119.753965000001742, 38.829819000001102 ], [ -119.779027000001875, 38.847126000000827 ], [ -119.900596000002153, 38.930760000001328 ], [ -119.942042000002047, 38.959224000000965 ], [ -119.94964100000152, 38.964270000000894 ], [ -120.001014000001916, 38.999574000000926 ], [ -120.003429000001645, 39.112687000001451 ], [ -120.00429700000204, 39.165603000001497 ], [ -120.005634000001166, 39.222610000001367 ] ] ] } },
{ "type": "Feature", "properties": { "opt_all": 3, "population": 773203.0, "voting_age_pop": 612101.0, "dem_votes": 140001.0, "rep_votes": 134426.0, "minority_pop": 293958.0, "dem_pct": 0.5101575280456524, "rep_pct": 0.48984247158995198 }, "geometry": { "type": "Polygon", "coordinates": [ [ [ -115.470931000001585, 35.669910000001082 ], [ -115.834582000002314, 35.954817000001391 ], [ -115.845994000001639, 35.963707000001214 ], [ -115.845803000001496, 36.122048000001222 ], [ -115.781808000001519, 36.125125000001816 ], [ -115.670282000001478, 36.161076000001451 ], [ -115.576071000001576, 36.164800000001279 ], [ -115.572462000001963, 36.117657000001252 ], [ -115.499078000001504, 36.160125000001251 ], [ -115.421319000001517, 36.131551000001487 ], [ -115.387769000002194, 36.144966000001283 ], [ -115.363110000001441, 36.155449000001063 ], [ -115.360810000001905, 36.157500000001626 ], [ -115.365754000001687, 36.161740000001686 ], [ -115.355456000001595, 36.171454000001546 ], [ -115.353212000001633, 36.181481000001128 ], [ -115.341201000001405, 36.181527000001502 ], [ -115.342408000002138, 36.191624000001461 ], [ -115.332785000001493, 36.192614000001136 ], [ -115.323657000001518, 36.193509000001335 ], [ -115.319988000001473, 36.205134000001252 ], [ -115.320120000002461, 36.207004000001305 ], [ -115.307049000002323, 36.212930000001251 ], [ -115.306358000001595, 36.218435000001371 ], [ -115.297128000001962, 36.218565000001142 ], [ -115.297274000002446, 36.222346000001366 ], [ -115.288178000001764, 36.226143000001102 ], [ -115.288400000002483, 36.233722000001215 ], [ -115.286123000001595, 36.233706000001071 ], [ -115.28608300000208, 36.234636000001345 ], [ -115.286102000002103, 36.235547000001176 ], [ -115.284900000002082, 36.235550000001155 ], [ -115.284901000002193, 36.234641000001218 ], [ -115.284908000002119, 36.233712000001518 ], [ -115.283744000001718, 36.233722000001251 ], [ -115.283743000001579, 36.234646000001725 ], [ -115.282587000002223, 36.235560000001861 ], [ -115.279126000002378, 36.233742000001925 ], [ -115.278947000001438, 36.226191000001585 ], [ -115.27878600000146, 36.218634000001614 ], [ -115.274190000001795, 36.218545000001576 ], [ -115.260427000001741, 36.21826200000141 ], [ -115.260509000001605, 36.21376800000106 ], [ -115.260699000001424, 36.203488000001073 ], [ -115.251433000001938, 36.203445000001132 ], [ -115.244675000002303, 36.203414000001374 ], [ -115.244672000001785, 36.196019000001861 ], [ -115.244624000002247, 36.188621000001561 ], [ -115.25111800000164, 36.188712000001601 ], [ -115.250894000001679, 36.177897000001465 ], [ -115.244058000001417, 36.176482000001798 ], [ -115.243809000002486, 36.176680000001291 ], [ -115.233155000001844, 36.173488000001058 ], [ -115.233051000001865, 36.168257000001908 ], [ -115.242067000002095, 36.166444000001832 ], [ -115.244380000001442, 36.166443000001415 ], [ -115.243791000002076, 36.159184000001538 ], [ -115.252990000001645, 36.159171000001251 ], [ -115.262318000002438, 36.15916700000119 ], [ -115.26162000000204, 36.151354000001277 ], [ -115.260940000001725, 36.14369700000195 ], [ -115.243033000001446, 36.144227000001173 ], [ -115.24306300000228, 36.129471000001637 ], [ -115.24304900000206, 36.121973000001454 ], [ -115.243036000002164, 36.114457000001295 ], [ -115.233900000001682, 36.114464000001455 ], [ -115.224869000002158, 36.114410000001094 ], [ -115.22495600000218, 36.107169000001718 ], [ -115.224995000001741, 36.103783000001783 ], [ -115.225040000002082, 36.0998850000014 ], [ -115.216501000002324, 36.100382000001751 ], [ -115.216547000001725, 36.093131000001222 ], [ -115.20789900000176, 36.086348000001323 ], [ -115.207832000001474, 36.071708000001586 ], [ -115.203126000002314, 36.068588000001142 ], [ -115.190124000001873, 36.066604000001135 ], [ -115.190247000001847, 36.057182000001681 ], [ -115.180606000001958, 36.057054000001081 ], [ -115.18060700000234, 36.0435630000012 ], [ -115.180627000001721, 36.028438000001728 ], [ -115.180691000001886, 36.017243000001727 ], [ -115.172337000001775, 36.017379000001952 ], [ -115.163431000002205, 36.017144000001927 ], [ -115.15460600000182, 36.016886000001946 ], [ -115.154579000002215, 36.020494000001705 ], [ -115.145305000001599, 36.020549000001203 ], [ -115.136436000002519, 36.020608000001459 ], [ -115.13672200000164, 36.013266000001963 ], [ -115.127732000002339, 36.013319000001594 ], [ -115.118778000001384, 36.013339000001579 ], [ -115.118698000002283, 36.016909000001775 ], [ -115.118605000001565, 36.020481000001624 ], [ -115.118498000002262, 36.023617000001451 ], [ -115.118383000001998, 36.033106000001112 ], [ -115.110949000001995, 36.027616000001508 ], [ -115.108931000001604, 36.034625000001355 ], [ -115.100227000001937, 36.034225000001179 ], [ -115.094088000002216, 36.03527000000112 ], [ -115.092492000002181, 36.023385000001149 ], [ -115.084868000001435, 36.024420000001349 ], [ -115.084587000002244, 36.034544000001603 ], [ -115.077914000001755, 36.030239000001323 ], [ -115.079154000001424, 36.025238000001636 ], [ -115.062707000002433, 36.027343000001338 ], [ -115.064942000001722, 36.033002000001559 ], [ -115.060178000001599, 36.034227000001238 ], [ -115.056072000001862, 36.028175000001248 ], [ -115.047150000001722, 36.029269000001968 ], [ -115.029501000002327, 36.031788000001242 ], [ -115.018159000002484, 36.033066000001227 ], [ -115.014540000002441, 36.030923000001621 ], [ -115.008855000001518, 36.02826200000127 ], [ -115.0057700000024, 36.028356000001565 ], [ -114.991940000001762, 36.027945000001182 ], [ -114.987754000002241, 36.027023000001769 ], [ -114.984442000001479, 36.034103000001679 ], [ -114.978702000001647, 36.036830000001601 ], [ -114.971182000002045, 36.030120000001595 ], [ -114.967228000002422, 36.037913000001645 ], [ -114.966623000001519, 36.037782000001663 ], [ -114.959129000001724, 36.036059000001501 ], [ -114.95913400000174, 36.027164000001449 ], [ -114.949786000001694, 36.027170000001469 ], [ -114.950490000001736, 36.016365000001755 ], [ -114.953334000001846, 36.014175000001245 ], [ -114.942516000002314, 36.004623000001374 ], [ -114.934071000002035, 35.995550000001344 ], [ -114.9543870000021, 35.983112000001078 ], [ -114.910677000002423, 35.968571000001667 ], [ -114.909909000001676, 35.970006000001938 ], [ -114.912900000002324, 35.972802000001806 ], [ -114.915351000002261, 35.978807000001538 ], [ -114.914291000002166, 35.977949000001132 ], [ -114.903689000001663, 36.099385000001305 ], [ -114.884693000002159, 36.118714000001972 ], [ -114.794609000002083, 36.074414000001227 ], [ -114.800092000002465, 36.043837000001098 ], [ -114.737290000001664, 36.016179000001614 ], [ -114.741099000002379, 36.012465000001988 ], [ -114.708112000001861, 35.90993300000158 ], [ -114.663214000001759, 35.87369200000137 ], [ -114.706076000002483, 35.845873000001333 ], [ -114.694267000002242, 35.756633000001955 ], [ -114.705447000002195, 35.711757000001541 ], [ -114.658824000001701, 35.588319000001484 ], [ -114.678892000001483, 35.501276000001269 ], [ -114.66354100000224, 35.447797000001358 ], [ -114.627325000001662, 35.410193000001179 ], [ -114.595163000001861, 35.321883000001982 ], [ -114.571753000002261, 35.197229000001769 ], [ -114.578263000001584, 35.128810000001394 ], [ -114.642831000002118, 35.096503000001768 ], [ -114.617491000001834, 35.051703000001282 ], [ -114.675315000002001, 35.035897000001874 ], [ -114.683513000002279, 35.042550000001341 ], [ -114.87428300000208, 35.195977000001143 ], [ -115.076954000001876, 35.357490000001263 ], [ -115.204361000002166, 35.459125000001883 ], [ -115.366799000002501, 35.587866000001618 ], [ -115.369317000002439, 35.589813000001818 ], [ -115.39146700000218, 35.60731900000129 ], [ -115.470931000001585, 35.669910000001082 ] ] ] } },
{ "type": "Feature", "properties": { "opt_all": 4, "population": 778667.0, "voting_age_pop": 585106.0, "dem_votes": 126255.0, "rep_votes": 110786.0, "minority_pop": 329458.0, "dem_pct": 0.53262937612791483, "rep_pct": 0.46737062345021718 }, "geometry": { "type": "Polygon", "coordinates": [ [ [ -116.108531000001477, 36.167138000001074 ], [ -116.197267000002, 36.235728000001728 ], [ -116.230542000002004, 36.261314000001214 ], [ -116.335510000002344, 36.341483000001851 ], [ -116.710248000002366, 36.627535000001082 ], [ -117.166001000001657, 36.971111000001677 ], [ -117.866144000001484, 37.489946000001424 ], [ -118.42814400000232, 37.896220000001421 ], [ -118.351484000001861, 37.893705000001745 ], [ -118.223718000001995, 38.009145000001325 ], [ -117.691021000002195, 38.473797000001262 ], [ -117.733214000002164, 38.510606000001509 ], [ -117.802462000001242, 38.571970000001301 ], [ -118.196235000002062, 38.919058000001392 ], [ -118.196274000002077, 38.99992600000094 ], [ -117.865116000001322, 39.073654000001632 ], [ -117.775468000001965, 39.093425000001069 ], [ -117.793046000001823, 39.161099000001542 ], [ -117.7442340000012, 39.191425000001132 ], [ -117.719950000001276, 39.236821000001534 ], [ -117.763046000002007, 39.35283000000161 ], [ -117.646011000001621, 39.42660200000136 ], [ -117.58714000000144, 39.518521000001058 ], [ -117.485336000002064, 39.545322000000901 ], [ -117.486071000001161, 39.644966000001197 ], [ -117.4645860000022, 39.67947400000152 ], [ -117.49534400000222, 39.748364000001423 ], [ -117.488242000001847, 39.826625000000938 ], [ -117.4613400000014, 39.867818000001378 ], [ -117.478042000001523, 39.939617000001192 ], [ -117.541749000001886, 40.00103400000139 ], [ -117.30059700000136, 40.526136000001635 ], [ -117.246788000002297, 40.642445000001167 ], [ -117.018664000001337, 40.643035000001703 ], [ -117.018615000001745, 40.706310000001331 ], [ -117.01841900000116, 41.000254000001412 ], [ -116.586786000002206, 41.00039800000151 ], [ -116.158155000002225, 40.999912000001579 ], [ -116.15807800000124, 40.973141000001732 ], [ -116.15783400000204, 40.666389000001558 ], [ -116.120951000001924, 40.540952000001603 ], [ -116.009051000002046, 40.156387000001651 ], [ -116.000897000001515, 40.127376000001455 ], [ -115.834969000002246, 40.127842000001408 ], [ -115.835653000002139, 39.994689000001699 ], [ -115.794864000002264, 39.85310400000099 ], [ -115.810054000002282, 39.761854000001058 ], [ -115.833101000001804, 39.729412000001439 ], [ -115.813476000002396, 39.593521000000948 ], [ -115.842154000001699, 39.511244000001248 ], [ -115.907659000001914, 39.464432000000997 ], [ -115.907233000001398, 39.379337000001421 ], [ -115.907071000001537, 39.16184800000152 ], [ -115.842560000002237, 39.128325000001055 ], [ -115.621330000001606, 39.010551000001293 ], [ -115.510310000002121, 38.951991000001357 ], [ -115.049426000001745, 38.703715000001203 ], [ -115.000846000001658, 38.677322000001503 ], [ -114.962002000002286, 38.677312000001137 ], [ -114.267404000001605, 38.677345000001843 ], [ -114.049807000001621, 38.677365000001352 ], [ -114.049325000002085, 38.266060000001886 ], [ -114.048342000001966, 37.809861000001099 ], [ -114.052211000001407, 37.636320000001774 ], [ -114.052317000002319, 37.098469000001799 ], [ -114.050354000002116, 36.843141000001424 ], [ -114.050135000001873, 36.817881000001471 ], [ -114.050044000001876, 36.80414400000145 ], [ -114.049993000002402, 36.799607000001863 ], [ -114.047494000001635, 36.607891000001359 ], [ -114.045518000002119, 36.274390000001496 ], [ -114.043944000002526, 36.193350000001615 ], [ -114.066798000001484, 36.179087000001395 ], [ -114.153400000002279, 36.023170000001969 ], [ -114.243865000001918, 36.015266000001802 ], [ -114.370181000001963, 36.142624000001305 ], [ -114.504715000001795, 36.127188000001986 ], [ -114.571090000001959, 36.151099000001629 ], [ -114.661833000001721, 36.118158000001166 ], [ -114.667957000001579, 36.247299000001547 ], [ -114.883625000001544, 36.246967000001639 ], [ -114.919224000002501, 36.246913000001918 ], [ -114.988857000001744, 36.247021000001212 ], [ -114.990476000002062, 36.201985000001258 ], [ -114.990521000001763, 36.196398000001629 ], [ -114.991041000001474, 36.15907400000134 ], [ -115.008004000001463, 36.158902000001319 ], [ -115.010798000001685, 36.158959000001268 ], [ -115.029129000002015, 36.137171000001686 ], [ -115.029145000002345, 36.144488000001346 ], [ -115.033615000002257, 36.144549000001689 ], [ -115.038436000002463, 36.137204000001127 ], [ -115.047366000002199, 36.137214000001634 ], [ -115.047382000002003, 36.139988000001807 ], [ -115.04728700000156, 36.144569000001241 ], [ -115.057110000001643, 36.146163000001238 ], [ -115.062350000001501, 36.159107000001754 ], [ -115.053351000002095, 36.159385000001805 ], [ -115.053190000002047, 36.166901000001374 ], [ -115.062164000002142, 36.166533000001721 ], [ -115.064329000001919, 36.166490000001303 ], [ -115.080498000001796, 36.166292000001569 ], [ -115.080198000001474, 36.159006000001661 ], [ -115.091537000001765, 36.15888400000145 ], [ -115.096415000002438, 36.166143000001746 ], [ -115.098217000001526, 36.16685700000145 ], [ -115.098241000002275, 36.173488000001136 ], [ -115.098250000001727, 36.177157000001969 ], [ -115.098280000001395, 36.180909000001769 ], [ -115.107238000002383, 36.181058000001507 ], [ -115.107209000001419, 36.188312000001837 ], [ -115.098284000001939, 36.188129000001133 ], [ -115.098393000002318, 36.195799000001159 ], [ -115.0984170000022, 36.203203000001452 ], [ -115.106968000001444, 36.203253000001517 ], [ -115.107645000002165, 36.20941600000171 ], [ -115.105776000002194, 36.210499000001271 ], [ -115.107503000001444, 36.217658000001954 ], [ -115.120882000001743, 36.217670000001881 ], [ -115.123179000002239, 36.217668000001339 ], [ -115.124146000001602, 36.217680000001792 ], [ -115.143069000002299, 36.217970000001898 ], [ -115.152469000002199, 36.224844000001838 ], [ -115.161607000001439, 36.224820000001657 ], [ -115.161225000001977, 36.217681000001335 ], [ -115.160784000002138, 36.203000000001154 ], [ -115.165301000001847, 36.202973000001158 ], [ -115.199111000002375, 36.202783000001091 ], [ -115.205457000001999, 36.209712000001822 ], [ -115.205814000002107, 36.20156200000153 ], [ -115.205827000001761, 36.201110000001144 ], [ -115.205951000001576, 36.195486000001409 ], [ -115.207475000002034, 36.195501000001805 ], [ -115.207757000001976, 36.195504000001421 ], [ -115.212656000002156, 36.195573000001382 ], [ -115.214901000002243, 36.19560900000107 ], [ -115.223884000002442, 36.195736000001837 ], [ -115.223957000001647, 36.193606000001438 ], [ -115.224044000002465, 36.188483000001547 ], [ -115.233164000001423, 36.188548000001134 ], [ -115.242289000001506, 36.188626000001193 ], [ -115.244624000002247, 36.188621000001561 ], [ -115.244672000001785, 36.196019000001861 ], [ -115.244675000002303, 36.203414000001374 ], [ -115.251433000001938, 36.203445000001132 ], [ -115.260699000001424, 36.203488000001073 ], [ -115.260509000001605, 36.21376800000106 ], [ -115.260427000001741, 36.21826200000141 ], [ -115.274190000001795, 36.218545000001576 ], [ -115.27878600000146, 36.218634000001614 ], [ -115.278947000001438, 36.226191000001585 ], [ -115.279126000002378, 36.233742000001925 ], [ -115.282587000002223, 36.235560000001861 ], [ -115.283743000001579, 36.234646000001725 ], [ -115.283744000001718, 36.233722000001251 ], [ -115.284908000002119, 36.233712000001518 ], [ -115.284901000002193, 36.234641000001218 ], [ -115.284900000002082, 36.235550000001155 ], [ -115.286102000002103, 36.235547000001176 ], [ -115.28608300000208, 36.234636000001345 ], [ -115.286123000001595, 36.233706000001071 ], [ -115.288400000002483, 36.233722000001215 ], [ -115.288178000001764, 36.226143000001102 ], [ -115.297274000002446, 36.222346000001366 ], [ -115.297128000001962, 36.218565000001142 ], [ -115.306358000001595, 36.218435000001371 ], [ -115.307049000002323, 36.212930000001251 ], [ -115.320120000002461, 36.207004000001305 ], [ -115.319988000001473, 36.205134000001252 ], [ -115.323657000001518, 36.193509000001335 ], [ -115.332785000001493, 36.192614000001136 ], [ -115.342408000002138, 36.191624000001461 ], [ -115.341201000001405, 36.181527000001502 ], [ -115.353212000001633, 36.181481000001128 ], [ -115.355456000001595, 36.171454000001546 ], [ -115.365754000001687, 36.161740000001686 ], [ -115.360810000001905, 36.157500000001626 ], [ -115.363110000001441, 36.155449000001063 ], [ -115.387769000002194, 36.144966000001283 ], [ -115.421319000001517, 36.131551000001487 ], [ -115.499078000001504, 36.160125000001251 ], [ -115.572462000001963, 36.117657000001252 ], [ -115.576071000001576, 36.164800000001279 ], [ -115.670282000001478, 36.161076000001451 ], [ -115.781808000001519, 36.125125000001816 ], [ -115.845803000001496, 36.122048000001222 ], [ -115.845994000001639, 35.963707000001214 ], [ -115.921842000002002, 36.02234900000132 ], [ -115.939620000001554, 36.036182000001418 ], [ -115.95761000000212, 36.050165000001954 ], [ -115.993107000002098, 36.077771000001171 ], [ -116.010091000001822, 36.091133000001562 ], [ -116.108531000001477, 36.167138000001074 ] ] ] } }
]
}
