{
"type": "FeatureCollection",
"name": "nevada_enacted_districts",
"crs": { "type": "name", "properties": { "name": "urn:ogc:def:crs:OGC:1.3:CRS84" } },
"features": [
{ "type": "Feature", "properties": { "enacted_district": 1, "population": 770872.0, "voting_age_pop": 598810.0, "dem_votes": 129198.0, "rep_votes": 105067.0, "minority_pop": 334700.0, "dem_pct": 0.55150363880583797, "rep_pct": 0.44849636076729499 }, "geometry": { "type": "Polygon", "coordinates": [ [ [ -115.207049000002456, 35.897288000001389 ], [ -115.212496000001565, 35.897305000001175 ], [ -115.216608000002495, 35.897283000001863 ], [ -115.193194000002194, 35.930620000001618 ], [ -115.182147000002416, 35.955033000001578 ], [ -115.181916000001678, 35.96175400000174 ], [ -115.172860000001705, 35.965823000001649 ], [ -115.172766000001943, 35.969861000001465 ], [ -115.168046000002178, 35.968614000001892 ], [ -115.167449000001767, 35.969050000001907 ], [ -115.165830000002302, 35.970208000001882 ], [ -115.160558000001757, 35.975796000001587 ], [ -115.154803000001678, 35.981194000001352 ], [ -115.154721000002198, 35.984813000001417 ], [ -115.154829000001513, 35.992947000001763 ], [ -115.147801000001621, 35.993772000001229 ], [ -115.146267000002197, 35.98473400000136 ], [ -115.136912000001843, 35.999104000001772 ], [ -115.127359000002315, 36.00014400000142 ], [ -115.125848000002037, 35.998710000001651 ], [ -115.118898000001863, 36.003878000001677 ], [ -115.118803000002458, 36.012340000001437 ], [ -115.118778000001384, 36.013339000001579 ], [ -115.118698000002283, 36.016909000001775 ], [ -115.118605000001565, 36.020481000001624 ], [ -115.100624000002099, 36.020513000001273 ], [ -115.100649000001596, 36.023450000001503 ], [ -115.100464000001523, 36.027787000001496 ], [ -115.110949000001995, 36.027616000001508 ], [ -115.118383000001998, 36.033106000001112 ], [ -115.1183490000017, 36.034945000001592 ], [ -115.118267000002163, 36.040412000001083 ], [ -115.113750000001815, 36.04228000000144 ], [ -115.118228000001963, 36.044058000001513 ], [ -115.118156000002003, 36.049539000001843 ], [ -115.109257000001605, 36.049627000001834 ], [ -115.100301000001963, 36.05338100000197 ], [ -115.100314000002243, 36.055322000001915 ], [ -115.091619000001558, 36.064007000001375 ], [ -115.091731000002483, 36.067637000001199 ], [ -115.087079000001836, 36.071044000001443 ], [ -115.081137000001917, 36.078226000001905 ], [ -115.0785540000022, 36.080066000001672 ], [ -115.077754000002358, 36.07819400000173 ], [ -115.073217000001463, 36.078139000001919 ], [ -115.073059000001606, 36.085625000001869 ], [ -115.077618000001721, 36.085619000001387 ], [ -115.091316000002095, 36.085618000001531 ], [ -115.100951000001885, 36.086355000001134 ], [ -115.118813000001794, 36.086181000001652 ], [ -115.118744000001541, 36.078900000001667 ], [ -115.118687000001643, 36.071567000001522 ], [ -115.11837400000168, 36.059760000001475 ], [ -115.132140000001442, 36.065043000001168 ], [ -115.136423000002083, 36.066057000001791 ], [ -115.14597000000164, 36.071540000001534 ], [ -115.158182000002327, 36.071292000001151 ], [ -115.172472000001719, 36.072307000001814 ], [ -115.180542000002077, 36.07665800000116 ], [ -115.180482000001874, 36.100698000001096 ], [ -115.180450000001514, 36.114393000001186 ], [ -115.180384000001396, 36.126198000001601 ], [ -115.181130000001446, 36.130053000001219 ], [ -115.180270000002125, 36.133464000001766 ], [ -115.177165000002447, 36.137127000001193 ], [ -115.170852000002185, 36.144305000001708 ], [ -115.166124000001801, 36.144070000001605 ], [ -115.157331000001818, 36.143719000001774 ], [ -115.154243000002282, 36.14838000000185 ], [ -115.148679000001536, 36.156972000001929 ], [ -115.147419000002486, 36.158886000001232 ], [ -115.156308000001474, 36.158897000001346 ], [ -115.151396000002521, 36.166406000001466 ], [ -115.131903000001927, 36.166969000001274 ], [ -115.130010000001718, 36.170046000001648 ], [ -115.135633000001761, 36.172714000001285 ], [ -115.137827000002105, 36.173721000001429 ], [ -115.13555800000168, 36.177362000001715 ], [ -115.134163000001621, 36.181185000001932 ], [ -115.133950000002102, 36.188441000001141 ], [ -115.130564000002323, 36.188451000001926 ], [ -115.125051000001918, 36.188443000001527 ], [ -115.120571000001604, 36.188465000001777 ], [ -115.11610800000156, 36.188483000001547 ], [ -115.1076890000014, 36.188324000001572 ], [ -115.107209000001419, 36.188312000001837 ], [ -115.098284000001939, 36.188129000001133 ], [ -115.091610000002305, 36.18829300000187 ], [ -115.079874000002405, 36.18850600000146 ], [ -115.062263000001963, 36.188821000001141 ], [ -115.062208000002315, 36.196229000001765 ], [ -115.062241000002004, 36.203600000001401 ], [ -115.057559000002399, 36.203539000001129 ], [ -115.043676000001966, 36.203544000001159 ], [ -115.043595000002298, 36.210886000001977 ], [ -115.034931000002061, 36.210631000001079 ], [ -115.026152000001503, 36.210379000001822 ], [ -115.026939000001477, 36.202510000001773 ], [ -115.017889000002114, 36.202450000001612 ], [ -115.008958000002295, 36.202548000001961 ], [ -115.008653000002397, 36.198834000001639 ], [ -114.990476000002062, 36.201985000001258 ], [ -114.990521000001763, 36.196398000001629 ], [ -114.991041000001474, 36.15907400000134 ], [ -114.975350000002393, 36.089831000001261 ], [ -114.937708000002004, 36.102021000001812 ], [ -114.939760000001755, 36.080677000001174 ], [ -114.939466000001886, 36.077592000001481 ], [ -114.903689000001663, 36.099385000001305 ], [ -114.906387000002383, 36.121780000001408 ], [ -114.904899000002274, 36.122235000001346 ], [ -114.88435300000144, 36.129851000001423 ], [ -114.741129000002317, 36.065454000001694 ], [ -114.737290000001664, 36.016179000001614 ], [ -114.741099000002379, 36.012465000001988 ], [ -114.708112000001861, 35.90993300000158 ], [ -114.663214000001759, 35.87369200000137 ], [ -114.706076000002483, 35.845873000001333 ], [ -114.694267000002242, 35.756633000001955 ], [ -114.705447000002195, 35.711757000001541 ], [ -114.658824000001701, 35.588319000001484 ], [ -115.100841000001736, 35.589661000001108 ], [ -115.207278000002006, 35.590276000001737 ], [ -115.207049000002456, 35.897288000001389 ] ] ] } },
{ "type": "Feature", "properties": { "enacted_district": 2, "population": 777286.0, "voting_age_pop": 610925.0, "dem_votes": 130564.0, "rep_votes": 174052.0, "minority_pop": 203027.0, "dem_pct": 0.42861832588287602, "rep_pct": 0.57138167378884175 }, "geometry": { "type": "Polygon", "coordinates": [ [ [ -120.005634000001166, 39.222610000001367 ], [ -120.005679000002004, 39.236249000000797 ], [ -120.006473000001677, 39.272878000001491 ], [ -120.006452000002199, 39.278897000001535 ], [ -120.006276000001606, 39.330683000001365 ], [ -120.006127000001641, 39.374106000001014 ], [ -120.003383000002046, 39.456849000001597 ], [ -120.003056000001465, 39.46318500000158 ], [ -120.002317000001923, 39.494657000001403 ], [ -120.002303000002115, 39.495515000001603 ], [ -120.002299000001997, 39.495799000001043 ], [ -120.002187000001484, 39.502567000001321 ], [ -120.002181000001954, 39.50288200000093 ], [ -120.002155000001565, 39.504362000000889 ], [ -120.001477000001799, 39.578827000001574 ], [ -120.000820000002122, 39.606828000001251 ], [ -120.001140000002167, 39.635795000001174 ], [ -120.001157000001101, 39.650294000001608 ], [ -120.001013000001876, 39.734189000001024 ], [ -120.000306000001245, 39.808523000001351 ], [ -119.999084000002142, 39.904257000001529 ], [ -119.996284000002078, 40.245449000001095 ], [ -119.995976000001875, 40.570550000000857 ], [ -119.999875000001197, 40.999894000001447 ], [ -119.999471000002018, 41.499894000000729 ], [ -119.999234000000982, 41.994944000001091 ], [ -119.324184000001495, 41.993923000000791 ], [ -118.67649900000184, 41.992154000001129 ], [ -118.3271920000021, 41.996540000001559 ], [ -117.626018000001196, 41.998096000001311 ], [ -117.018204000002243, 41.999715000001423 ], [ -116.378176000002199, 41.996472000001347 ], [ -115.986799000001994, 41.996523000001368 ], [ -115.352449000001755, 41.996317000001369 ], [ -115.033002000001474, 41.996245000001721 ], [ -114.851754000001762, 42.001716000000947 ], [ -114.598281000001677, 41.994594000001157 ], [ -114.396128000001355, 41.994490000001761 ], [ -114.041477000001834, 41.993873000001003 ], [ -114.040715000001384, 41.534048000001363 ], [ -114.041542000001684, 41.11670100000169 ], [ -114.043401000002376, 40.755552000001416 ], [ -114.043689000001393, 40.735776000001351 ], [ -114.043762000001323, 40.726034000001171 ], [ -114.04661400000164, 40.116936000001637 ], [ -114.046839000001555, 39.709111000001144 ], [ -114.048343000002006, 39.332135000001507 ], [ -114.049807000001621, 38.677365000001352 ], [ -114.267404000001605, 38.677345000001843 ], [ -114.962002000002286, 38.677312000001137 ], [ -115.000846000001658, 38.677322000001503 ], [ -115.049426000001745, 38.703715000001203 ], [ -115.510310000002121, 38.951991000001357 ], [ -115.621330000001606, 39.010551000001293 ], [ -115.842560000002237, 39.128325000001055 ], [ -115.907071000001537, 39.16184800000152 ], [ -116.462325000001357, 39.161703000001488 ], [ -116.60094600000204, 39.161463000001419 ], [ -116.827065000001582, 39.162077000001275 ], [ -117.177239000001819, 39.163268000001231 ], [ -117.331857000002316, 39.163430000001277 ], [ -117.775468000001965, 39.093425000001069 ], [ -117.865116000001322, 39.073654000001632 ], [ -118.314452000001438, 39.073660000000892 ], [ -118.4177520000014, 39.073691000001027 ], [ -118.477505000001841, 39.073682000001071 ], [ -118.755059000002205, 39.074702000001146 ], [ -118.922861000001959, 39.069642000001522 ], [ -118.923037000001557, 39.06940800000126 ], [ -118.943669000001506, 39.042014000001593 ], [ -118.993772000001584, 38.975386000001144 ], [ -119.014858000001425, 38.944140000001283 ], [ -119.01449900000172, 38.851951000000945 ], [ -118.902141000002075, 38.851922000001515 ], [ -118.907473000001886, 38.764654000001094 ], [ -118.906496000001326, 38.516312000001214 ], [ -118.997747000002164, 38.576198000001021 ], [ -118.997488000001638, 38.628755000001163 ], [ -119.046032000001944, 38.696276000001546 ], [ -119.102257000001245, 38.808540000001422 ], [ -119.146647000001565, 38.837857000001087 ], [ -119.220989000002064, 38.809290000001575 ], [ -119.328868000001677, 38.799801000001352 ], [ -119.370050000001598, 38.751537000001221 ], [ -119.405431000002139, 38.762274000001426 ], [ -119.405916000001525, 38.736675000001419 ], [ -119.349893000001842, 38.736227000001378 ], [ -119.329897000002035, 38.648724000000868 ], [ -119.330052000001913, 38.535961000000938 ], [ -119.656579000001216, 38.762436000000982 ], [ -119.695346000001081, 38.789305000001001 ], [ -119.753965000001742, 38.829819000001102 ], [ -119.779027000001875, 38.847126000000827 ], [ -119.900596000002153, 38.930760000001328 ], [ -119.942042000002047, 38.959224000000965 ], [ -119.94964100000152, 38.964270000000894 ], [ -120.001014000001916, 38.999574000000926 ], [ -120.003429000001645, 39.112687000001451 ], [ -120.00429700000204, 39.165603000001497 ], [ -120.005634000001166, 39.222610000001367 ] ] ] } },
{ "type": "Feature", "properties": { "enacted_district": 3, "population": 773493.0, "voting_age_pop": 614354.0, "dem_votes": 136154.0, "rep_votes": 116040.0, "minority_pop": 324851.0, "dem_pct": 0.53987803019109171, "rep_pct": 0.46012196941238809 }, "geometry": { "type": "Polygon", "coordinates": [ [ [ -115.369317000002439, 35.589813000001818 ], [ -115.39146700000218, 35.60731900000129 ], [ -115.470931000001585, 35.669910000001082 ], [ -115.834582000002314, 35.954817000001391 ], [ -115.845994000001639, 35.963707000001214 ], [ -115.845803000001496, 36.122048000001222 ], [ -115.781808000001519, 36.125125000001816 ], [ -115.670282000001478, 36.161076000001451 ], [ -115.576071000001576, 36.164800000001279 ], [ -115.572462000001963, 36.117657000001252 ], [ -115.499078000001504, 36.160125000001251 ], [ -115.426387000001441, 36.129249000001451 ], [ -115.421319000001517, 36.131551000001487 ], [ -115.387769000002194, 36.144966000001283 ], [ -115.405674000001696, 36.16668300000147 ], [ -115.397701000002115, 36.210511000001304 ], [ -115.347600000002345, 36.218074000001145 ], [ -115.334150000002481, 36.218413000001505 ], [ -115.334346000001517, 36.232318000001129 ], [ -115.334144000001885, 36.23620900000121 ], [ -115.346940000002022, 36.251491000001472 ], [ -115.333571000002436, 36.308161000001263 ], [ -115.333467000002443, 36.299057000001206 ], [ -115.333389000002157, 36.288280000001677 ], [ -115.333277000002198, 36.266155000001618 ], [ -115.331026000001998, 36.264284000001119 ], [ -115.330963000001844, 36.262584000001361 ], [ -115.32781300000164, 36.262519000001753 ], [ -115.327573000002104, 36.262522000001908 ], [ -115.325259000002077, 36.262550000001539 ], [ -115.322959000001958, 36.262567000001923 ], [ -115.321814000001353, 36.262582000001338 ], [ -115.320673000002273, 36.262589000001363 ], [ -115.314984000002113, 36.262632000001787 ], [ -115.313793000002462, 36.255243000001883 ], [ -115.315016000001521, 36.247889000001528 ], [ -115.297445000001716, 36.248153000001771 ], [ -115.29746100000196, 36.26266300000119 ], [ -115.279939000002102, 36.26291000000122 ], [ -115.278733000001921, 36.262981000001488 ], [ -115.278934000001485, 36.255661000001609 ], [ -115.276240000001835, 36.248234000001062 ], [ -115.279158000001516, 36.248310000001794 ], [ -115.279126000002378, 36.233742000001925 ], [ -115.278947000001438, 36.226191000001585 ], [ -115.269763000002357, 36.225944000001782 ], [ -115.262841000001799, 36.225740000001139 ], [ -115.262231000001677, 36.225724000001641 ], [ -115.260562000001741, 36.225715000001671 ], [ -115.260565000001876, 36.224740000001105 ], [ -115.257119000002106, 36.225679000001101 ], [ -115.246972000002458, 36.225640000001661 ], [ -115.246949000001678, 36.218215000001329 ], [ -115.251339000001863, 36.218220000001089 ], [ -115.251433000001938, 36.203445000001132 ], [ -115.244675000002303, 36.203414000001374 ], [ -115.244672000001785, 36.196019000001861 ], [ -115.244624000002247, 36.188621000001561 ], [ -115.244607000001523, 36.181264000001178 ], [ -115.243809000002486, 36.176680000001291 ], [ -115.244058000001417, 36.176482000001798 ], [ -115.244518000002074, 36.173917000001587 ], [ -115.244380000001442, 36.166443000001415 ], [ -115.243791000002076, 36.159184000001538 ], [ -115.243185000002441, 36.147871000001331 ], [ -115.243033000001446, 36.144227000001173 ], [ -115.2338760000017, 36.144129000001683 ], [ -115.225296000001521, 36.144301000001683 ], [ -115.208138000002435, 36.14459600000157 ], [ -115.204336000001504, 36.144583000001106 ], [ -115.1998340000019, 36.144550000001395 ], [ -115.190792000001821, 36.144498000001256 ], [ -115.190370000001806, 36.13384200000192 ], [ -115.190371000002315, 36.133793000001809 ], [ -115.180270000002125, 36.133464000001766 ], [ -115.181130000001446, 36.130053000001219 ], [ -115.180384000001396, 36.126198000001601 ], [ -115.180450000001514, 36.114393000001186 ], [ -115.180482000001874, 36.100698000001096 ], [ -115.180542000002077, 36.07665800000116 ], [ -115.172472000001719, 36.072307000001814 ], [ -115.158182000002327, 36.071292000001151 ], [ -115.14597000000164, 36.071540000001534 ], [ -115.136423000002083, 36.066057000001791 ], [ -115.132140000001442, 36.065043000001168 ], [ -115.11837400000168, 36.059760000001475 ], [ -115.118687000001643, 36.071567000001522 ], [ -115.118744000001541, 36.078900000001667 ], [ -115.118813000001794, 36.086181000001652 ], [ -115.100951000001885, 36.086355000001134 ], [ -115.091316000002095, 36.085618000001531 ], [ -115.077618000001721, 36.085619000001387 ], [ -115.073059000001606, 36.085625000001869 ], [ -115.073217000001463, 36.078139000001919 ], [ -115.077754000002358, 36.07819400000173 ], [ -115.0785540000022, 36.080066000001672 ], [ -115.081137000001917, 36.078226000001905 ], [ -115.087079000001836, 36.071044000001443 ], [ -115.091731000002483, 36.067637000001199 ], [ -115.091619000001558, 36.064007000001375 ], [ -115.100314000002243, 36.055322000001915 ], [ -115.100301000001963, 36.05338100000197 ], [ -115.109257000001605, 36.049627000001834 ], [ -115.118156000002003, 36.049539000001843 ], [ -115.118228000001963, 36.044058000001513 ], [ -115.113750000001815, 36.04228000000144 ], [ -115.118267000002163, 36.040412000001083 ], [ -115.1183490000017, 36.034945000001592 ], [ -115.118383000001998, 36.033106000001112 ], [ -115.110949000001995, 36.027616000001508 ], [ -115.100464000001523, 36.027787000001496 ], [ -115.100649000001596, 36.023450000001503 ], [ -115.100624000002099, 36.020513000001273 ], [ -115.118605000001565, 36.020481000001624 ], [ -115.118698000002283, 36.016909000001775 ], [ -115.118778000001384, 36.013339000001579 ], [ -115.118803000002458, 36.012340000001437 ], [ -115.118898000001863, 36.003878000001677 ], [ -115.125848000002037, 35.998710000001651 ], [ -115.127359000002315, 36.00014400000142 ], [ -115.136912000001843, 35.999104000001772 ], [ -115.146267000002197, 35.98473400000136 ], [ -115.147801000001621, 35.993772000001229 ], [ -115.154829000001513, 35.992947000001763 ], [ -115.154721000002198, 35.984813000001417 ], [ -115.154803000001678, 35.981194000001352 ], [ -115.160558000001757, 35.975796000001587 ], [ -115.165830000002302, 35.970208000001882 ], [ -115.167449000001767, 35.969050000001907 ], [ -115.168046000002178, 35.968614000001892 ], [ -115.172766000001943, 35.969861000001465 ], [ -115.172860000001705, 35.965823000001649 ], [ -115.181916000001678, 35.96175400000174 ], [ -115.182147000002416, 35.955033000001578 ], [ -115.193194000002194, 35.930620000001618 ], [ -115.216608000002495, 35.897283000001863 ], [ -115.212496000001565, 35.897305000001175 ], [ -115.207049000002456, 35.897288000001389 ], [ -115.207278000002006, 35.590276000001737 ], [ -115.100841000001736, 35.589661000001108 ], [ -114.658824000001701, 35.588319000001484 ], [ -114.678892000001483, 35.501276000001269 ], [ -114.66354100000224, 35.447797000001358 ], [ -114.627325000001662, 35.410193000001179 ], [ -114.595163000001861, 35.321883000001982 ], [ -114.571753000002261, 35.197229000001769 ], [ -114.578263000001584, 35.128810000001394 ], [ -114.642831000002118, 35.096503000001768 ], [ -114.617491000001834, 35.051703000001282 ], [ -114.675315000002001, 35.035897000001874 ], [ -114.683513000002279, 35.042550000001341 ], [ -114.87428300000208, 35.195977000001143 ], [ -115.076954000001876, 35.357490000001263 ], [ -115.204361000002166, 35.459125000001883 ], [ -115.366799000002501, 35.587866000001618 ], [ -115.369317000002439, 35.589813000001818 ] ] ] } },
{ "type": "Feature", "properties": { "enacted_district": 4, "population": 782963.0, "voting_age_pop": 589237.0, "dem_votes": 125696.0, "rep_votes": 101549.0, "minority_pop": 345097.0, "dem_pct": 0.55312988160217835, "rep_pct": 0.44687011795776799 }, "geometry": { "type": "Polygon", "coordinates": [ [ [ -116.108531000001477, 36.167138000001074 ], [ -116.197267000002, 36.235728000001728 ], [ -116.230542000002004, 36.261314000001214 ], [ -116.335510000002344, 36.341483000001851 ], [ -116.710248000002366, 36.627535000001082 ], [ -117.166001000001657, 36.971111000001677 ], [ -117.866144000001484, 37.489946000001424 ], [ -118.42814400000232, 37.896220000001421 ], [ -118.461322000001545, 37.920152000001103 ], [ -119.155564000002045, 38.413763000001289 ], [ -119.330052000001913, 38.535961000000938 ], [ -119.329897000002035, 38.648724000000868 ], [ -119.349893000001842, 38.736227000001378 ], [ -119.405916000001525, 38.736675000001419 ], [ -119.405431000002139, 38.762274000001426 ], [ -119.370050000001598, 38.751537000001221 ], [ -119.328868000001677, 38.799801000001352 ], [ -119.220989000002064, 38.809290000001575 ], [ -119.146647000001565, 38.837857000001087 ], [ -119.102257000001245, 38.808540000001422 ], [ -119.046032000001944, 38.696276000001546 ], [ -118.997488000001638, 38.628755000001163 ], [ -118.997747000002164, 38.576198000001021 ], [ -118.906496000001326, 38.516312000001214 ], [ -118.907473000001886, 38.764654000001094 ], [ -118.902141000002075, 38.851922000001515 ], [ -119.01449900000172, 38.851951000000945 ], [ -119.014858000001425, 38.944140000001283 ], [ -118.993772000001584, 38.975386000001144 ], [ -118.943669000001506, 39.042014000001593 ], [ -118.923037000001557, 39.06940800000126 ], [ -118.922861000001959, 39.069642000001522 ], [ -118.755059000002205, 39.074702000001146 ], [ -118.477505000001841, 39.073682000001071 ], [ -118.4177520000014, 39.073691000001027 ], [ -118.314452000001438, 39.073660000000892 ], [ -117.865116000001322, 39.073654000001632 ], [ -117.775468000001965, 39.093425000001069 ], [ -117.331857000002316, 39.163430000001277 ], [ -117.177239000001819, 39.163268000001231 ], [ -116.827065000001582, 39.162077000001275 ], [ -116.60094600000204, 39.161463000001419 ], [ -116.462325000001357, 39.161703000001488 ], [ -115.907071000001537, 39.16184800000152 ], [ -115.842560000002237, 39.128325000001055 ], [ -115.621330000001606, 39.010551000001293 ], [ -115.510310000002121, 38.951991000001357 ], [ -115.049426000001745, 38.703715000001203 ], [ -115.000846000001658, 38.677322000001503 ], [ -114.962002000002286, 38.677312000001137 ], [ -114.267404000001605, 38.677345000001843 ], [ -114.049807000001621, 38.677365000001352 ], [ -114.049325000002085, 38.266060000001886 ], [ -114.048342000001966, 37.809861000001099 ], [ -114.052211000001407, 37.636320000001774 ], [ -114.052317000002319, 37.098469000001799 ], [ -114.050354000002116, 36.843141000001424 ], [ -114.050135000001873, 36.817881000001471 ], [ -114.050044000001876, 36.80414400000145 ], [ -114.049993000002402, 36.799607000001863 ], [ -114.047494000001635, 36.607891000001359 ], [ -114.045518000002119, 36.274390000001496 ], [ -114.043944000002526, 36.193350000001615 ], [ -114.066798000001484, 36.179087000001395 ], [ -114.153400000002279, 36.023170000001969 ], [ -114.243865000001918, 36.015266000001802 ], [ -114.370181000001963, 36.142624000001305 ], [ -114.504715000001795, 36.127188000001986 ], [ -114.571090000001959, 36.151099000001629 ], [ -114.661833000001721, 36.118158000001166 ], [ -114.73408500000194, 36.104672000001301 ], [ -114.741129000002317, 36.065454000001694 ], [ -114.88435300000144, 36.129851000001423 ], [ -114.904899000002274, 36.122235000001346 ], [ -114.906387000002383, 36.121780000001408 ], [ -114.903689000001663, 36.099385000001305 ], [ -114.939466000001886, 36.077592000001481 ], [ -114.939760000001755, 36.080677000001174 ], [ -114.937708000002004, 36.102021000001812 ], [ -114.975350000002393, 36.089831000001261 ], [ -114.991041000001474, 36.15907400000134 ], [ -114.990521000001763, 36.196398000001629 ], [ -114.990476000002062, 36.201985000001258 ], [ -115.008653000002397, 36.198834000001639 ], [ -115.008958000002295, 36.202548000001961 ], [ -115.017889000002114, 36.202450000001612 ], [ -115.026939000001477, 36.202510000001773 ], [ -115.026152000001503, 36.210379000001822 ], [ -115.034931000002061, 36.210631000001079 ], [ -115.043595000002298, 36.210886000001977 ], [ -115.043676000001966, 36.203544000001159 ], [ -115.057559000002399, 36.203539000001129 ], [ -115.062241000002004, 36.203600000001401 ], [ -115.062208000002315, 36.196229000001765 ], [ -115.062263000001963, 36.188821000001141 ], [ -115.079874000002405, 36.18850600000146 ], [ -115.091610000002305, 36.18829300000187 ], [ -115.098284000001939, 36.188129000001133 ], [ -115.107209000001419, 36.188312000001837 ], [ -115.1076890000014, 36.188324000001572 ], [ -115.11610800000156, 36.188483000001547 ], [ -115.120571000001604, 36.188465000001777 ], [ -115.125051000001918, 36.188443000001527 ], [ -115.130564000002323, 36.188451000001926 ], [ -115.133950000002102, 36.188441000001141 ], [ -115.134163000001621, 36.181185000001932 ], [ -115.13555800000168, 36.177362000001715 ], [ -115.137827000002105, 36.173721000001429 ], [ -115.135633000001761, 36.172714000001285 ], [ -115.130010000001718, 36.170046000001648 ], [ -115.131903000001927, 36.166969000001274 ], [ -115.151396000002521, 36.166406000001466 ], [ -115.156308000001474, 36.158897000001346 ], [ -115.147419000002486, 36.158886000001232 ], [ -115.148679000001536, 36.156972000001929 ], [ -115.154243000002282, 36.14838000000185 ], [ -115.157331000001818, 36.143719000001774 ], [ -115.166124000001801, 36.144070000001605 ], [ -115.170852000002185, 36.144305000001708 ], [ -115.177165000002447, 36.137127000001193 ], [ -115.180270000002125, 36.133464000001766 ], [ -115.190371000002315, 36.133793000001809 ], [ -115.190370000001806, 36.13384200000192 ], [ -115.190792000001821, 36.144498000001256 ], [ -115.1998340000019, 36.144550000001395 ], [ -115.204336000001504, 36.144583000001106 ], [ -115.208138000002435, 36.14459600000157 ], [ -115.225296000001521, 36.144301000001683 ], [ -115.2338760000017, 36.144129000001683 ], [ -115.243033000001446, 36.144227000001173 ], [ -115.243185000002441, 36.147871000001331 ], [ -115.243791000002076, 36.159184000001538 ], [ -115.244380000001442, 36.166443000001415 ], [ -115.244518000002074, 36.173917000001587 ], [ -115.244058000001417, 36.176482000001798 ], [ -115.243809000002486, 36.176680000001291 ], [ -115.244607000001523, 36.181264000001178 ], [ -115.244624000002247, 36.188621000001561 ], [ -115.244672000001785, 36.196019000001861 ], [ -115.244675000002303, 36.203414000001374 ], [ -115.251433000001938, 36.203445000001132 ], [ -115.251339000001863, 36.218220000001089 ], [ -115.246949000001678, 36.218215000001329 ], [ -115.246972000002458, 36.225640000001661 ], [ -115.257119000002106, 36.225679000001101 ], [ -115.260565000001876, 36.224740000001105 ], [ -115.260562000001741, 36.225715000001671 ], [ -115.262231000001677, 36.225724000001641 ], [ -115.262841000001799, 36.225740000001139 ], [ -115.269763000002357, 36.225944000001782 ], [ -115.278947000001438, 36.226191000001585 ], [ -115.279126000002378, 36.233742000001925 ], [ -115.279158000001516, 36.248310000001794 ], [ -115.276240000001835, 36.248234000001062 ], [ -115.278934000001485, 36.255661000001609 ], [ -115.278733000001921, 36.262981000001488 ], [ -115.279939000002102, 36.26291000000122 ], [ -115.29746100000196, 36.26266300000119 ], [ -115.297445000001716, 36.248153000001771 ], [ -115.315016000001521, 36.247889000001528 ], [ -115.313793000002462, 36.255243000001883 ], [ -115.314984000002113, 36.262632000001787 ], [ -115.320673000002273, 36.262589000001363 ], [ -115.321814000001353, 36.262582000001338 ], [ -115.322959000001958, 36.262567000001923 ], [ -115.325259000002077, 36.262550000001539 ], [ -115.327573000002104, 36.262522000001908 ], [ -115.32781300000164, 36.262519000001753 ], [ -115.330963000001844, 36.262584000001361 ], [ -115.331026000001998, 36.264284000001119 ], [ -115.333277000002198, 36.266155000001618 ], [ -115.333389000002157, 36.288280000001677 ], [ -115.333467000002443, 36.299057000001206 ], [ -115.333571000002436, 36.308161000001263 ], [ -115.346940000002022, 36.251491000001472 ], [ -115.334144000001885, 36.23620900000121 ], [ -115.334346000001517, 36.232318000001129 ], [ -115.334150000002481, 36.218413000001505 ], [ -115.347600000002345, 36.218074000001145 ], [ -115.397701000002115, 36.210511000001304 ], [ -115.405674000001696, 36.16668300000147 ], [ -115.387769000002194, 36.144966000001283 ], [ -115.421319000001517, 36.131551000001487 ], [ -115.426387000001441, 36.129249000001451 ], [ -115.499078000001504, 36.160125000001251 ], [ -115.572462000001963, 36.117657000001252 ], [ -115.576071000001576, 36.164800000001279 ], [ -115.670282000001478, 36.161076000001451 ], [ -115.781808000001519, 36.125125000001816 ], [ -115.845803000001496, 36.122048000001222 ], [ -115.845994000001639, 35.963707000001214 ], [ -115.921842000002002, 36.02234900000132 ], [ -115.939620000001554, 36.036182000001418 ], [ -115.95761000000212, 36.050165000001954 ], [ -115.993107000002098, 36.077771000001171 ], [ -116.010091000001822, 36.091133000001562 ], [ -116.108531000001477, 36.167138000001074 ] ] ] } }
]
}
