{
"type": "FeatureCollection",
"name": "new_mexico_optimized_districts_all",
"crs": { "type": "name", "properties": { "name": "urn:ogc:def:crs:OGC:1.3:CRS84" } },
"features": [
{ "type": "Feature", "properties": { "opt_all": 1, "population": 708363.0, "voting_age_pop": 558637.0, "dem_votes": 165638.0, "rep_votes": 98467.0, "minority_pop": 326814.0, "dem_pct": 0.6271672249191923, "rep_pct": 0.37283277470217041 }, "geometry": { "type": "Polygon", "coordinates": [ [ [ -106.714803000002277, 34.814713000001937 ], [ -106.720830000002138, 34.870054000001979 ], [ -106.766228000002599, 34.869967000002347 ], [ -107.024996000002417, 34.871018000002017 ], [ -107.066562000001781, 34.957190000001908 ], [ -107.11010200000176, 35.044638000002266 ], [ -107.178524000002042, 35.182169000001693 ], [ -107.197244000002286, 35.219459000001834 ], [ -106.962038000002536, 35.218392000001955 ], [ -106.798329000002695, 35.217956000001806 ], [ -106.763062000002677, 35.21799400000161 ], [ -106.728990000002085, 35.217978000001899 ], [ -106.713955000002244, 35.217971000001562 ], [ -106.709948000002484, 35.217970000002069 ], [ -106.696565000002636, 35.217963000002221 ], [ -106.690488000001963, 35.217959000001528 ], [ -106.686563000002536, 35.217955000001787 ], [ -106.677090000001897, 35.217946000002001 ], [ -106.672009000001736, 35.21793700000206 ], [ -106.663867000002554, 35.217926000001768 ], [ -106.662546000002706, 35.217924000001538 ], [ -106.658149000002197, 35.21788100000181 ], [ -106.645464000002065, 35.20158000000221 ], [ -106.643366000002644, 35.197762000002378 ], [ -106.605382000002322, 35.21744200000186 ], [ -106.598725000001764, 35.217852000001997 ], [ -106.593595000002296, 35.217844000002231 ], [ -106.574047000002523, 35.217943000001796 ], [ -106.5024270000021, 35.217880000001841 ], [ -106.459379000002684, 35.217942000001685 ], [ -106.402400000002075, 35.217396000001614 ], [ -106.367243000002205, 35.217406000002249 ], [ -106.301484000002702, 35.21647100000186 ], [ -106.244216000002083, 35.215657000001634 ], [ -106.243588000002163, 35.141705000001785 ], [ -106.243731000002597, 35.116282000001959 ], [ -106.243812000002464, 35.084643000001797 ], [ -106.243833000002397, 35.083910000001808 ], [ -106.2438160000018, 35.082555000001811 ], [ -106.243874000002435, 35.040003000001576 ], [ -106.194713000002139, 35.040256000001612 ], [ -106.191650000002141, 35.040252000002212 ], [ -106.156241000001842, 35.040404000001701 ], [ -106.139926000002561, 35.040514000002055 ], [ -106.029524000002681, 35.040678000002259 ], [ -105.714419000002081, 35.04160500000215 ], [ -105.682848000002707, 35.041633000002314 ], [ -105.4403090000026, 35.041914000002159 ], [ -105.290791000002073, 35.042030000002178 ], [ -105.290870000002698, 34.991237000002215 ], [ -105.290286000001942, 34.738110000001591 ], [ -105.290396000002161, 34.606766000001961 ], [ -105.312777000001816, 34.593470000002299 ], [ -105.313072000002194, 34.347205000001622 ], [ -105.313218000002479, 34.26003100000235 ], [ -105.889920000002277, 34.25999000000192 ], [ -105.925968000002598, 34.259990000001771 ], [ -106.101744000002157, 34.259983000002087 ], [ -106.415972000002256, 34.259822000002423 ], [ -106.416767000002579, 34.427683000001977 ], [ -106.416924000001998, 34.439687000002358 ], [ -106.416881000002718, 34.521715000001898 ], [ -106.46979000000276, 34.521217000002267 ], [ -106.466204000002676, 34.670428000001984 ], [ -106.466650000001721, 34.706370000002238 ], [ -106.464557000002259, 34.807955000001549 ], [ -106.464546000001917, 34.810517000001596 ], [ -106.530903000002738, 34.810882000002032 ], [ -106.57356800000278, 34.804710000002217 ], [ -106.573624000002042, 34.797577000002299 ], [ -106.63123400000228, 34.79755000000204 ], [ -106.652308000001739, 34.797588000001895 ], [ -106.673973000002121, 34.796127000001817 ], [ -106.701038000002541, 34.797349000001709 ], [ -106.701135000001798, 34.800882000002325 ], [ -106.700764000002593, 34.808581000001844 ], [ -106.714639000002364, 34.803674000001699 ], [ -106.725472000001744, 34.782808000001957 ], [ -106.71193300000256, 34.773584000002266 ], [ -106.706336000002736, 34.752461000001787 ], [ -106.728490000001855, 34.738068000001761 ], [ -106.739709000001767, 34.742701000001816 ], [ -106.727218000002694, 34.778420000002136 ], [ -106.740886000001865, 34.781942000001841 ], [ -106.724651000001998, 34.805323000001543 ], [ -106.720635000001764, 34.805103000002113 ], [ -106.714803000002277, 34.814713000001937 ] ] ] } },
{ "type": "Feature", "properties": { "opt_all": 2, "population": 704829.0, "voting_age_pop": 534344.0, "dem_votes": 96655.0, "rep_votes": 110947.0, "minority_pop": 321710.0, "dem_pct": 0.4655783660727843, "rep_pct": 0.53442163344552474 }, "geometry": { "type": "Polygon", "coordinates": [ [ [ -109.050033000002642, 31.332348000002305 ], [ -109.049555000002556, 31.707591000001567 ], [ -109.048587000002655, 32.145802000001645 ], [ -109.0477990000022, 32.647112000002025 ], [ -109.047643000002097, 32.777802000001856 ], [ -109.047549000002604, 32.898865000001813 ], [ -109.047578000002744, 33.20889800000149 ], [ -109.047057000002582, 33.617129000001917 ], [ -109.04683600000196, 34.045353000001761 ], [ -109.04691000000264, 34.078497000001633 ], [ -109.046783000002307, 34.166941000001472 ], [ -109.046122000002157, 34.579291000001625 ], [ -109.045996000001836, 34.959819000002256 ], [ -108.850348000001844, 34.959631000001671 ], [ -108.520773000001995, 34.959121000002277 ], [ -108.504447000002202, 34.959132000001979 ], [ -108.469922000002086, 35.003124000001712 ], [ -108.468656000002554, 35.292948000001765 ], [ -108.468683000002116, 35.299243000001738 ], [ -108.441235000002123, 35.306696000001942 ], [ -108.317939000001843, 35.306635000001471 ], [ -108.142771000002583, 35.30654500000162 ], [ -108.11249000000258, 35.306094000002048 ], [ -107.835449000002399, 35.305045000001989 ], [ -107.734200000002744, 35.309753000001947 ], [ -107.734241000002243, 35.348145000002312 ], [ -107.62831300000272, 35.34831400000207 ], [ -107.628671000001759, 35.311824000001955 ], [ -107.496923000002354, 35.303755000001786 ], [ -107.309386000001723, 35.305687000001498 ], [ -107.238890000001845, 35.305507000001953 ], [ -107.197244000002286, 35.219459000001834 ], [ -107.178524000002042, 35.182169000001693 ], [ -107.11010200000176, 35.044638000002266 ], [ -107.066562000001781, 34.957190000001908 ], [ -107.024996000002417, 34.871018000002017 ], [ -106.766228000002599, 34.869967000002347 ], [ -106.720830000002138, 34.870054000001979 ], [ -106.714803000002277, 34.814713000001937 ], [ -106.720635000001764, 34.805103000002113 ], [ -106.724651000001998, 34.805323000001543 ], [ -106.740886000001865, 34.781942000001841 ], [ -106.727218000002694, 34.778420000002136 ], [ -106.739709000001767, 34.742701000001816 ], [ -106.728490000001855, 34.738068000001761 ], [ -106.706336000002736, 34.752461000001787 ], [ -106.71193300000256, 34.773584000002266 ], [ -106.725472000001744, 34.782808000001957 ], [ -106.714639000002364, 34.803674000001699 ], [ -106.700764000002593, 34.808581000001844 ], [ -106.701135000001798, 34.800882000002325 ], [ -106.701038000002541, 34.797349000001709 ], [ -106.673973000002121, 34.796127000001817 ], [ -106.652308000001739, 34.797588000001895 ], [ -106.63123400000228, 34.79755000000204 ], [ -106.573624000002042, 34.797577000002299 ], [ -106.57356800000278, 34.804710000002217 ], [ -106.530903000002738, 34.810882000002032 ], [ -106.464546000001917, 34.810517000001596 ], [ -106.464557000002259, 34.807955000001549 ], [ -106.466650000001721, 34.706370000002238 ], [ -106.466204000002676, 34.670428000001984 ], [ -106.46979000000276, 34.521217000002267 ], [ -106.416881000002718, 34.521715000001898 ], [ -106.416924000001998, 34.439687000002358 ], [ -106.416767000002579, 34.427683000001977 ], [ -106.415972000002256, 34.259822000002423 ], [ -106.101744000002157, 34.259983000002087 ], [ -105.925968000002598, 34.259990000001771 ], [ -105.889920000002277, 34.25999000000192 ], [ -105.313218000002479, 34.26003100000235 ], [ -105.313072000002194, 34.347205000001622 ], [ -104.891745000002359, 34.347043000002401 ], [ -104.893377000002175, 34.08840700000188 ], [ -104.7864290000024, 34.087664000001979 ], [ -104.786104000002084, 34.000137000002098 ], [ -104.317404000002824, 33.995877000002181 ], [ -104.15626900000224, 33.995413000002223 ], [ -104.155600000002224, 34.08320500000238 ], [ -103.946019000002522, 34.082463000002114 ], [ -103.949062000002783, 34.450757000001801 ], [ -103.948778000002036, 34.605058000001904 ], [ -103.738166000002636, 34.6046700000025 ], [ -103.740066000002045, 34.303056000001988 ], [ -103.472732000001741, 34.303301000002328 ], [ -103.459820000002367, 34.303261000001712 ], [ -103.319635000001838, 34.303258000002572 ], [ -103.251988000001845, 34.30318500000233 ], [ -103.143570000002782, 34.30295900000182 ], [ -103.043767000002603, 34.3026480000022 ], [ -103.043836000002685, 34.112834000002245 ], [ -103.043672000002275, 34.011179000002102 ], [ -103.044891000001996, 33.945609000002385 ], [ -103.051620000002714, 33.627530000001983 ], [ -103.052621000002077, 33.570575000001945 ], [ -103.061736000001844, 33.140884000002593 ], [ -103.064125000002775, 33.024478000002446 ], [ -103.064796000002247, 32.828417000001885 ], [ -103.064692000002424, 32.769323000002501 ], [ -103.064671000002406, 32.726960000002563 ], [ -103.064799000002324, 32.708694000001984 ], [ -103.064754000002438, 32.696582000001897 ], [ -103.064711000002845, 32.538431000002227 ], [ -103.064725000002355, 32.33465400000226 ], [ -103.064510000002699, 32.000424000001885 ], [ -103.267732000001914, 32.000324000002138 ], [ -103.722882000002642, 32.000206000002144 ], [ -104.329638000002078, 32.000188000002161 ], [ -104.75455600000268, 32.000527000002371 ], [ -104.775447000002444, 31.997628000001708 ], [ -104.847740000002759, 32.000415000002484 ], [ -105.245188000002642, 32.000207000002504 ], [ -105.900692000002564, 32.0020440000024 ], [ -106.326086000002206, 32.00161800000231 ], [ -106.338843000002143, 32.001582000002067 ], [ -106.343522000001997, 32.001570000001863 ], [ -106.360961000002703, 32.00152900000186 ], [ -106.377174000002526, 32.001503000002124 ], [ -106.443521000002278, 32.001199000001634 ], [ -106.582639000002047, 32.000705000002093 ], [ -106.591889000002567, 32.00068700000238 ], [ -106.602726000002505, 32.000687000001747 ], [ -106.606577000002204, 32.000646000001858 ], [ -106.629402000002642, 31.990130000002122 ], [ -106.628569000002102, 31.927641000002463 ], [ -106.630295000002604, 31.885832000001923 ], [ -106.633798000002642, 31.86488100000167 ], [ -106.605297000002579, 31.827720000001669 ], [ -106.577244000002594, 31.810406000001866 ], [ -106.569311000002799, 31.783874000002292 ], [ -106.601789000002526, 31.78386600000163 ], [ -107.032961000001862, 31.783687000001649 ], [ -107.296793000002495, 31.783641000001932 ], [ -107.497208000001919, 31.783653000001635 ], [ -108.208484000002201, 31.783698000002001 ], [ -108.208470000002805, 31.333373000001828 ], [ -109.050033000002642, 31.332348000002305 ] ] ] } },
{ "type": "Feature", "properties": { "opt_all": 3, "population": 704330.0, "voting_age_pop": 546008.0, "dem_votes": 161925.0, "rep_votes": 99551.0, "minority_pop": 326403.0, "dem_pct": 0.61927289670207863, "rep_pct": 0.38072710291547707 }, "geometry": { "type": "Polygon", "coordinates": [ [ [ -109.045997000001634, 35.020031000001524 ], [ -109.046009000002002, 35.17550800000177 ], [ -109.046503000002716, 35.317093000001833 ], [ -109.046271000002307, 35.616378000001681 ], [ -109.046623000001858, 35.777236000001835 ], [ -109.046067000002083, 36.002701000001892 ], [ -109.045784000002001, 36.314918000002031 ], [ -109.045595000002436, 36.527315000001437 ], [ -109.04554300000224, 36.613765000002111 ], [ -109.045172000002225, 36.998977000001538 ], [ -109.005110000001864, 36.998946000001375 ], [ -108.749603000002082, 36.99884000000192 ], [ -108.536413000002696, 36.999349000001409 ], [ -108.033460000002634, 36.99974800000151 ], [ -107.983935000002475, 36.999860000001497 ], [ -107.605201000001927, 36.999969000001855 ], [ -107.421223000002016, 37.000223000002102 ], [ -106.985514000002524, 37.000083000002256 ], [ -106.781878000002763, 36.992515000002342 ], [ -106.339736000001963, 36.993967000002122 ], [ -106.006316000002101, 36.995267000001931 ], [ -105.718463000001876, 36.995841000001946 ], [ -105.419669000002003, 36.995337000002024 ], [ -105.220506000002501, 36.994974000002387 ], [ -105.136447000001795, 36.995169000001617 ], [ -105.029226000001742, 36.992727000001857 ], [ -104.503674000002079, 36.99382800000209 ], [ -104.480578000002282, 36.993861000001971 ], [ -104.473699000002355, 36.99385200000161 ], [ -104.007851000002276, 36.996134000002002 ], [ -103.47182300000182, 36.999159000001626 ], [ -103.002329000001978, 37.000150000001668 ], [ -103.002290000002361, 36.500887000001761 ], [ -103.041717000002464, 36.500360000002367 ], [ -103.041546000002754, 36.38772400000213 ], [ -103.041219000002144, 36.289863000002477 ], [ -103.040896000001879, 35.964472000001997 ], [ -103.041349000001716, 35.739433000001959 ], [ -103.042026000002281, 35.394747000002582 ], [ -103.042701000001856, 34.954142000002349 ], [ -103.043069000001864, 34.706336000001954 ], [ -103.043594000002841, 34.419056000001852 ], [ -103.043767000002603, 34.3026480000022 ], [ -103.143570000002782, 34.30295900000182 ], [ -103.251988000001845, 34.30318500000233 ], [ -103.319635000001838, 34.303258000002572 ], [ -103.459820000002367, 34.303261000001712 ], [ -103.472732000001741, 34.303301000002328 ], [ -103.740066000002045, 34.303056000001988 ], [ -103.738166000002636, 34.6046700000025 ], [ -103.948778000002036, 34.605058000001904 ], [ -103.949062000002783, 34.450757000001801 ], [ -103.946019000002522, 34.082463000002114 ], [ -104.155600000002224, 34.08320500000238 ], [ -104.15626900000224, 33.995413000002223 ], [ -104.317404000002824, 33.995877000002181 ], [ -104.786104000002084, 34.000137000002098 ], [ -104.7864290000024, 34.087664000001979 ], [ -104.893377000002175, 34.08840700000188 ], [ -104.891745000002359, 34.347043000002401 ], [ -105.313072000002194, 34.347205000001622 ], [ -105.312777000001816, 34.593470000002299 ], [ -105.290396000002161, 34.606766000001961 ], [ -105.290286000001942, 34.738110000001591 ], [ -105.290870000002698, 34.991237000002215 ], [ -105.290791000002073, 35.042030000002178 ], [ -105.4403090000026, 35.041914000002159 ], [ -105.682848000002707, 35.041633000002314 ], [ -105.714419000002081, 35.04160500000215 ], [ -106.029524000002681, 35.040678000002259 ], [ -106.139926000002561, 35.040514000002055 ], [ -106.156241000001842, 35.040404000001701 ], [ -106.191650000002141, 35.040252000002212 ], [ -106.194713000002139, 35.040256000001612 ], [ -106.243874000002435, 35.040003000001576 ], [ -106.2438160000018, 35.082555000001811 ], [ -106.243833000002397, 35.083910000001808 ], [ -106.243812000002464, 35.084643000001797 ], [ -106.243731000002597, 35.116282000001959 ], [ -106.243588000002163, 35.141705000001785 ], [ -106.244216000002083, 35.215657000001634 ], [ -106.301484000002702, 35.21647100000186 ], [ -106.367243000002205, 35.217406000002249 ], [ -106.402400000002075, 35.217396000001614 ], [ -106.459379000002684, 35.217942000001685 ], [ -106.5024270000021, 35.217880000001841 ], [ -106.574047000002523, 35.217943000001796 ], [ -106.593595000002296, 35.217844000002231 ], [ -106.598725000001764, 35.217852000001997 ], [ -106.605382000002322, 35.21744200000186 ], [ -106.643366000002644, 35.197762000002378 ], [ -106.645464000002065, 35.20158000000221 ], [ -106.658149000002197, 35.21788100000181 ], [ -106.662546000002706, 35.217924000001538 ], [ -106.663867000002554, 35.217926000001768 ], [ -106.672009000001736, 35.21793700000206 ], [ -106.677090000001897, 35.217946000002001 ], [ -106.686563000002536, 35.217955000001787 ], [ -106.690488000001963, 35.217959000001528 ], [ -106.696565000002636, 35.217963000002221 ], [ -106.709948000002484, 35.217970000002069 ], [ -106.713955000002244, 35.217971000001562 ], [ -106.728990000002085, 35.217978000001899 ], [ -106.763062000002677, 35.21799400000161 ], [ -106.798329000002695, 35.217956000001806 ], [ -106.962038000002536, 35.218392000001955 ], [ -107.197244000002286, 35.219459000001834 ], [ -107.238890000001845, 35.305507000001953 ], [ -107.309386000001723, 35.305687000001498 ], [ -107.496923000002354, 35.303755000001786 ], [ -107.628671000001759, 35.311824000001955 ], [ -107.62831300000272, 35.34831400000207 ], [ -107.734241000002243, 35.348145000002312 ], [ -107.734200000002744, 35.309753000001947 ], [ -107.835449000002399, 35.305045000001989 ], [ -108.11249000000258, 35.306094000002048 ], [ -108.142771000002583, 35.30654500000162 ], [ -108.317939000001843, 35.306635000001471 ], [ -108.441235000002123, 35.306696000001942 ], [ -108.468683000002116, 35.299243000001738 ], [ -108.468656000002554, 35.292948000001765 ], [ -108.469922000002086, 35.003124000001712 ], [ -108.504447000002202, 34.959132000001979 ], [ -108.520773000001995, 34.959121000002277 ], [ -108.850348000001844, 34.959631000001671 ], [ -109.045996000001836, 34.959819000002256 ], [ -109.045997000001634, 35.020031000001524 ] ] ] } }
]
}
