{
"type": "FeatureCollection",
"name": "new_mexico_optimized_districts_headcount",
"crs": { "type": "name", "properties": { "name": "urn:ogc:def:crs:OGC:1.3:CRS84" } },
"features": [
{ "type": "Feature", "properties": { "district_id": 0, "voting_age_pop": 502851, "lib_votes": 0, "grn_votes": 0, "con_votes": 0, "ref_votes": 0, "total_pop": 672729, "dem_votes_sum": 149892, "rep_votes_sum": 99214, "lib_votes_sum": 0, "grn_votes_sum": 0, "con_votes_sum": 0, "ref_votes_sum": 0, "minority_pop_sum": 689647, "dem_pct": 0.60171974982537557, "rep_pct": 0.39828025017462448, "lib_pct": 0.0, "grn_pct": 0.0, "con_pct": 0.0, "ref_pct": 0.0, "minority_pct": 1.0251483138083834, "compactness": 0.31360425785377299 }, "geometry": { "type": "Polygon", "coordinates": [ [ [ -107.204420022619459, 34.578818562029717 ], [ -109.046166418269195, 34.579296463538803 ], [ -109.045233630460558, 36.999089804680352 ], [ -103.002208268321937, 37.000110169343479 ], [ -103.002299224102089, 36.500893090896021 ], [ -103.041932233436611, 36.500356088566647 ], [ -103.045715141941997, 35.388497910342949 ], [ -103.073982147746491, 35.377788907102207 ], [ -103.083921148592765, 35.358954903518892 ], [ -103.099269153032822, 35.369422904400636 ], [ -103.107606153762561, 35.353880901437336 ], [ -103.129505159551869, 35.361957901582585 ], [ -103.121722158834956, 35.375995904271541 ], [ -103.149610165076439, 35.372025902144173 ], [ -103.174282172291129, 35.389865903718373 ], [ -103.200300177762372, 35.381801901027131 ], [ -103.201397179162072, 35.396167903292216 ], [ -103.232792185865179, 35.387758900258454 ], [ -103.240143186436597, 35.373237897519054 ], [ -103.260377192509125, 35.389894899132258 ], [ -103.317286206522823, 35.39826389744551 ], [ -103.34452321505556, 35.425195900331893 ], [ -103.325194211724693, 35.440209903786283 ], [ -103.34405621670517, 35.447197903901724 ], [ -103.345550219139383, 35.473211908010363 ], [ -103.37492622819758, 35.500279910786716 ], [ -103.37995022118443, 35.397992894053417 ], [ -103.3903202229735, 35.38997189220666 ], [ -103.637156280634841, 35.389727878958212 ], [ -103.63719128322721, 35.422018884132719 ], [ -103.72459430361549, 35.422228879470659 ], [ -103.976876393276058, 35.80169992601688 ], [ -104.021324401919685, 35.781485920380078 ], [ -104.107438421899644, 35.781550915644523 ], [ -104.122169421935212, 35.740805908417755 ], [ -104.149889426374202, 35.716845903119648 ], [ -104.260609450777423, 35.702195894727545 ], [ -104.344099466506563, 35.659165883377533 ], [ -104.380950474551554, 35.653635880485616 ], [ -104.385620474721847, 35.642633878501712 ], [ -104.338409463604265, 35.639869880657422 ], [ -104.324149457624856, 35.607152876292865 ], [ -104.294240450757911, 35.60760587800069 ], [ -104.302172451561191, 35.595068875592695 ], [ -104.278280446299505, 35.598179877388937 ], [ -104.283722446370462, 35.583702874810541 ], [ -104.268791441878207, 35.570939873613895 ], [ -104.255021438996195, 35.574592874941466 ], [ -104.263194439552166, 35.558293871924853 ], [ -104.238229432551279, 35.543174870899435 ], [ -104.248189433775494, 35.529961868270945 ], [ -104.236483431505945, 35.535298869750903 ], [ -104.216066424937054, 35.512558867268844 ], [ -104.216515423568822, 35.494441864380249 ], [ -104.239160427307198, 35.476033860240264 ], [ -104.225673423913449, 35.472602860429205 ], [ -104.218731423569665, 35.488142863263818 ], [ -104.189034417531232, 35.498314866484904 ], [ -104.210233420363949, 35.472826861301996 ], [ -104.198871417377092, 35.468370861212748 ], [ -104.219909421327984, 35.457121858292204 ], [ -104.192010413633497, 35.441697857360722 ], [ -104.19967641307845, 35.412868852378224 ], [ -104.185578407286982, 35.381396848148398 ], [ -104.223938415797377, 35.377021845386089 ], [ -104.224566414587841, 35.36016084267839 ], [ -104.256145421862328, 35.359959840944995 ], [ -104.270920426243052, 35.372041842062877 ], [ -104.293577430955594, 35.365638839826609 ], [ -104.305739431391814, 35.336136834497928 ], [ -104.286491426158491, 35.326227833963401 ], [ -104.308644431096297, 35.324092832432981 ], [ -104.312616431340075, 35.315701830889424 ], [ -104.298526427886927, 35.313148831242437 ], [ -104.313205430436781, 35.302716828799426 ], [ -104.290957423431209, 35.279233826269191 ], [ -104.322407430085818, 35.271767823397155 ], [ -104.359592434590994, 35.220759813311474 ], [ -104.124825380014499, 35.215605825035269 ], [ -104.129540358304283, 34.924206778158471 ], [ -104.181989370401439, 34.924105775392071 ], [ -104.18203937207997, 34.945645778843243 ], [ -104.210999379614947, 34.956675779088826 ], [ -104.607029470483013, 34.954635757896838 ], [ -104.688119488008496, 34.941315751499459 ], [ -104.640369473994397, 34.901595747708434 ], [ -104.611079460946783, 34.819535736183497 ], [ -104.539149444425476, 34.818975739859582 ], [ -104.466319421832523, 34.742125731372774 ], [ -104.383970399130305, 34.692275727654597 ], [ -104.44494441308305, 34.69166072439485 ], [ -104.444922406502357, 34.604826710453686 ], [ -104.892032508655532, 34.604431687272431 ], [ -104.891859489317099, 34.34699464615656 ], [ -105.312977584741503, 34.346725624591464 ], [ -105.313227578366806, 34.260020610793141 ], [ -105.888330707550296, 34.26000858140759 ], [ -105.862169704550794, 34.298275588765932 ], [ -105.770429684416271, 34.303615594316511 ], [ -105.769879689761467, 34.376745605851298 ], [ -105.804609697593918, 34.377455604171395 ], [ -105.810389710941507, 34.536915628873551 ], [ -105.799789710049097, 34.556375632471315 ], [ -105.803519713834561, 34.594995638315766 ], [ -105.833249721652422, 34.610105639119922 ], [ -105.833110733870996, 34.768845663867864 ], [ -106.055269783547033, 34.768615652063197 ], [ -106.053519788826478, 34.841185663382696 ], [ -106.008879778860901, 34.841275665774383 ], [ -106.008939781144448, 34.870215670247156 ], [ -106.026089784976307, 34.870205669330609 ], [ -106.025969789401955, 34.926745678069558 ], [ -106.051849795187067, 34.926775676688194 ], [ -106.052139794119427, 34.912425674458738 ], [ -106.139969813734581, 34.912565669777813 ], [ -106.150164819242022, 34.95345467552491 ], [ -106.243875840112011, 34.953298670465486 ], [ -106.243799845846098, 35.025585681557772 ], [ -106.381419877254515, 35.035546675642379 ], [ -106.392244884351413, 35.094048683985164 ], [ -106.424306891269666, 35.091521681858225 ], [ -106.425893894589166, 35.12835868738388 ], [ -106.436191896795165, 35.12735868667091 ], [ -106.411820893097214, 35.148594691231807 ], [ -106.366316881670613, 35.132315691230218 ], [ -106.347681880023089, 35.163229696957707 ], [ -106.405495895174539, 35.191616698124058 ], [ -106.409398902716489, 35.273629710372575 ], [ -106.456771911350543, 35.250465704256314 ], [ -106.539348933764799, 35.300480707292927 ], [ -106.553237935661059, 35.286036704343111 ], [ -106.575950941624697, 35.297375704806768 ], [ -106.594802944517696, 35.281702701399361 ], [ -106.583510938418854, 35.237689695363279 ], [ -106.620049944473877, 35.21270068957643 ], [ -106.655153952956709, 35.221466688976051 ], [ -107.196180071886999, 35.219328658871746 ], [ -107.110112038819508, 35.044643637424549 ], [ -107.159596049678697, 35.044823634750934 ], [ -107.162879048423008, 35.020330630894243 ], [ -107.186061055109903, 35.040305632628211 ], [ -107.203739057882359, 35.02670162962243 ], [ -107.209237065078668, 35.100793640426978 ], [ -107.232836068966648, 35.085052636777178 ], [ -107.337058090165826, 35.065540628151084 ], [ -107.349387091222169, 35.045335624456669 ], [ -107.334087086424262, 35.02729562259568 ], [ -107.348205087857664, 35.006859618767692 ], [ -107.2029550505478, 34.937510616269549 ], [ -107.204420022619459, 34.578818562029717 ] ] ] } },
{ "type": "Feature", "properties": { "district_id": 1, "voting_age_pop": 531317, "lib_votes": 0, "grn_votes": 0, "con_votes": 0, "ref_votes": 0, "total_pop": 702156, "dem_votes_sum": 147995, "rep_votes_sum": 99793, "lib_votes_sum": 0, "grn_votes_sum": 0, "con_votes_sum": 0, "ref_votes_sum": 0, "minority_pop_sum": 691849, "dem_pct": 0.59726459715563307, "rep_pct": 0.40273540284436699, "lib_pct": 0.0, "grn_pct": 0.0, "con_pct": 0.0, "ref_pct": 0.0, "minority_pct": 0.9853209258341451, "compactness": 0.27680248598645868 }, "geometry": { "type": "Polygon", "coordinates": [ [ [ -106.739802933231715, 34.740511611337396 ], [ -106.747645931048098, 34.690405603268033 ], [ -106.7913509420476, 34.707963603623682 ], [ -106.835033956813248, 34.773677611306155 ], [ -106.888151967653627, 34.762894606824688 ], [ -106.920393976386762, 34.783810608277257 ], [ -106.96603098599995, 34.778554605034344 ], [ -106.998125994529204, 34.797372606167038 ], [ -107.203022039388514, 34.796974595100444 ], [ -107.2029550505478, 34.937510616269549 ], [ -107.348205087857664, 35.006859618767692 ], [ -107.334087086424262, 35.02729562259568 ], [ -107.349387091222169, 35.045335624456669 ], [ -107.337058090165826, 35.065540628151084 ], [ -107.232836068966648, 35.085052636777178 ], [ -107.209237065078668, 35.100793640426978 ], [ -107.203739057882359, 35.02670162962243 ], [ -107.186061055109903, 35.040305632628211 ], [ -107.162879048423008, 35.020330630894243 ], [ -107.159596049678697, 35.044823634750934 ], [ -107.110112038819508, 35.044643637424549 ], [ -107.196180071886999, 35.219328658871746 ], [ -106.655153952956709, 35.221466688976051 ], [ -106.620049944473877, 35.21270068957643 ], [ -106.583510938418854, 35.237689695363279 ], [ -106.595204944534331, 35.280818701243575 ], [ -106.575950941624697, 35.297375704806768 ], [ -106.553237935661059, 35.286036704343111 ], [ -106.539348933764799, 35.300480707292927 ], [ -106.456771911350543, 35.250465704256314 ], [ -106.409398902716489, 35.273629710372575 ], [ -106.405495895174539, 35.191616698124058 ], [ -106.347681880023089, 35.163229696957707 ], [ -106.366316881670613, 35.132315691230218 ], [ -106.414962893770777, 35.148292691014447 ], [ -106.416559893721328, 35.143289690165737 ], [ -106.436191896795165, 35.12735868667091 ], [ -106.436583896759913, 35.125842686418672 ], [ -106.425893894589166, 35.12835868738388 ], [ -106.427577892327037, 35.095637682307817 ], [ -106.392344884386461, 35.094207684003983 ], [ -106.38098787713858, 35.035296675627585 ], [ -106.243799845846098, 35.025585681557772 ], [ -106.243875840112011, 34.953298670465486 ], [ -106.234681837974151, 34.952155670784244 ], [ -106.274572843347102, 34.907859661839851 ], [ -106.290744848339784, 34.925497663679984 ], [ -106.289971851321241, 34.965266669821972 ], [ -106.329798862041585, 34.988684671264153 ], [ -106.357493868494572, 34.992411670340729 ], [ -106.367597869952775, 34.982531668283919 ], [ -106.385498870405328, 34.938190660533273 ], [ -106.382266866774955, 34.901411655073176 ], [ -106.414484873201175, 34.892230651937624 ], [ -106.410986870690223, 34.870259648758761 ], [ -106.464186882482466, 34.870158645892111 ], [ -106.466187870921118, 34.717030622300832 ], [ -106.483079874702568, 34.717534621481306 ], [ -106.497260879684035, 34.741139624351298 ], [ -106.520278883768512, 34.72816962113717 ], [ -106.592530901498606, 34.750525620718086 ], [ -106.675879919168821, 34.741021614822991 ], [ -106.690114920304339, 34.715341610139248 ], [ -106.739802933231715, 34.740511611337396 ] ] ] } },
{ "type": "Feature", "properties": { "district_id": 2, "voting_age_pop": 506339, "lib_votes": 0, "grn_votes": 0, "con_votes": 0, "ref_votes": 0, "total_pop": 684294, "dem_votes_sum": 87347, "rep_votes_sum": 120660, "lib_votes_sum": 0, "grn_votes_sum": 0, "con_votes_sum": 0, "ref_votes_sum": 0, "minority_pop_sum": 639355, "dem_pct": 0.41992336796357815, "rep_pct": 0.5800766320364219, "lib_pct": 0.0, "grn_pct": 0.0, "con_pct": 0.0, "ref_pct": 0.0, "minority_pct": 0.93432793506884471, "compactness": 0.34241206410543762 }, "geometry": { "type": "Polygon", "coordinates": [ [ [ -106.528251684290908, 31.78315315341202 ], [ -108.208404047339144, 31.78360408058246 ], [ -108.208583021045683, 31.333400009118879 ], [ -109.050049198438714, 31.332248973420477 ], [ -109.046166418269195, 34.579296463538803 ], [ -107.204420022619459, 34.578818562029717 ], [ -107.203022039388514, 34.796974595100444 ], [ -106.998125994529204, 34.797372606167038 ], [ -106.96603098599995, 34.778554605034344 ], [ -106.920393976386762, 34.783810608277257 ], [ -106.888151967653627, 34.762894606824688 ], [ -106.835033956813248, 34.773677611306155 ], [ -106.7913509420476, 34.707963603623682 ], [ -106.747645931048098, 34.690405603268033 ], [ -106.738223933076867, 34.742981611798605 ], [ -106.695194921447339, 34.715623609911994 ], [ -106.679042918085557, 34.718220611168668 ], [ -106.675879919168821, 34.741021614822991 ], [ -106.592530901498606, 34.750525620718086 ], [ -106.520278883768512, 34.72816962113717 ], [ -106.497260879684035, 34.741139624351298 ], [ -106.483079874702568, 34.717534621481306 ], [ -106.466187870921118, 34.717030622300832 ], [ -106.464186882482466, 34.870158645892111 ], [ -106.410986870690223, 34.870259648758761 ], [ -106.414484873201175, 34.892230651937624 ], [ -106.382266866774955, 34.901411655073176 ], [ -106.385498870405328, 34.938190660533273 ], [ -106.357323868455737, 34.992398670347818 ], [ -106.288979851029453, 34.96437066973791 ], [ -106.290744848339784, 34.925497663679984 ], [ -106.286128846757691, 34.91848066285074 ], [ -106.274572843347102, 34.907859661839851 ], [ -106.234784838095749, 34.953399670969731 ], [ -106.150164819242022, 34.95345467552491 ], [ -106.139969813734581, 34.912565669777813 ], [ -106.052139794119427, 34.912425674458738 ], [ -106.051849795187067, 34.926775676688194 ], [ -106.025969789401955, 34.926745678069558 ], [ -106.026089784976307, 34.870205669330609 ], [ -106.008939781144448, 34.870215670247156 ], [ -106.008879778860901, 34.841275665774383 ], [ -106.053519788826478, 34.841185663382696 ], [ -106.055269783547033, 34.768615652063197 ], [ -105.833110733870996, 34.768845663867864 ], [ -105.833249721652422, 34.610105639119922 ], [ -105.803519713834561, 34.594995638315766 ], [ -105.799789710049097, 34.556375632471315 ], [ -105.810389710941507, 34.536915628873551 ], [ -105.804609697593918, 34.377455604171395 ], [ -105.769879689761467, 34.376745605851298 ], [ -105.770429684416271, 34.303615594316511 ], [ -105.862169704550794, 34.298275588765932 ], [ -105.888330707550296, 34.26000858140759 ], [ -105.313227578366806, 34.260020610793141 ], [ -105.312977584741503, 34.346725624591464 ], [ -104.891859489317099, 34.34699464615656 ], [ -104.892032508655532, 34.604431687272431 ], [ -104.444922406502357, 34.604826710453686 ], [ -104.44494441308305, 34.69166072439485 ], [ -104.383970399130305, 34.692275727654597 ], [ -104.466319421832523, 34.742125731372774 ], [ -104.539149444425476, 34.818975739859582 ], [ -104.611079460946783, 34.819535736183497 ], [ -104.640369473994397, 34.901595747708434 ], [ -104.684379487339086, 34.943705752076298 ], [ -104.607029470483013, 34.954635757896838 ], [ -104.210999379614947, 34.956675779088826 ], [ -104.18203937207997, 34.945645778843243 ], [ -104.181989370401439, 34.924105775392071 ], [ -104.129540358304283, 34.924206778158471 ], [ -104.124825380014499, 35.215605825035269 ], [ -104.359592434590994, 35.220759813311474 ], [ -104.322407430085818, 35.271767823397155 ], [ -104.290957423431209, 35.279233826269191 ], [ -104.313205430436781, 35.302716828799426 ], [ -104.298526427886927, 35.313148831242437 ], [ -104.312616431340075, 35.315701830889424 ], [ -104.308644431096297, 35.324092832432981 ], [ -104.286491426158491, 35.326227833963401 ], [ -104.305739431391814, 35.336136834497928 ], [ -104.293577430955594, 35.365638839826609 ], [ -104.270920426243052, 35.372041842062877 ], [ -104.256145421862328, 35.359959840944995 ], [ -104.224566414587841, 35.36016084267839 ], [ -104.223938415797377, 35.377021845386089 ], [ -104.185578407286982, 35.381396848148398 ], [ -104.19967641307845, 35.412868852378224 ], [ -104.192010413633497, 35.441697857360722 ], [ -104.219909421327984, 35.457121858292204 ], [ -104.198871417377092, 35.468370861212748 ], [ -104.210233420363949, 35.472826861301996 ], [ -104.189034417531232, 35.498314866484904 ], [ -104.218731423569665, 35.488142863263818 ], [ -104.225673423913449, 35.472602860429205 ], [ -104.239160427307198, 35.476033860240264 ], [ -104.216515423568822, 35.494441864380249 ], [ -104.216066424937054, 35.512558867268844 ], [ -104.236483431505945, 35.535298869750903 ], [ -104.248189433775494, 35.529961868270945 ], [ -104.238229432551279, 35.543174870899435 ], [ -104.263194439552166, 35.558293871924853 ], [ -104.255021438996195, 35.574592874941466 ], [ -104.268791441878207, 35.570939873613895 ], [ -104.283722446370462, 35.583702874810541 ], [ -104.278280446299505, 35.598179877388937 ], [ -104.302172451561191, 35.595068875592695 ], [ -104.294240450757911, 35.60760587800069 ], [ -104.324149457624856, 35.607152876292865 ], [ -104.338409463604265, 35.639869880657422 ], [ -104.385620474721847, 35.642633878501712 ], [ -104.380950474551554, 35.653635880485616 ], [ -104.344099466506563, 35.659165883377533 ], [ -104.260609450777423, 35.702195894727545 ], [ -104.149889426374202, 35.716845903119648 ], [ -104.122169421935212, 35.740805908417755 ], [ -104.107438421899644, 35.781550915644523 ], [ -104.021324401919685, 35.781485920380078 ], [ -103.976876393276058, 35.80169992601688 ], [ -103.72459430361549, 35.422228879470659 ], [ -103.63719128322721, 35.422018884132719 ], [ -103.637156280634841, 35.389727878958212 ], [ -103.3903202229735, 35.38997189220666 ], [ -103.37995022118443, 35.397992894053417 ], [ -103.379243228782158, 35.494968909700781 ], [ -103.37492622819758, 35.500279910786716 ], [ -103.345550219139383, 35.473211908010363 ], [ -103.34405621670517, 35.447197903901724 ], [ -103.325194211724693, 35.440209903786283 ], [ -103.34452321505556, 35.425195900331893 ], [ -103.317648206623602, 35.398463897458356 ], [ -103.260377192509125, 35.389894899132258 ], [ -103.240698186579706, 35.373399897515668 ], [ -103.232792185865179, 35.387758900258454 ], [ -103.201397179162072, 35.396167903292216 ], [ -103.200300177762372, 35.381801901027131 ], [ -103.174282172291129, 35.389865903718373 ], [ -103.149610165076439, 35.372025902144173 ], [ -103.121722158834956, 35.375995904271541 ], [ -103.129505159551869, 35.361957901582585 ], [ -103.107606153762561, 35.353880901437336 ], [ -103.099269153032822, 35.369422904400636 ], [ -103.081953148198664, 35.359825903764715 ], [ -103.074116147769416, 35.377680907077504 ], [ -103.042265141637429, 35.39489591156444 ], [ -103.064430913787433, 32.00052233839579 ], [ -106.618495717060753, 32.000500184992831 ], [ -106.639545720456354, 31.980348180788916 ], [ -106.619578715553473, 31.971582180235622 ], [ -106.625132715744328, 31.954535177215185 ], [ -106.614330713202179, 31.951620177212178 ], [ -106.629751715076921, 31.926572172455685 ], [ -106.611856710762751, 31.92000817216546 ], [ -106.645487716852699, 31.898674167220999 ], [ -106.62920071239094, 31.88370416548733 ], [ -106.635931712823492, 31.866242162345003 ], [ -106.602052704102078, 31.844411160248836 ], [ -106.602815703117642, 31.825023157046772 ], [ -106.547149689864256, 31.807304156553265 ], [ -106.528251684290908, 31.78315315341202 ] ] ] } }
]
}
