{
"type": "FeatureCollection",
"name": "new_hampshire_optimized_districts_county",
"crs": { "type": "name", "properties": { "name": "urn:ogc:def:crs:OGC:1.3:CRS84" } },
"features": [
{ "type": "Feature", "properties": { "district_id": 0, "voting_age_pop": 519004, "lib_votes": 0, "grn_votes": 0, "con_votes": 0, "ref_votes": 0, "total_pop": 656653, "dem_votes_sum": 211044, "rep_votes_sum": 181098, "lib_votes_sum": 0, "grn_votes_sum": 0, "con_votes_sum": 0, "ref_votes_sum": 0, "minority_pop_sum": 4796, "dem_pct": 0.53818259712043082, "rep_pct": 0.46181740287956913, "lib_pct": 0.0, "grn_pct": 0.0, "con_pct": 0.0, "ref_pct": 0.0, "minority_pct": 0.0073037053055418919, "compactness": 0.2521394079085168 }, "geometry": { "type": "Polygon", "coordinates": [ [ [ -71.542704481996964, 42.702664668975686 ], [ -72.458411817845203, 42.72693336259524 ], [ -72.49054715547895, 42.772747318368502 ], [ -72.515466066086148, 42.765629161868191 ], [ -72.508736519498612, 42.779522056016795 ], [ -72.541513172152264, 42.807094353573881 ], [ -72.557077634334078, 42.852862617243829 ], [ -72.552621980864089, 42.885042853683331 ], [ -72.524499226918053, 42.915148286371306 ], [ -72.533807308276494, 42.952585087740331 ], [ -72.473716287886532, 42.972123782236928 ], [ -72.443259333545925, 43.007577231555558 ], [ -72.467841975798493, 43.052750458226768 ], [ -72.435263670084836, 43.081490001560645 ], [ -72.443198151619114, 43.103019919976369 ], [ -72.432501845909513, 43.118896466882468 ], [ -72.457404597728299, 43.147536677276221 ], [ -72.438223496500953, 43.202917886075845 ], [ -72.438605393059149, 43.252424327759456 ], [ -72.39531491543427, 43.312695993681331 ], [ -72.4105591819267, 43.331120897383272 ], [ -72.389867312082302, 43.356572406154221 ], [ -72.412649064658169, 43.362278869318182 ], [ -72.416021719978673, 43.37716369077345 ], [ -72.38147470726328, 43.48002972514734 ], [ -72.39887069082576, 43.512652600341745 ], [ -72.380696637350411, 43.54035466574144 ], [ -72.380315252524454, 43.573176081312894 ], [ -72.328327122544323, 43.601114644949988 ], [ -72.334827395450432, 43.617952298485413 ], [ -72.303149388143211, 43.668618565639505 ], [ -72.299563677058458, 43.706276968885639 ], [ -72.205231047669542, 43.770927988851199 ], [ -72.184051157192897, 43.806404276268545 ], [ -72.184615673908894, 43.864142758326842 ], [ -72.120450900736486, 43.919554616907774 ], [ -72.118345174344668, 43.946531550153537 ], [ -72.090939677727576, 43.965780279036579 ], [ -72.114377590771454, 43.968053843301604 ], [ -72.116864901342581, 43.99446660788108 ], [ -72.102765363228869, 44.014577808805456 ], [ -72.09052706076605, 44.009923801182588 ], [ -72.095425529547626, 44.02175674450428 ], [ -72.082669160780469, 44.021802530564457 ], [ -72.052867843268757, 44.076306344876826 ], [ -72.031840642860018, 44.078541609693154 ], [ -72.045283805508134, 44.087307724871302 ], [ -72.031306065549657, 44.100430130235615 ], [ -72.047878139159096, 44.096585250033286 ], [ -72.055370403165384, 44.110760267162469 ], [ -72.033259605276271, 44.131680026477518 ], [ -72.066158098555775, 44.190128245810733 ], [ -72.047664374071616, 44.238955958122467 ], [ -72.06847751037381, 44.270800786652259 ], [ -72.032878342607944, 44.302164703342079 ], [ -72.032801744512142, 44.320490345023423 ], [ -71.981423814565318, 44.337366494985609 ], [ -71.934044342720895, 44.336000803387513 ], [ -71.912422002433217, 44.348123996201949 ], [ -71.871588011701945, 44.336679916180202 ], [ -71.81584624592324, 44.35400619768 ], [ -71.814427294922581, 44.381921910661312 ], [ -71.794483108917589, 44.399003816181555 ], [ -71.703492736646311, 44.413667342685137 ], [ -71.660965089914072, 44.440949811556635 ], [ -71.639556271727344, 44.464288212485513 ], [ -71.645751586769592, 44.47505321445518 ], [ -71.599330897776014, 44.486283275982679 ], [ -71.587781170037459, 44.506745056205787 ], [ -71.577024963872802, 44.502060775694169 ], [ -71.594114270202212, 44.521553853697299 ], [ -71.571865369458834, 44.537918830723854 ], [ -71.596967616559652, 44.559471377799419 ], [ -71.559721578083952, 44.563972636659862 ], [ -71.547727772044595, 44.57138092133485 ], [ -71.554807733843404, 44.579368807968727 ], [ -71.552364681316618, 44.584388801444256 ], [ -71.545787844617607, 44.577934292289704 ], [ -71.534908237258364, 44.58789816273265 ], [ -71.56212970298867, 44.601181097776589 ], [ -71.555126808401454, 44.625243721766047 ], [ -71.546335866350915, 44.622955048535722 ], [ -71.557020070583221, 44.629485837615753 ], [ -71.546979076405535, 44.629554274205276 ], [ -71.563932616720805, 44.636916782157748 ], [ -71.563259637948917, 44.652442345781338 ], [ -71.587766322712852, 44.659621868629486 ], [ -71.582027289134857, 44.673636964039176 ], [ -71.597106012174237, 44.678252545779564 ], [ -71.594085049319219, 44.696135476146623 ], [ -71.632643849352604, 44.751425366590013 ], [ -71.573224031782175, 44.790899526447944 ], [ -71.577130432821974, 44.815420247129005 ], [ -71.551403426227097, 44.837194428599091 ], [ -71.549772427711758, 44.862149876061892 ], [ -71.494912703794782, 44.904691128000948 ], [ -71.522836847557912, 44.939915687012942 ], [ -71.517953388219965, 44.967655687790199 ], [ -71.541515565520314, 44.984768657809759 ], [ -71.524440104267882, 45.00220926973499 ], [ -71.504497007843256, 45.008480296910598 ], [ -71.488475142114723, 45.000797538801763 ], [ -71.465404361549929, 45.012661178803882 ], [ -71.501200370223899, 45.013355661754183 ], [ -71.491024473729752, 45.043247320122262 ], [ -71.506480868087664, 45.048557581572844 ], [ -71.498117696539751, 45.070308474296169 ], [ -71.467996536324335, 45.083766719393722 ], [ -71.428491877680798, 45.123774892785455 ], [ -71.437632326225426, 45.141871732106154 ], [ -71.397452701057603, 45.203410068865828 ], [ -71.442851092859101, 45.238237933446051 ], [ -71.421060425401095, 45.23218772636303 ], [ -71.402151748646475, 45.242563540086785 ], [ -71.384435965709969, 45.233347756226287 ], [ -71.356558988246135, 45.253855601993202 ], [ -71.360264549604722, 45.270250258144728 ], [ -71.336432665667999, 45.272698853767594 ], [ -71.284183697487947, 45.302310025884239 ], [ -71.230883732734654, 45.24935317052131 ], [ -71.197146099369334, 45.254128832001186 ], [ -71.18010062502745, 45.239893318918455 ], [ -71.162325467216334, 45.250316175580878 ], [ -71.147584976863214, 45.239382305118056 ], [ -71.084698155714349, 45.305642075582291 ], [ -71.033521111084482, 44.697592848807417 ], [ -70.972760399299332, 43.570444669478164 ], [ -70.950615879844733, 43.551295099557599 ], [ -70.963801839977492, 43.539370611193505 ], [ -70.954659510101806, 43.509303295459553 ], [ -70.976040933217462, 43.478427728310557 ], [ -70.961116200633398, 43.469188371250866 ], [ -70.960873468265277, 43.438892319209238 ], [ -70.986843273774539, 43.413784453021862 ], [ -70.985635679680499, 43.37913970977074 ], [ -71.0705991002921, 43.299337258604822 ], [ -71.054381875851533, 43.289686037682067 ], [ -71.133513793069184, 43.203535991939241 ], [ -71.247349918278886, 43.275198073038162 ], [ -71.392236428145779, 43.03928480417396 ], [ -71.402960376371496, 43.041054727507742 ], [ -71.392388609827833, 43.009309030186806 ], [ -71.440583824478537, 43.018379555054061 ], [ -71.443261946173479, 43.008530919049925 ], [ -71.472873017229162, 43.008853649313942 ], [ -71.471079640635551, 42.984643636049114 ], [ -71.500914053404784, 43.000070623132324 ], [ -71.496379154512709, 42.982667493388703 ], [ -71.616453718480329, 42.969346945610525 ], [ -71.610350212714707, 42.939722338550546 ], [ -71.582027161533347, 42.943330803922564 ], [ -71.561412974249166, 42.788845145971379 ], [ -71.524805459276308, 42.771664053162617 ], [ -71.542704481996964, 42.702664668975686 ] ], [ [ -71.54739087116829, 43.216368476780957 ], [ -71.547363571436676, 43.216373478572841 ], [ -71.546933046933418, 43.21645236564656 ], [ -71.54739087116829, 43.216368476780957 ] ], [ [ -71.539623822976964, 43.205496724321065 ], [ -71.539618282184179, 43.205533461382451 ], [ -71.539633297111379, 43.205529945053861 ], [ -71.539623822976964, 43.205496724321065 ] ], [ [ -71.530532663642333, 43.208782500161291 ], [ -71.529651389258589, 43.209463265759332 ], [ -71.530220491005977, 43.209023650205538 ], [ -71.530532663642333, 43.208782500161291 ] ], [ [ -71.501339440423592, 43.00174848334261 ], [ -71.501387166432281, 43.001946258877737 ], [ -71.502696419153551, 43.007371302646696 ], [ -71.501339440423592, 43.00174848334261 ] ], [ [ -71.522381714507517, 43.178885691453175 ], [ -71.577709080385645, 43.157964303100805 ], [ -71.577785181708947, 43.157935497820475 ], [ -71.522381714507517, 43.178885691453175 ] ], [ [ -72.21705672697847, 42.971727263105961 ], [ -72.217108873109552, 42.971066770951339 ], [ -72.216356485955103, 42.984979429864701 ], [ -72.21705672697847, 42.971727263105961 ] ], [ [ -72.254446393697364, 42.91109295597839 ], [ -72.254563803197726, 42.911097180628936 ], [ -72.254350030056244, 42.911089488528496 ], [ -72.254446393697364, 42.91109295597839 ] ], [ [ -72.222680224599273, 42.911777854936034 ], [ -72.23107980257366, 42.91125734303769 ], [ -72.221969963276891, 42.911821840596161 ], [ -72.222680224599273, 42.911777854936034 ] ], [ [ -72.221909312938266, 42.927881477192081 ], [ -72.196792690903052, 42.929880590240209 ], [ -72.188339067298514, 42.930750233506259 ], [ -72.196792690903038, 42.929880590240231 ], [ -72.221909312938266, 42.927881477192081 ] ], [ [ -72.16653360805428, 42.932970394130649 ], [ -72.158598485188165, 42.933702803148982 ], [ -72.188339067298514, 42.930750233506259 ], [ -72.16653360805428, 42.932970394130649 ] ], [ [ -72.16082646617221, 42.955255378964814 ], [ -72.160826466172239, 42.955255378964814 ], [ -72.161131779186746, 42.947374520822329 ], [ -72.16082646617221, 42.955255378964814 ] ], [ [ -72.218841819871926, 42.970033441659908 ], [ -72.218841819871983, 42.970033441659908 ], [ -72.219101419791713, 42.969842612833666 ], [ -72.218841819871926, 42.970033441659908 ] ], [ [ -72.219955787570072, 42.96933912293688 ], [ -72.219955787570086, 42.96933912293688 ], [ -72.220009954735175, 42.969333122824132 ], [ -72.219955787570072, 42.96933912293688 ] ], [ [ -72.22157396384182, 42.969106652091405 ], [ -72.221543041554455, 42.96911026705002 ], [ -72.221543041554455, 42.96911026705002 ], [ -72.22157396384182, 42.969106652091405 ] ], [ [ -72.223221302228566, 42.969056847461438 ], [ -72.223221302228566, 42.969056847461438 ], [ -72.223246239679327, 42.969052057241903 ], [ -72.223221302228566, 42.969056847461438 ] ], [ [ -72.224289571824997, 42.968843123012149 ], [ -72.224289571825011, 42.968843123012149 ], [ -72.224563082763382, 42.968687078695922 ], [ -72.224289571824997, 42.968843123012149 ] ], [ [ -72.225196571776891, 42.968248892570259 ], [ -72.225196571776891, 42.96824889257028 ], [ -72.225856218998288, 42.96803131646319 ], [ -72.226224244493366, 42.967843742190098 ], [ -72.22645580010402, 42.967628254548238 ], [ -72.226224244493338, 42.967843742190098 ], [ -72.225196571776891, 42.968248892570259 ] ], [ [ -72.227209872987387, 42.967095819002125 ], [ -72.227209872987402, 42.967095819002125 ], [ -72.227867552148425, 42.966663884219685 ], [ -72.227209872987387, 42.967095819002125 ] ], [ [ -72.228878065344887, 42.966516022107719 ], [ -72.22886271832003, 42.966517122729108 ], [ -72.228878065344887, 42.966516022107719 ], [ -72.228878065344887, 42.966516022107719 ] ], [ [ -72.231034039762619, 42.965074442369513 ], [ -72.231034039762648, 42.965074442369513 ], [ -72.231529265448643, 42.964661841084578 ], [ -72.231034039762619, 42.965074442369513 ] ], [ [ -72.228916722691181, 42.964350835237227 ], [ -72.231903963896272, 42.964349656203915 ], [ -72.232041046984548, 42.9635104609454 ], [ -72.228916722691181, 42.964350835237227 ] ], [ [ -72.228376426093448, 42.962710091751546 ], [ -72.228458059203902, 42.96268966045546 ], [ -72.228916722691181, 42.964350835237227 ], [ -72.228376426093448, 42.962710091751546 ] ], [ [ -72.227903786126802, 42.959947214705146 ], [ -72.228745074047765, 42.961913921824348 ], [ -72.227903786126816, 42.959947214705139 ], [ -72.227903786126802, 42.959947214705146 ] ], [ [ -72.230290857246729, 42.959278125668611 ], [ -72.230290857246729, 42.959278125668611 ], [ -72.229253120222182, 42.954288727014401 ], [ -72.230290857246729, 42.959278125668611 ] ], [ [ -72.232286207893949, 42.951958729403593 ], [ -72.232286207893921, 42.951958729403593 ], [ -72.230010915698074, 42.954184967955548 ], [ -72.232286207893949, 42.951958729403593 ] ], [ [ -72.235749403590376, 42.951501847023579 ], [ -72.235749403590404, 42.951501847023579 ], [ -72.235769624323595, 42.95149343761225 ], [ -72.235749403590376, 42.951501847023579 ] ], [ [ -72.235978343221902, 42.951417881421207 ], [ -72.236169876999782, 42.951209031101001 ], [ -72.235927176436277, 42.951434977160332 ], [ -72.235978343221902, 42.951417881421207 ] ], [ [ -72.236221902515823, 42.950868732226738 ], [ -72.236221902515808, 42.950868732226766 ], [ -72.236207252338602, 42.951128090258159 ], [ -72.236221902515823, 42.950868732226738 ] ], [ [ -72.236069661657538, 42.950029339627633 ], [ -72.235945393050997, 42.949495421387731 ], [ -72.236084979379228, 42.950120901159849 ], [ -72.236069661657538, 42.950029339627633 ] ], [ [ -72.235764473085837, 42.949083444679218 ], [ -72.235703282966, 42.948777032120702 ], [ -72.235838800565602, 42.94923590431705 ], [ -72.235764473085837, 42.949083444679218 ] ], [ [ -72.235916906328413, 42.948373680104396 ], [ -72.235916906328427, 42.948373680104382 ], [ -72.236004831288781, 42.948188186008927 ], [ -72.235916906328413, 42.948373680104396 ] ], [ [ -72.23642046839376, 42.945467198893219 ], [ -72.236223623412187, 42.947105072935791 ], [ -72.236420468393774, 42.945467198893219 ], [ -72.23642046839376, 42.945467198893219 ] ], [ [ -72.237030904559376, 42.945116214833426 ], [ -72.23727532220947, 42.944688897268747 ], [ -72.237122507409651, 42.944849098007829 ], [ -72.237030904559376, 42.945116214833426 ] ], [ [ -72.238114260534786, 42.944261614782363 ], [ -72.238198684156657, 42.944202015210692 ], [ -72.238114260534772, 42.944261614782363 ], [ -72.237763553295792, 42.944376160062497 ], [ -72.237488986994876, 42.944521020373152 ], [ -72.238114260534786, 42.944261614782363 ] ], [ [ -72.240082868220156, 42.943826786556919 ], [ -72.240082868220171, 42.94382678655694 ], [ -72.240418751102297, 42.943750465493054 ], [ -72.240082868220156, 42.943826786556919 ] ], [ [ -72.241550247522724, 42.942074919888462 ], [ -72.241379685385951, 42.943117321151412 ], [ -72.241532627022082, 42.942796904366844 ], [ -72.241550247522724, 42.942074919888462 ] ], [ [ -72.241654373064179, 42.941682880529768 ], [ -72.241654373064208, 42.941682880529747 ], [ -72.241776429000495, 42.941354944532392 ], [ -72.241654373064179, 42.941682880529768 ] ], [ [ -72.242142890018002, 42.940202906518188 ], [ -72.242036133081527, 42.940569178346337 ], [ -72.24214289001803, 42.940202906518167 ], [ -72.24234372189963, 42.939723973561591 ], [ -72.242142890018002, 42.940202906518188 ] ], [ [ -72.24261599531691, 42.939325522001262 ], [ -72.242615995316925, 42.939325522001262 ], [ -72.242664299182323, 42.939141756724737 ], [ -72.24261599531691, 42.939325522001262 ] ], [ [ -72.242692184660612, 42.939035670086504 ], [ -72.242280295644065, 42.93816578123964 ], [ -72.242447869914045, 42.938616031593448 ], [ -72.242692184660612, 42.939035670086504 ] ], [ [ -72.241944335734971, 42.937929318755302 ], [ -72.241471415480461, 42.937471556359462 ], [ -72.241394953048996, 42.937280690676971 ], [ -72.241944335734971, 42.937929318755302 ] ], [ [ -72.241394953048996, 42.937280690676971 ], [ -72.241303491498968, 42.936731581115033 ], [ -72.241369581074935, 42.936208197410103 ], [ -72.241394953048996, 42.937280690676971 ] ], [ [ -72.241516912095037, 42.935663439949522 ], [ -72.241516912095037, 42.935663439949522 ], [ -72.241626352164076, 42.935454775715186 ], [ -72.241516912095037, 42.935663439949522 ] ], [ [ -72.24195973433055, 42.934694592438788 ], [ -72.241959734330564, 42.934694592438788 ], [ -72.241988195828853, 42.934417877068682 ], [ -72.24195973433055, 42.934694592438788 ] ], [ [ -72.241852925897405, 42.934076409516791 ], [ -72.241852925897405, 42.934076409516791 ], [ -72.241593642811523, 42.933550092900262 ], [ -72.241852925897405, 42.934076409516791 ] ], [ [ -72.241471629150368, 42.933329016521306 ], [ -72.241410573805524, 42.93313807455845 ], [ -72.241593642811523, 42.933550092900262 ], [ -72.241471629150368, 42.933329016521306 ] ], [ [ -72.241410287445831, 42.932504821355458 ], [ -72.241410287445817, 42.932504821355458 ], [ -72.241456391663235, 42.932794873061411 ], [ -72.241410287445831, 42.932504821355458 ] ], [ [ -72.241410474156666, 42.932123435387183 ], [ -72.241288141976042, 42.931566507360571 ], [ -72.241089840993254, 42.931322491328125 ], [ -72.240860946019424, 42.931101094850241 ], [ -72.240738784283323, 42.930963703877616 ], [ -72.240418426947613, 42.930643474003737 ], [ -72.240143781571035, 42.930269510400358 ], [ -72.240081179078842, 42.929905518046191 ], [ -72.240143781571035, 42.930269510400365 ], [ -72.240418426947585, 42.930643474003766 ], [ -72.241288141976028, 42.9315665073606 ], [ -72.241410474156666, 42.932123435387183 ] ], [ [ -72.240799848984963, 42.929422767887104 ], [ -72.240799848985006, 42.929422767887104 ], [ -72.241303523724682, 42.929254799551046 ], [ -72.240799848984963, 42.929422767887104 ] ], [ [ -72.242158095033005, 42.929003009750218 ], [ -72.242158095033034, 42.929003009750218 ], [ -72.24220371808066, 42.928923117898925 ], [ -72.242158095033005, 42.929003009750218 ] ], [ [ -72.242219056831019, 42.928557578029327 ], [ -72.242280023440657, 42.928789497122636 ], [ -72.242280023440657, 42.928789497122622 ], [ -72.242219056831019, 42.928557578029327 ] ], [ [ -72.242066700429248, 42.928209703794039 ], [ -72.242066700429248, 42.928209703794018 ], [ -72.241852859541822, 42.92795012013088 ], [ -72.242066700429248, 42.928209703794039 ] ], [ [ -72.241852859541822, 42.92795012013088 ], [ -72.241425667285981, 42.927332172030873 ], [ -72.24136473667869, 42.926753817947329 ], [ -72.241852859541822, 42.92795012013088 ] ], [ [ -72.241502100714186, 42.926065792944023 ], [ -72.241456147398111, 42.926393905266387 ], [ -72.241502100714186, 42.926065792944051 ], [ -72.241502100714186, 42.926065792944023 ] ], [ [ -72.241486642566727, 42.925783562416584 ], [ -72.241150614443697, 42.925180803376279 ], [ -72.241499949820408, 42.926026522605078 ], [ -72.241486642566727, 42.925783562416584 ] ], [ [ -72.240952667054458, 42.924997663894906 ], [ -72.24083034667801, 42.924791679517085 ], [ -72.241150614443697, 42.925180803376279 ], [ -72.240952667054458, 42.924997663894906 ] ], [ [ -72.240815153587377, 42.924562907622743 ], [ -72.240906975946416, 42.924349289626022 ], [ -72.24083034667801, 42.924791679517085 ], [ -72.240815153587377, 42.924562907622743 ] ], [ [ -72.241135679776363, 42.923975246079848 ], [ -72.241135679776363, 42.923975246079863 ], [ -72.241145890676421, 42.923893882143496 ], [ -72.241135679776363, 42.923975246079848 ] ], [ [ -72.241155031172298, 42.923672632292778 ], [ -72.241166312476537, 42.92373115394841 ], [ -72.241166312476537, 42.923731153948403 ], [ -72.241155031172298, 42.923672632292778 ] ], [ [ -72.240861060767671, 42.923174325737364 ], [ -72.240540583330201, 42.92268591192046 ], [ -72.241045689229566, 42.923402063083735 ], [ -72.240861060767671, 42.923174325737364 ] ], [ [ -72.270449074013101, 43.592417242316309 ], [ -72.27078658605916, 43.592449907905731 ], [ -72.27186780654057, 43.592554543443832 ], [ -72.270449074013101, 43.592417242316309 ] ], [ [ -72.264848676677445, 43.591860097567661 ], [ -72.265405554682886, 43.59191209701671 ], [ -72.266237111323761, 43.591989740172671 ], [ -72.264848676677445, 43.591860097567661 ] ], [ [ -72.253600090336406, 43.650000410421121 ], [ -72.253644518878232, 43.649847769811785 ], [ -72.253529748816135, 43.650186525263145 ], [ -72.253600090336406, 43.650000410421121 ] ], [ [ -72.191391022929196, 43.612474671261459 ], [ -72.19030754234366, 43.614236819633099 ], [ -72.191287844924659, 43.612642480343553 ], [ -72.191391022929196, 43.612474671261459 ] ], [ [ -72.336490413698741, 43.332211832028662 ], [ -72.335330955926494, 43.332234821339789 ], [ -72.335756448483295, 43.332226386496828 ], [ -72.336490413698741, 43.332211832028662 ] ], [ [ -72.252320824878495, 43.590631679090443 ], [ -72.253589212383787, 43.590757253603627 ], [ -72.253589293005717, 43.590757261170687 ], [ -72.252320824878495, 43.590631679090443 ] ], [ [ -72.223496094068906, 43.587099472140025 ], [ -72.224889772524989, 43.587268341065752 ], [ -72.225006779735281, 43.587282517946655 ], [ -72.223496094068906, 43.587099472140025 ] ], [ [ -72.21044950150619, 43.58548198831344 ], [ -72.211517716346322, 43.585626935905687 ], [ -72.209335502317671, 43.585359882105564 ], [ -72.21044950150619, 43.58548198831344 ] ], [ [ -71.638823924822091, 43.2163152476775 ], [ -71.624541638553723, 43.195998556680273 ], [ -71.638676902578695, 43.216106184464152 ], [ -71.638823924822091, 43.2163152476775 ] ], [ [ -71.55395226578328, 43.188300271446892 ], [ -71.554995413232291, 43.187785716555318 ], [ -71.55506596097797, 43.187750916138675 ], [ -71.55395226578328, 43.188300271446892 ] ], [ [ -71.541113113880058, 43.194212025721185 ], [ -71.541241262817508, 43.194182478046372 ], [ -71.54104288958672, 43.194228217126323 ], [ -71.541113113880058, 43.194212025721185 ] ], [ [ -71.661544699119275, 43.250073547832478 ], [ -71.662301324739616, 43.251253490278707 ], [ -71.667999339653747, 43.260137795723189 ], [ -71.661544699119275, 43.250073547832478 ] ], [ [ -71.564649000271416, 43.270940940621642 ], [ -71.56461037411016, 43.271069672962113 ], [ -71.564603220850827, 43.271093513587743 ], [ -71.564649000271416, 43.270940940621642 ] ], [ [ -71.510295291982274, 43.552042791908512 ], [ -71.510209213788855, 43.552939244557038 ], [ -71.510663123801606, 43.5483653954647 ], [ -71.510295291982274, 43.552042791908512 ] ], [ [ -71.510721317607178, 43.546275194530395 ], [ -71.509472469676595, 43.542078948336155 ], [ -71.510706483011944, 43.547640659744239 ], [ -71.510721317607178, 43.546275194530395 ] ], [ [ -71.509318434997496, 43.541849998623157 ], [ -71.509318434997496, 43.541849998623171 ], [ -71.509472469676595, 43.542078948336155 ], [ -71.509318434997496, 43.541849998623157 ] ], [ [ -71.5078503467074, 43.539594843866119 ], [ -71.508496358329793, 43.540370123550211 ], [ -71.508052860786179, 43.539790031932981 ], [ -71.5078503467074, 43.539594843866119 ] ], [ [ -71.507379763930786, 43.539042352584055 ], [ -71.507601577077537, 43.539305608114127 ], [ -71.506266361072448, 43.537951372510072 ], [ -71.507379763930786, 43.539042352584055 ] ], [ [ -71.506191119608999, 43.537882937559303 ], [ -71.505439890989877, 43.537208619044186 ], [ -71.506266361072448, 43.537951372510072 ], [ -71.506191119608999, 43.537882937559303 ] ], [ [ -71.504434351077492, 43.536249966652051 ], [ -71.505039405877156, 43.536831945474965 ], [ -71.504217278331097, 43.535986798512809 ], [ -71.504434351077492, 43.536249966652051 ] ], [ [ -71.503641280932783, 43.535273527807455 ], [ -71.503730035236359, 43.535387326731254 ], [ -71.502254393604147, 43.533572204779404 ], [ -71.503641280932783, 43.535273527807455 ] ], [ [ -71.502254393604147, 43.533572204779404 ], [ -71.502070447875724, 43.533267155602154 ], [ -71.501078646032369, 43.531909065992615 ], [ -71.502254393604147, 43.533572204779404 ] ], [ [ -71.500650989359073, 43.531100485925407 ], [ -71.500729589739294, 43.531314078211452 ], [ -71.500561057818146, 43.53089433640902 ], [ -71.500650989359073, 43.531100485925407 ] ], [ [ -71.500561057818146, 43.53089433640902 ], [ -71.497402933451042, 43.530261187018027 ], [ -71.495889148678344, 43.529854885273529 ], [ -71.497402933451028, 43.530261187018027 ], [ -71.500561057818146, 43.53089433640902 ] ], [ [ -71.641600957158104, 43.405727797764563 ], [ -71.625319528513415, 43.407017170648217 ], [ -71.636503989434473, 43.406131696541422 ], [ -71.641600957158104, 43.405727797764563 ] ], [ [ -71.651757350338244, 43.462838019827103 ], [ -71.651615524566637, 43.463057439337895 ], [ -71.651395622740225, 43.463397651862024 ], [ -71.651757350338244, 43.462838019827103 ] ], [ [ -71.510172019712215, 43.55449178213123 ], [ -71.510308752219942, 43.555590390903248 ], [ -71.510171920275553, 43.553072801244895 ], [ -71.510172019712215, 43.55449178213123 ] ], [ [ -71.477492930912419, 43.541316001466569 ], [ -71.477492930912405, 43.541316001466569 ], [ -71.477540017551092, 43.541438119756272 ], [ -71.477492930912419, 43.541316001466569 ] ], [ [ -71.476739738854363, 43.543146632434123 ], [ -71.477531301607371, 43.54246318592805 ], [ -71.477540311794044, 43.542450894611491 ], [ -71.47710911658676, 43.542769414489229 ], [ -71.476739738854363, 43.543146632434123 ] ], [ [ -71.47848442041051, 43.546746228904219 ], [ -71.478484420410496, 43.546746228904205 ], [ -71.478467483147497, 43.546864011001809 ], [ -71.47848442041051, 43.546746228904219 ] ], [ [ -71.47827370281729, 43.547115480390929 ], [ -71.478454542692035, 43.54695399905701 ], [ -71.478454542692035, 43.546953999057003 ], [ -71.47827370281729, 43.547115480390929 ] ], [ [ -71.479785101434047, 43.549834547322014 ], [ -71.479617966824421, 43.549674873991833 ], [ -71.479617966824406, 43.549674873991826 ], [ -71.479785101434047, 43.549834547322014 ] ], [ [ -71.480244619326825, 43.550273549082242 ], [ -71.480674945211106, 43.550552284428584 ], [ -71.479785101434047, 43.549834547322014 ], [ -71.480244619326825, 43.550273549082242 ] ], [ [ -71.481232832848576, 43.550517696510063 ], [ -71.481308288344707, 43.550358439929468 ], [ -71.481308288344707, 43.550358439929468 ], [ -71.481232832848576, 43.550517696510063 ] ], [ [ -71.481369012523004, 43.551336531580304 ], [ -71.481376869806624, 43.551288849670378 ], [ -71.48137686980661, 43.551288849670364 ], [ -71.481369012523004, 43.551336531580304 ] ], [ [ -71.481166213417424, 43.551869697614926 ], [ -71.481166213417396, 43.551869697614912 ], [ -71.481158573922414, 43.552054442382456 ], [ -71.481166213417424, 43.551869697614926 ] ], [ [ -71.48130213325409, 43.552289928850158 ], [ -71.481302133254061, 43.552289928850143 ], [ -71.481309800803714, 43.552295976982542 ], [ -71.48130213325409, 43.552289928850158 ] ], [ [ -71.481498521483473, 43.552519756166966 ], [ -71.481498521483473, 43.552519756166966 ], [ -71.481415619232322, 43.552620588183025 ], [ -71.481498521483473, 43.552519756166966 ] ], [ [ -71.481840375826565, 43.555294485207298 ], [ -71.481840375826565, 43.555294485207277 ], [ -71.481829785719242, 43.555344308914634 ], [ -71.481840375826565, 43.555294485207298 ] ], [ [ -71.484619760925924, 43.559861955006163 ], [ -71.483994231630533, 43.560483298225513 ], [ -71.484280871984495, 43.560274479907349 ], [ -71.484446603421887, 43.560126853339291 ], [ -71.484619760925924, 43.559861955006163 ] ], [ [ -71.483134908245034, 43.561064740274176 ], [ -71.483345765017617, 43.560889066684567 ], [ -71.483345765017617, 43.560889066684553 ], [ -71.483134908245034, 43.561064740274176 ] ], [ [ -71.482750046285048, 43.561082125866932 ], [ -71.482569046974348, 43.56113104521441 ], [ -71.483134908245034, 43.561064740274176 ], [ -71.482750046285048, 43.561082125866932 ] ], [ [ -71.482237597377178, 43.561957585080087 ], [ -71.482237597377178, 43.561957585080066 ], [ -71.482215581454781, 43.562103543765851 ], [ -71.482237597377178, 43.561957585080087 ] ], [ [ -71.482151327208399, 43.562346486657745 ], [ -71.482185132831859, 43.562305408038362 ], [ -71.482185132831859, 43.562305408038334 ], [ -71.482151327208399, 43.562346486657745 ] ], [ [ -71.482049265057839, 43.562321820740401 ], [ -71.482117208529488, 43.562387945655416 ], [ -71.482117208529502, 43.562387945655409 ], [ -71.482049265057839, 43.562321820740401 ] ], [ [ -71.481981030486935, 43.56219731069244 ], [ -71.48199393279657, 43.562096979484636 ], [ -71.482049265057839, 43.562321820740401 ], [ -71.481981030486935, 43.56219731069244 ] ], [ [ -71.481935717415766, 43.56182463827281 ], [ -71.482011221914732, 43.561962535223621 ], [ -71.481835029280589, 43.561748801445205 ], [ -71.481935717415766, 43.56182463827281 ] ], [ [ -71.481392297276088, 43.561489826782257 ], [ -71.481392297276116, 43.561489826782235 ], [ -71.481173394647669, 43.561134362571288 ], [ -71.481392297276088, 43.561489826782257 ] ], [ [ -71.479987675243805, 43.559737544985097 ], [ -71.479987675243819, 43.559737544985083 ], [ -71.479754177386098, 43.559684094386505 ], [ -71.479987675243805, 43.559737544985097 ] ], [ [ -71.479754177386098, 43.559684094386505 ], [ -71.479301370186192, 43.559793005968864 ], [ -71.478916545757528, 43.55964825599699 ], [ -71.479754177386098, 43.559684094386505 ] ], [ [ -71.453684746239261, 43.548617245494746 ], [ -71.45270574289421, 43.551341069820957 ], [ -71.452760715631314, 43.551188127719918 ], [ -71.453684746239261, 43.548617245494746 ] ], [ [ -71.45042542207517, 43.529734217181861 ], [ -71.450951848100246, 43.528040831343162 ], [ -71.449929558187009, 43.531329204622715 ], [ -71.45042542207517, 43.529734217181861 ] ], [ [ -71.522673964170949, 43.219086040519187 ], [ -71.523064504094435, 43.2195350310216 ], [ -71.52309442845123, 43.219569433273179 ], [ -71.522673964170949, 43.219086040519187 ] ], [ [ -71.507355996757155, 43.224060125462692 ], [ -71.507343663978403, 43.224021122939149 ], [ -71.507367961970644, 43.2240979668329 ], [ -71.507355996757155, 43.224060125462692 ] ], [ [ -71.493602164929968, 43.528902955099881 ], [ -71.493937249302334, 43.529078788046775 ], [ -71.494332644793957, 43.529261827515953 ], [ -71.494472029623012, 43.529307561332551 ], [ -71.494686609773353, 43.529429713361026 ], [ -71.495036892546636, 43.529566813571492 ], [ -71.493602164929968, 43.528902955099881 ] ], [ [ -71.493602164929968, 43.528902955099881 ], [ -71.493267124995569, 43.5287122889264 ], [ -71.492182680731318, 43.528193489278522 ], [ -71.493477776873164, 43.528887676812232 ], [ -71.493602164929968, 43.528902955099881 ] ], [ [ -71.489419849833538, 43.526560975302004 ], [ -71.490868917871154, 43.527445846182239 ], [ -71.490718250236355, 43.527392373664277 ], [ -71.489419849833538, 43.526560975302004 ] ], [ [ -71.488475748668577, 43.525782583873692 ], [ -71.488017864907675, 43.525326575027933 ], [ -71.489419849833538, 43.526560975302004 ], [ -71.488475748668577, 43.525782583873692 ] ], [ [ -71.487697636767848, 43.524981638811091 ], [ -71.487697636767848, 43.524981638811113 ], [ -71.487697655476296, 43.524981660387141 ], [ -71.487697636767848, 43.524981638811091 ] ], [ [ -71.486369757625141, 43.522685131980182 ], [ -71.485988721316289, 43.521502682922069 ], [ -71.486231373696413, 43.522311282551748 ], [ -71.486369757625141, 43.522685131980182 ] ], [ [ -71.484139918119368, 43.51822203501105 ], [ -71.484500048016358, 43.518703446723961 ], [ -71.484842083578386, 43.519160659264173 ], [ -71.484139918119368, 43.51822203501105 ] ], [ [ -71.470926780573777, 43.529261703966391 ], [ -71.470926780573777, 43.529261703966391 ], [ -71.471171377829506, 43.52960845429763 ], [ -71.470926780573777, 43.529261703966391 ] ], [ [ -71.470249926936262, 43.528228783109185 ], [ -71.468919389353374, 43.526416757511242 ], [ -71.469583725149462, 43.527446716379956 ], [ -71.470249926936262, 43.528228783109185 ] ], [ [ -71.468587932065915, 43.525687442661379 ], [ -71.468035904250073, 43.526068268347181 ], [ -71.468587932065915, 43.525687442661393 ], [ -71.468587932065915, 43.525687442661379 ] ], [ [ -71.48157105600356, 43.519357997978339 ], [ -71.479898994643818, 43.519961510136369 ], [ -71.479364891462907, 43.52032003453165 ], [ -71.48157105600356, 43.519357997978339 ] ], [ [ -71.478968603032712, 43.520686328316629 ], [ -71.478968603032712, 43.520686328316636 ], [ -71.479364891462907, 43.52032003453165 ], [ -71.478968603032712, 43.520686328316629 ] ], [ [ -71.478403770674888, 43.521678203034213 ], [ -71.47875395085471, 43.521051126399549 ], [ -71.478647979174426, 43.521952783513221 ], [ -71.478403770674888, 43.521678203034213 ] ], [ [ -71.479334603330528, 43.522036729712354 ], [ -71.479171089021222, 43.522023670852811 ], [ -71.479356609369717, 43.522053543883942 ], [ -71.479334603330528, 43.522036729712354 ] ], [ [ -71.479899171166011, 43.522807204758521 ], [ -71.479899171166011, 43.522807204758514 ], [ -71.479868755819268, 43.522729575782613 ], [ -71.479899171166011, 43.522807204758521 ] ], [ [ -71.479673117851405, 43.523590358305427 ], [ -71.479288713829988, 43.523616051888858 ], [ -71.479364944900269, 43.523654071210274 ], [ -71.479532723093101, 43.523654174578155 ], [ -71.479673117851405, 43.523590358305427 ] ], [ [ -71.476664016780887, 43.523646529262358 ], [ -71.475531141141303, 43.52398880921411 ], [ -71.475568707439891, 43.524372867811593 ], [ -71.476664016780887, 43.523646529262358 ] ], [ [ -71.478357751494073, 43.52382199990619 ], [ -71.478305952472752, 43.523808265650459 ], [ -71.478403536844652, 43.523849967672689 ], [ -71.478357751494073, 43.52382199990619 ] ], [ [ -71.478587053009136, 43.524043228785956 ], [ -71.478531885731144, 43.523960833451966 ], [ -71.478588839062482, 43.52406789659414 ], [ -71.478587053009136, 43.524043228785956 ] ], [ [ -71.478892196559698, 43.525340204834443 ], [ -71.478754530740346, 43.52535541010726 ], [ -71.47938533434268, 43.525196295373462 ], [ -71.478892196559698, 43.525340204834443 ] ], [ [ -71.480173737643625, 43.525622481742595 ], [ -71.48018281161616, 43.525558620059655 ], [ -71.480026307925073, 43.525790864776724 ], [ -71.480173737643625, 43.525622481742595 ] ], [ [ -71.478525567300679, 43.526843209797867 ], [ -71.478525567300707, 43.526843209797867 ], [ -71.47862737361163, 43.52663978647761 ], [ -71.478525567300679, 43.526843209797867 ] ], [ [ -71.479334402732903, 43.528346086469675 ], [ -71.479631322746542, 43.528234394748139 ], [ -71.479044700443652, 43.528445406565922 ], [ -71.479334402732903, 43.528346086469675 ] ], [ [ -71.474880360953819, 43.529241854067138 ], [ -71.476785182807561, 43.529287899327393 ], [ -71.475448078140616, 43.529814365729045 ], [ -71.475096025693702, 43.529356527048904 ], [ -71.474880360953819, 43.529241854067138 ] ], [ [ -71.473673178640126, 43.530016890891389 ], [ -71.473673178640155, 43.530016890891361 ], [ -71.473184503792325, 43.530184109136137 ], [ -71.473673178640126, 43.530016890891389 ] ], [ [ -71.472391702949167, 43.530428988499239 ], [ -71.472391702949167, 43.530428988499253 ], [ -71.472954918892711, 43.530257462642474 ], [ -71.472391702949167, 43.530428988499239 ] ], [ [ -71.471488933848917, 43.530037188284901 ], [ -71.471733867371796, 43.530393643186812 ], [ -71.471399285232422, 43.529919898303298 ], [ -71.471488933848917, 43.530037188284901 ] ], [ [ -71.476019833934657, 43.538214611277439 ], [ -71.476019833934657, 43.538214611277461 ], [ -71.476034615672688, 43.53801170284612 ], [ -71.476019833934657, 43.538214611277439 ] ], [ [ -71.474775927164444, 43.538547750865632 ], [ -71.474669796599912, 43.537825263074282 ], [ -71.47477592716443, 43.538547750865625 ], [ -71.474354123305787, 43.539331166023878 ], [ -71.474775927164444, 43.538547750865632 ] ], [ [ -71.474248570761162, 43.539392031068644 ], [ -71.474248570761176, 43.539392031068644 ], [ -71.474354123305787, 43.539331166023878 ], [ -71.474248570761162, 43.539392031068644 ] ], [ [ -71.473923613368711, 43.539070408947474 ], [ -71.473999212519118, 43.538645639253161 ], [ -71.473999212519118, 43.538645639253147 ], [ -71.473923613368711, 43.539070408947474 ] ], [ [ -71.472988155241325, 43.538023730244277 ], [ -71.473064551400441, 43.538046392231038 ], [ -71.472988155241296, 43.538023730244255 ], [ -71.472988155241325, 43.538023730244277 ] ], [ [ -71.467812794171252, 43.534466654798265 ], [ -71.46783477271974, 43.534389741102153 ], [ -71.467812794171252, 43.534466654798265 ], [ -71.467812794171252, 43.534466654798265 ] ], [ [ -71.467541295592454, 43.534391507989433 ], [ -71.467541295592454, 43.534391507989454 ], [ -71.467774663072944, 43.533805663747401 ], [ -71.467541295592454, 43.534391507989433 ] ], [ [ -71.467970409974782, 43.532689487819788 ], [ -71.467771032890909, 43.531203325575603 ], [ -71.467826398514418, 43.531760736912169 ], [ -71.467970409974782, 43.532689487819788 ] ], [ [ -71.467968385844486, 43.529286094318394 ], [ -71.467706127213546, 43.529547072155147 ], [ -71.467968385844515, 43.529286094318401 ], [ -71.467968385844486, 43.529286094318394 ] ], [ [ -71.511639305826876, 43.561892350616688 ], [ -71.510308752382016, 43.555590392205481 ], [ -71.511746280015799, 43.562125111084583 ], [ -71.511639305826876, 43.561892350616688 ] ], [ [ -71.51273586084902, 43.563883454361019 ], [ -71.51273586084902, 43.563883454360997 ], [ -71.511972363114239, 43.562606986382335 ], [ -71.51273586084902, 43.563883454361019 ] ], [ [ -71.513604714542424, 43.564936402913119 ], [ -71.5146289809405, 43.565714515710098 ], [ -71.513254611742425, 43.564631149603535 ], [ -71.513604714542424, 43.564936402913119 ] ], [ [ -71.517300103228052, 43.567286191831087 ], [ -71.517300103228067, 43.567286191831059 ], [ -71.515926424982638, 43.566571831190274 ], [ -71.517300103228052, 43.567286191831087 ] ], [ [ -71.518916829212898, 43.568064439267985 ], [ -71.519391215067984, 43.568483945372286 ], [ -71.518321508560462, 43.567728620941296 ], [ -71.518916829212898, 43.568064439267985 ] ], [ [ -71.524156446151892, 43.572301128990127 ], [ -71.520275675804243, 43.569399516683298 ], [ -71.520550508661387, 43.569651154068318 ], [ -71.521085178056182, 43.570116597467823 ], [ -71.522870425567518, 43.571482364185186 ], [ -71.52349574349563, 43.571924848235739 ], [ -71.524156446151892, 43.572301128990127 ] ], [ [ -71.524807048454079, 43.572695427292658 ], [ -71.524807048454079, 43.572695427292643 ], [ -71.524731600290664, 43.572687703062371 ], [ -71.524807048454079, 43.572695427292658 ] ], [ [ -71.525598386171012, 43.573153195455681 ], [ -71.528469698418633, 43.574907895989369 ], [ -71.529682701221162, 43.576148846236073 ], [ -71.525598386171012, 43.573153195455681 ] ], [ [ -71.530009421429909, 43.576517678479014 ], [ -71.530009421429924, 43.576517678478979 ], [ -71.52985234180268, 43.576333306277164 ], [ -71.530009421429909, 43.576517678479014 ] ], [ [ -71.531292595720316, 43.578135110800361 ], [ -71.531292595720316, 43.578135110800339 ], [ -71.53080348947725, 43.577478840077859 ], [ -71.531292595720316, 43.578135110800361 ] ], [ [ -71.53255903315484, 43.580523165576047 ], [ -71.53255903315484, 43.580523165576025 ], [ -71.532363778508099, 43.580114827702161 ], [ -71.53255903315484, 43.580523165576047 ] ], [ [ -71.532878155010081, 43.581270878009519 ], [ -71.532901472087147, 43.581322003155385 ], [ -71.532772978214169, 43.581049305269886 ], [ -71.532878155010081, 43.581270878009519 ] ], [ [ -71.534176523110972, 43.586367013232618 ], [ -71.53449539498888, 43.587252150570926 ], [ -71.53490848416935, 43.588205981911273 ], [ -71.534994668562732, 43.588493317886943 ], [ -71.53490848416935, 43.588205981911273 ], [ -71.534176523110972, 43.586367013232618 ], [ -71.533993245091708, 43.585611745955447 ], [ -71.53394884344695, 43.585207633791676 ], [ -71.533534469534985, 43.583139948169752 ], [ -71.533237031619876, 43.582260366589807 ], [ -71.533534469534956, 43.583139948169759 ], [ -71.533993245091679, 43.585611745955447 ], [ -71.534176523110972, 43.586367013232618 ] ], [ [ -71.535428470341415, 43.592081382484004 ], [ -71.535520220217791, 43.591547370167376 ], [ -71.535527503420383, 43.591437065444481 ], [ -71.535428470341415, 43.592081382484018 ], [ -71.53524232065638, 43.592630719888703 ], [ -71.535196577575945, 43.592836683981751 ], [ -71.535428470341415, 43.592081382484004 ] ], [ [ -71.535135385226283, 43.59320286600564 ], [ -71.535135385226269, 43.59320286600564 ], [ -71.534984099679235, 43.593340464875176 ], [ -71.535135385226283, 43.59320286600564 ] ], [ [ -71.529797127209847, 43.59527040113521 ], [ -71.531062755060887, 43.59478991778925 ], [ -71.529797127209818, 43.59527040113521 ], [ -71.529625697715545, 43.595332738342428 ], [ -71.529797127209847, 43.59527040113521 ] ], [ [ -71.529475973590621, 43.597063384486539 ], [ -71.529475973590607, 43.597063384486539 ], [ -71.529154637869027, 43.59717879736651 ], [ -71.529475973590621, 43.597063384486539 ] ], [ [ -71.524043055776403, 43.599024140706845 ], [ -71.524043055776431, 43.599024140706845 ], [ -71.524506653143519, 43.598856201351687 ], [ -71.524043055776403, 43.599024140706845 ] ], [ [ -71.516323836123831, 43.601785917234579 ], [ -71.516323836123846, 43.601785917234601 ], [ -71.516860131667784, 43.601596869328574 ], [ -71.516323836123831, 43.601785917234579 ] ], [ [ -71.511377650274966, 43.603525517778642 ], [ -71.511377650274966, 43.603525517778642 ], [ -71.511789566363674, 43.603379054882332 ], [ -71.511377650274966, 43.603525517778642 ] ], [ [ -71.508999545899613, 43.604845210542464 ], [ -71.508999545899613, 43.604845210542486 ], [ -71.509655792086733, 43.604320485391575 ], [ -71.508999545899613, 43.604845210542464 ] ], [ [ -71.506419112345569, 43.606966430981913 ], [ -71.505705897416249, 43.60755340145333 ], [ -71.507716882682203, 43.605913384124385 ], [ -71.506419112345569, 43.606966430981913 ] ], [ [ -71.501885851551847, 43.610704805519134 ], [ -71.501885851551862, 43.610704805519134 ], [ -71.502050153075899, 43.610568553288452 ], [ -71.501885851551847, 43.610704805519134 ] ], [ [ -71.499520627160109, 43.612649997567232 ], [ -71.499520627160123, 43.612649997567232 ], [ -71.499527809601361, 43.612645222237738 ], [ -71.499520627160109, 43.612649997567232 ] ], [ [ -71.4978288478721, 43.614069221457108 ], [ -71.497828847872114, 43.614069221457108 ], [ -71.498270981345939, 43.613700902970884 ], [ -71.4978288478721, 43.614069221457108 ] ], [ [ -71.494134579617437, 43.617196986217664 ], [ -71.494134579617437, 43.617196986217678 ], [ -71.494517115189026, 43.61687723107557 ], [ -71.494134579617437, 43.617196986217664 ] ], [ [ -71.491237637396296, 43.618715194138467 ], [ -71.491237637396267, 43.618715194138467 ], [ -71.48989508306029, 43.619394616307119 ], [ -71.489474087188924, 43.619614760375583 ], [ -71.491237637396296, 43.618715194138467 ] ], [ [ -71.483775392442382, 43.622583253568656 ], [ -71.483775392442382, 43.622583253568664 ], [ -71.484981974190475, 43.621957785498545 ], [ -71.483775392442382, 43.622583253568656 ] ], [ [ -71.475899777734909, 43.626688042354367 ], [ -71.476909918353627, 43.626131175556978 ], [ -71.475899777734909, 43.626688042354367 ], [ -71.475687560185051, 43.626788280210356 ], [ -71.475899777734909, 43.626688042354367 ] ], [ [ -71.474345153944142, 43.627435513953671 ], [ -71.474345153944114, 43.627435513953678 ], [ -71.474455600329591, 43.627380270217259 ], [ -71.474345153944142, 43.627435513953671 ] ], [ [ -71.470150013379012, 43.629487851267463 ], [ -71.46958330075276, 43.629541229853729 ], [ -71.4702002425025, 43.629474877711893 ], [ -71.470150013379012, 43.629487851267463 ] ], [ [ -71.45865977360161, 43.622072299169105 ], [ -71.45865977360161, 43.622072299169112 ], [ -71.45888102105701, 43.622214986502513 ], [ -71.45865977360161, 43.622072299169105 ] ], [ [ -71.445421016189997, 43.614020309748327 ], [ -71.447852710552169, 43.615511221763626 ], [ -71.448625930602191, 43.61598125658135 ], [ -71.445421016189997, 43.614020309748327 ] ], [ [ -71.478720767809079, 43.559926404653986 ], [ -71.478720767809079, 43.559926404653972 ], [ -71.478646528552773, 43.56006049419301 ], [ -71.478720767809079, 43.559926404653986 ] ], [ [ -71.478637880197425, 43.560409048866724 ], [ -71.479731278013901, 43.560985748967738 ], [ -71.479789826124914, 43.561114445697811 ], [ -71.479731278013901, 43.560985748967738 ], [ -71.478637880197425, 43.560409048866724 ] ], [ [ -71.48008328431311, 43.561529303589616 ], [ -71.48008328431311, 43.561529303589609 ], [ -71.480079389706276, 43.561562392189359 ], [ -71.48008328431311, 43.561529303589616 ] ], [ [ -71.480003718385873, 43.561843532935718 ], [ -71.480003718385873, 43.56184353293569 ], [ -71.479806475630355, 43.562086122514494 ], [ -71.480003718385873, 43.561843532935718 ] ], [ [ -71.483500086707025, 43.563341728251942 ], [ -71.483500086707025, 43.563341728251942 ], [ -71.484690909773605, 43.563563108963727 ], [ -71.483500086707025, 43.563341728251942 ] ], [ [ -71.487215663156931, 43.568256527895706 ], [ -71.487628683596554, 43.568137382741455 ], [ -71.486915939393512, 43.568364906459095 ], [ -71.487215663156931, 43.568256527895706 ] ], [ [ -71.48644819454158, 43.568612542870234 ], [ -71.486546917416959, 43.568558096607013 ], [ -71.486448194541595, 43.568612542870227 ], [ -71.48644819454158, 43.568612542870234 ] ], [ [ -71.4863496382834, 43.568712411570068 ], [ -71.4863496382834, 43.56871241157004 ], [ -71.48629707555348, 43.568759972566745 ], [ -71.4863496382834, 43.568712411570068 ] ], [ [ -71.485482485063415, 43.569539799156338 ], [ -71.485482485063415, 43.569539799156331 ], [ -71.485102564940348, 43.569654094067275 ], [ -71.485482485063415, 43.569539799156338 ] ], [ [ -71.484420685698382, 43.569738156049681 ], [ -71.484420685698382, 43.569738156049674 ], [ -71.48426351331139, 43.569723616422337 ], [ -71.484420685698382, 43.569738156049681 ] ], [ [ -71.483929560042057, 43.569680216199622 ], [ -71.483477870723789, 43.569579470492656 ], [ -71.48426351331139, 43.569723616422337 ], [ -71.483929560042057, 43.569680216199622 ] ], [ [ -71.483477870723789, 43.569579470492656 ], [ -71.482888402721869, 43.569549946515558 ], [ -71.482612596629195, 43.569594045490192 ], [ -71.483477870723789, 43.569579470492656 ] ], [ [ -71.480134988064307, 43.570245646198281 ], [ -71.479497713527351, 43.570468600065404 ], [ -71.480980729031089, 43.570018399252348 ], [ -71.480134988064307, 43.570245646198281 ] ], [ [ -71.476849059329155, 43.571526240976596 ], [ -71.479210101947089, 43.570644223658434 ], [ -71.478127004189091, 43.571356889075361 ], [ -71.477516438134415, 43.571784548612243 ], [ -71.476849059329155, 43.571526240976596 ] ], [ [ -71.471516499006626, 43.57112914290218 ], [ -71.473137309131602, 43.570719836751493 ], [ -71.475061948412076, 43.571058451856786 ], [ -71.471516499006626, 43.57112914290218 ] ], [ [ -71.470559535595712, 43.571744249258948 ], [ -71.470559535595712, 43.571744249258948 ], [ -71.470280670293789, 43.572202120159986 ], [ -71.470559535595712, 43.571744249258948 ] ], [ [ -71.468891677319263, 43.57544935268443 ], [ -71.468877287662508, 43.575342160877312 ], [ -71.468877287662508, 43.575342160877312 ], [ -71.468891677319263, 43.57544935268443 ] ], [ [ -71.469402946240592, 43.576871980886871 ], [ -71.469402946240592, 43.576871980886871 ], [ -71.46941944107742, 43.576928599090131 ], [ -71.469402946240592, 43.576871980886871 ] ], [ [ -71.469478812173961, 43.577715159229598 ], [ -71.469478812173946, 43.577715159229598 ], [ -71.4695007544357, 43.577804093755759 ], [ -71.469478812173961, 43.577715159229598 ] ], [ [ -71.469495109677808, 43.578743988695379 ], [ -71.469770976000589, 43.578530130980262 ], [ -71.469633066378222, 43.578629916091572 ], [ -71.469495109677808, 43.578743988695379 ] ], [ [ -71.469866176677414, 43.57947336359139 ], [ -71.469866176677414, 43.579473363591383 ], [ -71.469854077755144, 43.579495202837364 ], [ -71.469866176677414, 43.57947336359139 ] ], [ [ -71.469589657233996, 43.579887265737028 ], [ -71.469589657233996, 43.579887265737007 ], [ -71.469215040649246, 43.580243841991717 ], [ -71.469589657233996, 43.579887265737028 ] ], [ [ -71.469116296777614, 43.580386559727756 ], [ -71.469110286127446, 43.580429230644818 ], [ -71.469215040649246, 43.580243841991717 ], [ -71.469116296777614, 43.580386559727756 ] ], [ [ -71.469388251306185, 43.581372964562568 ], [ -71.469388251306171, 43.581372964562568 ], [ -71.469486156769719, 43.581487445064909 ], [ -71.469388251306185, 43.581372964562568 ] ], [ [ -71.469898599958668, 43.581588177097366 ], [ -71.469892138346566, 43.581587311535742 ], [ -71.469898599958654, 43.581588177097366 ], [ -71.469898599958668, 43.581588177097366 ] ], [ [ -71.470036236895069, 43.581574124950464 ], [ -71.470036236895069, 43.581574124950485 ], [ -71.47008216232328, 43.581555151981973 ], [ -71.470036236895069, 43.581574124950464 ] ], [ [ -71.47025300780345, 43.581403031379189 ], [ -71.47025300780345, 43.58140303137921 ], [ -71.470298925418973, 43.581365656873011 ], [ -71.47025300780345, 43.581403031379189 ] ], [ [ -71.470864091337987, 43.580861100653948 ], [ -71.471218353295413, 43.580718818525298 ], [ -71.470818217075873, 43.580901665383884 ], [ -71.470864091337987, 43.580861100653948 ] ], [ [ -71.471170303965707, 43.583419339195302 ], [ -71.472665651706905, 43.582964641363404 ], [ -71.470816074031234, 43.583547332214522 ], [ -71.471170303965707, 43.583419339195302 ] ], [ [ -71.469861548403372, 43.583842090832022 ], [ -71.469861548403387, 43.583842090832057 ], [ -71.470816074031234, 43.583547332214522 ], [ -71.469861548403372, 43.583842090832022 ] ], [ [ -71.472330565950401, 43.590174164699079 ], [ -71.472330565950372, 43.590174164699064 ], [ -71.472212782939025, 43.590631259193742 ], [ -71.472330565950401, 43.590174164699079 ] ], [ [ -71.471686103160991, 43.594136068389524 ], [ -71.471686103160991, 43.594136068389496 ], [ -71.471559873351481, 43.594116410238655 ], [ -71.471686103160991, 43.594136068389524 ] ], [ [ -71.471425264052527, 43.595325876174279 ], [ -71.471425264052527, 43.595325876174272 ], [ -71.471403180107842, 43.595375277498654 ], [ -71.471425264052527, 43.595325876174279 ] ], [ [ -71.469720129277491, 43.596807851295651 ], [ -71.471002619038103, 43.596086808175663 ], [ -71.470633062504618, 43.59626132790698 ], [ -71.469720129277491, 43.596807851295651 ] ], [ [ -71.469720129277491, 43.596807851295651 ], [ -71.468112226272183, 43.597252254162854 ], [ -71.467855660442538, 43.597356831408831 ], [ -71.467025140032476, 43.597298285586945 ], [ -71.467001745062134, 43.597309430972061 ], [ -71.467855660442538, 43.597356831408838 ], [ -71.469720129277491, 43.596807851295651 ] ], [ [ -71.466791465565862, 43.597613975979542 ], [ -71.466791465565862, 43.597613975979506 ], [ -71.466697034346268, 43.597721593734803 ], [ -71.466791465565862, 43.597613975979542 ] ], [ [ -71.466497369836944, 43.598363112656216 ], [ -71.466278711273048, 43.598489357418046 ], [ -71.466278711273048, 43.59848935741806 ], [ -71.466497369836944, 43.598363112656216 ] ], [ [ -71.46623779890345, 43.598835754629775 ], [ -71.46623779890345, 43.598835754629732 ], [ -71.465521825871534, 43.598917717473327 ], [ -71.46623779890345, 43.598835754629775 ] ], [ [ -71.461281642620406, 43.599236484033085 ], [ -71.460302250581165, 43.599450619324067 ], [ -71.461417451282827, 43.599245232286989 ], [ -71.461281642620406, 43.599236484033085 ] ], [ [ -71.459417159733007, 43.599744860858479 ], [ -71.459417159733036, 43.599744860858436 ], [ -71.458882773437367, 43.599891815937667 ], [ -71.459417159733007, 43.599744860858479 ] ], [ [ -71.457915247823067, 43.600470430929555 ], [ -71.458013180540206, 43.600261250189241 ], [ -71.457915247823067, 43.600470430929519 ], [ -71.457522997458582, 43.600843511347655 ], [ -71.457494031621238, 43.600972517056071 ], [ -71.457522997458582, 43.600843511347655 ], [ -71.457915247823067, 43.600470430929555 ] ], [ [ -71.457304036346102, 43.601320986675375 ], [ -71.457454938967516, 43.601146624323206 ], [ -71.457039713277396, 43.601542722773459 ], [ -71.457304036346102, 43.601320986675375 ] ], [ [ -71.456398576620956, 43.602713516935836 ], [ -71.456398576620956, 43.60271351693585 ], [ -71.456408136645919, 43.602679965518824 ], [ -71.456398576620956, 43.602713516935836 ] ], [ [ -71.455968752816162, 43.60363658565921 ], [ -71.455968752816162, 43.603636585659203 ], [ -71.45592261412331, 43.603669683239843 ], [ -71.455968752816162, 43.60363658565921 ] ], [ [ -71.455565381163424, 43.603784223594978 ], [ -71.455606470810025, 43.603729966709622 ], [ -71.455568793930752, 43.603775764275824 ], [ -71.455565381163424, 43.603784223594978 ] ], [ [ -71.455548842490956, 43.603825218435176 ], [ -71.455026651990423, 43.603616927858099 ], [ -71.454492300909706, 43.603456645026569 ], [ -71.455026651990408, 43.603616927858127 ], [ -71.455316894601381, 43.603746577679388 ], [ -71.455548842490956, 43.603825218435176 ] ], [ [ -71.447129736900408, 43.601993218526573 ], [ -71.449106109779208, 43.602289467624317 ], [ -71.448114071053197, 43.602121595526107 ], [ -71.447129736900408, 43.601993218526573 ] ], [ [ -71.446405045607392, 43.601938447814781 ], [ -71.446798792399193, 43.601965954147644 ], [ -71.446405045607406, 43.601938447814781 ], [ -71.446405045607392, 43.601938447814781 ] ], [ [ -71.444406244482295, 43.602022370151154 ], [ -71.443002270280843, 43.602297064843107 ], [ -71.445423662683282, 43.601970831377251 ], [ -71.444406244482295, 43.602022370151154 ] ], [ [ -71.442574971009975, 43.60235812677238 ], [ -71.441903429440416, 43.602365724755593 ], [ -71.443002270280843, 43.602297064843107 ], [ -71.442574971009975, 43.60235812677238 ] ], [ [ -71.441903429440416, 43.602365724755593 ], [ -71.441003467410212, 43.60225129828747 ], [ -71.440866207138569, 43.602234181155787 ], [ -71.441385035198991, 43.602304691765212 ], [ -71.441903429440416, 43.602365724755593 ] ], [ [ -71.440789859683335, 43.602270424344276 ], [ -71.440820453714693, 43.602228475444143 ], [ -71.440820453714693, 43.602228475444143 ], [ -71.440789859683335, 43.602270424344276 ] ], [ [ -71.440646104752588, 43.602649519649873 ], [ -71.440646104752602, 43.60264951964983 ], [ -71.440616161326275, 43.602756025347531 ], [ -71.440646104752588, 43.602649519649873 ] ], [ [ -71.44134591569798, 43.603746131813772 ], [ -71.44134591569798, 43.603746131813736 ], [ -71.440530354143618, 43.603708512474576 ], [ -71.44134591569798, 43.603746131813772 ] ], [ [ -71.44182396131832, 43.604355746030812 ], [ -71.441834917253701, 43.604294951536744 ], [ -71.44182396131832, 43.604355746030812 ], [ -71.44182396131832, 43.604355746030812 ] ], [ [ -71.444573826392897, 43.608163926548492 ], [ -71.444573826392926, 43.608163926548535 ], [ -71.444638963108915, 43.60817475776139 ], [ -71.444573826392897, 43.608163926548492 ] ], [ [ -71.444383246856049, 43.608525007258542 ], [ -71.444225699645813, 43.608621970413651 ], [ -71.444455205831304, 43.60846453424486 ], [ -71.444383246856049, 43.608525007258542 ] ], [ [ -71.444001989215607, 43.608823643990902 ], [ -71.444001989215607, 43.608823643990846 ], [ -71.443970834711806, 43.608888912583915 ], [ -71.444001989215607, 43.608823643990902 ] ], [ [ -71.443970834711806, 43.608888912583915 ], [ -71.443944564837651, 43.608973823007446 ], [ -71.443927508741041, 43.609055493297198 ], [ -71.443970834711806, 43.608888912583915 ] ], [ [ -71.443905018838478, 43.609138953992044 ], [ -71.443881579283527, 43.609224126329551 ], [ -71.443927508741041, 43.609055493297198 ], [ -71.443905018838478, 43.609138953992044 ] ], [ [ -71.443720062029868, 43.609636702702559 ], [ -71.443720062029868, 43.609636702702545 ], [ -71.443696277031464, 43.609684908322748 ], [ -71.443720062029868, 43.609636702702559 ] ], [ [ -71.44363640613139, 43.609796514689855 ], [ -71.442834865413701, 43.609583017528813 ], [ -71.443667583413628, 43.609756620934959 ], [ -71.44363640613139, 43.609796514689855 ] ], [ [ -71.442849854175662, 43.609422897928027 ], [ -71.442849854175648, 43.609422897928035 ], [ -71.442834865413701, 43.609583017528813 ], [ -71.442849854175662, 43.609422897928027 ] ], [ [ -71.442987474870833, 43.609155851727913 ], [ -71.442987474870861, 43.609155851727905 ], [ -71.442949000324262, 43.609040842823163 ], [ -71.442987474870833, 43.609155851727913 ] ], [ [ -71.442254654296249, 43.608804796152882 ], [ -71.442254654296249, 43.608804796152867 ], [ -71.441995091512922, 43.608675172366915 ], [ -71.442254654296249, 43.608804796152882 ] ], [ [ -71.441995091512922, 43.608675172366915 ], [ -71.441827703222856, 43.60831665148627 ], [ -71.442056424772417, 43.607919813530664 ], [ -71.441995091512922, 43.608675172366915 ] ], [ [ -71.440911977782648, 43.60715693570139 ], [ -71.441979916208865, 43.607553583168247 ], [ -71.441827518083556, 43.607416282584857 ], [ -71.441507081080161, 43.607286709272671 ], [ -71.440911977782648, 43.60715693570139 ] ], [ [ -71.439828391153981, 43.607034935751358 ], [ -71.439567938470915, 43.606989619349157 ], [ -71.440911977782648, 43.60715693570139 ], [ -71.439828391153981, 43.607034935751358 ] ], [ [ -71.438317599467894, 43.606691568714872 ], [ -71.438317599467894, 43.606691568714858 ], [ -71.43800738308552, 43.606698914908314 ], [ -71.438317599467894, 43.606691568714872 ] ], [ [ -71.437417517208374, 43.606966170620808 ], [ -71.437417517208374, 43.606966170620808 ], [ -71.437203849711452, 43.606996776958169 ], [ -71.437417517208374, 43.606966170620808 ] ], [ [ -71.436074768324715, 43.606371054990795 ], [ -71.436623995806698, 43.606645820744134 ], [ -71.43641026091143, 43.606508389480666 ], [ -71.436074768324715, 43.606371054990795 ] ], [ [ -71.435067574018831, 43.60639405312557 ], [ -71.435067574018831, 43.606394053125534 ], [ -71.434915205415734, 43.606350387738523 ], [ -71.435067574018831, 43.60639405312557 ] ], [ [ -71.434213130026407, 43.605844655272719 ], [ -71.434213130026436, 43.605844655272655 ], [ -71.434090985158804, 43.605577606407671 ], [ -71.434213130026407, 43.605844655272719 ] ], [ [ -71.434090985158804, 43.605577606407671 ], [ -71.433923204327343, 43.604479024405265 ], [ -71.433717240126157, 43.604196714526566 ], [ -71.434090985158804, 43.605577606407671 ] ], [ [ -71.432092039322541, 43.603113325986172 ], [ -71.432946425807216, 43.603418570858175 ], [ -71.432092039322569, 43.603113325986151 ], [ -71.431847864218341, 43.602739542834229 ], [ -71.432092039322541, 43.603113325986172 ] ], [ [ -71.431115205753571, 43.602625210701525 ], [ -71.431115205753571, 43.602625210701518 ], [ -71.43106024010531, 43.602628253696032 ], [ -71.431115205753571, 43.602625210701525 ] ], [ [ -71.430474384874813, 43.602739627639345 ], [ -71.430474384874813, 43.602739627639323 ], [ -71.430409278774007, 43.60281572597313 ], [ -71.430474384874813, 43.602739627639345 ] ], [ [ -71.430230518460093, 43.602953113057325 ], [ -71.430230518460078, 43.602953113057325 ], [ -71.430230649247974, 43.602953113327786 ], [ -71.430230518460093, 43.602953113057325 ] ], [ [ -71.42987919609385, 43.603250737996227 ], [ -71.42987919609385, 43.603250737996206 ], [ -71.429833681824064, 43.603312336445306 ], [ -71.42987919609385, 43.603250737996227 ] ] ] } },
{ "type": "Feature", "properties": { "district_id": 1, "voting_age_pop": 510232, "lib_votes": 0, "grn_votes": 0, "con_votes": 0, "ref_votes": 0, "total_pop": 659817, "dem_votes_sum": 213893, "rep_votes_sum": 184562, "lib_votes_sum": 0, "grn_votes_sum": 0, "con_votes_sum": 0, "ref_votes_sum": 0, "minority_pop_sum": 8829, "dem_pct": 0.53680591283833812, "rep_pct": 0.46319408716166194, "lib_pct": 0.0, "grn_pct": 0.0, "con_pct": 0.0, "ref_pct": 0.0, "minority_pct": 0.013380982908897467, "compactness": 0.36096108532521576 }, "geometry": { "type": "Polygon", "coordinates": [ [ [ -71.294635301667398, 42.697041839694947 ], [ -71.542704481996964, 42.702664668975686 ], [ -71.524805459276308, 42.771664053162617 ], [ -71.561412974249166, 42.788845145971379 ], [ -71.582027161533347, 42.943330803922564 ], [ -71.610350212714707, 42.939722338550546 ], [ -71.616453718480329, 42.969346945610525 ], [ -71.496379154512709, 42.982667493388703 ], [ -71.500445312637112, 42.998364965409863 ], [ -71.471079640635551, 42.984643636049114 ], [ -71.472873017229162, 43.008853649313942 ], [ -71.443261946173479, 43.008530919049925 ], [ -71.440583825893256, 43.018379556728 ], [ -71.392388609827833, 43.009309030186806 ], [ -71.402960376371496, 43.041054727507742 ], [ -71.392236428145779, 43.03928480417396 ], [ -71.247349918278886, 43.275198073038162 ], [ -71.133513793069184, 43.203535991939241 ], [ -71.054381875851533, 43.289686037682067 ], [ -71.0705991002921, 43.299337258604822 ], [ -70.982937556936292, 43.378247043516794 ], [ -70.972592402299156, 43.348378390324179 ], [ -70.955850320901234, 43.33399714608796 ], [ -70.931178615778194, 43.336545203056339 ], [ -70.89634209559938, 43.298551311362097 ], [ -70.906565392783776, 43.292035939331441 ], [ -70.809820261214, 43.225882189488935 ], [ -70.828253632196606, 43.187789005671952 ], [ -70.827078696240875, 43.127395579017659 ], [ -70.75678118290115, 43.080314958507401 ], [ -70.706302512920715, 43.07534075884594 ], [ -70.702165818842985, 43.051300579220523 ], [ -70.794394340643933, 42.939967660690698 ], [ -70.81618893126587, 42.872008622863696 ], [ -70.84775505541198, 42.860880875037118 ], [ -70.914651852461631, 42.886614576505458 ], [ -71.031277027777563, 42.859240657786849 ], [ -71.064422019955572, 42.806262952944365 ], [ -71.132768243178376, 42.821452719257195 ], [ -71.166672581491639, 42.80891035484845 ], [ -71.186175470470232, 42.790882325368386 ], [ -71.181809751488771, 42.737324535322401 ], [ -71.245470756280099, 42.742504807430251 ], [ -71.294635301667398, 42.697041839694947 ] ], [ [ -71.421828368624915, 43.002709087736157 ], [ -71.422544932791723, 43.002412381241292 ], [ -71.421972905435496, 43.002639806111723 ], [ -71.421828368624915, 43.002709087736157 ] ], [ [ -71.392296059811699, 43.009103027164201 ], [ -71.392267577883956, 43.008958027854085 ], [ -71.392204663165941, 43.008637743586441 ], [ -71.392296059811699, 43.009103027164201 ] ], [ [ -71.498895315211982, 42.804714723165127 ], [ -71.498775919047389, 42.804721804229168 ], [ -71.499033079220595, 42.804706553111693 ], [ -71.498895315211982, 42.804714723165127 ] ], [ [ -71.438174092627463, 42.72412383987735 ], [ -71.438174093058535, 42.724123837561116 ], [ -71.437980303391157, 42.724797239665307 ], [ -71.438174092627463, 42.72412383987735 ] ], [ [ -71.498965183632151, 42.707786090313981 ], [ -71.4988272231775, 42.70756876330789 ], [ -71.498915875119167, 42.707708417147693 ], [ -71.498965183632151, 42.707786090313981 ] ], [ [ -71.384133366085479, 42.938341296117343 ], [ -71.384296973368478, 42.938323405748896 ], [ -71.385597976877207, 42.938181132606076 ], [ -71.384133366085479, 42.938341296117343 ] ], [ [ -71.382683684861149, 42.938501520458516 ], [ -71.384078048282149, 42.938347410325001 ], [ -71.384133366085479, 42.938341296117343 ], [ -71.382683684861149, 42.938501520458516 ] ], [ [ -71.33995782288693, 42.904688386386781 ], [ -71.339961214430602, 42.904707364761407 ], [ -71.34235098548011, 42.918078026256374 ], [ -71.33995782288693, 42.904688386386781 ] ], [ [ -71.335794013368471, 42.87508591466122 ], [ -71.336078657716115, 42.877340837335176 ], [ -71.336234266651104, 42.878573493024099 ], [ -71.335794013368471, 42.87508591466122 ] ], [ [ -71.26334174096182, 42.848269927214638 ], [ -71.264457139960726, 42.848160623401363 ], [ -71.264744721861049, 42.848132440369696 ], [ -71.26334174096182, 42.848269927214638 ] ], [ [ -71.460022574499519, 42.944342433614295 ], [ -71.460048189606724, 42.944437207279506 ], [ -71.459435819669693, 42.942171370564338 ], [ -71.460022574499519, 42.944342433614295 ] ], [ [ -71.441177336730632, 42.989384694200133 ], [ -71.442929253587323, 42.989392895158325 ], [ -71.442007900185914, 42.989381564332874 ], [ -71.441177336730632, 42.989384694200133 ] ], [ [ -70.905603841028352, 43.27938644483234 ], [ -70.904305041360189, 43.28085110932517 ], [ -70.905092129707384, 43.279963514299212 ], [ -70.905603841028352, 43.27938644483234 ] ], [ [ -70.925439728965415, 43.257330011458457 ], [ -70.924370541280425, 43.258512691974239 ], [ -70.924637583812228, 43.258217307668936 ], [ -70.925439728965415, 43.257330011458457 ] ], [ [ -70.801402688946439, 43.016715270581884 ], [ -70.80150559370712, 43.016732397627784 ], [ -70.80008431839488, 43.016495844423623 ], [ -70.801402688946439, 43.016715270581884 ] ], [ [ -70.774304717497714, 43.061733462670269 ], [ -70.771582040966464, 43.062622637506102 ], [ -70.770942084403941, 43.062691242969834 ], [ -70.774304717497714, 43.061733462670269 ] ], [ [ -70.760369864905854, 43.071449765315684 ], [ -70.767156512440863, 43.062416625600576 ], [ -70.765691617959504, 43.062668410190753 ], [ -70.763738860242071, 43.063044484216363 ], [ -70.763394378648641, 43.063158399446948 ], [ -70.757909231005257, 43.066162615739941 ], [ -70.760369864905854, 43.071449765315684 ] ], [ [ -70.741397428181514, 43.054947391241562 ], [ -70.742143704806438, 43.054193471015921 ], [ -70.742605529576778, 43.053726903646456 ], [ -70.741397428181514, 43.054947391241562 ] ], [ [ -71.020945959720663, 43.268186584367051 ], [ -71.019636620911314, 43.267385423901104 ], [ -71.020672035953666, 43.268018978186824 ], [ -71.020945959720663, 43.268186584367051 ] ], [ [ -70.911415001489019, 43.174086730434794 ], [ -70.910075280395603, 43.172988091079695 ], [ -70.910991057387776, 43.173739080048939 ], [ -70.911415001489019, 43.174086730434794 ] ], [ [ -70.769591241314856, 43.075038254789682 ], [ -70.769637149868345, 43.075038614691323 ], [ -70.76963714987015, 43.075038614690044 ], [ -70.769591241314856, 43.075038254789682 ] ], [ [ -70.767655367740801, 43.076340033859395 ], [ -70.767728076183374, 43.076340605092376 ], [ -70.767728076186259, 43.076340605090309 ], [ -70.767655367740801, 43.076340033859395 ] ], [ [ -70.767353947302553, 43.07644741279492 ], [ -70.767427087571178, 43.076447987613079 ], [ -70.767427087574021, 43.07644798761104 ], [ -70.767353947302553, 43.07644741279492 ] ], [ [ -70.765640897955549, 43.078409393979612 ], [ -70.76567668389329, 43.078409675762636 ], [ -70.765676683894682, 43.078409675761627 ], [ -70.765640897955549, 43.078409393979612 ] ], [ [ -70.763665034325257, 43.079162952204811 ], [ -70.761880302011377, 43.077911793770504 ], [ -70.761849347632875, 43.077789711306878 ], [ -70.760842439779609, 43.075889970961413 ], [ -70.760796745128047, 43.075752681688492 ], [ -70.760598576975426, 43.075294889315686 ], [ -70.760670628365048, 43.074195259398309 ], [ -70.763665034325257, 43.079162952204811 ] ], [ [ -70.814598510272248, 43.047386808952922 ], [ -70.813925855164257, 43.043824024367616 ], [ -70.814584299965531, 43.047311550247258 ], [ -70.814598510272248, 43.047386808952922 ] ], [ [ -70.760243716458859, 43.071281915310585 ], [ -70.758199673682654, 43.073418046635652 ], [ -70.759069129947335, 43.074669295831725 ], [ -70.760243716458859, 43.071281915310585 ] ], [ [ -70.847983971779769, 43.126969885761753 ], [ -70.848138508156921, 43.127067476212929 ], [ -70.84703901192745, 43.12637313006465 ], [ -70.847983971779769, 43.126969885761753 ] ], [ [ -70.827008121744527, 43.117828596233025 ], [ -70.827506126683687, 43.117774985122104 ], [ -70.826515919449264, 43.117881580557963 ], [ -70.827008121744527, 43.117828596233025 ] ], [ [ -70.825462642124791, 43.118217358767453 ], [ -70.825496542980048, 43.118206552015273 ], [ -70.826515919449264, 43.117881580557963 ], [ -70.825462642124791, 43.118217358767453 ] ], [ [ -70.915932640296219, 43.246221961490107 ], [ -70.91663258551624, 43.246763151470205 ], [ -70.917185567721276, 43.247190700927369 ], [ -70.915932640296219, 43.246221961490107 ] ], [ [ -70.861946214365162, 43.234068331521918 ], [ -70.863054412948486, 43.233573928525146 ], [ -70.863074792364756, 43.233564836468815 ], [ -70.861946214365162, 43.234068331521918 ] ], [ [ -70.896552301522519, 43.206606553763301 ], [ -70.89672102517828, 43.20671011475433 ], [ -70.896341385396951, 43.206477094195215 ], [ -70.896552301522519, 43.206606553763301 ] ] ] } }
]
}
