{
"type": "FeatureCollection",
"name": "new_mexico_enacted_districts",
"crs": { "type": "name", "properties": { "name": "urn:ogc:def:crs:OGC:1.3:CRS84" } },
"features": [
{ "type": "Feature", "properties": { "enacted_district": 1, "population": 703515.0, "voting_age_pop": 562084.0, "dem_votes": 167068.0, "rep_votes": 118122.0, "minority_pop": 284584.0, "dem_pct": 0.58581296658865567, "rep_pct": 0.41418703306070093 }, "geometry": { "type": "Polygon", "coordinates": [ [ [ -106.727218000002694, 34.778420000002136 ], [ -106.740886000001865, 34.781942000001841 ], [ -106.724651000001998, 34.805323000001543 ], [ -106.720635000001764, 34.805103000002113 ], [ -106.714803000002277, 34.814713000001937 ], [ -106.720830000002138, 34.870054000001979 ], [ -106.720091000002682, 34.872141000001712 ], [ -106.701746000002601, 34.871112000002014 ], [ -106.686478000001898, 34.858035000002396 ], [ -106.684453000002179, 34.848453000001861 ], [ -106.667450000002319, 34.815466000002061 ], [ -106.63109700000264, 34.811163000001564 ], [ -106.573891000002646, 34.81106000000176 ], [ -106.530903000002738, 34.810882000002032 ], [ -106.464546000001917, 34.810517000001596 ], [ -106.463868000002634, 34.870194000001923 ], [ -106.411781000001795, 34.870252000002154 ], [ -106.413359000002018, 34.890187000001688 ], [ -106.382257000002056, 34.901406000001792 ], [ -106.380476000001764, 34.946884000002356 ], [ -106.663667000002206, 34.946792000001686 ], [ -106.644174000002423, 35.004223000001872 ], [ -106.638529000002677, 35.023417000001565 ], [ -106.630776000002285, 35.048483000001831 ], [ -106.637625000002657, 35.047562000002252 ], [ -106.638109000001762, 35.059584000002033 ], [ -106.642881000002461, 35.062934000002421 ], [ -106.645345000002322, 35.06288100000225 ], [ -106.65072600000272, 35.06515000000185 ], [ -106.642992000002096, 35.066698000002191 ], [ -106.643150000002635, 35.070654000001667 ], [ -106.64938500000234, 35.070536000001532 ], [ -106.649780000002437, 35.069952000002139 ], [ -106.651485000002566, 35.073684000001968 ], [ -106.655559000002, 35.077200000002151 ], [ -106.656104000002401, 35.080106000001955 ], [ -106.659829000002077, 35.079590000002241 ], [ -106.663404000002316, 35.080041000002097 ], [ -106.668555000002556, 35.080990000002281 ], [ -106.667366000002687, 35.07499200000214 ], [ -106.681167000002617, 35.089069000002311 ], [ -106.688949000001998, 35.095872000002174 ], [ -106.692339000002235, 35.10650900000217 ], [ -106.700175000002559, 35.107096000001675 ], [ -106.704678000001877, 35.106383000001884 ], [ -106.704594000002601, 35.106585000002369 ], [ -106.702309000002643, 35.112439000001537 ], [ -106.711193000002353, 35.112486000001731 ], [ -106.714636000001846, 35.112968000002297 ], [ -106.720203000002243, 35.11834400000162 ], [ -106.726618000002006, 35.123995000001713 ], [ -106.724100000002778, 35.126642000001631 ], [ -106.722164000001882, 35.128609000002236 ], [ -106.709300000002756, 35.138385000002103 ], [ -106.710550000002286, 35.142189000001629 ], [ -106.712762000001675, 35.145359000001946 ], [ -106.717294000002127, 35.152168000001879 ], [ -106.719166000002758, 35.157630000001724 ], [ -106.712525000002159, 35.157594000002298 ], [ -106.70330400000212, 35.161516000001704 ], [ -106.696522000002446, 35.17305000000156 ], [ -106.695502000002264, 35.17095800000164 ], [ -106.696238000002523, 35.166939000001804 ], [ -106.686988000001762, 35.167008000002049 ], [ -106.686945000001955, 35.170792000002315 ], [ -106.687646000002246, 35.175521000002234 ], [ -106.687738000002497, 35.176781000002038 ], [ -106.687747000002361, 35.179882000001747 ], [ -106.690705000002481, 35.179687000002239 ], [ -106.684865000002716, 35.187799000002343 ], [ -106.6840910000017, 35.189751000001912 ], [ -106.680935000001995, 35.197421000002166 ], [ -106.69577800000242, 35.195285000002329 ], [ -106.698528000001915, 35.196637000002141 ], [ -106.703343000002178, 35.19684100000228 ], [ -106.706452000001917, 35.19645800000211 ], [ -106.717665000002299, 35.193023000002071 ], [ -106.727654000002403, 35.192136000002201 ], [ -106.727655000002315, 35.194682000002061 ], [ -106.727659000002234, 35.199705000002055 ], [ -106.727660000002359, 35.203284000001588 ], [ -106.718761000002502, 35.203223000001621 ], [ -106.720353000002476, 35.205608000002393 ], [ -106.719966000002756, 35.212792000001549 ], [ -106.728990000002085, 35.217978000001899 ], [ -106.763062000002677, 35.21799400000161 ], [ -106.798329000002695, 35.217956000001806 ], [ -106.962038000002536, 35.218392000001955 ], [ -106.976009000001838, 35.282689000001547 ], [ -106.856442000002204, 35.307063000001577 ], [ -106.859275000001816, 35.322120000002357 ], [ -106.838796000002702, 35.33456000000227 ], [ -106.711129000002202, 35.32857900000193 ], [ -106.696973000002686, 35.326191000001593 ], [ -106.666189000002205, 35.355616000001724 ], [ -106.634600000001754, 35.371374000002128 ], [ -106.612524000001798, 35.355047000002287 ], [ -106.59725500000178, 35.346189000002028 ], [ -106.583408000002564, 35.338193000002207 ], [ -106.57141000000172, 35.330282000002022 ], [ -106.57127300000262, 35.330186000001838 ], [ -106.521271000002557, 35.334402000002292 ], [ -106.509389000001917, 35.334438000001768 ], [ -106.481346000002119, 35.357286000001949 ], [ -106.480896000002318, 35.357986000002171 ], [ -106.398283000002237, 35.365202000002292 ], [ -106.355169000002618, 35.366162000001985 ], [ -106.356054000002544, 35.448865000002343 ], [ -106.325153000002274, 35.461598000001537 ], [ -106.248848000001914, 35.443282000001822 ], [ -106.248926000002115, 35.377522000002031 ], [ -106.24516200000204, 35.238661000002288 ], [ -106.156142000002035, 35.224050000001931 ], [ -106.156108000002718, 35.142092000001696 ], [ -105.979980000001902, 35.142187000002025 ], [ -106.004557000002478, 35.084256000002156 ], [ -106.029524000002681, 35.040678000002259 ], [ -105.714419000002081, 35.04160500000215 ], [ -105.682848000002707, 35.041633000002314 ], [ -105.4403090000026, 35.041914000002159 ], [ -105.290791000002073, 35.042030000002178 ], [ -105.291169000002441, 35.216489000001921 ], [ -105.259009000002393, 35.216484000001699 ], [ -105.082522000002399, 35.216431000002061 ], [ -105.023359000002202, 35.216413000002262 ], [ -104.891141000002804, 35.216371000002255 ], [ -104.355204000002203, 35.216060000002237 ], [ -104.125136000002485, 35.215696000001913 ], [ -104.125121000002395, 35.142058000001974 ], [ -104.125137000002482, 35.083436000001733 ], [ -104.129360000002265, 34.924199000001757 ], [ -104.129143000001875, 34.779337000002457 ], [ -104.128880000002084, 34.605201000002133 ], [ -103.948778000002036, 34.605058000001904 ], [ -103.949062000002783, 34.450757000001801 ], [ -103.946019000002522, 34.082463000002114 ], [ -103.87551800000216, 34.082106000002398 ], [ -103.841691000002641, 34.081909000002184 ], [ -103.841933000001816, 33.819200000002255 ], [ -103.716885000002478, 33.819558000002523 ], [ -103.717934000002714, 33.703642000001935 ], [ -103.769317000002275, 33.728068000001755 ], [ -103.878293000002841, 33.672027000002323 ], [ -104.027457000001874, 33.666647000002264 ], [ -104.205176000002325, 33.643853000002004 ], [ -104.239438000002281, 33.626560000002094 ], [ -104.329735000002103, 33.59773300000213 ], [ -104.379042000002642, 33.565588000001931 ], [ -104.449065000002335, 33.482506000002502 ], [ -104.487897000002761, 33.437038000002097 ], [ -104.500168000002702, 33.438049000002557 ], [ -104.515933000002093, 33.447468000002537 ], [ -104.514503000002605, 33.437913000001977 ], [ -104.515417000002714, 33.437911000001726 ], [ -104.523209000002595, 33.437904000001723 ], [ -104.559111000002645, 33.430296000002059 ], [ -104.55907500000194, 33.423043000001762 ], [ -104.595193000001913, 33.422593000001932 ], [ -104.594992000002335, 33.394260000002475 ], [ -104.694318000002525, 33.394219000002074 ], [ -104.83125800000218, 33.368668000001698 ], [ -104.885196000002537, 33.36924400000197 ], [ -104.885405000002564, 33.347310000001926 ], [ -104.903838000002281, 33.305904000002158 ], [ -104.905424000002384, 33.138904000002 ], [ -104.905482000002806, 33.138903000002472 ], [ -105.108621000002557, 33.131742000002248 ], [ -105.316968000002504, 33.132303000002423 ], [ -105.316224000002507, 33.002719000002187 ], [ -105.484474000002194, 33.005336000002195 ], [ -105.481654000002806, 33.033907000001918 ], [ -105.558985000002664, 33.053323000002251 ], [ -105.636195000002118, 33.109173000002329 ], [ -105.694427000002094, 33.12042100000204 ], [ -105.702781000002119, 33.176539000002421 ], [ -105.749892000002404, 33.228066000002244 ], [ -105.827437000001765, 33.217798000002333 ], [ -105.893207000002079, 33.218110000001751 ], [ -105.929630000002646, 33.218375000002048 ], [ -105.931639000002804, 33.389900000001731 ], [ -106.07356200000234, 33.389446000002323 ], [ -106.345710000002242, 33.39059500000171 ], [ -106.371885000001953, 33.390615000001866 ], [ -106.372797000001825, 33.479875000002011 ], [ -106.373660000002275, 33.660504000001673 ], [ -106.268261000002397, 33.660535000001765 ], [ -106.052718000002045, 33.650297000002318 ], [ -106.052680000001999, 33.748261000001854 ], [ -106.052680000001914, 33.748463000001962 ], [ -106.052662000002314, 33.825606000002324 ], [ -105.9246850000021, 33.825624000002435 ], [ -105.925563000002285, 33.986383000002377 ], [ -105.925968000002598, 34.259990000001771 ], [ -106.101744000002157, 34.259983000002087 ], [ -106.415972000002256, 34.259822000002423 ], [ -106.416767000002579, 34.427683000001977 ], [ -106.416924000001998, 34.439687000002358 ], [ -106.456314000002081, 34.437054000002405 ], [ -106.564648000002634, 34.473894000001877 ], [ -106.725553000002193, 34.63897900000201 ], [ -106.72155800000256, 34.641875000002294 ], [ -106.714594000001838, 34.658348000002221 ], [ -106.730015000001913, 34.653446000001857 ], [ -106.736150000002155, 34.652864000002069 ], [ -106.737925000002605, 34.652849000002398 ], [ -106.743542000002265, 34.675345000002402 ], [ -106.745093000002356, 34.690644000001967 ], [ -106.74413900000242, 34.714261000001684 ], [ -106.739709000001767, 34.742701000001816 ], [ -106.727218000002694, 34.778420000002136 ] ] ] } },
{ "type": "Feature", "properties": { "enacted_district": 2, "population": 707703.0, "voting_age_pop": 535792.0, "dem_votes": 116066.0, "rep_votes": 91682.0, "minority_pop": 357532.0, "dem_pct": 0.55868648528087561, "rep_pct": 0.44131351423777193 }, "geometry": { "type": "Polygon", "coordinates": [ [ [ -109.050033000002642, 31.332348000002305 ], [ -109.049555000002556, 31.707591000001567 ], [ -109.048587000002655, 32.145802000001645 ], [ -109.0477990000022, 32.647112000002025 ], [ -109.047643000002097, 32.777802000001856 ], [ -109.047549000002604, 32.898865000001813 ], [ -109.047578000002744, 33.20889800000149 ], [ -109.047057000002582, 33.617129000001917 ], [ -109.04683600000196, 34.045353000001761 ], [ -109.04691000000264, 34.078497000001633 ], [ -109.046783000002307, 34.166941000001472 ], [ -109.046122000002157, 34.579291000001625 ], [ -109.045996000001836, 34.959819000002256 ], [ -109.045997000001634, 35.020031000001524 ], [ -109.046009000002002, 35.17550800000177 ], [ -108.867887000002057, 35.169582000001576 ], [ -108.837406000001678, 35.11320400000151 ], [ -108.814864000002515, 35.122024000001907 ], [ -108.825536000002487, 35.075195000002047 ], [ -108.763249000002276, 35.055667000001428 ], [ -108.736373000002118, 35.099411000002071 ], [ -108.636056000001957, 35.121801000002023 ], [ -108.570395000001838, 35.105616000002151 ], [ -108.539969000002159, 35.122142000001887 ], [ -108.539132000002184, 35.291809000001798 ], [ -108.468683000002116, 35.299243000001738 ], [ -108.441235000002123, 35.306696000001942 ], [ -108.317939000001843, 35.306635000001471 ], [ -108.142771000002583, 35.30654500000162 ], [ -108.11249000000258, 35.306094000002048 ], [ -107.835449000002399, 35.305045000001989 ], [ -107.734200000002744, 35.309753000001947 ], [ -107.734241000002243, 35.348145000002312 ], [ -107.62831300000272, 35.34831400000207 ], [ -107.628671000001759, 35.311824000001955 ], [ -107.496923000002354, 35.303755000001786 ], [ -107.309386000001723, 35.305687000001498 ], [ -107.238890000001845, 35.305507000001953 ], [ -107.197244000002286, 35.219459000001834 ], [ -106.962038000002536, 35.218392000001955 ], [ -106.798329000002695, 35.217956000001806 ], [ -106.763062000002677, 35.21799400000161 ], [ -106.728990000002085, 35.217978000001899 ], [ -106.719966000002756, 35.212792000001549 ], [ -106.720353000002476, 35.205608000002393 ], [ -106.718761000002502, 35.203223000001621 ], [ -106.727660000002359, 35.203284000001588 ], [ -106.727659000002234, 35.199705000002055 ], [ -106.727655000002315, 35.194682000002061 ], [ -106.727654000002403, 35.192136000002201 ], [ -106.717665000002299, 35.193023000002071 ], [ -106.706452000001917, 35.19645800000211 ], [ -106.703343000002178, 35.19684100000228 ], [ -106.698528000001915, 35.196637000002141 ], [ -106.69577800000242, 35.195285000002329 ], [ -106.680935000001995, 35.197421000002166 ], [ -106.6840910000017, 35.189751000001912 ], [ -106.684865000002716, 35.187799000002343 ], [ -106.690705000002481, 35.179687000002239 ], [ -106.687747000002361, 35.179882000001747 ], [ -106.687738000002497, 35.176781000002038 ], [ -106.687646000002246, 35.175521000002234 ], [ -106.686945000001955, 35.170792000002315 ], [ -106.686988000001762, 35.167008000002049 ], [ -106.696238000002523, 35.166939000001804 ], [ -106.695502000002264, 35.17095800000164 ], [ -106.696522000002446, 35.17305000000156 ], [ -106.70330400000212, 35.161516000001704 ], [ -106.712525000002159, 35.157594000002298 ], [ -106.719166000002758, 35.157630000001724 ], [ -106.717294000002127, 35.152168000001879 ], [ -106.712762000001675, 35.145359000001946 ], [ -106.710550000002286, 35.142189000001629 ], [ -106.709300000002756, 35.138385000002103 ], [ -106.722164000001882, 35.128609000002236 ], [ -106.724100000002778, 35.126642000001631 ], [ -106.726618000002006, 35.123995000001713 ], [ -106.720203000002243, 35.11834400000162 ], [ -106.714636000001846, 35.112968000002297 ], [ -106.711193000002353, 35.112486000001731 ], [ -106.702309000002643, 35.112439000001537 ], [ -106.704594000002601, 35.106585000002369 ], [ -106.704678000001877, 35.106383000001884 ], [ -106.700175000002559, 35.107096000001675 ], [ -106.692339000002235, 35.10650900000217 ], [ -106.688949000001998, 35.095872000002174 ], [ -106.681167000002617, 35.089069000002311 ], [ -106.667366000002687, 35.07499200000214 ], [ -106.668555000002556, 35.080990000002281 ], [ -106.663404000002316, 35.080041000002097 ], [ -106.659829000002077, 35.079590000002241 ], [ -106.656104000002401, 35.080106000001955 ], [ -106.655559000002, 35.077200000002151 ], [ -106.651485000002566, 35.073684000001968 ], [ -106.649780000002437, 35.069952000002139 ], [ -106.64938500000234, 35.070536000001532 ], [ -106.643150000002635, 35.070654000001667 ], [ -106.642992000002096, 35.066698000002191 ], [ -106.65072600000272, 35.06515000000185 ], [ -106.645345000002322, 35.06288100000225 ], [ -106.642881000002461, 35.062934000002421 ], [ -106.638109000001762, 35.059584000002033 ], [ -106.637625000002657, 35.047562000002252 ], [ -106.630776000002285, 35.048483000001831 ], [ -106.638529000002677, 35.023417000001565 ], [ -106.644174000002423, 35.004223000001872 ], [ -106.663667000002206, 34.946792000001686 ], [ -106.380476000001764, 34.946884000002356 ], [ -106.382257000002056, 34.901406000001792 ], [ -106.413359000002018, 34.890187000001688 ], [ -106.411781000001795, 34.870252000002154 ], [ -106.463868000002634, 34.870194000001923 ], [ -106.464546000001917, 34.810517000001596 ], [ -106.530903000002738, 34.810882000002032 ], [ -106.573891000002646, 34.81106000000176 ], [ -106.63109700000264, 34.811163000001564 ], [ -106.667450000002319, 34.815466000002061 ], [ -106.684453000002179, 34.848453000001861 ], [ -106.686478000001898, 34.858035000002396 ], [ -106.701746000002601, 34.871112000002014 ], [ -106.720091000002682, 34.872141000001712 ], [ -106.720830000002138, 34.870054000001979 ], [ -106.714803000002277, 34.814713000001937 ], [ -106.720635000001764, 34.805103000002113 ], [ -106.724651000001998, 34.805323000001543 ], [ -106.740886000001865, 34.781942000001841 ], [ -106.727218000002694, 34.778420000002136 ], [ -106.739709000001767, 34.742701000001816 ], [ -106.74413900000242, 34.714261000001684 ], [ -106.745093000002356, 34.690644000001967 ], [ -106.743542000002265, 34.675345000002402 ], [ -106.737925000002605, 34.652849000002398 ], [ -106.736150000002155, 34.652864000002069 ], [ -106.730015000001913, 34.653446000001857 ], [ -106.714594000001838, 34.658348000002221 ], [ -106.72155800000256, 34.641875000002294 ], [ -106.725553000002193, 34.63897900000201 ], [ -106.564648000002634, 34.473894000001877 ], [ -106.456314000002081, 34.437054000002405 ], [ -106.416924000001998, 34.439687000002358 ], [ -106.416767000002579, 34.427683000001977 ], [ -106.415972000002256, 34.259822000002423 ], [ -106.101744000002157, 34.259983000002087 ], [ -105.925968000002598, 34.259990000001771 ], [ -105.925563000002285, 33.986383000002377 ], [ -105.9246850000021, 33.825624000002435 ], [ -106.052662000002314, 33.825606000002324 ], [ -106.052680000001914, 33.748463000001962 ], [ -106.052680000001999, 33.748261000001854 ], [ -106.052718000002045, 33.650297000002318 ], [ -106.268261000002397, 33.660535000001765 ], [ -106.373660000002275, 33.660504000001673 ], [ -106.372797000001825, 33.479875000002011 ], [ -106.371885000001953, 33.390615000001866 ], [ -106.345710000002242, 33.39059500000171 ], [ -106.07356200000234, 33.389446000002323 ], [ -105.931639000002804, 33.389900000001731 ], [ -105.929630000002646, 33.218375000002048 ], [ -105.893207000002079, 33.218110000001751 ], [ -105.827437000001765, 33.217798000002333 ], [ -105.749892000002404, 33.228066000002244 ], [ -105.702781000002119, 33.176539000002421 ], [ -105.694427000002094, 33.12042100000204 ], [ -105.636195000002118, 33.109173000002329 ], [ -105.558985000002664, 33.053323000002251 ], [ -105.481654000002806, 33.033907000001918 ], [ -105.484474000002194, 33.005336000002195 ], [ -105.316224000002507, 33.002719000002187 ], [ -105.316968000002504, 33.132303000002423 ], [ -105.108621000002557, 33.131742000002248 ], [ -104.905482000002806, 33.138903000002472 ], [ -104.905137000002497, 33.051820000001911 ], [ -104.905161000002778, 32.962892000002228 ], [ -104.841576000002803, 32.96321300000205 ], [ -104.550721000002525, 32.96399700000196 ], [ -104.582573000001915, 32.900883000002075 ], [ -104.59345400000268, 32.84294700000234 ], [ -104.531423000002647, 32.755688000002216 ], [ -104.478878000001998, 32.780681000002573 ], [ -104.412690000002087, 32.784523000002231 ], [ -104.412637000002078, 32.798932000002047 ], [ -104.412630000002522, 32.828091000002466 ], [ -104.403946000002662, 32.82815900000238 ], [ -104.395771000002242, 32.828212000001933 ], [ -104.395661000002136, 32.78438100000232 ], [ -104.313543000002156, 32.760959000001897 ], [ -104.232907000002484, 32.791362000002501 ], [ -104.202143000002593, 32.7864920000019 ], [ -104.148676000002197, 32.803907000001736 ], [ -104.125037000002038, 32.94931200000233 ], [ -104.10758500000216, 32.965381000002246 ], [ -104.050990000002045, 32.965395000002246 ], [ -103.814507000002621, 32.965114000002266 ], [ -103.814456000002764, 32.770237000002119 ], [ -103.351010000002617, 32.769365000001848 ], [ -103.3508250000027, 32.712961000002416 ], [ -103.350833000002126, 32.696736000001799 ], [ -103.17938200000232, 32.69655400000191 ], [ -103.144839000001994, 32.696609000002503 ], [ -103.133743000002724, 32.696596000001911 ], [ -103.127508000002095, 32.696575000002596 ], [ -103.123933000002296, 32.696565000001961 ], [ -103.123913000001878, 32.698162000002135 ], [ -103.115833000002439, 32.707272000002156 ], [ -103.112297000002599, 32.71116900000213 ], [ -103.11420000000254, 32.71117900000241 ], [ -103.123263000001799, 32.71978900000218 ], [ -103.114211000002356, 32.71983100000228 ], [ -103.114208000002122, 32.725704000002139 ], [ -103.094961000002456, 32.725884000002104 ], [ -103.064671000002406, 32.726960000002563 ], [ -103.064799000002324, 32.708694000001984 ], [ -103.064754000002438, 32.696582000001897 ], [ -103.064711000002845, 32.538431000002227 ], [ -103.064725000002355, 32.33465400000226 ], [ -103.064510000002699, 32.000424000001885 ], [ -103.267732000001914, 32.000324000002138 ], [ -103.722882000002642, 32.000206000002144 ], [ -104.329638000002078, 32.000188000002161 ], [ -104.75455600000268, 32.000527000002371 ], [ -104.775447000002444, 31.997628000001708 ], [ -104.847740000002759, 32.000415000002484 ], [ -105.245188000002642, 32.000207000002504 ], [ -105.900692000002564, 32.0020440000024 ], [ -106.326086000002206, 32.00161800000231 ], [ -106.338843000002143, 32.001582000002067 ], [ -106.343522000001997, 32.001570000001863 ], [ -106.360961000002703, 32.00152900000186 ], [ -106.377174000002526, 32.001503000002124 ], [ -106.443521000002278, 32.001199000001634 ], [ -106.582639000002047, 32.000705000002093 ], [ -106.591889000002567, 32.00068700000238 ], [ -106.602726000002505, 32.000687000001747 ], [ -106.606577000002204, 32.000646000001858 ], [ -106.629402000002642, 31.990130000002122 ], [ -106.628569000002102, 31.927641000002463 ], [ -106.630295000002604, 31.885832000001923 ], [ -106.633798000002642, 31.86488100000167 ], [ -106.605297000002579, 31.827720000001669 ], [ -106.577244000002594, 31.810406000001866 ], [ -106.569311000002799, 31.783874000002292 ], [ -106.601789000002526, 31.78386600000163 ], [ -107.032961000001862, 31.783687000001649 ], [ -107.296793000002495, 31.783641000001932 ], [ -107.497208000001919, 31.783653000001635 ], [ -108.208484000002201, 31.783698000002001 ], [ -108.208470000002805, 31.333373000001828 ], [ -109.050033000002642, 31.332348000002305 ] ] ] } },
{ "type": "Feature", "properties": { "enacted_district": 3, "population": 706304.0, "voting_age_pop": 541113.0, "dem_votes": 141084.0, "rep_votes": 99161.0, "minority_pop": 332811.0, "dem_pct": 0.58725051485473145, "rep_pct": 0.41274948472902684 }, "geometry": { "type": "Polygon", "coordinates": [ [ [ -108.837406000001678, 35.11320400000151 ], [ -108.867887000002057, 35.169582000001576 ], [ -109.046009000002002, 35.17550800000177 ], [ -109.046503000002716, 35.317093000001833 ], [ -109.046271000002307, 35.616378000001681 ], [ -109.046623000001858, 35.777236000001835 ], [ -109.046067000002083, 36.002701000001892 ], [ -109.045784000002001, 36.314918000002031 ], [ -109.045595000002436, 36.527315000001437 ], [ -109.04554300000224, 36.613765000002111 ], [ -109.045172000002225, 36.998977000001538 ], [ -109.005110000001864, 36.998946000001375 ], [ -108.749603000002082, 36.99884000000192 ], [ -108.536413000002696, 36.999349000001409 ], [ -108.033460000002634, 36.99974800000151 ], [ -107.983935000002475, 36.999860000001497 ], [ -107.605201000001927, 36.999969000001855 ], [ -107.421223000002016, 37.000223000002102 ], [ -106.985514000002524, 37.000083000002256 ], [ -106.781878000002763, 36.992515000002342 ], [ -106.339736000001963, 36.993967000002122 ], [ -106.006316000002101, 36.995267000001931 ], [ -105.718463000001876, 36.995841000001946 ], [ -105.419669000002003, 36.995337000002024 ], [ -105.220506000002501, 36.994974000002387 ], [ -105.136447000001795, 36.995169000001617 ], [ -105.029226000001742, 36.992727000001857 ], [ -104.503674000002079, 36.99382800000209 ], [ -104.480578000002282, 36.993861000001971 ], [ -104.473699000002355, 36.99385200000161 ], [ -104.007851000002276, 36.996134000002002 ], [ -103.47182300000182, 36.999159000001626 ], [ -103.002329000001978, 37.000150000001668 ], [ -103.002290000002361, 36.500887000001761 ], [ -103.041717000002464, 36.500360000002367 ], [ -103.041546000002754, 36.38772400000213 ], [ -103.041219000002144, 36.289863000002477 ], [ -103.040896000001879, 35.964472000001997 ], [ -103.041349000001716, 35.739433000001959 ], [ -103.042026000002281, 35.394747000002582 ], [ -103.042701000001856, 34.954142000002349 ], [ -103.043069000001864, 34.706336000001954 ], [ -103.043594000002841, 34.419056000001852 ], [ -103.043767000002603, 34.3026480000022 ], [ -103.043836000002685, 34.112834000002245 ], [ -103.043672000002275, 34.011179000002102 ], [ -103.044891000001996, 33.945609000002385 ], [ -103.051620000002714, 33.627530000001983 ], [ -103.052621000002077, 33.570575000001945 ], [ -103.061736000001844, 33.140884000002593 ], [ -103.064125000002775, 33.024478000002446 ], [ -103.064796000002247, 32.828417000001885 ], [ -103.064692000002424, 32.769323000002501 ], [ -103.064671000002406, 32.726960000002563 ], [ -103.094961000002456, 32.725884000002104 ], [ -103.114208000002122, 32.725704000002139 ], [ -103.114211000002356, 32.71983100000228 ], [ -103.123263000001799, 32.71978900000218 ], [ -103.11420000000254, 32.71117900000241 ], [ -103.112297000002599, 32.71116900000213 ], [ -103.115833000002439, 32.707272000002156 ], [ -103.123913000001878, 32.698162000002135 ], [ -103.123933000002296, 32.696565000001961 ], [ -103.127508000002095, 32.696575000002596 ], [ -103.133743000002724, 32.696596000001911 ], [ -103.144839000001994, 32.696609000002503 ], [ -103.17938200000232, 32.69655400000191 ], [ -103.350833000002126, 32.696736000001799 ], [ -103.3508250000027, 32.712961000002416 ], [ -103.351010000002617, 32.769365000001848 ], [ -103.814456000002764, 32.770237000002119 ], [ -103.814507000002621, 32.965114000002266 ], [ -104.050990000002045, 32.965395000002246 ], [ -104.10758500000216, 32.965381000002246 ], [ -104.125037000002038, 32.94931200000233 ], [ -104.148676000002197, 32.803907000001736 ], [ -104.202143000002593, 32.7864920000019 ], [ -104.232907000002484, 32.791362000002501 ], [ -104.313543000002156, 32.760959000001897 ], [ -104.395661000002136, 32.78438100000232 ], [ -104.395771000002242, 32.828212000001933 ], [ -104.403946000002662, 32.82815900000238 ], [ -104.412630000002522, 32.828091000002466 ], [ -104.412637000002078, 32.798932000002047 ], [ -104.412690000002087, 32.784523000002231 ], [ -104.478878000001998, 32.780681000002573 ], [ -104.531423000002647, 32.755688000002216 ], [ -104.59345400000268, 32.84294700000234 ], [ -104.582573000001915, 32.900883000002075 ], [ -104.550721000002525, 32.96399700000196 ], [ -104.841576000002803, 32.96321300000205 ], [ -104.905161000002778, 32.962892000002228 ], [ -104.905137000002497, 33.051820000001911 ], [ -104.905482000002806, 33.138903000002472 ], [ -104.905424000002384, 33.138904000002 ], [ -104.903838000002281, 33.305904000002158 ], [ -104.885405000002564, 33.347310000001926 ], [ -104.885196000002537, 33.36924400000197 ], [ -104.83125800000218, 33.368668000001698 ], [ -104.694318000002525, 33.394219000002074 ], [ -104.594992000002335, 33.394260000002475 ], [ -104.595193000001913, 33.422593000001932 ], [ -104.55907500000194, 33.423043000001762 ], [ -104.559111000002645, 33.430296000002059 ], [ -104.523209000002595, 33.437904000001723 ], [ -104.515417000002714, 33.437911000001726 ], [ -104.514503000002605, 33.437913000001977 ], [ -104.515933000002093, 33.447468000002537 ], [ -104.500168000002702, 33.438049000002557 ], [ -104.487897000002761, 33.437038000002097 ], [ -104.449065000002335, 33.482506000002502 ], [ -104.379042000002642, 33.565588000001931 ], [ -104.329735000002103, 33.59773300000213 ], [ -104.239438000002281, 33.626560000002094 ], [ -104.205176000002325, 33.643853000002004 ], [ -104.027457000001874, 33.666647000002264 ], [ -103.878293000002841, 33.672027000002323 ], [ -103.769317000002275, 33.728068000001755 ], [ -103.717934000002714, 33.703642000001935 ], [ -103.716885000002478, 33.819558000002523 ], [ -103.841933000001816, 33.819200000002255 ], [ -103.841691000002641, 34.081909000002184 ], [ -103.87551800000216, 34.082106000002398 ], [ -103.946019000002522, 34.082463000002114 ], [ -103.949062000002783, 34.450757000001801 ], [ -103.948778000002036, 34.605058000001904 ], [ -104.128880000002084, 34.605201000002133 ], [ -104.129143000001875, 34.779337000002457 ], [ -104.129360000002265, 34.924199000001757 ], [ -104.125137000002482, 35.083436000001733 ], [ -104.125121000002395, 35.142058000001974 ], [ -104.125136000002485, 35.215696000001913 ], [ -104.355204000002203, 35.216060000002237 ], [ -104.891141000002804, 35.216371000002255 ], [ -105.023359000002202, 35.216413000002262 ], [ -105.082522000002399, 35.216431000002061 ], [ -105.259009000002393, 35.216484000001699 ], [ -105.291169000002441, 35.216489000001921 ], [ -105.290791000002073, 35.042030000002178 ], [ -105.4403090000026, 35.041914000002159 ], [ -105.682848000002707, 35.041633000002314 ], [ -105.714419000002081, 35.04160500000215 ], [ -106.029524000002681, 35.040678000002259 ], [ -106.004557000002478, 35.084256000002156 ], [ -105.979980000001902, 35.142187000002025 ], [ -106.156108000002718, 35.142092000001696 ], [ -106.156142000002035, 35.224050000001931 ], [ -106.24516200000204, 35.238661000002288 ], [ -106.248926000002115, 35.377522000002031 ], [ -106.248848000001914, 35.443282000001822 ], [ -106.325153000002274, 35.461598000001537 ], [ -106.356054000002544, 35.448865000002343 ], [ -106.355169000002618, 35.366162000001985 ], [ -106.398283000002237, 35.365202000002292 ], [ -106.480896000002318, 35.357986000002171 ], [ -106.481346000002119, 35.357286000001949 ], [ -106.509389000001917, 35.334438000001768 ], [ -106.521271000002557, 35.334402000002292 ], [ -106.57127300000262, 35.330186000001838 ], [ -106.57141000000172, 35.330282000002022 ], [ -106.583408000002564, 35.338193000002207 ], [ -106.59725500000178, 35.346189000002028 ], [ -106.612524000001798, 35.355047000002287 ], [ -106.634600000001754, 35.371374000002128 ], [ -106.666189000002205, 35.355616000001724 ], [ -106.696973000002686, 35.326191000001593 ], [ -106.711129000002202, 35.32857900000193 ], [ -106.838796000002702, 35.33456000000227 ], [ -106.859275000001816, 35.322120000002357 ], [ -106.856442000002204, 35.307063000001577 ], [ -106.976009000001838, 35.282689000001547 ], [ -106.962038000002536, 35.218392000001955 ], [ -107.197244000002286, 35.219459000001834 ], [ -107.238890000001845, 35.305507000001953 ], [ -107.309386000001723, 35.305687000001498 ], [ -107.496923000002354, 35.303755000001786 ], [ -107.628671000001759, 35.311824000001955 ], [ -107.62831300000272, 35.34831400000207 ], [ -107.734241000002243, 35.348145000002312 ], [ -107.734200000002744, 35.309753000001947 ], [ -107.835449000002399, 35.305045000001989 ], [ -108.11249000000258, 35.306094000002048 ], [ -108.142771000002583, 35.30654500000162 ], [ -108.317939000001843, 35.306635000001471 ], [ -108.441235000002123, 35.306696000001942 ], [ -108.468683000002116, 35.299243000001738 ], [ -108.539132000002184, 35.291809000001798 ], [ -108.539969000002159, 35.122142000001887 ], [ -108.570395000001838, 35.105616000002151 ], [ -108.636056000001957, 35.121801000002023 ], [ -108.736373000002118, 35.099411000002071 ], [ -108.763249000002276, 35.055667000001428 ], [ -108.825536000002487, 35.075195000002047 ], [ -108.814864000002515, 35.122024000001907 ], [ -108.837406000001678, 35.11320400000151 ] ] ] } }
]
}
