{
"type": "FeatureCollection",
"name": "new_mexico_optimized_districts_age",
"crs": { "type": "name", "properties": { "name": "urn:ogc:def:crs:OGC:1.3:CRS84" } },
"features": [
{ "type": "Feature", "properties": { "district_id": 0, "voting_age_pop": 498799, "lib_votes": 0, "grn_votes": 0, "con_votes": 0, "ref_votes": 0, "total_pop": 672599, "dem_votes_sum": 151331, "rep_votes_sum": 98388, "lib_votes_sum": 0, "grn_votes_sum": 0, "con_votes_sum": 0, "ref_votes_sum": 0, "minority_pop_sum": 690582, "dem_pct": 0.60600514978836217, "rep_pct": 0.39399485021163788, "lib_pct": 0.0, "grn_pct": 0.0, "con_pct": 0.0, "ref_pct": 0.0, "minority_pct": 1.0267365845028018, "compactness": 0.26732298201704052 }, "geometry": { "type": "Polygon", "coordinates": [ [ [ -108.202510254543952, 34.77948053850465 ], [ -108.256039263527271, 34.748080530972608 ], [ -108.256246260692095, 34.711806525611678 ], [ -108.273510264414739, 34.712089524720241 ], [ -108.27328426318833, 34.697219522538987 ], [ -108.362226282198563, 34.69680151767205 ], [ -108.344345280671931, 34.725789522906737 ], [ -108.361691284394638, 34.725925521987513 ], [ -108.362362290338012, 34.798702532649287 ], [ -108.378850293874208, 34.798804531767175 ], [ -108.378791292707987, 34.784368529650614 ], [ -108.431660304004396, 34.784262526760237 ], [ -108.431845305204703, 34.798781528879395 ], [ -108.446246308281701, 34.798773528094195 ], [ -108.450567308032873, 34.784117525710514 ], [ -108.467645311675255, 34.784045524770839 ], [ -108.46745131279954, 34.798620526917048 ], [ -108.479807315490845, 34.799276526340186 ], [ -108.492994316575476, 34.777632522452087 ], [ -108.538019326769771, 34.784970521075863 ], [ -108.537679327828769, 34.799107523162441 ], [ -108.571757333928488, 34.784528519173953 ], [ -108.5737953410556, 34.867866531233354 ], [ -108.55827533862066, 34.878715533666195 ], [ -108.56621434127203, 34.890585534962518 ], [ -108.541347336927132, 34.902466538059279 ], [ -108.550141340984467, 34.929416541506114 ], [ -108.519292335598749, 34.944200545357283 ], [ -108.518969336730322, 34.958993547531556 ], [ -108.850358407320755, 34.959636529353993 ], [ -108.869654416323684, 35.019719536965709 ], [ -108.849712414428211, 35.048212542183897 ], [ -108.851394416470299, 35.06871554504793 ], [ -108.892215425070972, 35.067964542669351 ], [ -109.046071453719208, 35.020016527218523 ], [ -109.045233630460558, 36.999089804680352 ], [ -104.007864504717688, 36.996245109894893 ], [ -104.008602466304851, 36.567433043858344 ], [ -104.106414489584154, 36.573176039112703 ], [ -104.116517499123816, 36.65405705100261 ], [ -104.150321507007192, 36.654287049080452 ], [ -104.148126503930897, 36.625494044773291 ], [ -104.177475508304866, 36.59796703883606 ], [ -104.216709517264434, 36.596233036302209 ], [ -104.235985523483322, 36.615829038203174 ], [ -104.265646530973243, 36.622625037531265 ], [ -104.313995541083401, 36.610229032827121 ], [ -104.328971548422047, 36.653553038608663 ], [ -104.303223545468612, 36.687264045274318 ], [ -104.358925563146371, 36.740249050144918 ], [ -104.38022756834431, 36.743142049344286 ], [ -104.374178562416446, 36.69281104199689 ], [ -104.389429564951854, 36.681688039406545 ], [ -104.393226562086994, 36.639867032780636 ], [ -104.409446564979746, 36.630211030359668 ], [ -104.475537581164758, 36.640200028051105 ], [ -104.493790587954862, 36.668880031374329 ], [ -104.478502587241664, 36.70030703706599 ], [ -104.46212658357976, 36.701715038235818 ], [ -104.461733591260028, 36.78785505140516 ], [ -104.554140604730634, 36.700356032661794 ], [ -104.736035637493089, 36.598012006467812 ], [ -104.669166616975588, 36.540638001598268 ], [ -104.546584584075333, 36.488417000692586 ], [ -104.564458585941068, 36.462856995742733 ], [ -104.561357580957647, 36.414423988488544 ], [ -104.599084586392109, 36.377253980614491 ], [ -104.59425558350226, 36.356981977777039 ], [ -104.624506586323918, 36.309527968751482 ], [ -104.63655658263238, 36.235211956628532 ], [ -104.649664584200721, 36.218502953309113 ], [ -104.714703599097675, 36.217787949497641 ], [ -104.844738622327327, 36.141216930331552 ], [ -104.882505630608833, 36.136871927519543 ], [ -104.900943633425086, 36.120551923966339 ], [ -104.785272601068812, 36.052568920050767 ], [ -104.792574602217229, 36.046414918689557 ], [ -104.761661591219791, 36.000687913373746 ], [ -104.723022579094106, 35.962399909625134 ], [ -104.722836574957512, 35.914090902155301 ], [ -104.67342755750758, 35.841657893676071 ], [ -104.624435545912277, 35.837614895775566 ], [ -104.601968539066817, 35.81757289390633 ], [ -104.613910539725268, 35.792642889361119 ], [ -104.594212534070067, 35.779153888352411 ], [ -104.107438421899644, 35.781550915644523 ], [ -104.122169421935212, 35.740805908417755 ], [ -104.149889426374202, 35.716845903119648 ], [ -104.261009450860001, 35.702075894686615 ], [ -104.386740475147903, 35.644670878760039 ], [ -104.373634471627113, 35.638616878528424 ], [ -104.367919470970051, 35.646643880102872 ], [ -104.364092469132146, 35.635041878490114 ], [ -104.338409463604265, 35.639869880657422 ], [ -104.324149457624856, 35.607152876292865 ], [ -104.294240450757911, 35.60760587800069 ], [ -104.302172451561191, 35.595068875592695 ], [ -104.278280446299505, 35.598179877388937 ], [ -104.283722446370462, 35.583702874810541 ], [ -104.268791441878207, 35.570939873613895 ], [ -104.255021438996195, 35.574592874941466 ], [ -104.263194439552166, 35.558293871924853 ], [ -104.238229432551279, 35.543174870899435 ], [ -104.248189433775494, 35.529961868270945 ], [ -104.236483431505945, 35.535298869750903 ], [ -104.216066424937054, 35.512558867268844 ], [ -104.216515423568822, 35.494441864380249 ], [ -104.238716427176044, 35.475681860208717 ], [ -104.225673423913449, 35.472602860429205 ], [ -104.218731423569665, 35.488142863263818 ], [ -104.189034417531232, 35.498314866484904 ], [ -104.210233420363949, 35.472826861301996 ], [ -104.198871417377092, 35.468370861212748 ], [ -104.219909421327984, 35.457121858292204 ], [ -104.192010413633497, 35.441697857360722 ], [ -104.19967641307845, 35.412868852378224 ], [ -104.185578407286982, 35.381396848148398 ], [ -104.223938415797377, 35.377021845386089 ], [ -104.224566414587841, 35.36016084267839 ], [ -104.256145421862328, 35.359959840944995 ], [ -104.270920426243052, 35.372041842062877 ], [ -104.294114431037485, 35.365116839714943 ], [ -104.305739431391814, 35.336136834497928 ], [ -104.286491426158491, 35.326227833963401 ], [ -104.308644431096297, 35.324092832432981 ], [ -104.312616431340075, 35.315701830889424 ], [ -104.298526427886927, 35.313148831242437 ], [ -104.313205430436781, 35.302716828799426 ], [ -104.29085742342609, 35.279458826310247 ], [ -104.322407430085818, 35.271767823397155 ], [ -104.358995435396992, 35.232625815226321 ], [ -104.355239433211366, 35.216010812790593 ], [ -105.291364647119352, 35.216350762496759 ], [ -105.290893633126871, 35.042098735334555 ], [ -105.714484728673071, 35.041567712537613 ], [ -105.715396742804828, 35.215525739388383 ], [ -105.738733746935694, 35.201655735980921 ], [ -105.786337757557291, 35.200679733245394 ], [ -105.780277755021686, 35.186106731327683 ], [ -105.851190769774121, 35.171560725238194 ], [ -105.969259795907917, 35.1674247181925 ], [ -105.96100979927489, 35.231988728555031 ], [ -105.934954798449951, 35.293743739449404 ], [ -105.942581807690814, 35.385901753141944 ], [ -105.972470814987886, 35.393172752608422 ], [ -106.004924821604277, 35.385197749603172 ], [ -106.036342829736995, 35.398556749911798 ], [ -106.074609836036714, 35.370996743599243 ], [ -106.077298834741413, 35.347858739920561 ], [ -106.188215857068187, 35.317865729250791 ], [ -106.215003863338808, 35.321449728324524 ], [ -106.211918864224927, 35.340672731420788 ], [ -106.248897875498344, 35.377511734985518 ], [ -106.248500880828587, 35.443204744981763 ], [ -106.325162899441551, 35.46160374351939 ], [ -106.356063905267874, 35.448870739877464 ], [ -106.355178898242684, 35.366167727398015 ], [ -106.340644894478814, 35.359739727225111 ], [ -106.359030893936648, 35.303242717636927 ], [ -106.344583889355803, 35.286535715892967 ], [ -106.352944889568022, 35.266346712365468 ], [ -106.401459897563257, 35.232062704494545 ], [ -106.410041906827232, 35.322110717692198 ], [ -106.473139922321977, 35.340076716934753 ], [ -106.455749917209133, 35.324850715588674 ], [ -106.472368920444111, 35.319294713831248 ], [ -106.464077917422784, 35.304900712107845 ], [ -106.474041919245678, 35.300145710838834 ], [ -106.495842924817467, 35.309078710990981 ], [ -106.492001924900308, 35.320481712928689 ], [ -106.509398929908301, 35.334443714081452 ], [ -106.539290936531856, 35.334343712416384 ], [ -106.548868937809047, 35.32403771033006 ], [ -106.572876943731274, 35.331331710107008 ], [ -106.544831936458209, 35.318489709714157 ], [ -106.548863936248154, 35.30503470745743 ], [ -106.573376941386627, 35.301429705561368 ], [ -106.632735950734997, 35.255024695279914 ], [ -106.608047944479537, 35.245359695175928 ], [ -106.625011945958207, 35.217438690021069 ], [ -106.603204941387347, 35.220596691695334 ], [ -106.668158952535109, 35.180940682134519 ], [ -106.679157953270519, 35.160040678370464 ], [ -106.725889964024546, 35.165296676607888 ], [ -106.728016961885615, 35.133120671626877 ], [ -106.786742978655241, 35.180002675494471 ], [ -106.798459984365238, 35.218346680632962 ], [ -107.196180071886999, 35.219328658871746 ], [ -107.239170088382878, 35.305373669323394 ], [ -107.496805144554443, 35.304110654814025 ], [ -107.498303143892244, 35.292168652962701 ], [ -107.541599151948191, 35.275556648096199 ], [ -107.558678156198738, 35.282000648099825 ], [ -107.565027154770021, 35.247979642713695 ], [ -107.589473160759326, 35.256113642559612 ], [ -107.603157162388158, 35.23979063938571 ], [ -107.534845146459489, 35.226841641257501 ], [ -107.542475143337469, 35.168592632198774 ], [ -107.589227153517896, 35.168727629636201 ], [ -107.593884153783307, 35.159607628027246 ], [ -107.624128160933012, 35.16664562739917 ], [ -107.656776166875929, 35.152626623519687 ], [ -107.659659165764737, 35.131392620216566 ], [ -107.629989155297466, 35.082043614535252 ], [ -107.751352182378227, 35.091273609224032 ], [ -107.751784180972663, 35.072871606477506 ], [ -107.770386185959339, 35.084614607190886 ], [ -107.792797189657236, 35.070427603859272 ], [ -107.815504190529978, 35.020677595252906 ], [ -107.804608185039754, 34.981977590120522 ], [ -107.82371318589594, 34.9413525830563 ], [ -107.871033191108481, 34.878903571218792 ], [ -107.903809197623957, 34.871870568392815 ], [ -107.918053198353959, 34.842563563274517 ], [ -107.909899194101797, 34.811331559084699 ], [ -107.989314203257152, 34.710913539886889 ], [ -108.028312211004106, 34.702670536561556 ], [ -108.043031215925922, 34.724838539055263 ], [ -108.141219238991823, 34.749439537390018 ], [ -108.202510254543952, 34.77948053850465 ] ] ] } },
{ "type": "Feature", "properties": { "district_id": 1, "voting_age_pop": 513262, "lib_votes": 0, "grn_votes": 0, "con_votes": 0, "ref_votes": 0, "total_pop": 693698, "dem_votes_sum": 88717, "rep_votes_sum": 120884, "lib_votes_sum": 0, "grn_votes_sum": 0, "con_votes_sum": 0, "ref_votes_sum": 0, "minority_pop_sum": 657292, "dem_pct": 0.42326611037161083, "rep_pct": 0.57673388962838923, "lib_pct": 0.0, "grn_pct": 0.0, "con_pct": 0.0, "ref_pct": 0.0, "minority_pct": 0.94751894916808177, "compactness": 0.26888752690977674 }, "geometry": { "type": "Polygon", "coordinates": [ [ [ -106.528251684290908, 31.78315315341202 ], [ -108.208404047339144, 31.78360408058246 ], [ -108.208583021045683, 31.333400009118879 ], [ -109.050049198438714, 31.332248973420477 ], [ -109.046071453719208, 35.020016527218523 ], [ -108.892215425070972, 35.067964542669351 ], [ -108.851394416470299, 35.06871554504793 ], [ -108.869654416323684, 35.019719536965709 ], [ -108.850358407320755, 34.959636529353993 ], [ -108.518969336730322, 34.958993547531556 ], [ -108.519292335598749, 34.944200545357283 ], [ -108.550141340984467, 34.929416541506114 ], [ -108.541347336927132, 34.902466538059279 ], [ -108.56621434127203, 34.890585534962518 ], [ -108.55827533862066, 34.878715533666195 ], [ -108.5737953410556, 34.867866531233354 ], [ -108.571757333928488, 34.784528519173953 ], [ -108.537679327828769, 34.799107523162441 ], [ -108.538019326769771, 34.784970521075863 ], [ -108.492994316575476, 34.777632522452087 ], [ -108.479807315490845, 34.799276526340186 ], [ -108.46745131279954, 34.798620526917048 ], [ -108.467645311675255, 34.784045524770839 ], [ -108.450567308032873, 34.784117525710514 ], [ -108.446246308281701, 34.798773528094195 ], [ -108.431845305204703, 34.798781528879395 ], [ -108.431660304004396, 34.784262526760237 ], [ -108.378791292707987, 34.784368529650614 ], [ -108.378850293874208, 34.798804531767175 ], [ -108.362362290338012, 34.798702532649287 ], [ -108.361691284394638, 34.725925521987513 ], [ -108.344345280671931, 34.725789522906737 ], [ -108.362226282198563, 34.69680151767205 ], [ -108.27328426318833, 34.697219522538987 ], [ -108.273510264414739, 34.712089524720241 ], [ -108.256246260692095, 34.711806525611678 ], [ -108.256039263527271, 34.748080530972608 ], [ -108.20198025444391, 34.779652538558715 ], [ -108.141219238991823, 34.749439537390018 ], [ -108.043031215925922, 34.724838539055263 ], [ -108.028312211004106, 34.702670536561556 ], [ -107.989722203324717, 34.710657539826855 ], [ -107.966224200006039, 34.732713544368913 ], [ -107.909899194101797, 34.811331559084699 ], [ -107.918053198353959, 34.842563563274517 ], [ -107.903809197623957, 34.871870568392815 ], [ -107.871033191108481, 34.878903571218792 ], [ -107.823881185909045, 34.941063583004258 ], [ -107.804608185039754, 34.981977590120522 ], [ -107.815504190529978, 35.020677595252906 ], [ -107.792567189624776, 35.070640603903463 ], [ -107.770386185959339, 35.084614607190886 ], [ -107.751784180972663, 35.072871606477506 ], [ -107.751352182378227, 35.091273609224032 ], [ -107.629989155297466, 35.082043614535252 ], [ -107.659659165764737, 35.131392620216566 ], [ -107.656776166875929, 35.152626623519687 ], [ -107.624128160933012, 35.16664562739917 ], [ -107.592825153560582, 35.159699628099418 ], [ -107.589227153517896, 35.168727629636201 ], [ -107.476740130055006, 35.181181637698174 ], [ -107.503927130288716, 35.111567625853517 ], [ -107.489710125221322, 35.087336623030154 ], [ -107.50588612794148, 35.077471620673812 ], [ -107.49109312387381, 35.067037619932336 ], [ -107.46676411908048, 35.073262622194029 ], [ -107.463505117140954, 35.058103620114117 ], [ -107.443638112489865, 35.054123620609339 ], [ -107.430728110467442, 35.063886622772536 ], [ -107.435756113030578, 35.08196862519253 ], [ -107.384827099870037, 35.056630624204452 ], [ -107.335832089786564, 35.064163628012388 ], [ -107.349387091222169, 35.045335624456669 ], [ -107.334900085610627, 35.015013620713795 ], [ -107.348205087857664, 35.006859618767692 ], [ -107.2029550505478, 34.937510616269549 ], [ -107.203022039388514, 34.796974595100444 ], [ -106.998125994529204, 34.797372606167038 ], [ -106.96603098599995, 34.778554605034344 ], [ -106.920393976386762, 34.783810608277257 ], [ -106.888151967653627, 34.762894606824688 ], [ -106.835033956813248, 34.773677611306155 ], [ -106.7913509420476, 34.707963603623682 ], [ -106.74508593052613, 34.69094860348708 ], [ -106.745402928312885, 34.661610598986037 ], [ -106.733209924943012, 34.652829598289848 ], [ -106.686083915756257, 34.668364603166637 ], [ -106.679042918085557, 34.718220611168668 ], [ -106.662979915813722, 34.73453461451853 ], [ -106.642371911150249, 34.733096615396008 ], [ -106.652109914114021, 34.74349661646805 ], [ -106.627290909524874, 34.754915619537279 ], [ -106.669466919167462, 34.759092617926612 ], [ -106.65231791840074, 34.79759362472408 ], [ -106.534352891914907, 34.792487630245887 ], [ -106.464553877617675, 34.807315636244716 ], [ -106.469984856639869, 34.52116859193972 ], [ -106.417482845048809, 34.521668594769316 ], [ -106.415870824882433, 34.259720554253398 ], [ -105.888330707550296, 34.26000858140759 ], [ -105.862169704550794, 34.298275588765932 ], [ -105.770429684416271, 34.303615594316511 ], [ -105.769879689761467, 34.376745605851298 ], [ -105.804559697572159, 34.377315604151946 ], [ -105.804069701779056, 34.434685613183746 ], [ -105.705739675395904, 34.376925609186401 ], [ -105.681269669887158, 34.376675610408029 ], [ -105.672339672014203, 34.431665619525475 ], [ -105.638879664740159, 34.434845621755827 ], [ -105.636759665350482, 34.449265624135272 ], [ -105.594525657089662, 34.465575628888857 ], [ -105.570650655173594, 34.511242637315675 ], [ -105.548241648023108, 34.48336663408822 ], [ -105.523299642027467, 34.478305634582242 ], [ -105.531197645752215, 34.50406263823227 ], [ -105.506726641619025, 34.52224064236588 ], [ -105.453968629707816, 34.521920645053349 ], [ -105.45390963103641, 34.539625647848382 ], [ -105.418749621980496, 34.524745647326064 ], [ -105.364899611032783, 34.540645652630396 ], [ -105.347979607923051, 34.550025654990328 ], [ -105.339489609062028, 34.590265661786049 ], [ -105.290308599200969, 34.606749666949085 ], [ -105.291364647119352, 35.216350762496759 ], [ -104.355239433211366, 35.216010812790593 ], [ -104.358995435396992, 35.232625815226321 ], [ -104.322407430085818, 35.271767823397155 ], [ -104.29085742342609, 35.279458826310247 ], [ -104.313205430436781, 35.302716828799426 ], [ -104.298526427886927, 35.313148831242437 ], [ -104.312616431340075, 35.315701830889424 ], [ -104.308644431096297, 35.324092832432981 ], [ -104.286491426158491, 35.326227833963401 ], [ -104.305739431391814, 35.336136834497928 ], [ -104.294114431037485, 35.365116839714943 ], [ -104.270920426243052, 35.372041842062877 ], [ -104.256145421862328, 35.359959840944995 ], [ -104.224566414587841, 35.36016084267839 ], [ -104.223938415797377, 35.377021845386089 ], [ -104.185578407286982, 35.381396848148398 ], [ -104.19967641307845, 35.412868852378224 ], [ -104.192010413633497, 35.441697857360722 ], [ -104.219909421327984, 35.457121858292204 ], [ -104.198871417377092, 35.468370861212748 ], [ -104.210233420363949, 35.472826861301996 ], [ -104.189034417531232, 35.498314866484904 ], [ -104.218731423569665, 35.488142863263818 ], [ -104.225673423913449, 35.472602860429205 ], [ -104.238716427176044, 35.475681860208717 ], [ -104.216515423568822, 35.494441864380249 ], [ -104.216066424937054, 35.512558867268844 ], [ -104.236483431505945, 35.535298869750903 ], [ -104.248189433775494, 35.529961868270945 ], [ -104.238229432551279, 35.543174870899435 ], [ -104.263194439552166, 35.558293871924853 ], [ -104.255021438996195, 35.574592874941466 ], [ -104.268791441878207, 35.570939873613895 ], [ -104.283722446370462, 35.583702874810541 ], [ -104.278280446299505, 35.598179877388937 ], [ -104.302172451561191, 35.595068875592695 ], [ -104.294240450757911, 35.60760587800069 ], [ -104.324149457624856, 35.607152876292865 ], [ -104.338409463604265, 35.639869880657422 ], [ -104.386809475148596, 35.644485878727281 ], [ -104.261009450860001, 35.702075894686615 ], [ -104.149889426374202, 35.716845903119648 ], [ -104.122169421935212, 35.740805908417755 ], [ -104.107438421899644, 35.781550915644523 ], [ -104.594212534070067, 35.779153888352411 ], [ -104.613910539725268, 35.792642889361119 ], [ -104.601968539066817, 35.81757289390633 ], [ -104.624435545912277, 35.837614895775566 ], [ -104.67342755750758, 35.841657893676071 ], [ -104.722836574957512, 35.914090902155301 ], [ -104.723022579094106, 35.962399909625134 ], [ -104.761661591219791, 36.000687913373746 ], [ -104.792574602217229, 36.046414918689557 ], [ -104.785272601068812, 36.052568920050767 ], [ -104.900943633425086, 36.120551923966339 ], [ -104.882505630608833, 36.136871927519543 ], [ -104.844738622327327, 36.141216930331552 ], [ -104.794498614123313, 36.179652939093707 ], [ -104.779178610483726, 36.178231939746325 ], [ -104.712670598705671, 36.218656949747007 ], [ -104.649664584200721, 36.218502953309113 ], [ -104.624506586323918, 36.309527968751482 ], [ -104.593257583538119, 36.360017978300789 ], [ -104.59956758643122, 36.37643098046042 ], [ -104.560901580952972, 36.415566988690259 ], [ -104.564458585941068, 36.462856995742733 ], [ -104.546584584075333, 36.488417000692586 ], [ -104.676977619196805, 36.545377001869426 ], [ -104.722222632495843, 36.577676004172048 ], [ -104.730478636730751, 36.603789007670862 ], [ -104.554318604760752, 36.700234032632714 ], [ -104.461733591260028, 36.78785505140516 ], [ -104.46212658357976, 36.701715038235818 ], [ -104.478502587241664, 36.70030703706599 ], [ -104.493790587954862, 36.668880031374329 ], [ -104.475537581164758, 36.640200028051105 ], [ -104.409446564979746, 36.630211030359668 ], [ -104.393226562086994, 36.639867032780636 ], [ -104.389429564951854, 36.681688039406545 ], [ -104.374178562416446, 36.69281104199689 ], [ -104.38022756834431, 36.743142049344286 ], [ -104.358925563146371, 36.740249050144918 ], [ -104.303223545468612, 36.687264045274318 ], [ -104.328971548422047, 36.653553038608663 ], [ -104.313995541083401, 36.610229032827121 ], [ -104.265646530973243, 36.622625037531265 ], [ -104.235985523483322, 36.615829038203174 ], [ -104.216709517264434, 36.596233036302209 ], [ -104.177475508304866, 36.59796703883606 ], [ -104.148126503930897, 36.625494044773291 ], [ -104.150321507007192, 36.654287049080452 ], [ -104.116517499123816, 36.65405705100261 ], [ -104.106414489584154, 36.573176039112703 ], [ -104.008602466304851, 36.567433043858344 ], [ -104.007864504717688, 36.996245109894893 ], [ -103.002208268321937, 37.000110169343479 ], [ -103.002299224102089, 36.500893090896021 ], [ -103.041932233436611, 36.500356088566647 ], [ -103.043487038963335, 34.020444684974599 ], [ -103.064647975150677, 33.000111511269679 ], [ -103.064430913787433, 32.00052233839579 ], [ -106.618495717060753, 32.000500184992831 ], [ -106.639545720456354, 31.980348180788916 ], [ -106.619578715553473, 31.971582180235622 ], [ -106.625132715744328, 31.954535177215185 ], [ -106.614330713202179, 31.951620177212178 ], [ -106.629751715076921, 31.926572172455685 ], [ -106.611856710762751, 31.92000817216546 ], [ -106.645487716852699, 31.898674167220999 ], [ -106.62920071239094, 31.88370416548733 ], [ -106.635931712823492, 31.866242162345003 ], [ -106.602052704102078, 31.844411160248836 ], [ -106.602815703117642, 31.825023157046772 ], [ -106.547149689864256, 31.807304156553265 ], [ -106.528251684290908, 31.78315315341202 ] ] ] } },
{ "type": "Feature", "properties": { "district_id": 2, "voting_age_pop": 528446, "lib_votes": 0, "grn_votes": 0, "con_votes": 0, "ref_votes": 0, "total_pop": 692882, "dem_votes_sum": 145186, "rep_votes_sum": 100395, "lib_votes_sum": 0, "grn_votes_sum": 0, "con_votes_sum": 0, "ref_votes_sum": 0, "minority_pop_sum": 672977, "dem_pct": 0.59119394415691773, "rep_pct": 0.40880605584308233, "lib_pct": 0.0, "grn_pct": 0.0, "con_pct": 0.0, "ref_pct": 0.0, "minority_pct": 0.97127216466873145, "compactness": 0.23677219706989225 }, "geometry": { "type": "Polygon", "coordinates": [ [ [ -106.679042918085557, 34.718220611168668 ], [ -106.694948917181677, 34.661538601651529 ], [ -106.738241926054172, 34.652853598026709 ], [ -106.74508593052613, 34.69094860348708 ], [ -106.7913509420476, 34.707963603623682 ], [ -106.835033956813248, 34.773677611306155 ], [ -106.888151967653627, 34.762894606824688 ], [ -106.920393976386762, 34.783810608277257 ], [ -106.96603098599995, 34.778554605034344 ], [ -106.998125994529204, 34.797372606167038 ], [ -107.203022039388514, 34.796974595100444 ], [ -107.2029550505478, 34.937510616269549 ], [ -107.348205087857664, 35.006859618767692 ], [ -107.334900085610627, 35.015013620713795 ], [ -107.349387091222169, 35.045335624456669 ], [ -107.337058090104179, 35.064779628037371 ], [ -107.384827099870037, 35.056630624204452 ], [ -107.435756113030578, 35.08196862519253 ], [ -107.430728110467442, 35.063886622772536 ], [ -107.443638112489865, 35.054123620609339 ], [ -107.463505117140954, 35.058103620114117 ], [ -107.46676411908048, 35.073262622194029 ], [ -107.500859126475447, 35.072894620268528 ], [ -107.489710125221322, 35.087336623030154 ], [ -107.5028221306641, 35.119125627038059 ], [ -107.482070128398419, 35.146741632286485 ], [ -107.485735130958659, 35.168286635285931 ], [ -107.47679612900599, 35.168222635769823 ], [ -107.476740130055006, 35.181181637698174 ], [ -107.547981144697872, 35.170573632188585 ], [ -107.534845146459489, 35.226841641257501 ], [ -107.559183151631558, 35.225324639683812 ], [ -107.60296216277689, 35.245017640169578 ], [ -107.589473160759326, 35.256113642559612 ], [ -107.565027154770021, 35.247979642713695 ], [ -107.558678156198738, 35.282000648099825 ], [ -107.541599151948191, 35.275556648096199 ], [ -107.498303143892244, 35.292168652962701 ], [ -107.496805144554443, 35.304110654814025 ], [ -107.239170088382878, 35.305373669323394 ], [ -107.196180071886999, 35.219328658871746 ], [ -106.798459984365238, 35.218346680632962 ], [ -106.786742978655241, 35.180002675494471 ], [ -106.728016961885615, 35.133120671626877 ], [ -106.725889964024546, 35.165296676607888 ], [ -106.679157953270519, 35.160040678370464 ], [ -106.668158952535109, 35.180940682134519 ], [ -106.603204941387347, 35.220596691695334 ], [ -106.625011945958207, 35.217438690021069 ], [ -106.608047944479537, 35.245359695175928 ], [ -106.632735950734997, 35.255024695279914 ], [ -106.573376941386627, 35.301429705561368 ], [ -106.548863936248154, 35.30503470745743 ], [ -106.544831936458209, 35.318489709714157 ], [ -106.561441940536099, 35.323297709524525 ], [ -106.572876943731274, 35.331331710107008 ], [ -106.548868937809047, 35.32403771033006 ], [ -106.539290936531856, 35.334343712416384 ], [ -106.509398929908301, 35.334443714081452 ], [ -106.492001924900308, 35.320481712928689 ], [ -106.495842924817467, 35.309078710990981 ], [ -106.474041919245678, 35.300145710838834 ], [ -106.464077917422784, 35.304900712107845 ], [ -106.472368920444111, 35.319294713831248 ], [ -106.455749917209133, 35.324850715588674 ], [ -106.473139922321977, 35.340076716934753 ], [ -106.410041906827232, 35.322110717692198 ], [ -106.401459897563257, 35.232062704494545 ], [ -106.352944889568022, 35.266346712365468 ], [ -106.344583889355803, 35.286535715892967 ], [ -106.359030893936648, 35.303242717636927 ], [ -106.340644894478814, 35.359739727225111 ], [ -106.355178898242684, 35.366167727398015 ], [ -106.356063905267874, 35.448870739877464 ], [ -106.325162899441551, 35.46160374351939 ], [ -106.248500880828587, 35.443204744981763 ], [ -106.248897875498344, 35.377511734985518 ], [ -106.211918864224927, 35.340672731420788 ], [ -106.215003863338808, 35.321449728324524 ], [ -106.188215857068187, 35.317865729250791 ], [ -106.077298834741413, 35.347858739920561 ], [ -106.074609836036714, 35.370996743599243 ], [ -106.036342829736995, 35.398556749911798 ], [ -106.004924821604277, 35.385197749603172 ], [ -105.972470814987886, 35.393172752608422 ], [ -105.942581807690814, 35.385901753141944 ], [ -105.934954798449951, 35.293743739449404 ], [ -105.96100979927489, 35.231988728555031 ], [ -105.969259795907917, 35.1674247181925 ], [ -105.851190769774121, 35.171560725238194 ], [ -105.780277755021686, 35.186106731327683 ], [ -105.786337757557291, 35.200679733245394 ], [ -105.738733746935694, 35.201655735980921 ], [ -105.715396742804828, 35.215525739388383 ], [ -105.714484728673071, 35.041567712537613 ], [ -105.290893633126871, 35.042098735334555 ], [ -105.290308599200969, 34.606749666949085 ], [ -105.339489609062028, 34.590265661786049 ], [ -105.347979607923051, 34.550025654990328 ], [ -105.364899611032783, 34.540645652630396 ], [ -105.418749621980496, 34.524745647326064 ], [ -105.45390963103641, 34.539625647848382 ], [ -105.453968629707816, 34.521920645053349 ], [ -105.506726641619025, 34.52224064236588 ], [ -105.531197645752215, 34.50406263823227 ], [ -105.523299642027467, 34.478305634582242 ], [ -105.548241648023108, 34.48336663408822 ], [ -105.570650655173594, 34.511242637315675 ], [ -105.594525657089662, 34.465575628888857 ], [ -105.636759665350482, 34.449265624135272 ], [ -105.638879664740159, 34.434845621755827 ], [ -105.672339672014203, 34.431665619525475 ], [ -105.681269669887158, 34.376675610408029 ], [ -105.705739675395904, 34.376925609186401 ], [ -105.804069701779056, 34.434685613183746 ], [ -105.804559697572159, 34.377315604151946 ], [ -105.769879689761467, 34.376745605851298 ], [ -105.770429684416271, 34.303615594316511 ], [ -105.862169704550794, 34.298275588765932 ], [ -105.888330707550296, 34.26000858140759 ], [ -106.415870824882433, 34.259720554253398 ], [ -106.417482845048809, 34.521668594769316 ], [ -106.469984856639869, 34.52116859193972 ], [ -106.464553877617675, 34.807315636244716 ], [ -106.534352891914907, 34.792487630245887 ], [ -106.65231791840074, 34.79759362472408 ], [ -106.669466919167462, 34.759092617926612 ], [ -106.627063909525788, 34.755568619649303 ], [ -106.652109914114021, 34.74349661646805 ], [ -106.642371911150249, 34.733096615396008 ], [ -106.662979915813722, 34.73453461451853 ], [ -106.679042918085557, 34.718220611168668 ] ] ] } }
]
}
