{
"type": "FeatureCollection",
"name": "new_mexico_optimized_districts_race",
"crs": { "type": "name", "properties": { "name": "urn:ogc:def:crs:OGC:1.3:CRS84" } },
"features": [
{ "type": "Feature", "properties": { "district_id": 0, "voting_age_pop": 527885, "lib_votes": 0, "grn_votes": 0, "con_votes": 0, "ref_votes": 0, "total_pop": 696409, "dem_votes_sum": 150020, "rep_votes_sum": 101917, "lib_votes_sum": 0, "grn_votes_sum": 0, "con_votes_sum": 0, "ref_votes_sum": 0, "minority_pop_sum": 663776, "dem_pct": 0.59546632689918511, "rep_pct": 0.40453367310081489, "lib_pct": 0.0, "grn_pct": 0.0, "con_pct": 0.0, "ref_pct": 0.0, "minority_pct": 0.95314104211749129, "compactness": 0.29181049324471653 }, "geometry": { "type": "Polygon", "coordinates": [ [ [ -106.663676932711823, 34.946797646857128 ], [ -106.725321946330141, 34.946852643536921 ], [ -106.727209947528365, 34.956656644924273 ], [ -106.945679995710265, 34.957366633210235 ], [ -106.925595993272793, 34.982101638037499 ], [ -106.926544995832941, 35.011426642416204 ], [ -106.952890005535195, 35.059995648310647 ], [ -106.942362008131241, 35.120742658038033 ], [ -106.952408011512546, 35.135183659661756 ], [ -106.940992010116474, 35.148917662353902 ], [ -106.95340701833932, 35.216293671800507 ], [ -106.974912024179304, 35.229851672651307 ], [ -106.973354028470709, 35.286328681206832 ], [ -106.907965015202848, 35.300032686877934 ], [ -106.857638003593124, 35.293730688713936 ], [ -106.857164004588938, 35.30710769074944 ], [ -106.672440963725222, 35.306328700837398 ], [ -106.653911958148953, 35.288337699145082 ], [ -106.696909965643854, 35.263724693062166 ], [ -106.680366962105367, 35.265188694194002 ], [ -106.669029957998774, 35.245634691865533 ], [ -106.607332946032585, 35.26630169838171 ], [ -106.59508894449921, 35.280703701232561 ], [ -106.583388938425017, 35.238096695431572 ], [ -106.613452942441214, 35.205671688874368 ], [ -106.606876939334995, 35.185371686160934 ], [ -106.598689939034571, 35.203976689426938 ], [ -106.577773934211564, 35.201635690218467 ], [ -106.574056934715415, 35.217948692893188 ], [ -106.402409896582114, 35.21740170221404 ], [ -106.413295898254887, 35.208215700221764 ], [ -106.405380895139487, 35.191499698112537 ], [ -106.347681880023089, 35.163229696957707 ], [ -106.366316881670613, 35.132315691230218 ], [ -106.411820893097214, 35.148594691231807 ], [ -106.436191896795165, 35.12735868667091 ], [ -106.425893894589166, 35.12835868738388 ], [ -106.424306891269666, 35.091521681858225 ], [ -106.397589885824033, 35.097593684235434 ], [ -106.395085883895774, 35.080524681767997 ], [ -106.423572889026246, 35.065621677949267 ], [ -106.488769903079941, 35.060470673627272 ], [ -106.479974899701176, 35.042660671390649 ], [ -106.462789895913403, 35.042962672367878 ], [ -106.462838892687444, 35.002487666191307 ], [ -106.479940895596314, 34.991410663576765 ], [ -106.510371902233274, 34.990044661724227 ], [ -106.579443920760838, 35.030419664135167 ], [ -106.644183932986635, 35.004228656644599 ], [ -106.663676932711823, 34.946797646857128 ] ] ] } },
{ "type": "Feature", "properties": { "district_id": 1, "voting_age_pop": 506271, "lib_votes": 0, "grn_votes": 0, "con_votes": 0, "ref_votes": 0, "total_pop": 685528, "dem_votes_sum": 86875, "rep_votes_sum": 119782, "lib_votes_sum": 0, "grn_votes_sum": 0, "con_votes_sum": 0, "ref_votes_sum": 0, "minority_pop_sum": 643935, "dem_pct": 0.42038256628132609, "rep_pct": 0.57961743371867391, "lib_pct": 0.0, "grn_pct": 0.0, "con_pct": 0.0, "ref_pct": 0.0, "minority_pct": 0.93932705885098788, "compactness": 0.27386625969449541 }, "geometry": { "type": "Polygon", "coordinates": [ [ [ -106.528251684290908, 31.78315315341202 ], [ -108.208404047339144, 31.78360408058246 ], [ -108.208583021045683, 31.333400009118879 ], [ -109.050049198438714, 31.332248973420477 ], [ -109.046166418269195, 34.579296463538803 ], [ -108.387287278243321, 34.578642498906085 ], [ -108.367309270924423, 34.539701494226129 ], [ -108.370472269420674, 34.511767489927976 ], [ -108.345263262212555, 34.488410487817688 ], [ -108.287440248665533, 34.473277488656088 ], [ -108.258102239472251, 34.435691484637807 ], [ -108.317370252047652, 34.434271481279886 ], [ -108.318077248890759, 34.39142847488479 ], [ -108.371984258391578, 34.36516246813288 ], [ -108.374476255691036, 34.323056461750852 ], [ -108.355243251407074, 34.320772462426042 ], [ -108.349284243748116, 34.237096450292739 ], [ -108.315322230186666, 34.153843439654487 ], [ -108.315392228889792, 34.136437437051278 ], [ -108.347732232943429, 34.09846542969639 ], [ -108.320817226738058, 34.092385430185608 ], [ -108.314583222263153, 34.050403424228321 ], [ -108.298315218941894, 34.052476425380789 ], [ -108.301543217833114, 34.028379421604775 ], [ -108.228176199926892, 33.998569420920575 ], [ -108.204253192693244, 33.97007541787076 ], [ -108.193890187235084, 33.926256411810357 ], [ -108.332099215917069, 33.914574402965307 ], [ -108.308820206071843, 33.848314394200408 ], [ -108.349334210859269, 33.795569384200114 ], [ -108.350735208609848, 33.760610378866822 ], [ -108.297795193196734, 33.703888372996644 ], [ -108.273949187573479, 33.69653937309171 ], [ -108.265108184411332, 33.678903370872774 ], [ -108.276054184899067, 33.653240366440969 ], [ -108.233247173715682, 33.624872364300813 ], [ -108.190925158173471, 33.533971352629834 ], [ -108.162307151005407, 33.519226351815547 ], [ -108.141439146918401, 33.524540353664015 ], [ -108.151073147580504, 33.504831350185107 ], [ -108.114046136367989, 33.458351344944887 ], [ -108.120399136252587, 33.437435341440327 ], [ -108.109314132911678, 33.423681339890578 ], [ -108.081289126524723, 33.418182340437205 ], [ -108.034467117961896, 33.439060345943183 ], [ -108.000609110390812, 33.434639346942546 ], [ -108.000612113450188, 33.478019353574346 ], [ -107.712723051448876, 33.476897367667142 ], [ -107.716784099014063, 34.119960465637476 ], [ -107.439449035501326, 34.073889472932748 ], [ -107.253885998050166, 34.113177488485235 ], [ -107.275900003121606, 34.11686748791697 ], [ -107.300469012646616, 34.172786495200185 ], [ -107.291816014111618, 34.217470502471457 ], [ -107.259483008198544, 34.232554506450946 ], [ -107.251555005283294, 34.216760504449724 ], [ -107.216324997086318, 34.209921505229119 ], [ -107.214134995267599, 34.19203050260576 ], [ -107.189878990575323, 34.200051505087686 ], [ -107.156774987475757, 34.255030515215154 ], [ -107.105358979559512, 34.299078524625024 ], [ -106.922952938774571, 34.288072532414766 ], [ -106.923169943487565, 34.349843541887495 ], [ -106.865613937200138, 34.43342055771177 ], [ -106.847851931227609, 34.406254554473584 ], [ -106.837510929995062, 34.419928557112726 ], [ -106.781046917471372, 34.418563559854768 ], [ -106.843998925585552, 34.343031544963679 ], [ -106.734908896444111, 34.274737540105427 ], [ -106.705108893756559, 34.326236549595734 ], [ -106.673800881916847, 34.260509541067364 ], [ -106.607789868121031, 34.270658546047834 ], [ -106.605684866204442, 34.251270543154867 ], [ -106.565450856715671, 34.243137543969731 ], [ -106.543021852943866, 34.258937547576025 ], [ -106.529184854283642, 34.317543557372723 ], [ -106.48580884580862, 34.332363561915393 ], [ -106.477402845578794, 34.35399056570219 ], [ -106.48777885174627, 34.405207573091793 ], [ -106.512373857162103, 34.404887571761826 ], [ -106.521612861093956, 34.429780575127772 ], [ -106.725562922182789, 34.638984596576719 ], [ -106.723428922802071, 34.653028598838972 ], [ -106.745402928312885, 34.661610598986037 ], [ -106.748857932727276, 34.708512605969489 ], [ -106.72742193362464, 34.780355618077891 ], [ -106.715140932758516, 34.803806622311278 ], [ -106.684299925704053, 34.80065762348125 ], [ -106.667263923105281, 34.815438626648707 ], [ -106.663017924473081, 34.844693631339403 ], [ -106.684934929553989, 34.847742630628481 ], [ -106.685729931673549, 34.872339634333954 ], [ -106.72038993924329, 34.871310632314362 ], [ -106.685898934390408, 34.906155639474207 ], [ -106.432096877982261, 34.903272652683107 ], [ -106.410983872208362, 34.889499651707155 ], [ -106.410986870690223, 34.870259648758761 ], [ -106.360710859528623, 34.870265651452748 ], [ -106.289610847906701, 34.923212663390117 ], [ -106.27888984475932, 34.913574662485921 ], [ -106.276506843897764, 34.90938266197 ], [ -106.274572843347102, 34.907859661839851 ], [ -106.234784838095749, 34.953399670969731 ], [ -106.120979812723533, 34.953355677076878 ], [ -106.120739813823135, 34.967905679329156 ], [ -106.051039798259708, 34.967905683073369 ], [ -106.051849795187067, 34.926775676688194 ], [ -106.025969789401955, 34.926745678069558 ], [ -106.026089784976307, 34.870205669330609 ], [ -105.891629754873065, 34.869915676455228 ], [ -105.884359754358229, 34.884105679042008 ], [ -105.782089733427924, 34.90958568844863 ], [ -105.778053738660148, 34.987401700732384 ], [ -105.863548757014982, 34.976959694532077 ], [ -105.817576748920402, 35.004933701326991 ], [ -105.664059714691803, 35.008285710082227 ], [ -105.682824721553828, 35.041576714240371 ], [ -105.290893633126871, 35.042098735334555 ], [ -105.291364647119352, 35.216350762496759 ], [ -104.355239433211366, 35.216010812790593 ], [ -104.358995435396992, 35.232625815226321 ], [ -104.322407430085818, 35.271767823397155 ], [ -104.29085742342609, 35.279458826310247 ], [ -104.313205430436781, 35.302716828799426 ], [ -104.298526427886927, 35.313148831242437 ], [ -104.312616431340075, 35.315701830889424 ], [ -104.308644431096297, 35.324092832432981 ], [ -104.286491426158491, 35.326227833963401 ], [ -104.305739431391814, 35.336136834497928 ], [ -104.294114431037485, 35.365116839714943 ], [ -104.270920426243052, 35.372041842062877 ], [ -104.256145421862328, 35.359959840944995 ], [ -104.224566414587841, 35.36016084267839 ], [ -104.223938415797377, 35.377021845386089 ], [ -104.185578407286982, 35.381396848148398 ], [ -104.19967641307845, 35.412868852378224 ], [ -104.192010413633497, 35.441697857360722 ], [ -104.219909421327984, 35.457121858292204 ], [ -104.198871417377092, 35.468370861212748 ], [ -104.210233420363949, 35.472826861301996 ], [ -104.189034417531232, 35.498314866484904 ], [ -104.218731423569665, 35.488142863263818 ], [ -104.225673423913449, 35.472602860429205 ], [ -104.238716427176044, 35.475681860208717 ], [ -104.216515423568822, 35.494441864380249 ], [ -104.216066424937054, 35.512558867268844 ], [ -104.236483431505945, 35.535298869750903 ], [ -104.248189433775494, 35.529961868270945 ], [ -104.238229432551279, 35.543174870899435 ], [ -104.263194439552166, 35.558293871924853 ], [ -104.255021438996195, 35.574592874941466 ], [ -104.268791441878207, 35.570939873613895 ], [ -104.283722446370462, 35.583702874810541 ], [ -104.278280446299505, 35.598179877388937 ], [ -104.302172451561191, 35.595068875592695 ], [ -104.294240450757911, 35.60760587800069 ], [ -104.324149457624856, 35.607152876292865 ], [ -104.338409463604265, 35.639869880657422 ], [ -104.364092469132146, 35.635041878490114 ], [ -104.367919470970051, 35.646643880102872 ], [ -104.373634471627113, 35.638616878528424 ], [ -104.386740475147903, 35.644670878760039 ], [ -104.261009450860001, 35.702075894686615 ], [ -104.149889426374202, 35.716845903119648 ], [ -104.122169421935212, 35.740805908417755 ], [ -104.105166422146652, 35.790862917235337 ], [ -104.067013413737442, 35.796131920169366 ], [ -104.066130414727894, 35.810505922481227 ], [ -104.030299406410364, 35.810468924452941 ], [ -104.030268410037834, 35.85409393132332 ], [ -104.066231418438718, 35.854742929435588 ], [ -104.0662124208027, 35.883070933889627 ], [ -103.998970405216568, 35.883383937664952 ], [ -103.998993407624383, 35.912073942176541 ], [ -104.012540410787608, 35.912265941455054 ], [ -104.01281141317294, 35.939931945787642 ], [ -104.030397417370196, 35.941267945019909 ], [ -104.032588419082813, 35.955577947144768 ], [ -103.945712397875837, 35.943497950076306 ], [ -103.944648398366041, 35.952276951516183 ], [ -103.93979939815847, 35.963219953506446 ], [ -103.937256397676663, 35.964524953853108 ], [ -103.939352396909754, 35.94960595139036 ], [ -103.915947390664869, 35.940083951191902 ], [ -103.916171392884053, 35.965870955237101 ], [ -103.909955390289241, 35.952213953433748 ], [ -103.899366388225161, 35.956978954771891 ], [ -103.901123387569882, 35.944309952680072 ], [ -103.881969382977232, 35.942713953491982 ], [ -103.887692385126456, 35.952442954706328 ], [ -103.875334382554783, 35.95608195596558 ], [ -103.890054387204984, 35.970625957437143 ], [ -103.87494638400905, 35.974452958879354 ], [ -103.879527386129112, 35.986963960593386 ], [ -103.907488393649317, 35.998947960921676 ], [ -103.892054390361139, 36.002564962349943 ], [ -103.894645391928876, 36.013991964002074 ], [ -103.925881400970979, 36.034939965550727 ], [ -103.907314396764363, 36.036303966801206 ], [ -103.882995388219683, 36.002184962794715 ], [ -103.881017387777021, 36.00239896293845 ], [ -103.877923387536171, 36.008084964004979 ], [ -103.875844387122299, 36.00891896425194 ], [ -103.864268383564664, 35.998706963290246 ], [ -103.848598375011093, 35.940394954978203 ], [ -103.827994371346122, 35.953927958254454 ], [ -103.822817368869025, 35.938781956153619 ], [ -103.809564366587566, 35.948409958406955 ], [ -103.793890361659138, 35.933207956877695 ], [ -103.768556355349546, 35.928409957523648 ], [ -103.765713355398603, 35.936914959023937 ], [ -103.752502351721262, 35.929802958632592 ], [ -103.720809343810586, 35.923650959414715 ], [ -103.742987350520494, 35.941975961082285 ], [ -103.761690355067358, 35.94416096039086 ], [ -103.775440357694947, 35.937243958536989 ], [ -103.791820361369773, 35.935514957356503 ], [ -103.772505357444217, 35.942420959516795 ], [ -103.782682360661042, 35.952476960539471 ], [ -103.767565358066108, 35.963570963128426 ], [ -103.768293356874551, 35.947344960527495 ], [ -103.747817353572628, 35.964929964438554 ], [ -103.806132371716998, 36.018886969703161 ], [ -103.807260373462739, 36.036446972404384 ], [ -103.79207636842817, 36.018759970465794 ], [ -103.774629365681633, 36.034439973906949 ], [ -103.777104365083545, 36.020512971575478 ], [ -103.765945362790958, 36.02420097277772 ], [ -103.765101365620467, 36.060017978465446 ], [ -103.788840372058502, 36.070630978810556 ], [ -103.78080737146179, 36.085703981630118 ], [ -103.553219318333674, 36.086651994479567 ], [ -103.552697319528676, 36.102214996966886 ], [ -103.53239131532959, 36.108807999140808 ], [ -103.532305317360425, 36.132995002965082 ], [ -103.481599307573859, 36.157745009706488 ], [ -103.48102930967201, 36.183974013879478 ], [ -103.502887317510726, 36.215758017668207 ], [ -103.48805431489788, 36.225902020099575 ], [ -103.507412322566353, 36.262424024766133 ], [ -103.506409328897178, 36.338757036830295 ], [ -103.419399311916777, 36.378757048036128 ], [ -103.325066290249069, 36.384804054319524 ], [ -103.324427285931449, 36.336485046738545 ], [ -103.310359282124551, 36.33072804662271 ], [ -103.184504252667764, 36.333077054076298 ], [ -103.185426247907046, 36.274987044829338 ], [ -103.131523235178918, 36.274865047830566 ], [ -103.131297236370258, 36.289424050151403 ], [ -103.041513215198094, 36.289859055251071 ], [ -103.043487038963335, 34.020444684974599 ], [ -103.064647975150677, 33.000111511269679 ], [ -103.064430913787433, 32.00052233839579 ], [ -106.618495717060753, 32.000500184992831 ], [ -106.639545720456354, 31.980348180788916 ], [ -106.619578715553473, 31.971582180235622 ], [ -106.625132715744328, 31.954535177215185 ], [ -106.614330713202179, 31.951620177212178 ], [ -106.629751715076921, 31.926572172455685 ], [ -106.611856710762751, 31.92000817216546 ], [ -106.645487716852699, 31.898674167220999 ], [ -106.62920071239094, 31.88370416548733 ], [ -106.635931712823492, 31.866242162345003 ], [ -106.602052704102078, 31.844411160248836 ], [ -106.602815703117642, 31.825023157046772 ], [ -106.547149689864256, 31.807304156553265 ], [ -106.528251684290908, 31.78315315341202 ] ] ] } },
{ "type": "Feature", "properties": { "district_id": 2, "voting_age_pop": 506351, "lib_votes": 0, "grn_votes": 0, "con_votes": 0, "ref_votes": 0, "total_pop": 677242, "dem_votes_sum": 148339, "rep_votes_sum": 97968, "lib_votes_sum": 0, "grn_votes_sum": 0, "con_votes_sum": 0, "ref_votes_sum": 0, "minority_pop_sum": 713140, "dem_pct": 0.60225247353911993, "rep_pct": 0.39774752646088013, "lib_pct": 0.0, "grn_pct": 0.0, "con_pct": 0.0, "ref_pct": 0.0, "minority_pct": 1.0530061632326406, "compactness": 0.23792137771359309 }, "geometry": { "type": "Polygon", "coordinates": [ [ [ -107.716697098952707, 34.119390465555604 ], [ -107.712723051448876, 33.476897367667142 ], [ -108.000612113450188, 33.478019353574346 ], [ -108.000609110390812, 33.434639346942546 ], [ -108.034243117916574, 33.439098345960033 ], [ -108.080565126377238, 33.418289340489309 ], [ -108.101586131045508, 33.420669339813166 ], [ -108.151043147568089, 33.504746350173662 ], [ -108.141439146918401, 33.524540353664015 ], [ -108.162307151005407, 33.519226351815547 ], [ -108.190925158173471, 33.533971352629834 ], [ -108.233247173715682, 33.624872364300813 ], [ -108.276054184899067, 33.653240366440969 ], [ -108.265108184411332, 33.678903370872774 ], [ -108.273949187573479, 33.69653937309171 ], [ -108.297795193196734, 33.703888372996644 ], [ -108.352800209402034, 33.765441379489381 ], [ -108.349334210859269, 33.795569384200114 ], [ -108.308820206071843, 33.848314394200408 ], [ -108.332099215917069, 33.914574402965307 ], [ -108.193890187235084, 33.926256411810357 ], [ -108.205520193135598, 33.972385418152889 ], [ -108.233071201254006, 34.002334421233485 ], [ -108.301543217833114, 34.028379421604775 ], [ -108.298315218941894, 34.052476425380789 ], [ -108.314583222263153, 34.050403424228321 ], [ -108.320817226738058, 34.092385430185608 ], [ -108.340993230974533, 34.091406428991633 ], [ -108.348866233765975, 34.10619443079208 ], [ -108.317191229074638, 34.133786436561529 ], [ -108.315322230186666, 34.153843439654487 ], [ -108.349284243748116, 34.237096450292739 ], [ -108.355243251407074, 34.320772462426042 ], [ -108.374476255691036, 34.323056461750852 ], [ -108.371984258391578, 34.36516246813288 ], [ -108.318077248890759, 34.39142847488479 ], [ -108.317370252047652, 34.434271481279886 ], [ -108.25872223953499, 34.434786484470578 ], [ -108.267949243229381, 34.456988487276618 ], [ -108.352632264086083, 34.492239487991476 ], [ -108.370946269569984, 34.512383489993724 ], [ -108.367309270924423, 34.539701494226129 ], [ -108.387287278243321, 34.578642498906085 ], [ -109.046166418269195, 34.579296463538803 ], [ -109.045233630460558, 36.999089804680352 ], [ -103.002208268321937, 37.000110169343479 ], [ -103.002299224102089, 36.500893090896021 ], [ -103.041932233436611, 36.500356088566647 ], [ -103.041513215198094, 36.289859055251071 ], [ -103.131297236370258, 36.289424050151403 ], [ -103.131523235178918, 36.274865047830566 ], [ -103.185426247907046, 36.274987044829338 ], [ -103.184504252667764, 36.333077054076298 ], [ -103.310359282124551, 36.33072804662271 ], [ -103.324427285931449, 36.336485046738545 ], [ -103.325066290249069, 36.384804054319524 ], [ -103.419399311916777, 36.378757048036128 ], [ -103.506409328897178, 36.338757036830295 ], [ -103.507412322566353, 36.262424024766133 ], [ -103.48805431489788, 36.225902020099575 ], [ -103.502887317510726, 36.215758017668207 ], [ -103.48102930967201, 36.183974013879478 ], [ -103.481599307573859, 36.157745009706488 ], [ -103.532305317360425, 36.132995002965082 ], [ -103.53239131532959, 36.108807999140808 ], [ -103.552697319528676, 36.102214996966886 ], [ -103.553219318333674, 36.086651994479567 ], [ -103.78080737146179, 36.085703981630118 ], [ -103.788840372058502, 36.070630978810556 ], [ -103.765101365620467, 36.060017978465446 ], [ -103.765945362790958, 36.02420097277772 ], [ -103.777104365083545, 36.020512971575478 ], [ -103.774629365681633, 36.034439973906949 ], [ -103.79207636842817, 36.018759970465794 ], [ -103.807260373462739, 36.036446972404384 ], [ -103.806132371716998, 36.018886969703161 ], [ -103.747817353572628, 35.964929964438554 ], [ -103.768293356874551, 35.947344960527495 ], [ -103.764292356479217, 35.953759961761818 ], [ -103.767565358066108, 35.963570963128426 ], [ -103.782682360661042, 35.952476960539471 ], [ -103.772505357444217, 35.942420959516795 ], [ -103.791820361369773, 35.935514957356503 ], [ -103.742987350520494, 35.941975961082285 ], [ -103.720809343810586, 35.923650959414715 ], [ -103.765713355398603, 35.936914959023937 ], [ -103.768556355349546, 35.928409957523648 ], [ -103.793890361659138, 35.933207956877695 ], [ -103.809564366587566, 35.948409958406955 ], [ -103.822817368869025, 35.938781956153619 ], [ -103.827994371346122, 35.953927958254454 ], [ -103.848598375011093, 35.940394954978203 ], [ -103.864268383564664, 35.998706963290246 ], [ -103.875844387122299, 36.00891896425194 ], [ -103.882995388219683, 36.002184962794715 ], [ -103.907314396764363, 36.036303966801206 ], [ -103.925881400970979, 36.034939965550727 ], [ -103.894645391928876, 36.013991964002074 ], [ -103.892054390361139, 36.002564962349943 ], [ -103.907488393649317, 35.998947960921676 ], [ -103.879527386129112, 35.986963960593386 ], [ -103.87494638400905, 35.974452958879354 ], [ -103.890054387204984, 35.970625957437143 ], [ -103.875334382554783, 35.95608195596558 ], [ -103.887692385126456, 35.952442954706328 ], [ -103.881969382977232, 35.942713953491982 ], [ -103.901123387569882, 35.944309952680072 ], [ -103.899366388225161, 35.956978954771891 ], [ -103.909955390289241, 35.952213953433748 ], [ -103.916171392884053, 35.965870955237101 ], [ -103.915947390664869, 35.940083951191902 ], [ -103.939352396909754, 35.94960595139036 ], [ -103.937256397676663, 35.964524953853108 ], [ -103.945712397875837, 35.943497950076306 ], [ -104.032588419082813, 35.955577947144768 ], [ -104.030397417370196, 35.941267945019909 ], [ -104.01281141317294, 35.939931945787642 ], [ -104.012540410787608, 35.912265941455054 ], [ -103.998993407624383, 35.912073942176541 ], [ -103.998970405216568, 35.883383937664952 ], [ -104.0662124208027, 35.883070933889627 ], [ -104.066231418438718, 35.854742929435588 ], [ -104.030268410037834, 35.85409393132332 ], [ -104.030299406410364, 35.810468924452941 ], [ -104.066130414727894, 35.810505922481227 ], [ -104.067013413737442, 35.796131920169366 ], [ -104.105166422146652, 35.790862917235337 ], [ -104.122169421935212, 35.740805908417755 ], [ -104.149889426374202, 35.716845903119648 ], [ -104.261009450860001, 35.702075894686615 ], [ -104.386740475147903, 35.644670878760039 ], [ -104.373634471627113, 35.638616878528424 ], [ -104.367919470970051, 35.646643880102872 ], [ -104.364092469132146, 35.635041878490114 ], [ -104.338409463604265, 35.639869880657422 ], [ -104.324149457624856, 35.607152876292865 ], [ -104.294240450757911, 35.60760587800069 ], [ -104.302172451561191, 35.595068875592695 ], [ -104.278280446299505, 35.598179877388937 ], [ -104.283722446370462, 35.583702874810541 ], [ -104.268791441878207, 35.570939873613895 ], [ -104.255021438996195, 35.574592874941466 ], [ -104.263194439552166, 35.558293871924853 ], [ -104.238229432551279, 35.543174870899435 ], [ -104.248189433775494, 35.529961868270945 ], [ -104.236483431505945, 35.535298869750903 ], [ -104.216066424937054, 35.512558867268844 ], [ -104.216515423568822, 35.494441864380249 ], [ -104.238716427176044, 35.475681860208717 ], [ -104.225673423913449, 35.472602860429205 ], [ -104.218731423569665, 35.488142863263818 ], [ -104.189034417531232, 35.498314866484904 ], [ -104.210233420363949, 35.472826861301996 ], [ -104.198871417377092, 35.468370861212748 ], [ -104.219909421327984, 35.457121858292204 ], [ -104.192010413633497, 35.441697857360722 ], [ -104.19967641307845, 35.412868852378224 ], [ -104.185578407286982, 35.381396848148398 ], [ -104.223938415797377, 35.377021845386089 ], [ -104.224566414587841, 35.36016084267839 ], [ -104.256145421862328, 35.359959840944995 ], [ -104.270920426243052, 35.372041842062877 ], [ -104.294114431037485, 35.365116839714943 ], [ -104.305739431391814, 35.336136834497928 ], [ -104.286491426158491, 35.326227833963401 ], [ -104.308644431096297, 35.324092832432981 ], [ -104.312616431340075, 35.315701830889424 ], [ -104.298526427886927, 35.313148831242437 ], [ -104.313205430436781, 35.302716828799426 ], [ -104.29085742342609, 35.279458826310247 ], [ -104.322407430085818, 35.271767823397155 ], [ -104.358995435396992, 35.232625815226321 ], [ -104.355239433211366, 35.216010812790593 ], [ -105.291364647119352, 35.216350762496759 ], [ -105.290893633126871, 35.042098735334555 ], [ -105.682824721553828, 35.041576714240371 ], [ -105.664059714691803, 35.008285710082227 ], [ -105.817576748920402, 35.004933701326991 ], [ -105.863548757014982, 34.976959694532077 ], [ -105.778053738660148, 34.987401700732384 ], [ -105.782089733427924, 34.90958568844863 ], [ -105.884359754358229, 34.884105679042008 ], [ -105.891629754873065, 34.869915676455228 ], [ -106.026089784976307, 34.870205669330609 ], [ -106.025969789401955, 34.926745678069558 ], [ -106.051849795187067, 34.926775676688194 ], [ -106.051039798259708, 34.967905683073369 ], [ -106.120739813823135, 34.967905679329156 ], [ -106.120979812723533, 34.953355677076878 ], [ -106.234784838095749, 34.953399670969731 ], [ -106.274572843347102, 34.907859661839851 ], [ -106.289610847906701, 34.923212663390117 ], [ -106.360710859528623, 34.870265651452748 ], [ -106.410986870690223, 34.870259648758761 ], [ -106.410983872208362, 34.889499651707155 ], [ -106.432096877982261, 34.903272652683107 ], [ -106.685898934390408, 34.906155639474207 ], [ -106.72038993924329, 34.871310632314362 ], [ -106.685729931673549, 34.872339634333954 ], [ -106.684934929553989, 34.847742630628481 ], [ -106.663017924473081, 34.844693631339403 ], [ -106.667263923105281, 34.815438626648707 ], [ -106.684299925704053, 34.80065762348125 ], [ -106.715140932758516, 34.803806622311278 ], [ -106.72742193362464, 34.780355618077891 ], [ -106.748857932727276, 34.708512605969489 ], [ -106.745402928312885, 34.661610598986037 ], [ -106.723428922802071, 34.653028598838972 ], [ -106.725562922182789, 34.638984596576719 ], [ -106.521612861093956, 34.429780575127772 ], [ -106.512373857162103, 34.404887571761826 ], [ -106.48777885174627, 34.405207573091793 ], [ -106.477402845578794, 34.35399056570219 ], [ -106.48580884580862, 34.332363561915393 ], [ -106.513805851843117, 34.33028556014284 ], [ -106.536060855174981, 34.309190555722999 ], [ -106.551054854089031, 34.250526545857561 ], [ -106.575524858834811, 34.24173354323279 ], [ -106.601039864973629, 34.248518542968327 ], [ -106.614378869641527, 34.271548545845043 ], [ -106.673521881843754, 34.260354541057779 ], [ -106.705108893756559, 34.326236549595734 ], [ -106.734908896444111, 34.274737540105427 ], [ -106.791909912031201, 34.315193543387934 ], [ -106.811764916440524, 34.315764542444974 ], [ -106.84387092565126, 34.344272545161111 ], [ -106.781046917471372, 34.418563559854768 ], [ -106.837510929995062, 34.419928557112726 ], [ -106.847851931227609, 34.406254554473584 ], [ -106.865613937200138, 34.43342055771177 ], [ -106.923169943487565, 34.349843541887495 ], [ -106.922952938774571, 34.288072532414766 ], [ -107.105358979559512, 34.299078524625024 ], [ -107.156774987475757, 34.255030515215154 ], [ -107.189878990575323, 34.200051505087686 ], [ -107.214134995267599, 34.19203050260576 ], [ -107.216324997086318, 34.209921505229119 ], [ -107.251555005283294, 34.216760504449724 ], [ -107.259483008198544, 34.232554506450946 ], [ -107.291816014111618, 34.217470502471457 ], [ -107.300469012646616, 34.172786495200185 ], [ -107.275900003121606, 34.11686748791697 ], [ -107.253885998050166, 34.113177488485235 ], [ -107.439449035501326, 34.073889472932748 ], [ -107.716697098952707, 34.119390465555604 ] ], [ [ -106.403000896715369, 35.217425702185281 ], [ -106.574056934715415, 35.217948692893188 ], [ -106.577773934211564, 35.201635690218467 ], [ -106.598689939034571, 35.203976689426938 ], [ -106.604722938807356, 35.18474668618417 ], [ -106.613452942441214, 35.205671688874368 ], [ -106.583388938425017, 35.238096695431572 ], [ -106.59508894449921, 35.280703701232561 ], [ -106.607332946032585, 35.26630169838171 ], [ -106.669029957998774, 35.245634691865533 ], [ -106.680366962105367, 35.265188694194002 ], [ -106.696909965643854, 35.263724693062166 ], [ -106.653911958148953, 35.288337699145082 ], [ -106.672440963725222, 35.306328700837398 ], [ -106.857164004588938, 35.30710769074944 ], [ -106.857638003593124, 35.293730688713936 ], [ -106.907965015202848, 35.300032686877934 ], [ -106.973354028470709, 35.286328681206832 ], [ -106.974912024179304, 35.229851672651307 ], [ -106.95340701833932, 35.216293671800507 ], [ -106.940992010116474, 35.148917662353902 ], [ -106.952408011512546, 35.135183659661756 ], [ -106.942362008131241, 35.120742658038033 ], [ -106.952890005535195, 35.059995648310647 ], [ -106.926544995832941, 35.011426642416204 ], [ -106.925595993272793, 34.982101638037499 ], [ -106.945679995710265, 34.957366633210235 ], [ -106.727209947528365, 34.956656644924273 ], [ -106.725321946330141, 34.946852643536921 ], [ -106.663676932711823, 34.946797646857128 ], [ -106.644183932986635, 35.004228656644599 ], [ -106.579389920749335, 35.030425664138967 ], [ -106.510371902233274, 34.990044661724227 ], [ -106.480155895633743, 34.99128166354545 ], [ -106.462838892687444, 35.002487666191307 ], [ -106.462789895913403, 35.042962672367878 ], [ -106.479974899701176, 35.042660671390649 ], [ -106.488769903079941, 35.060470673627272 ], [ -106.423572889026246, 35.065621677949267 ], [ -106.395085883895774, 35.080524681767997 ], [ -106.397589885824033, 35.097593684235434 ], [ -106.424306891269666, 35.091521681858225 ], [ -106.425893894589166, 35.12835868738388 ], [ -106.436191896795165, 35.12735868667091 ], [ -106.411820893097214, 35.148594691231807 ], [ -106.366316881670613, 35.132315691230218 ], [ -106.347681880023089, 35.163229696957707 ], [ -106.405380895139487, 35.191499698112537 ], [ -106.413295898254887, 35.208215700221764 ], [ -106.403000896715369, 35.217425702185281 ] ] ] } }
]
}
