{
"type": "FeatureCollection",
"name": "new_hampshire_optimized_districts_all",
"crs": { "type": "name", "properties": { "name": "urn:ogc:def:crs:OGC:1.3:CRS84" } },
"features": [
{ "type": "Feature", "properties": { "opt_all": 1, "population": 691860.0, "voting_age_pop": 571072.0, "dem_votes": 188488.0, "rep_votes": 186612.0, "minority_pop": 50703.0, "dem_pct": 0.50250066635497181, "rep_pct": 0.49749933337843261 }, "geometry": { "type": "Polygon", "coordinates": [ [ [ -72.065442000001227, 43.255080000002629 ], [ -72.09014600000063, 43.322553000003339 ], [ -72.078625000000912, 43.338590000002782 ], [ -72.049740000001506, 43.380261000002669 ], [ -72.05375200000087, 43.441097000002706 ], [ -72.01136300000168, 43.436871000002931 ], [ -71.990305000001158, 43.464923000002628 ], [ -71.935310000000612, 43.528880000003049 ], [ -72.067165000001438, 43.543971000003403 ], [ -72.069516000000689, 43.553172000002618 ], [ -72.090893000001273, 43.528857000003363 ], [ -72.106412000001626, 43.553485000002887 ], [ -72.17118800000101, 43.573985000002665 ], [ -72.208313000000814, 43.585207000003052 ], [ -72.270842000001522, 43.592457000003002 ], [ -72.329899000000808, 43.600214000003135 ], [ -72.335148000001809, 43.61615900000335 ], [ -72.303439000000608, 43.667978000003409 ], [ -72.304996000001026, 43.692475000003327 ], [ -72.271105000000802, 43.733918000002909 ], [ -72.205170000001004, 43.771118000003383 ], [ -72.183380000001307, 43.810127000002709 ], [ -72.188034000001764, 43.855155000003137 ], [ -72.169692000001419, 43.872672000002616 ], [ -72.122114000001673, 43.918067000002729 ], [ -72.099088000001245, 43.957381000002712 ], [ -72.116956000000613, 43.992636000003166 ], [ -72.079174000000975, 44.029752000002802 ], [ -72.032329000001596, 44.080869000002821 ], [ -72.052715000001768, 44.101453000003197 ], [ -72.039820000001697, 44.155730000002656 ], [ -72.065853000000956, 44.189327000003317 ], [ -72.052608000000816, 44.217777000002719 ], [ -72.068478000000994, 44.270801000002812 ], [ -72.019252000001615, 44.320193000002782 ], [ -71.984552000001599, 44.336131000003256 ], [ -71.87305300000105, 44.336756000003334 ], [ -71.812993000000958, 44.355715000003215 ], [ -71.81442700000126, 44.381922000003314 ], [ -71.765684000001642, 44.406295000002615 ], [ -71.714279000000715, 44.409545000003135 ], [ -71.660167000001465, 44.440867000002704 ], [ -71.646325000000672, 44.473876000002512 ], [ -71.600157000001047, 44.485833000003154 ], [ -71.57216200000137, 44.538508000002984 ], [ -71.553372000000863, 44.593171000002762 ], [ -71.557790000001603, 44.641960000003337 ], [ -71.584606000001727, 44.656882000003286 ], [ -71.594570000001227, 44.69703300000301 ], [ -71.626093000001347, 44.728543000002929 ], [ -71.602026000001274, 44.770875000002803 ], [ -71.576865000001419, 44.815197000002698 ], [ -71.521956000000912, 44.880322000002728 ], [ -71.496093000001039, 44.907849000002763 ], [ -71.515174000000769, 44.94266800000311 ], [ -71.535977000001296, 44.994885000002988 ], [ -71.488475000001458, 45.000731000002467 ], [ -71.46505000000127, 45.013638000003269 ], [ -71.499654000001101, 45.01333600000283 ], [ -71.489285000000976, 45.073719000002761 ], [ -71.429492000000991, 45.122293000003353 ], [ -71.435784000001675, 45.139594000003008 ], [ -71.397653000000673, 45.205324000003301 ], [ -71.419996000001149, 45.232744000002782 ], [ -71.356539000000879, 45.253897000002553 ], [ -71.287913000001339, 45.300908000002515 ], [ -71.230614000000969, 45.249417000002722 ], [ -71.132910000001146, 45.244512000002835 ], [ -71.098201000001055, 45.301673000003056 ], [ -71.077173000000968, 45.250048000002721 ], [ -71.059501000001433, 45.014636000002703 ], [ -71.056637000000933, 44.973010000002574 ], [ -71.046743000001129, 44.863117000002738 ], [ -71.043299000001511, 44.828682000003354 ], [ -71.034408000001591, 44.709960000003171 ], [ -71.028522000001232, 44.611280000002942 ], [ -71.018780000001357, 44.440370000002837 ], [ -71.012882000001483, 44.340860000002749 ], [ -71.009976000001359, 44.28489900000308 ], [ -71.000175000000894, 44.069493000003192 ], [ -70.993172000001351, 43.925359000003418 ], [ -70.991735000000816, 43.877341000003362 ], [ -70.989122000001615, 43.7920810000034 ], [ -70.980292000001455, 43.684135000002733 ], [ -70.972743000000847, 43.570310000002905 ], [ -70.962154000001235, 43.541087000003074 ], [ -70.953868000000497, 43.519145000002538 ], [ -70.974911000001015, 43.476955000003159 ], [ -70.96159000000165, 43.443272000002828 ], [ -70.985638000001714, 43.379140000002565 ], [ -70.973282000001319, 43.34918800000294 ], [ -70.932169000000997, 43.33433300000317 ], [ -70.898447000001013, 43.28735900000261 ], [ -70.864478000001256, 43.265615000002931 ], [ -70.83887300000157, 43.24449300000289 ], [ -70.809608000001091, 43.225511000002818 ], [ -70.819832000000716, 43.196853000003109 ], [ -70.825018000001165, 43.172737000002734 ], [ -70.820019000001381, 43.122545000002603 ], [ -70.782698000001574, 43.099634000003107 ], [ -70.752553000001114, 43.079565000003377 ], [ -70.737969000001357, 43.07372800000266 ], [ -70.701197000001514, 43.045240000002913 ], [ -70.605621000001548, 42.972230000003158 ], [ -70.575094000001627, 42.917126000003286 ], [ -70.605724000000478, 42.912329000003197 ], [ -70.672860000000625, 42.93041900000285 ], [ -70.694637000000526, 42.956357000003422 ], [ -70.726024000001019, 42.928524000003037 ], [ -70.735005000001635, 42.874685000003304 ], [ -70.813832000000687, 42.87229800000317 ], [ -70.847718000000768, 42.860867000003189 ], [ -70.914525000001063, 42.88664700000264 ], [ -70.997470000000646, 42.86444200000313 ], [ -71.053954000000829, 42.833369000002669 ], [ -71.064416000000847, 42.806275000002792 ], [ -71.115752000000882, 42.817693000002741 ], [ -71.166647000001376, 42.808881000002877 ], [ -71.206912000001623, 42.852222000003302 ], [ -71.208545000001607, 42.859187000003097 ], [ -71.21944000000137, 42.912257000003379 ], [ -71.14627200000055, 42.89764700000282 ], [ -71.149501000000768, 42.959841000002669 ], [ -71.092317000001472, 42.959186000002909 ], [ -71.088073000001543, 42.959246000003134 ], [ -71.080276000000637, 43.020875000002803 ], [ -71.150166000001633, 43.021223000003474 ], [ -71.130921000001521, 43.062539000002943 ], [ -71.212954000001162, 43.076981000002583 ], [ -71.230488000000577, 43.080132000003161 ], [ -71.356117000000722, 43.102043000003128 ], [ -71.391228000000766, 43.040963000003245 ], [ -71.392388000000693, 43.009309000002624 ], [ -71.439841000000712, 43.018236000002631 ], [ -71.473981000000592, 43.035274000003334 ], [ -71.512767000001588, 43.049615000003428 ], [ -71.517467000000948, 43.068909000002826 ], [ -71.641291000001573, 43.054168000003138 ], [ -71.66777100000111, 43.152534000003129 ], [ -71.732560000000731, 43.139786000003362 ], [ -71.810277000001619, 43.124271000002565 ], [ -71.856100000001092, 43.115135000003349 ], [ -71.91321500000177, 43.207099000003446 ], [ -72.009074000000652, 43.187882000002723 ], [ -72.065442000001227, 43.255080000002629 ] ] ] } },
{ "type": "Feature", "properties": { "opt_all": 2, "population": 685669.0, "voting_age_pop": 549608.0, "dem_votes": 160586.0, "rep_votes": 179783.0, "minority_pop": 74226.0, "dem_pct": 0.47179972310292662, "rep_pct": 0.52820027660327462 }, "geometry": { "type": "Polygon", "coordinates": [ [ [ -72.490547000001072, 42.772747000002781 ], [ -72.541513000000649, 42.807094000003033 ], [ -72.5550790000012, 42.858119000003107 ], [ -72.526559000001654, 42.93427500000282 ], [ -72.532022000000808, 42.954943000002842 ], [ -72.473076000000873, 42.972528000002789 ], [ -72.459465000001487, 43.02062300000285 ], [ -72.467445000000851, 43.053727000003263 ], [ -72.434516000001153, 43.08661700000286 ], [ -72.433066000000892, 43.120705000002651 ], [ -72.452251000000729, 43.161354000003442 ], [ -72.437140000001762, 43.256056000003106 ], [ -72.395330000001465, 43.313863000003217 ], [ -72.406495000000717, 43.337553000002657 ], [ -72.401248000001743, 43.403187000003342 ], [ -72.396019000001672, 43.428835000002827 ], [ -72.380147000001358, 43.492229000002581 ], [ -72.396647000000655, 43.519084000003431 ], [ -72.373800000001054, 43.579119000002784 ], [ -72.329899000000808, 43.600214000003135 ], [ -72.270842000001522, 43.592457000003002 ], [ -72.208313000000814, 43.585207000003052 ], [ -72.17118800000101, 43.573985000002665 ], [ -72.106412000001626, 43.553485000002887 ], [ -72.090893000001273, 43.528857000003363 ], [ -72.069516000000689, 43.553172000002618 ], [ -72.067165000001438, 43.543971000003403 ], [ -71.935310000000612, 43.528880000003049 ], [ -71.990305000001158, 43.464923000002628 ], [ -72.01136300000168, 43.436871000002931 ], [ -72.05375200000087, 43.441097000002706 ], [ -72.049740000001506, 43.380261000002669 ], [ -72.078625000000912, 43.338590000002782 ], [ -72.09014600000063, 43.322553000003339 ], [ -72.065442000001227, 43.255080000002629 ], [ -72.009074000000652, 43.187882000002723 ], [ -71.91321500000177, 43.207099000003446 ], [ -71.856100000001092, 43.115135000003349 ], [ -71.810277000001619, 43.124271000002565 ], [ -71.732560000000731, 43.139786000003362 ], [ -71.66777100000111, 43.152534000003129 ], [ -71.641291000001573, 43.054168000003138 ], [ -71.517467000000948, 43.068909000002826 ], [ -71.512767000001588, 43.049615000003428 ], [ -71.473981000000592, 43.035274000003334 ], [ -71.439841000000712, 43.018236000002631 ], [ -71.392388000000693, 43.009309000002624 ], [ -71.391228000000766, 43.040963000003245 ], [ -71.356117000000722, 43.102043000003128 ], [ -71.230488000000577, 43.080132000003161 ], [ -71.212954000001162, 43.076981000002583 ], [ -71.130921000001521, 43.062539000002943 ], [ -71.150166000001633, 43.021223000003474 ], [ -71.080276000000637, 43.020875000002803 ], [ -71.088073000001543, 42.959246000003134 ], [ -71.092317000001472, 42.959186000002909 ], [ -71.149501000000768, 42.959841000002669 ], [ -71.14627200000055, 42.89764700000282 ], [ -71.21944000000137, 42.912257000003379 ], [ -71.208545000001607, 42.859187000003097 ], [ -71.206912000001623, 42.852222000003302 ], [ -71.166647000001376, 42.808881000002877 ], [ -71.18614000000089, 42.790935000002669 ], [ -71.181786000000926, 42.737341000003411 ], [ -71.245481000000623, 42.742514000002785 ], [ -71.294637000001273, 42.697042000002824 ], [ -71.386956000001149, 42.69893900000266 ], [ -71.432336000001698, 42.70004800000325 ], [ -71.449112000001236, 42.700338000002979 ], [ -71.467564000001005, 42.700802000002682 ], [ -71.495681000001312, 42.701539000003265 ], [ -71.542697000000956, 42.702666000003475 ], [ -71.630565000001667, 42.70443500000323 ], [ -71.701310000001655, 42.705881000003245 ], [ -71.805389000000631, 42.708937000003303 ], [ -71.928993000000645, 42.712102000003171 ], [ -72.078625000000841, 42.71623000000298 ], [ -72.203567000001399, 42.71957900000325 ], [ -72.326282000000589, 42.72286700000322 ], [ -72.451194000000868, 42.726689000003297 ], [ -72.490547000001072, 42.772747000002781 ] ] ] } }
]
}
