{
"type": "FeatureCollection",
"name": "northern_mariana_islands_optimized_districts_age",
"crs": { "type": "name", "properties": { "name": "urn:ogc:def:crs:OGC:1.3:CRS84" } },
"features": [
{ "type": "Feature", "properties": { "district_id": 0, "voting_age_pop": 40000, "lib_votes": 1000, "grn_votes": 500, "con_votes": 500, "ref_votes": 200, "total_pop": 50000, "dem_votes_sum": 15000, "rep_votes_sum": 5000, "lib_votes_sum": 1000, "grn_votes_sum": 500, "con_votes_sum": 500, "ref_votes_sum": 200, "minority_pop_sum": 45000, "dem_pct": 0.67567567567567566, "rep_pct": 0.22522522522522523, "lib_pct": 0.045045045045045043, "grn_pct": 0.022522522522522521, "con_pct": 0.022522522522522521, "ref_pct": 0.0090090090090090089, "minority_pct": 0.9, "compactness": 0.78515592553834723 }, "geometry": { "type": "Polygon", "coordinates": [ [ [ 145.6239, 15.0479 ], [ 145.6239, 15.1479 ], [ 145.7239, 15.1479 ], [ 145.7239, 15.0479 ], [ 145.6239, 15.0479 ] ] ] } }
]
}
