{
"type": "FeatureCollection",
"name": "north_carolina_optimized_districts_all",
"crs": { "type": "name", "properties": { "name": "urn:ogc:def:crs:OGC:1.3:CRS84" } },
"features": [
{ "type": "Feature", "properties": { "opt_all": 1, "population": 745014.0, "voting_age_pop": 590111.0, "dem_votes": 197246.0, "rep_votes": 177386.0, "minority_pop": 267817.0, "dem_pct": 0.52650601109181649, "rep_pct": 0.47349398864125486 }, "geometry": { "type": "Polygon", "coordinates": [ [ [ -77.983164000001153, 35.585683000002795 ], [ -77.988143000001088, 35.625708000003378 ], [ -77.970449000001238, 35.638564000003164 ], [ -77.97077300000187, 35.672864000003486 ], [ -77.992839000001553, 35.711564000003399 ], [ -77.969774000001834, 35.715799000002711 ], [ -77.975461000001943, 35.739955000003064 ], [ -78.003478000001962, 35.769777000003366 ], [ -78.038023000001544, 35.787519000002987 ], [ -78.163916000001265, 35.74206500000296 ], [ -78.192117000001758, 35.730545000002842 ], [ -78.215472000001114, 35.735837000003286 ], [ -78.249103000001796, 35.772392000002768 ], [ -78.255973000001873, 35.818120000003532 ], [ -78.232393000001693, 35.857458000002723 ], [ -78.200229000001599, 35.909507000003295 ], [ -78.184197000001419, 35.935489000003315 ], [ -78.122005000001863, 36.030478000003285 ], [ -78.117289000001023, 36.037517000003177 ], [ -78.052673000001889, 36.133858000003507 ], [ -78.052353000001474, 36.134327000002855 ], [ -78.006551000001338, 36.202633000003445 ], [ -77.942406000001313, 36.298526000003513 ], [ -77.935883000001425, 36.318703000002934 ], [ -77.932646000001839, 36.32802500000308 ], [ -77.912028000001982, 36.382272000003283 ], [ -77.919208000001802, 36.43153000000332 ], [ -77.899524000002032, 36.504259000002953 ], [ -77.899596000001353, 36.507716000002809 ], [ -77.899773000000977, 36.54459600000353 ], [ -77.738798000001808, 36.545431000003383 ], [ -77.576407000001836, 36.545187000003487 ], [ -77.497642000001193, 36.545088000003332 ], [ -77.372710000001163, 36.544768000003543 ], [ -77.226184000001908, 36.544508000003205 ], [ -77.164377000001409, 36.546329000002807 ], [ -76.915977000001178, 36.54388400000289 ], [ -76.915899000001446, 36.552149000002871 ], [ -76.73811500000177, 36.550783000002966 ], [ -76.541966000000954, 36.550653000003344 ], [ -76.313303000001341, 36.550520000002827 ], [ -76.151731000001874, 36.550501000003003 ], [ -76.0267210000018, 36.550470000003493 ], [ -75.906880000001863, 36.550553000002829 ], [ -75.79749700000086, 36.550916000003021 ], [ -75.790558000001113, 36.500156000002811 ], [ -75.769834000001083, 36.426163000003314 ], [ -75.749635000001021, 36.353606000003317 ], [ -75.709078000001881, 36.244984000003143 ], [ -75.67306500000096, 36.16240900000281 ], [ -75.649513000001249, 36.118866000003003 ], [ -75.621461000001545, 36.070690000002969 ], [ -75.586164000001844, 36.00822600000329 ], [ -75.566047000001419, 35.975614000003453 ], [ -75.48050100000107, 35.814207000003456 ], [ -75.471816000001283, 35.80698500000296 ], [ -75.43761700000114, 35.746960000003433 ], [ -75.417820000001072, 35.686082000003452 ], [ -75.400390000001522, 35.593512000002882 ], [ -75.40733200000156, 35.528230000003248 ], [ -75.415089000001842, 35.500180000003247 ], [ -75.425581000001543, 35.390009000003374 ], [ -75.455561000000827, 35.26779500000363 ], [ -75.474600000000905, 35.202029000002895 ], [ -75.49959300000161, 35.177172000002948 ], [ -75.548003000001572, 35.168184000003144 ], [ -75.581108000001436, 35.183784000002788 ], [ -75.611367000001721, 35.179152000003 ], [ -75.707370000000864, 35.146111000002769 ], [ -75.736620000001722, 35.140565000003178 ], [ -75.807724000001087, 35.115906000003342 ], [ -75.908588000000904, 35.071522000003007 ], [ -75.985351000001216, 35.013977000002775 ], [ -76.006936000001048, 35.006031000003325 ], [ -76.006557000001749, 35.053869000003324 ], [ -76.066432000001001, 35.125149000002921 ], [ -76.304136000001321, 35.201453000003525 ], [ -76.429323000001361, 35.315244000002998 ], [ -76.463756000001212, 35.338134000003301 ], [ -76.522131000001963, 35.353623000003502 ], [ -76.590497000001122, 35.361857000003035 ], [ -76.617496000001026, 35.328893000003546 ], [ -76.612186000001529, 35.27932000000294 ], [ -76.631026000001739, 35.238264000003085 ], [ -76.665249000001467, 35.232475000003618 ], [ -76.81398400000127, 35.219108000002898 ], [ -76.840954000001247, 35.216473000003198 ], [ -76.883303000001717, 35.244477000003251 ], [ -76.895919000001626, 35.253889000002815 ], [ -76.942593000001693, 35.288823000003333 ], [ -77.042067000001794, 35.343492000002904 ], [ -77.081943000002028, 35.363832000002887 ], [ -77.189115000001934, 35.418362000002752 ], [ -77.227127000001119, 35.39984500000309 ], [ -77.239649000001549, 35.381361000003224 ], [ -77.239072000001158, 35.360906000003155 ], [ -77.294340000001469, 35.379137000003233 ], [ -77.352550000001671, 35.327736000003497 ], [ -77.391026000001318, 35.339533000003271 ], [ -77.431461000001832, 35.366950000003541 ], [ -77.469904000001719, 35.419924000003036 ], [ -77.475515000001266, 35.426655000003514 ], [ -77.493568000001048, 35.411618000002747 ], [ -77.528338000001497, 35.414336000003409 ], [ -77.540785000001165, 35.395929000002731 ], [ -77.589323000001727, 35.37376300000323 ], [ -77.610962000001365, 35.378633000002772 ], [ -77.63910100000156, 35.354086000003392 ], [ -77.660842000001892, 35.352814000003079 ], [ -77.697516000001059, 35.377097000003232 ], [ -77.741176000001701, 35.371966000003113 ], [ -77.806248000001275, 35.368754000003392 ], [ -77.802815000001374, 35.372971000002714 ], [ -77.805536000001538, 35.407504000003328 ], [ -77.826744000001057, 35.424090000003424 ], [ -77.825530000001152, 35.470419000003389 ], [ -77.825371000002065, 35.476492000003226 ], [ -77.822511000001043, 35.585383000002786 ], [ -77.87375100000105, 35.586241000003 ], [ -77.953906000001666, 35.585843000002761 ], [ -77.983164000001153, 35.585683000002795 ] ] ] } },
{ "type": "Feature", "properties": { "opt_all": 2, "population": 743231.0, "voting_age_pop": 580891.0, "dem_votes": 233551.0, "rep_votes": 139138.0, "minority_pop": 243450.0, "dem_pct": 0.62666459148870379, "rep_pct": 0.37333540824297595 }, "geometry": { "type": "Polygon", "coordinates": [ [ [ -78.736373000001763, 35.745652000003275 ], [ -78.728944000001036, 35.758152000003179 ], [ -78.723441000001941, 35.769350000003513 ], [ -78.712676000001679, 35.786482000003055 ], [ -78.718637000001692, 35.786433000002773 ], [ -78.717542000001359, 35.788834000003199 ], [ -78.706251000001885, 35.794466000002714 ], [ -78.704895000001514, 35.820012000003544 ], [ -78.674912000001584, 35.836719000003136 ], [ -78.71195700000203, 35.844875000003185 ], [ -78.721236000001539, 35.845245000002983 ], [ -78.745178000001488, 35.792060000002976 ], [ -78.763343000001967, 35.795248000003447 ], [ -78.767646000001193, 35.794072000003453 ], [ -78.781126000001109, 35.809825000003116 ], [ -78.77156200000212, 35.819091000002864 ], [ -78.780170000001121, 35.839320000003291 ], [ -78.79847200000134, 35.850308000003174 ], [ -78.828350000002089, 35.870876000003491 ], [ -78.806756000001613, 35.922925000003005 ], [ -78.804975000001733, 35.927218000003485 ], [ -78.801972000001513, 35.926972000002721 ], [ -78.758210000001128, 35.921558000003159 ], [ -78.72777100000134, 35.949374000003068 ], [ -78.713411000002097, 35.968949000002709 ], [ -78.699847000001782, 36.011427000003209 ], [ -78.754026000001176, 36.047812000003347 ], [ -78.75127300000112, 36.070834000002748 ], [ -78.777001000001249, 36.071491000003327 ], [ -78.804901000001522, 36.09197700000329 ], [ -78.803118000001504, 36.177162000003278 ], [ -78.802335000001705, 36.235794000003224 ], [ -78.80049700000113, 36.30988900000353 ], [ -78.799795000001424, 36.341082000003126 ], [ -78.797482000001636, 36.432806000003225 ], [ -78.79709900000114, 36.447661000002689 ], [ -78.796274000001759, 36.541741000003228 ], [ -78.654868000001258, 36.541909000003024 ], [ -78.456913000001251, 36.542541000003077 ], [ -78.323991000001897, 36.543822000002891 ], [ -78.264317000001967, 36.544325000003241 ], [ -78.198340000002034, 36.544315000003174 ], [ -78.105345000001847, 36.5436800000031 ], [ -78.046462000001199, 36.543551000003397 ], [ -77.899773000000977, 36.54459600000353 ], [ -77.899596000001353, 36.507716000002809 ], [ -77.899524000002032, 36.504259000002953 ], [ -77.919208000001802, 36.43153000000332 ], [ -77.912028000001982, 36.382272000003283 ], [ -77.932646000001839, 36.32802500000308 ], [ -77.935883000001425, 36.318703000002934 ], [ -77.942406000001313, 36.298526000003513 ], [ -78.006551000001338, 36.202633000003445 ], [ -78.052353000001474, 36.134327000002855 ], [ -78.052673000001889, 36.133858000003507 ], [ -78.117289000001023, 36.037517000003177 ], [ -78.122005000001863, 36.030478000003285 ], [ -78.184197000001419, 35.935489000003315 ], [ -78.200229000001599, 35.909507000003295 ], [ -78.232393000001693, 35.857458000002723 ], [ -78.255973000001873, 35.818120000003532 ], [ -78.275286000001913, 35.862284000002838 ], [ -78.298882000001313, 35.886897000002861 ], [ -78.310488000001087, 35.896337000002951 ], [ -78.351206000001326, 35.910845000003128 ], [ -78.354268000001298, 35.931196000003062 ], [ -78.391939000001159, 35.936538000003104 ], [ -78.388321000002065, 35.914721000002878 ], [ -78.449704000001304, 35.87874100000333 ], [ -78.47501200000147, 35.879684000003174 ], [ -78.479560000001257, 35.907534000003508 ], [ -78.506572000001398, 35.89601500000343 ], [ -78.512810000001224, 35.856172000003291 ], [ -78.52858600000107, 35.857375000003174 ], [ -78.535970000001981, 35.83071300000325 ], [ -78.539370000001369, 35.793434000002733 ], [ -78.539728000001332, 35.773258000003423 ], [ -78.531972000001787, 35.754551000003509 ], [ -78.531617000001546, 35.750882000003493 ], [ -78.513582000001108, 35.726812000002703 ], [ -78.519263000001942, 35.719160000003079 ], [ -78.556143000001967, 35.730031000002825 ], [ -78.534489000001344, 35.749443000003076 ], [ -78.568230000001705, 35.746818000002825 ], [ -78.579098000002105, 35.755622000003036 ], [ -78.582762000002077, 35.753868000002747 ], [ -78.600217000001692, 35.728018000003203 ], [ -78.62638100000153, 35.729656000002755 ], [ -78.64857400000156, 35.725364000002926 ], [ -78.651305000001273, 35.731267000003164 ], [ -78.68035300000146, 35.74299800000346 ], [ -78.683398000001972, 35.726709000002884 ], [ -78.704365000001445, 35.71563000000311 ], [ -78.736373000001763, 35.745652000003275 ] ] ] } },
{ "type": "Feature", "properties": { "opt_all": 3, "population": 742753.0, "voting_age_pop": 594882.0, "dem_votes": 142969.0, "rep_votes": 199609.0, "minority_pop": 156042.0, "dem_pct": 0.41733269491405384, "rep_pct": 0.58266730479404183 }, "geometry": { "type": "Polygon", "coordinates": [ [ [ -78.146802000001742, 34.011573000002727 ], [ -78.109355000001258, 34.013194000002947 ], [ -78.092856000001348, 34.059165000002757 ], [ -78.097354000001289, 34.078585000002761 ], [ -78.077507000002058, 34.101981000002759 ], [ -78.037537000001265, 34.109437000002792 ], [ -78.035532000001467, 34.169248000002895 ], [ -78.056631000001332, 34.199369000003301 ], [ -78.069795000001548, 34.245353000003476 ], [ -78.098130000001049, 34.265257000003231 ], [ -78.124650000001637, 34.247960000002792 ], [ -78.233385000001093, 34.248466000003432 ], [ -78.162350000001396, 34.3570070000032 ], [ -78.192888000001773, 34.352675000002726 ], [ -78.235682000001816, 34.374713000003538 ], [ -78.25608500000132, 34.399469000002767 ], [ -78.201174000001956, 34.4449510000034 ], [ -78.176501000001181, 34.465356000003204 ], [ -78.208927000001623, 34.487759000003138 ], [ -78.245401000001664, 34.4998500000032 ], [ -78.272227000001507, 34.538381000002957 ], [ -78.254441000001151, 34.553595000003355 ], [ -78.233546000001752, 34.58036200000334 ], [ -78.156520000001706, 34.679070000003243 ], [ -78.114210000001748, 34.706735000002759 ], [ -78.114007000001237, 34.721795000003354 ], [ -78.034747000001246, 34.726858000002899 ], [ -77.991255000001757, 34.71605600000327 ], [ -77.928493000001453, 34.721922000002962 ], [ -77.921538000001505, 34.719746000003305 ], [ -77.680127000001917, 34.720595000002824 ], [ -77.678942000001541, 34.781926000003182 ], [ -77.673211000001928, 34.813577000002866 ], [ -77.666060000001181, 34.839651000003506 ], [ -77.660947000001897, 34.871029000002906 ], [ -77.651093000001978, 34.923679000003006 ], [ -77.674805000001228, 34.973900000002786 ], [ -77.731026000001691, 35.008138000003413 ], [ -77.678797000001481, 35.033619000003334 ], [ -77.598044000001735, 35.074875000003459 ], [ -77.553590000001122, 35.122999000002835 ], [ -77.534681000001086, 35.143434000003012 ], [ -77.5299520000016, 35.14855400000279 ], [ -77.507463000001039, 35.172814000003548 ], [ -77.527182000001929, 35.243001000003161 ], [ -77.47369200000135, 35.228985000003135 ], [ -77.433512000001471, 35.249634000002992 ], [ -77.44053700000191, 35.303509000002734 ], [ -77.410923000001262, 35.337799000003471 ], [ -77.391026000001318, 35.339533000003271 ], [ -77.352550000001671, 35.327736000003497 ], [ -77.294340000001469, 35.379137000003233 ], [ -77.239072000001158, 35.360906000003155 ], [ -77.239649000001549, 35.381361000003224 ], [ -77.227127000001119, 35.39984500000309 ], [ -77.189115000001934, 35.418362000002752 ], [ -77.081943000002028, 35.363832000002887 ], [ -77.042067000001794, 35.343492000002904 ], [ -76.942593000001693, 35.288823000003333 ], [ -76.895919000001626, 35.253889000002815 ], [ -76.883303000001717, 35.244477000003251 ], [ -76.840954000001247, 35.216473000003198 ], [ -76.81398400000127, 35.219108000002898 ], [ -76.665249000001467, 35.232475000003618 ], [ -76.631026000001739, 35.238264000003085 ], [ -76.612186000001529, 35.27932000000294 ], [ -76.617496000001026, 35.328893000003546 ], [ -76.590497000001122, 35.361857000003035 ], [ -76.522131000001963, 35.353623000003502 ], [ -76.463756000001212, 35.338134000003301 ], [ -76.429323000001361, 35.315244000002998 ], [ -76.304136000001321, 35.201453000003525 ], [ -76.066432000001001, 35.125149000002921 ], [ -76.006557000001749, 35.053869000003324 ], [ -76.006936000001048, 35.006031000003325 ], [ -76.024430000001246, 35.005364000002814 ], [ -76.124626000001413, 34.933081000003391 ], [ -76.236676000001907, 34.843741000003625 ], [ -76.311895000001414, 34.779541000002794 ], [ -76.370718000001006, 34.720111000003172 ], [ -76.437383000000921, 34.642253000003002 ], [ -76.491991000001136, 34.546532000002998 ], [ -76.524378000001292, 34.532155000003613 ], [ -76.562509000001654, 34.536912000003362 ], [ -76.58372000000189, 34.552625000003118 ], [ -76.614722000001009, 34.618278000003045 ], [ -76.692800000001796, 34.642950000003594 ], [ -76.782315000001091, 34.645794000003583 ], [ -76.867031000000949, 34.636813000003464 ], [ -76.909869000001905, 34.631526000003092 ], [ -76.999666000001156, 34.617009000003456 ], [ -77.117198000000997, 34.584367000003581 ], [ -77.156425000001988, 34.570487000002977 ], [ -77.219176000001099, 34.539660000003359 ], [ -77.305388000001187, 34.484255000002889 ], [ -77.418832000001913, 34.435923000003257 ], [ -77.484538000001066, 34.399705000003017 ], [ -77.556732000001418, 34.35365100000341 ], [ -77.611297000001088, 34.308539000003165 ], [ -77.675276000001205, 34.253130000003068 ], [ -77.680321000001783, 34.250169000002955 ], [ -77.691093000001842, 34.245744000003434 ], [ -77.747420000001881, 34.175594000003009 ], [ -77.753507000001022, 34.155469000002761 ], [ -77.785555000001239, 34.125171000003228 ], [ -77.813741000001073, 34.06415700000273 ], [ -77.840419000001376, 34.004207000003298 ], [ -77.863534000001167, 33.934670000003564 ], [ -77.884519000001774, 33.903670000002947 ], [ -77.898970000000986, 33.854639000003203 ], [ -77.897011000002024, 33.786800000002984 ], [ -77.932512000001267, 33.912772000002889 ], [ -77.961885000001814, 33.8304740000032 ], [ -78.00789200000149, 33.852526000003436 ], [ -78.016695000001604, 33.883883000002768 ], [ -78.086221000001871, 33.903692000003012 ], [ -78.087699000001251, 33.922192000003548 ], [ -78.107135000001648, 33.922140000003473 ], [ -78.153296000001575, 33.927082000003608 ], [ -78.1306150000012, 33.972087000003214 ], [ -78.146802000001742, 34.011573000002727 ] ] ] } },
{ "type": "Feature", "properties": { "opt_all": 4, "population": 747469.0, "voting_age_pop": 592259.0, "dem_votes": 253061.0, "rep_votes": 115228.0, "minority_pop": 267071.0, "dem_pct": 0.68712614259803406, "rep_pct": 0.31287385713043997 }, "geometry": { "type": "Polygon", "coordinates": [ [ [ -79.541728000002081, 35.899851000003345 ], [ -79.540390000001295, 35.966481000002666 ], [ -79.539673000001144, 36.012836000003411 ], [ -79.539412000002088, 36.045738000003496 ], [ -79.539163000001068, 36.081152000002682 ], [ -79.537550000002, 36.126119000003371 ], [ -79.537234000001646, 36.135859000003222 ], [ -79.536717000001985, 36.15177800000302 ], [ -79.53510400000161, 36.182412000003033 ], [ -79.53241000000159, 36.241463000002895 ], [ -79.531865000001488, 36.249673000003256 ], [ -79.525352000001604, 36.353994000002771 ], [ -79.522531000001976, 36.399088000002855 ], [ -79.519820000001786, 36.442359000003179 ], [ -79.513638000001279, 36.540902000002731 ], [ -79.343430000001305, 36.541592000003362 ], [ -79.138320000001642, 36.541975000003049 ], [ -78.964529000001761, 36.542179000003387 ], [ -78.871663000001973, 36.542015000002905 ], [ -78.796274000001759, 36.541741000003228 ], [ -78.79709900000114, 36.447661000002689 ], [ -78.797482000001636, 36.432806000003225 ], [ -78.799795000001424, 36.341082000003126 ], [ -78.80049700000113, 36.30988900000353 ], [ -78.802335000001705, 36.235794000003224 ], [ -78.803118000001504, 36.177162000003278 ], [ -78.804901000001522, 36.09197700000329 ], [ -78.777001000001249, 36.071491000003327 ], [ -78.75127300000112, 36.070834000002748 ], [ -78.754026000001176, 36.047812000003347 ], [ -78.699847000001782, 36.011427000003209 ], [ -78.713411000002097, 35.968949000002709 ], [ -78.72777100000134, 35.949374000003068 ], [ -78.758210000001128, 35.921558000003159 ], [ -78.801972000001513, 35.926972000002721 ], [ -78.804975000001733, 35.927218000003485 ], [ -78.806756000001613, 35.922925000003005 ], [ -78.828350000002089, 35.870876000003491 ], [ -78.79847200000134, 35.850308000003174 ], [ -78.780170000001121, 35.839320000003291 ], [ -78.807020000001955, 35.822927000003027 ], [ -78.804777000001948, 35.80319800000305 ], [ -78.831687000002034, 35.790666000003341 ], [ -78.838318000001522, 35.792779000002859 ], [ -78.847219000001203, 35.791431000003122 ], [ -78.847723000001025, 35.820003000002892 ], [ -78.87235300000151, 35.820590000002944 ], [ -78.872604000002113, 35.822632000003168 ], [ -78.881309000001167, 35.843998000003161 ], [ -78.890486000001133, 35.867874000003248 ], [ -78.89240100000174, 35.867902000003127 ], [ -78.906071000001134, 35.868096000002737 ], [ -78.943730000001608, 35.866432000003506 ], [ -79.01148300000213, 35.863423000002939 ], [ -79.016305000001822, 35.863210000002859 ], [ -79.081938000002012, 35.860780000002748 ], [ -79.082158000001698, 35.860785000002714 ], [ -79.119623000001212, 35.86418600000281 ], [ -79.148579000001448, 35.866898000003523 ], [ -79.249538000001863, 35.876810000003168 ], [ -79.237316000001556, 35.844247000003342 ], [ -79.350051000001969, 35.843908000002919 ], [ -79.432774000001174, 35.843684000002675 ], [ -79.542428000001678, 35.843303000003338 ], [ -79.541728000002081, 35.899851000003345 ] ] ] } },
{ "type": "Feature", "properties": { "opt_all": 5, "population": 746670.0, "voting_age_pop": 584140.0, "dem_votes": 150288.0, "rep_votes": 208755.0, "minority_pop": 172791.0, "dem_pct": 0.41857939009573242, "rep_pct": 0.58142060962574937 }, "geometry": { "type": "Polygon", "coordinates": [ [ [ -80.838812000001681, 35.817386000002934 ], [ -80.813950000001753, 35.883885000003161 ], [ -80.899360000002133, 35.896658000002702 ], [ -80.921917000001642, 35.884888000002768 ], [ -80.981756000002164, 35.878959000003057 ], [ -81.029900000001206, 35.889968000003151 ], [ -81.029848000002005, 35.890124000003354 ], [ -81.00481000000191, 35.971539000002814 ], [ -81.00340000000115, 35.99673700000308 ], [ -81.028833000001441, 36.045652000002718 ], [ -81.057572000001429, 36.031550000003172 ], [ -81.098113000001945, 36.028162000002766 ], [ -81.132830000001817, 36.036923000003291 ], [ -81.143992000001887, 36.08936600000326 ], [ -81.165966000001504, 36.109779000002881 ], [ -81.196446000001515, 36.111703000003125 ], [ -81.209060000001188, 36.133311000003282 ], [ -81.201498000001919, 36.140537000003199 ], [ -81.203890000002005, 36.15142300000344 ], [ -81.221711000001534, 36.182316000003311 ], [ -81.189764000001261, 36.182241000003394 ], [ -81.175130000001161, 36.187702000003007 ], [ -81.152268000001328, 36.205112000002586 ], [ -81.116459000001967, 36.205294000003455 ], [ -81.131599000002097, 36.22230500000299 ], [ -81.130959000001653, 36.279386000003399 ], [ -81.163978000002004, 36.282261000002578 ], [ -81.171579000001898, 36.264002000003309 ], [ -81.217349000001533, 36.256897000002766 ], [ -81.239926000002129, 36.274098000003072 ], [ -81.255026000002161, 36.299335000003239 ], [ -81.235939000001707, 36.310568000002611 ], [ -81.25463600000171, 36.364424000003389 ], [ -81.25355200000196, 36.366622000002927 ], [ -81.245549000001205, 36.391218000002972 ], [ -81.266578000002241, 36.415248000003082 ], [ -81.272081000002061, 36.446848000003079 ], [ -81.296815000001757, 36.466856000003233 ], [ -81.353150000001676, 36.546077000003223 ], [ -81.353259000001586, 36.574692000003132 ], [ -81.202071000001951, 36.572274000002864 ], [ -81.062183000001355, 36.567095000002709 ], [ -80.901641000001163, 36.561766000003125 ], [ -80.823013000001922, 36.559861000002599 ], [ -80.792720000002021, 36.560573000003103 ], [ -80.688143000001219, 36.561417000002862 ], [ -80.653387000001231, 36.559183000002946 ], [ -80.560521000001245, 36.55623100000318 ], [ -80.510924000001935, 36.55392300000306 ], [ -80.440340000001626, 36.550665000002638 ], [ -80.44472900000153, 36.474689000002982 ], [ -80.446035000001302, 36.454605000003419 ], [ -80.446982000001412, 36.438380000003043 ], [ -80.447632000002145, 36.423699000003303 ], [ -80.448305000001596, 36.405852000003179 ], [ -80.449906000001974, 36.338994000003183 ], [ -80.45192500000185, 36.261515000003158 ], [ -80.434788000001703, 36.261382000003479 ], [ -80.405702000001895, 36.261161000003312 ], [ -80.364427000001839, 36.260793000002685 ], [ -80.340259000001296, 36.260579000003212 ], [ -80.3265850000016, 36.26045400000347 ], [ -80.310456000001537, 36.260339000002752 ], [ -80.261891000002151, 36.25984200000309 ], [ -80.241239000002153, 36.259623000003089 ], [ -80.212709000001794, 36.259316000003039 ], [ -80.179881000001316, 36.25892800000296 ], [ -80.147096000002094, 36.25853700000286 ], [ -80.145349000001815, 36.258517000002627 ], [ -80.098284000001755, 36.25795400000343 ], [ -80.035119000001131, 36.257184000003221 ], [ -80.035984000001733, 36.228712000002986 ], [ -80.037791000001519, 36.176378000003453 ], [ -80.038554000001241, 36.146463000002846 ], [ -80.03920400000149, 36.134104000003049 ], [ -80.070720000001359, 36.124809000003438 ], [ -80.06940700000159, 36.138546000003146 ], [ -80.081514000001704, 36.140381000003046 ], [ -80.089674000002006, 36.132058000003475 ], [ -80.123228000001902, 36.112394000003235 ], [ -80.149467000002161, 36.113789000003393 ], [ -80.164950000002023, 36.111199000002877 ], [ -80.158896000001647, 36.105488000002815 ], [ -80.138216000001179, 36.092235000003456 ], [ -80.10093300000139, 36.086104000002898 ], [ -80.060148000002116, 36.075110000002795 ], [ -80.065290000002037, 36.05034000000304 ], [ -80.11910800000139, 36.048546000002943 ], [ -80.137528000001268, 36.024971000002999 ], [ -80.110483000001736, 36.020932000002915 ], [ -80.043238000001253, 36.010758000003413 ], [ -80.043783000001241, 35.998356000002751 ], [ -80.04399100000191, 35.993490000003348 ], [ -80.044942000001541, 35.972674000002868 ], [ -80.045616000002141, 35.955749000002896 ], [ -80.046050000001983, 35.945457000003429 ], [ -80.046293000001299, 35.939651000002748 ], [ -80.046869000001209, 35.920693000003354 ], [ -80.047004000001294, 35.916807000002926 ], [ -80.048807000001887, 35.881131000002647 ], [ -80.049177000001379, 35.874985000002944 ], [ -80.052410000001231, 35.819373000003516 ], [ -80.052547000001667, 35.816906000002994 ], [ -80.053437000001239, 35.801643000002713 ], [ -80.056352000001965, 35.750132000002843 ], [ -80.058236000001131, 35.71323300000298 ], [ -80.058681000001485, 35.704184000002634 ], [ -80.062927000002176, 35.612617000002651 ], [ -80.06684200000133, 35.505661000003045 ], [ -80.18255900000203, 35.504151000003496 ], [ -80.183264000001145, 35.504141000003173 ], [ -80.210397000001393, 35.555466000003271 ], [ -80.207101000001245, 35.575998000002677 ], [ -80.241425000001939, 35.612318000003391 ], [ -80.250211000001542, 35.619453000002771 ], [ -80.283678000001487, 35.633345000003146 ], [ -80.303655000002024, 35.652379000003002 ], [ -80.317766000001697, 35.672681000002861 ], [ -80.333317000001955, 35.68356300000336 ], [ -80.332379000001126, 35.718873000003192 ], [ -80.391414000001447, 35.722319000003083 ], [ -80.422899000002019, 35.725869000003058 ], [ -80.453409000001557, 35.734515000003057 ], [ -80.458923000001718, 35.742758000002773 ], [ -80.471820000001273, 35.768356000003173 ], [ -80.534108000001794, 35.786166000003426 ], [ -80.535563000001616, 35.791561000003242 ], [ -80.593153000001536, 35.820622000003226 ], [ -80.602221000001549, 35.823563000002906 ], [ -80.632536000001195, 35.845703000002899 ], [ -80.676845000001563, 35.855845000002979 ], [ -80.707824000001679, 35.852961000002708 ], [ -80.723898000001327, 35.807435000003146 ], [ -80.828177000001958, 35.816393000003181 ], [ -80.838812000001681, 35.817386000002934 ] ] ] } },
{ "type": "Feature", "properties": { "opt_all": 6, "population": 748208.0, "voting_age_pop": 589255.0, "dem_votes": 193464.0, "rep_votes": 171928.0, "minority_pop": 242736.0, "dem_pct": 0.52946972004601367, "rep_pct": 0.47053027968030764 }, "geometry": { "type": "Polygon", "coordinates": [ [ [ -80.110483000001736, 36.020932000002915 ], [ -80.137528000001268, 36.024971000002999 ], [ -80.11910800000139, 36.048546000002943 ], [ -80.065290000002037, 36.05034000000304 ], [ -80.060148000002116, 36.075110000002795 ], [ -80.10093300000139, 36.086104000002898 ], [ -80.138216000001179, 36.092235000003456 ], [ -80.158896000001647, 36.105488000002815 ], [ -80.164950000002023, 36.111199000002877 ], [ -80.149467000002161, 36.113789000003393 ], [ -80.123228000001902, 36.112394000003235 ], [ -80.089674000002006, 36.132058000003475 ], [ -80.081514000001704, 36.140381000003046 ], [ -80.06940700000159, 36.138546000003146 ], [ -80.070720000001359, 36.124809000003438 ], [ -80.03920400000149, 36.134104000003049 ], [ -80.038554000001241, 36.146463000002846 ], [ -80.037791000001519, 36.176378000003453 ], [ -80.035984000001733, 36.228712000002986 ], [ -80.035119000001131, 36.257184000003221 ], [ -80.098284000001755, 36.25795400000343 ], [ -80.145349000001815, 36.258517000002627 ], [ -80.147096000002094, 36.25853700000286 ], [ -80.179881000001316, 36.25892800000296 ], [ -80.212709000001794, 36.259316000003039 ], [ -80.241239000002153, 36.259623000003089 ], [ -80.261891000002151, 36.25984200000309 ], [ -80.310456000001537, 36.260339000002752 ], [ -80.3265850000016, 36.26045400000347 ], [ -80.340259000001296, 36.260579000003212 ], [ -80.364427000001839, 36.260793000002685 ], [ -80.405702000001895, 36.261161000003312 ], [ -80.434788000001703, 36.261382000003479 ], [ -80.45192500000185, 36.261515000003158 ], [ -80.449906000001974, 36.338994000003183 ], [ -80.448305000001596, 36.405852000003179 ], [ -80.447632000002145, 36.423699000003303 ], [ -80.446982000001412, 36.438380000003043 ], [ -80.446035000001302, 36.454605000003419 ], [ -80.44472900000153, 36.474689000002982 ], [ -80.440340000001626, 36.550665000002638 ], [ -80.294877000001506, 36.544053000002833 ], [ -80.172967000001663, 36.543182000003029 ], [ -80.027339000001874, 36.542480000003472 ], [ -79.992230000001783, 36.542426000002898 ], [ -79.829182000001595, 36.542472000003016 ], [ -79.775078000002082, 36.542242000003448 ], [ -79.731892000001352, 36.542027000002868 ], [ -79.604774000002138, 36.541553000003162 ], [ -79.513638000001279, 36.540902000002731 ], [ -79.519820000001786, 36.442359000003179 ], [ -79.522531000001976, 36.399088000002855 ], [ -79.525352000001604, 36.353994000002771 ], [ -79.531865000001488, 36.249673000003256 ], [ -79.53241000000159, 36.241463000002895 ], [ -79.53510400000161, 36.182412000003033 ], [ -79.536717000001985, 36.15177800000302 ], [ -79.537234000001646, 36.135859000003222 ], [ -79.537550000002, 36.126119000003371 ], [ -79.539163000001068, 36.081152000002682 ], [ -79.539412000002088, 36.045738000003496 ], [ -79.539673000001144, 36.012836000003411 ], [ -79.540390000001295, 35.966481000002666 ], [ -79.541728000002081, 35.899851000003345 ], [ -79.627946000001728, 35.903368000003333 ], [ -79.629457000002091, 35.903429000003307 ], [ -79.713233000001722, 35.906790000002665 ], [ -79.763309000001385, 35.908842000003126 ], [ -79.791236000001916, 35.910102000002986 ], [ -79.854633000001925, 35.912946000003153 ], [ -79.827810000002017, 35.873375000002838 ], [ -79.824254000001474, 35.845502000003158 ], [ -79.836389000001773, 35.811124000003204 ], [ -79.925379000001556, 35.813556000002649 ], [ -79.927165000001295, 35.775929000003281 ], [ -79.929609000001491, 35.724415000003006 ], [ -79.93022200000209, 35.711508000003484 ], [ -79.939811000001711, 35.508705000002692 ], [ -79.995600000001602, 35.507107000002826 ], [ -80.06684200000133, 35.505661000003045 ], [ -80.062927000002176, 35.612617000002651 ], [ -80.058681000001485, 35.704184000002634 ], [ -80.058236000001131, 35.71323300000298 ], [ -80.056352000001965, 35.750132000002843 ], [ -80.053437000001239, 35.801643000002713 ], [ -80.052547000001667, 35.816906000002994 ], [ -80.052410000001231, 35.819373000003516 ], [ -80.049177000001379, 35.874985000002944 ], [ -80.048807000001887, 35.881131000002647 ], [ -80.047004000001294, 35.916807000002926 ], [ -80.046869000001209, 35.920693000003354 ], [ -80.046293000001299, 35.939651000002748 ], [ -80.046050000001983, 35.945457000003429 ], [ -80.045616000002141, 35.955749000002896 ], [ -80.044942000001541, 35.972674000002868 ], [ -80.04399100000191, 35.993490000003348 ], [ -80.043783000001241, 35.998356000002751 ], [ -80.043238000001253, 36.010758000003413 ], [ -80.110483000001736, 36.020932000002915 ] ] ] } },
{ "type": "Feature", "properties": { "opt_all": 7, "population": 747547.0, "voting_age_pop": 576529.0, "dem_votes": 152776.0, "rep_votes": 196737.0, "minority_pop": 226738.0, "dem_pct": 0.43711106584387099, "rep_pct": 0.56288893387001659 }, "geometry": { "type": "Polygon", "coordinates": [ [ [ -78.73483400000174, 34.016028000003452 ], [ -78.797871000001308, 34.069258000003352 ], [ -78.93089200000135, 34.18148600000341 ], [ -78.988196000001281, 34.229645000003437 ], [ -79.071211000001114, 34.299342000003094 ], [ -79.034400000001725, 34.322571000003521 ], [ -79.006126000001771, 34.383712000002774 ], [ -78.968172000001331, 34.397304000003508 ], [ -78.959887000001231, 34.442832000003513 ], [ -78.945593000001921, 34.450309000003173 ], [ -78.900347000001318, 34.460176000002868 ], [ -78.868961000001534, 34.484778000003438 ], [ -78.844438000001858, 34.508096000002702 ], [ -78.856646000001163, 34.524141000003581 ], [ -78.854862000001688, 34.573848000002783 ], [ -78.831786000001131, 34.611921000002859 ], [ -78.829757000001578, 34.631076000003475 ], [ -78.806397000002036, 34.675140000003267 ], [ -78.821420000001126, 34.709330000003106 ], [ -78.854417000001362, 34.736835000003374 ], [ -78.8693970000013, 34.773775000002729 ], [ -78.901998000001328, 34.835268000003509 ], [ -78.82633100000146, 34.850693000003204 ], [ -78.816711000001987, 34.892399000002882 ], [ -78.814720000001643, 34.907078000003295 ], [ -78.774607000001936, 34.948518000003233 ], [ -78.782562000001434, 34.977663000003233 ], [ -78.745607000001684, 34.987230000003557 ], [ -78.792347000001996, 35.030535000003347 ], [ -78.755707000001109, 35.03565800000279 ], [ -78.716185000001261, 35.052973000003085 ], [ -78.675143000001356, 35.084077000003013 ], [ -78.709759000001057, 35.121041000002876 ], [ -78.75452600000169, 35.123036000003239 ], [ -78.787195000001276, 35.153296000003188 ], [ -78.8135490000017, 35.141604000003156 ], [ -78.837818000001704, 35.159640000003165 ], [ -78.829957000002082, 35.166439000002995 ], [ -78.852562000001456, 35.179783000003084 ], [ -78.8489920000019, 35.205365000002708 ], [ -78.878390000001687, 35.231602000003029 ], [ -78.867507000001396, 35.245015000003278 ], [ -78.783743000002119, 35.262526000002694 ], [ -78.702740000001938, 35.25681500000286 ], [ -78.643526000001543, 35.249121000003214 ], [ -78.617114000001109, 35.245718000002711 ], [ -78.599800000002048, 35.258716000003169 ], [ -78.580802000001725, 35.298194000003484 ], [ -78.538349000001261, 35.31641000000311 ], [ -78.535196000001932, 35.345032000003421 ], [ -78.562832000001578, 35.363960000002834 ], [ -78.574452000001244, 35.388505000003114 ], [ -78.595094000002092, 35.401948000002818 ], [ -78.607417000001576, 35.430956000002702 ], [ -78.614775000002069, 35.440280000002701 ], [ -78.581576000002002, 35.464732000002847 ], [ -78.573865000001661, 35.497283000003506 ], [ -78.553721000001318, 35.515881000003134 ], [ -78.53440100000104, 35.535313000002773 ], [ -78.558354000001046, 35.551963000002807 ], [ -78.537373000001139, 35.575133000002715 ], [ -78.543059000001008, 35.580365000002942 ], [ -78.587878000001538, 35.612551000003464 ], [ -78.566639000001587, 35.629002000003382 ], [ -78.540033000002026, 35.649734000002915 ], [ -78.575313000001088, 35.670653000003234 ], [ -78.584533000001187, 35.696478000003388 ], [ -78.588851000001227, 35.70335600000341 ], [ -78.568230000001705, 35.746818000002825 ], [ -78.534489000001344, 35.749443000003076 ], [ -78.556143000001967, 35.730031000002825 ], [ -78.519263000001942, 35.719160000003079 ], [ -78.513582000001108, 35.726812000002703 ], [ -78.531617000001546, 35.750882000003493 ], [ -78.531972000001787, 35.754551000003509 ], [ -78.539728000001332, 35.773258000003423 ], [ -78.539370000001369, 35.793434000002733 ], [ -78.535970000001981, 35.83071300000325 ], [ -78.52858600000107, 35.857375000003174 ], [ -78.512810000001224, 35.856172000003291 ], [ -78.506572000001398, 35.89601500000343 ], [ -78.479560000001257, 35.907534000003508 ], [ -78.47501200000147, 35.879684000003174 ], [ -78.449704000001304, 35.87874100000333 ], [ -78.388321000002065, 35.914721000002878 ], [ -78.391939000001159, 35.936538000003104 ], [ -78.354268000001298, 35.931196000003062 ], [ -78.351206000001326, 35.910845000003128 ], [ -78.310488000001087, 35.896337000002951 ], [ -78.298882000001313, 35.886897000002861 ], [ -78.275286000001913, 35.862284000002838 ], [ -78.255973000001873, 35.818120000003532 ], [ -78.249103000001796, 35.772392000002768 ], [ -78.215472000001114, 35.735837000003286 ], [ -78.192117000001758, 35.730545000002842 ], [ -78.163916000001265, 35.74206500000296 ], [ -78.038023000001544, 35.787519000002987 ], [ -78.003478000001962, 35.769777000003366 ], [ -77.975461000001943, 35.739955000003064 ], [ -77.969774000001834, 35.715799000002711 ], [ -77.992839000001553, 35.711564000003399 ], [ -77.97077300000187, 35.672864000003486 ], [ -77.970449000001238, 35.638564000003164 ], [ -77.988143000001088, 35.625708000003378 ], [ -77.983164000001153, 35.585683000002795 ], [ -77.953906000001666, 35.585843000002761 ], [ -77.87375100000105, 35.586241000003 ], [ -77.822511000001043, 35.585383000002786 ], [ -77.825371000002065, 35.476492000003226 ], [ -77.825530000001152, 35.470419000003389 ], [ -77.826744000001057, 35.424090000003424 ], [ -77.805536000001538, 35.407504000003328 ], [ -77.802815000001374, 35.372971000002714 ], [ -77.806248000001275, 35.368754000003392 ], [ -77.741176000001701, 35.371966000003113 ], [ -77.697516000001059, 35.377097000003232 ], [ -77.660842000001892, 35.352814000003079 ], [ -77.63910100000156, 35.354086000003392 ], [ -77.610962000001365, 35.378633000002772 ], [ -77.589323000001727, 35.37376300000323 ], [ -77.540785000001165, 35.395929000002731 ], [ -77.528338000001497, 35.414336000003409 ], [ -77.493568000001048, 35.411618000002747 ], [ -77.475515000001266, 35.426655000003514 ], [ -77.469904000001719, 35.419924000003036 ], [ -77.431461000001832, 35.366950000003541 ], [ -77.391026000001318, 35.339533000003271 ], [ -77.410923000001262, 35.337799000003471 ], [ -77.44053700000191, 35.303509000002734 ], [ -77.433512000001471, 35.249634000002992 ], [ -77.47369200000135, 35.228985000003135 ], [ -77.527182000001929, 35.243001000003161 ], [ -77.507463000001039, 35.172814000003548 ], [ -77.5299520000016, 35.14855400000279 ], [ -77.534681000001086, 35.143434000003012 ], [ -77.553590000001122, 35.122999000002835 ], [ -77.598044000001735, 35.074875000003459 ], [ -77.678797000001481, 35.033619000003334 ], [ -77.731026000001691, 35.008138000003413 ], [ -77.674805000001228, 34.973900000002786 ], [ -77.651093000001978, 34.923679000003006 ], [ -77.660947000001897, 34.871029000002906 ], [ -77.666060000001181, 34.839651000003506 ], [ -77.673211000001928, 34.813577000002866 ], [ -77.678942000001541, 34.781926000003182 ], [ -77.680127000001917, 34.720595000002824 ], [ -77.921538000001505, 34.719746000003305 ], [ -77.928493000001453, 34.721922000002962 ], [ -77.991255000001757, 34.71605600000327 ], [ -78.034747000001246, 34.726858000002899 ], [ -78.114007000001237, 34.721795000003354 ], [ -78.114210000001748, 34.706735000002759 ], [ -78.156520000001706, 34.679070000003243 ], [ -78.233546000001752, 34.58036200000334 ], [ -78.254441000001151, 34.553595000003355 ], [ -78.272227000001507, 34.538381000002957 ], [ -78.245401000001664, 34.4998500000032 ], [ -78.208927000001623, 34.487759000003138 ], [ -78.176501000001181, 34.465356000003204 ], [ -78.201174000001956, 34.4449510000034 ], [ -78.25608500000132, 34.399469000002767 ], [ -78.235682000001816, 34.374713000003538 ], [ -78.192888000001773, 34.352675000002726 ], [ -78.162350000001396, 34.3570070000032 ], [ -78.233385000001093, 34.248466000003432 ], [ -78.124650000001637, 34.247960000002792 ], [ -78.098130000001049, 34.265257000003231 ], [ -78.069795000001548, 34.245353000003476 ], [ -78.056631000001332, 34.199369000003301 ], [ -78.035532000001467, 34.169248000002895 ], [ -78.037537000001265, 34.109437000002792 ], [ -78.077507000002058, 34.101981000002759 ], [ -78.097354000001289, 34.078585000002761 ], [ -78.092856000001348, 34.059165000002757 ], [ -78.109355000001258, 34.013194000002947 ], [ -78.146802000001742, 34.011573000002727 ], [ -78.1306150000012, 33.972087000003214 ], [ -78.153296000001575, 33.927082000003608 ], [ -78.107135000001648, 33.922140000003473 ], [ -78.087699000001251, 33.922192000003548 ], [ -78.086221000001871, 33.903692000003012 ], [ -78.016695000001604, 33.883883000002768 ], [ -78.00789200000149, 33.852526000003436 ], [ -77.961885000001814, 33.8304740000032 ], [ -77.932512000001267, 33.912772000002889 ], [ -77.897011000002024, 33.786800000002984 ], [ -77.917505000001526, 33.763820000002802 ], [ -77.964052000001686, 33.752899000003261 ], [ -77.999710000001826, 33.76713000000354 ], [ -78.012860000001837, 33.803863000003346 ], [ -78.05289500000184, 33.827432000003476 ], [ -78.066581000001605, 33.847985000003604 ], [ -78.145353000001379, 33.862734000003144 ], [ -78.233090000001255, 33.862518000003099 ], [ -78.262335000001684, 33.863163000003418 ], [ -78.368392000002075, 33.851174000002956 ], [ -78.465265000001367, 33.823910000003494 ], [ -78.499301000001907, 33.812852000003396 ], [ -78.573261000001523, 33.878847000003489 ], [ -78.592442000001995, 33.89517600000336 ], [ -78.650342000001316, 33.944365000002868 ], [ -78.73483400000174, 34.016028000003452 ] ] ] } },
{ "type": "Feature", "properties": { "opt_all": 8, "population": 746256.0, "voting_age_pop": 561974.0, "dem_votes": 179935.0, "rep_votes": 173220.0, "minority_pop": 221591.0, "dem_pct": 0.50950715676982994, "rep_pct": 0.49049284294700829 }, "geometry": { "type": "Polygon", "coordinates": [ [ [ -80.898167000001692, 35.067633000003184 ], [ -80.919818000001655, 35.091691000002776 ], [ -80.947090000001353, 35.09956400000317 ], [ -81.041496000001374, 35.044713000003021 ], [ -81.057672000002071, 35.061867000003417 ], [ -81.040125000001794, 35.101737000003411 ], [ -81.051884000001905, 35.134497000003392 ], [ -81.033909000001245, 35.148690000003015 ], [ -81.031371000001585, 35.148443000002892 ], [ -81.009510000001882, 35.153126000002807 ], [ -81.003185000001636, 35.173182000003088 ], [ -80.959402000001788, 35.172915000002597 ], [ -80.957967000001545, 35.189614000002635 ], [ -80.929171000002015, 35.189837000003436 ], [ -80.921222000002004, 35.16374100000337 ], [ -80.953347000001941, 35.152654000003203 ], [ -80.917517000002178, 35.125263000003038 ], [ -80.904713000001436, 35.118423000002956 ], [ -80.882920000001747, 35.102414000002987 ], [ -80.881165000001701, 35.119627000003405 ], [ -80.868109000001951, 35.118317000002811 ], [ -80.86510000000186, 35.131712000003489 ], [ -80.857795000002028, 35.148011000002803 ], [ -80.857372000002243, 35.151090000003471 ], [ -80.848782000001876, 35.160040000002603 ], [ -80.850264000001431, 35.16502100000281 ], [ -80.851159000001488, 35.172073000003053 ], [ -80.851360000001662, 35.180016000003313 ], [ -80.84484200000216, 35.18155000000327 ], [ -80.836974000001177, 35.179377000002688 ], [ -80.83647800000179, 35.181190000003426 ], [ -80.827216000001357, 35.195922000003513 ], [ -80.813672000002072, 35.192436000002644 ], [ -80.812522000002048, 35.199510000003187 ], [ -80.810874000001888, 35.190623000003242 ], [ -80.793677000002106, 35.191093000003242 ], [ -80.790598000001822, 35.194289000002641 ], [ -80.786247000001822, 35.201927000003295 ], [ -80.780725000002192, 35.215613000002847 ], [ -80.774516000001185, 35.23344800000276 ], [ -80.775653000001739, 35.236789000003249 ], [ -80.759239000001728, 35.237858000002674 ], [ -80.739917000001341, 35.231733000002855 ], [ -80.719986000001384, 35.230026000002731 ], [ -80.71195600000199, 35.229816000003446 ], [ -80.687120000001556, 35.215152000003165 ], [ -80.651447000002165, 35.260427000003496 ], [ -80.627934000001289, 35.248669000002941 ], [ -80.599733000002189, 35.234105000003034 ], [ -80.62908500000178, 35.223350000003336 ], [ -80.670104000002112, 35.208392000002924 ], [ -80.670115000002227, 35.207994000003033 ], [ -80.705177000002067, 35.192641000003121 ], [ -80.713976000002177, 35.183466000003492 ], [ -80.708115000001669, 35.174551000002992 ], [ -80.706841000001347, 35.173344000002842 ], [ -80.699640000002049, 35.161010000003436 ], [ -80.683274000001333, 35.137460000003188 ], [ -80.654172000001438, 35.125048000003339 ], [ -80.636181000001301, 35.139382000003508 ], [ -80.628302000001369, 35.145725000002898 ], [ -80.599735000001374, 35.168645000003487 ], [ -80.550349000001773, 35.208412000002866 ], [ -80.528015000001744, 35.196961000003256 ], [ -80.504985000001753, 35.184998000003084 ], [ -80.470380000001271, 35.167251000003326 ], [ -80.428192000002113, 35.167578000003296 ], [ -80.388328000001451, 35.16586200000269 ], [ -80.370975000002034, 35.179702000002777 ], [ -80.345199000001543, 35.169647000003067 ], [ -80.276829000001456, 35.195722000002988 ], [ -80.253109000001913, 35.210851000003196 ], [ -80.225002000001936, 35.15624100000327 ], [ -80.178534000002173, 35.149964000002782 ], [ -80.157837000002104, 35.172788000002896 ], [ -80.107444000001351, 35.173664000003143 ], [ -80.075365000001867, 35.14308100000288 ], [ -80.022232000001182, 35.137378000003132 ], [ -79.98339900000127, 35.158510000003062 ], [ -79.909679000001759, 35.162517000003163 ], [ -79.851268000001369, 35.183855000002872 ], [ -79.784040000001639, 35.175709000003181 ], [ -79.733198000002005, 35.178176000002779 ], [ -79.673494000001824, 35.175374000003295 ], [ -79.64212900000112, 35.157717000002961 ], [ -79.622453000001656, 35.162592000003379 ], [ -79.614304000002008, 35.163679000003064 ], [ -79.576222000001309, 35.124400000003178 ], [ -79.582779000001736, 35.083960000003344 ], [ -79.566497000001689, 35.064011000003049 ], [ -79.50130400000117, 35.064235000003485 ], [ -79.458751000001868, 35.043639000003324 ], [ -79.513485000001538, 35.024632000002846 ], [ -79.567506000001373, 34.994860000003129 ], [ -79.585631000002167, 34.954522000002733 ], [ -79.561856000002166, 34.910350000002779 ], [ -79.624266000001242, 34.855425000002789 ], [ -79.614045000002051, 34.815309000003005 ], [ -79.634571000002026, 34.825493000002865 ], [ -79.692944000001873, 34.805155000003012 ], [ -79.774093000001244, 34.805692000003553 ], [ -79.927412000001723, 34.806734000002685 ], [ -80.043172000001476, 34.809061000003204 ], [ -80.189214000001172, 34.811832000003491 ], [ -80.320828000001583, 34.813906000003392 ], [ -80.485676000001163, 34.816686000003465 ], [ -80.626077000001246, 34.818208000002741 ], [ -80.693720000001349, 34.818994000002782 ], [ -80.797484000002143, 34.81980300000302 ], [ -80.795392000001456, 34.835467000003433 ], [ -80.786651000001484, 34.902456000003021 ], [ -80.781924000001425, 34.935828000003475 ], [ -80.803054000001552, 34.959097000003396 ], [ -80.831536000002131, 34.991335000003474 ], [ -80.840278000001575, 35.001692000003025 ], [ -80.87050200000121, 35.036835000002945 ], [ -80.898167000001692, 35.067633000003184 ] ] ] } },
{ "type": "Feature", "properties": { "opt_all": 9, "population": 743532.0, "voting_age_pop": 567991.0, "dem_votes": 150188.0, "rep_votes": 156534.0, "minority_pop": 285247.0, "dem_pct": 0.48965512728475458, "rep_pct": 0.51034487238921733 }, "geometry": { "type": "Polygon", "coordinates": [ [ [ -79.634571000002026, 34.825493000002865 ], [ -79.614045000002051, 34.815309000003005 ], [ -79.624266000001242, 34.855425000002789 ], [ -79.561856000002166, 34.910350000002779 ], [ -79.585631000002167, 34.954522000002733 ], [ -79.567506000001373, 34.994860000003129 ], [ -79.513485000001538, 35.024632000002846 ], [ -79.458751000001868, 35.043639000003324 ], [ -79.50130400000117, 35.064235000003485 ], [ -79.566497000001689, 35.064011000003049 ], [ -79.582779000001736, 35.083960000003344 ], [ -79.576222000001309, 35.124400000003178 ], [ -79.614304000002008, 35.163679000003064 ], [ -79.622453000001656, 35.162592000003379 ], [ -79.64212900000112, 35.157717000002961 ], [ -79.673494000001824, 35.175374000003295 ], [ -79.733198000002005, 35.178176000002779 ], [ -79.784040000001639, 35.175709000003181 ], [ -79.851268000001369, 35.183855000002872 ], [ -79.909679000001759, 35.162517000003163 ], [ -79.98339900000127, 35.158510000003062 ], [ -80.022232000001182, 35.137378000003132 ], [ -80.075365000001867, 35.14308100000288 ], [ -80.056861000001859, 35.164035000003224 ], [ -80.061917000001813, 35.200676000002815 ], [ -80.062188000001655, 35.201331000003073 ], [ -80.09818500000172, 35.255173000003246 ], [ -80.093966000001444, 35.287087000002771 ], [ -80.080208000001818, 35.308638000003512 ], [ -80.065958000001828, 35.345213000002758 ], [ -80.059780000001254, 35.381137000003143 ], [ -80.093711000001491, 35.402030000002952 ], [ -80.09327200000169, 35.419928000003502 ], [ -80.108495000001398, 35.459451000003533 ], [ -80.146016000001424, 35.473157000002729 ], [ -80.176243000001932, 35.485428000003054 ], [ -80.18255900000203, 35.504151000003496 ], [ -80.06684200000133, 35.505661000003045 ], [ -79.995600000001602, 35.507107000002826 ], [ -79.939811000001711, 35.508705000002692 ], [ -79.93022200000209, 35.711508000003484 ], [ -79.929609000001491, 35.724415000003006 ], [ -79.927165000001295, 35.775929000003281 ], [ -79.925379000001556, 35.813556000002649 ], [ -79.836389000001773, 35.811124000003204 ], [ -79.824254000001474, 35.845502000003158 ], [ -79.827810000002017, 35.873375000002838 ], [ -79.854633000001925, 35.912946000003153 ], [ -79.791236000001916, 35.910102000002986 ], [ -79.763309000001385, 35.908842000003126 ], [ -79.713233000001722, 35.906790000002665 ], [ -79.629457000002091, 35.903429000003307 ], [ -79.627946000001728, 35.903368000003333 ], [ -79.541728000002081, 35.899851000003345 ], [ -79.542428000001678, 35.843303000003338 ], [ -79.543218000001758, 35.81775800000338 ], [ -79.544301000001511, 35.782927000002736 ], [ -79.545541000001506, 35.74260100000334 ], [ -79.546895000001797, 35.705514000003021 ], [ -79.551423000001449, 35.631484000003439 ], [ -79.555804000001487, 35.515039000002638 ], [ -79.49420700000168, 35.515964000002988 ], [ -79.430041000001211, 35.516891000003447 ], [ -79.421874000002134, 35.517007000003062 ], [ -79.350073000001373, 35.518002000003314 ], [ -79.3358780000015, 35.49797300000354 ], [ -79.359453000001764, 35.469364000003367 ], [ -79.328888000001086, 35.423105000003098 ], [ -79.299632000001282, 35.40292600000285 ], [ -79.2895610000012, 35.400439000003338 ], [ -79.265713000002023, 35.345279000003018 ], [ -79.238984000001665, 35.33430900000328 ], [ -79.183556000001843, 35.307161000003447 ], [ -79.22302100000158, 35.268133000002692 ], [ -79.165108000001865, 35.240925000002868 ], [ -79.152080000001448, 35.214501000003104 ], [ -79.095808000001099, 35.192068000003417 ], [ -79.027039000001295, 35.20787900000316 ], [ -79.016130000001098, 35.210241000003506 ], [ -78.941816000001793, 35.219276000002964 ], [ -78.93553400000161, 35.218734000003501 ], [ -78.878390000001687, 35.231602000003029 ], [ -78.8489920000019, 35.205365000002708 ], [ -78.852562000001456, 35.179783000003084 ], [ -78.829957000002082, 35.166439000002995 ], [ -78.837818000001704, 35.159640000003165 ], [ -78.8135490000017, 35.141604000003156 ], [ -78.787195000001276, 35.153296000003188 ], [ -78.75452600000169, 35.123036000003239 ], [ -78.709759000001057, 35.121041000002876 ], [ -78.675143000001356, 35.084077000003013 ], [ -78.716185000001261, 35.052973000003085 ], [ -78.755707000001109, 35.03565800000279 ], [ -78.792347000001996, 35.030535000003347 ], [ -78.745607000001684, 34.987230000003557 ], [ -78.782562000001434, 34.977663000003233 ], [ -78.774607000001936, 34.948518000003233 ], [ -78.814720000001643, 34.907078000003295 ], [ -78.816711000001987, 34.892399000002882 ], [ -78.82633100000146, 34.850693000003204 ], [ -78.901998000001328, 34.835268000003509 ], [ -78.8693970000013, 34.773775000002729 ], [ -78.854417000001362, 34.736835000003374 ], [ -78.821420000001126, 34.709330000003106 ], [ -78.806397000002036, 34.675140000003267 ], [ -78.829757000001578, 34.631076000003475 ], [ -78.831786000001131, 34.611921000002859 ], [ -78.854862000001688, 34.573848000002783 ], [ -78.856646000001163, 34.524141000003581 ], [ -78.844438000001858, 34.508096000002702 ], [ -78.868961000001534, 34.484778000003438 ], [ -78.900347000001318, 34.460176000002868 ], [ -78.945593000001921, 34.450309000003173 ], [ -78.959887000001231, 34.442832000003513 ], [ -78.968172000001331, 34.397304000003508 ], [ -79.006126000001771, 34.383712000002774 ], [ -79.034400000001725, 34.322571000003521 ], [ -79.071211000001114, 34.299342000003094 ], [ -79.108761000001309, 34.330935000003002 ], [ -79.192195000001874, 34.401109000003508 ], [ -79.275187000001196, 34.472282000003268 ], [ -79.365407000001895, 34.551650000002866 ], [ -79.419309000002002, 34.596243000003113 ], [ -79.46150600000216, 34.630379000002897 ], [ -79.504942000001776, 34.665757000002742 ], [ -79.532567000001521, 34.688260000003488 ], [ -79.676494000001284, 34.805065000003367 ], [ -79.692944000001873, 34.805155000003012 ], [ -79.634571000002026, 34.825493000002865 ] ] ] } },
{ "type": "Feature", "properties": { "opt_all": 10, "population": 746886.0, "voting_age_pop": 598420.0, "dem_votes": 117261.0, "rep_votes": 245429.0, "minority_pop": 108400.0, "dem_pct": 0.32330916200520854, "rep_pct": 0.6766908377190739 }, "geometry": { "type": "Polygon", "coordinates": [ [ [ -82.155032000001839, 35.520397000003257 ], [ -82.155493000001599, 35.520643000003126 ], [ -82.16904900000128, 35.527811000002771 ], [ -82.267359000001534, 35.572213000003387 ], [ -82.291026000002162, 35.591322000003046 ], [ -82.27265100000227, 35.621949000002836 ], [ -82.295007000001576, 35.684317000003148 ], [ -82.275399000001642, 35.704438000002838 ], [ -82.20091200000148, 35.733565000003189 ], [ -82.162372000001739, 35.773453000003443 ], [ -82.167895000001465, 35.789138000003391 ], [ -82.133484000001289, 35.823309000002915 ], [ -82.145305000001386, 35.877834000003418 ], [ -82.148328000001669, 35.932861000003264 ], [ -82.186099000002315, 35.943681000003195 ], [ -82.191353000001357, 35.981880000002718 ], [ -82.195948000001849, 36.0126670000027 ], [ -82.238521000001313, 36.004837000002802 ], [ -82.267967000001889, 36.014362000002556 ], [ -82.301867000001664, 36.045245000002652 ], [ -82.320604000002135, 36.025712000002557 ], [ -82.328192000001451, 36.029200000002874 ], [ -82.345290000002251, 36.076459000002806 ], [ -82.416738000001274, 36.072827000002981 ], [ -82.355684000001602, 36.115139000003111 ], [ -82.297270000002086, 36.133448000002765 ], [ -82.245215000001437, 36.131221000003066 ], [ -82.213898000001947, 36.15904100000337 ], [ -82.177217000001946, 36.142373000003353 ], [ -82.148175000001842, 36.147952000003215 ], [ -82.130626000001513, 36.105024000003198 ], [ -82.081079000001964, 36.103170000002578 ], [ -82.054012000001975, 36.12667400000278 ], [ -82.033839000002246, 36.12047500000282 ], [ -82.019447000002017, 36.141004000002603 ], [ -82.016572000001929, 36.145136000003063 ], [ -81.970704000001547, 36.212310000003278 ], [ -81.918119000001695, 36.287129000002579 ], [ -81.841191000001373, 36.343353000002892 ], [ -81.788600000001637, 36.348163000002835 ], [ -81.764703000002228, 36.338778000003408 ], [ -81.707450000001529, 36.335849000003094 ], [ -81.731246000001491, 36.374145000002734 ], [ -81.728781000001561, 36.391309000002671 ], [ -81.715430000002115, 36.457636000003426 ], [ -81.695109000001523, 36.467565000003468 ], [ -81.697230000001269, 36.496377000002937 ], [ -81.70787800000123, 36.536006000002686 ], [ -81.677382000001529, 36.581444000003337 ], [ -81.600455000001475, 36.586948000002977 ], [ -81.535358000001807, 36.581715000003229 ], [ -81.434898000002164, 36.576591000002914 ], [ -81.353259000001586, 36.574692000003132 ], [ -81.353150000001676, 36.546077000003223 ], [ -81.296815000001757, 36.466856000003233 ], [ -81.272081000002061, 36.446848000003079 ], [ -81.266578000002241, 36.415248000003082 ], [ -81.245549000001205, 36.391218000002972 ], [ -81.25355200000196, 36.366622000002927 ], [ -81.25463600000171, 36.364424000003389 ], [ -81.235939000001707, 36.310568000002611 ], [ -81.255026000002161, 36.299335000003239 ], [ -81.239926000002129, 36.274098000003072 ], [ -81.217349000001533, 36.256897000002766 ], [ -81.171579000001898, 36.264002000003309 ], [ -81.163978000002004, 36.282261000002578 ], [ -81.130959000001653, 36.279386000003399 ], [ -81.131599000002097, 36.22230500000299 ], [ -81.116459000001967, 36.205294000003455 ], [ -81.152268000001328, 36.205112000002586 ], [ -81.175130000001161, 36.187702000003007 ], [ -81.189764000001261, 36.182241000003394 ], [ -81.221711000001534, 36.182316000003311 ], [ -81.203890000002005, 36.15142300000344 ], [ -81.201498000001919, 36.140537000003199 ], [ -81.209060000001188, 36.133311000003282 ], [ -81.196446000001515, 36.111703000003125 ], [ -81.165966000001504, 36.109779000002881 ], [ -81.143992000001887, 36.08936600000326 ], [ -81.132830000001817, 36.036923000003291 ], [ -81.098113000001945, 36.028162000002766 ], [ -81.057572000001429, 36.031550000003172 ], [ -81.028833000001441, 36.045652000002718 ], [ -81.00340000000115, 35.99673700000308 ], [ -81.00481000000191, 35.971539000002814 ], [ -81.029848000002005, 35.890124000003354 ], [ -81.029900000001206, 35.889968000003151 ], [ -81.052138000001591, 35.844995000003195 ], [ -81.060451000001976, 35.835109000002639 ], [ -81.109507000001841, 35.776594000002966 ], [ -81.074898000002221, 35.743203000002687 ], [ -81.074714000001606, 35.743087000002902 ], [ -81.046431000001618, 35.707663000002597 ], [ -81.005321000001516, 35.710209000002649 ], [ -80.958830000001271, 35.654401000003098 ], [ -80.927540000001429, 35.622978000003222 ], [ -80.943524000002071, 35.604931000003013 ], [ -80.933638000001906, 35.590933000002764 ], [ -80.951295000001863, 35.58127300000281 ], [ -80.960025000001536, 35.547020000002689 ], [ -80.956580000001495, 35.53157100000287 ], [ -80.948723000001294, 35.491669000002915 ], [ -80.947344000001607, 35.488473000002713 ], [ -80.950452000002201, 35.473088000003401 ], [ -80.949015000001665, 35.448475000002858 ], [ -80.956518000002191, 35.427503000003142 ], [ -80.955708000001337, 35.40162300000312 ], [ -80.95486000000156, 35.400078000003155 ], [ -81.030512000001451, 35.404393000003381 ], [ -81.030675000002205, 35.404402000003273 ], [ -81.083826000001324, 35.406272000003064 ], [ -81.094164000001641, 35.406632000003405 ], [ -81.177945000001174, 35.409573000003235 ], [ -81.184647000001434, 35.409806000002717 ], [ -81.214383000001291, 35.410842000003306 ], [ -81.248893000001829, 35.353263000002862 ], [ -81.324340000002096, 35.36811600000302 ], [ -81.350114000001426, 35.348603000002932 ], [ -81.356682000001726, 35.330604000003419 ], [ -81.364925000001762, 35.311225000002821 ], [ -81.359857000001455, 35.301968000002816 ], [ -81.353507000001471, 35.277351000002668 ], [ -81.326212000001917, 35.262829000003002 ], [ -81.321729000001199, 35.260449000003405 ], [ -81.324261000001385, 35.241118000002842 ], [ -81.328037000001316, 35.163467000003401 ], [ -81.366600000001455, 35.164883000002789 ], [ -81.516867000001994, 35.170805000003263 ], [ -81.572807000001859, 35.172741000003349 ], [ -81.609001000001285, 35.174350000003287 ], [ -81.768102000001505, 35.180611000003324 ], [ -81.759541000001462, 35.222646000003486 ], [ -81.743242000001956, 35.259999000003042 ], [ -81.707302000001818, 35.34660200000318 ], [ -81.7019630000013, 35.376561000003178 ], [ -81.700971000001317, 35.400656000003011 ], [ -81.695863000002319, 35.483901000003293 ], [ -81.691989000001854, 35.580041000002616 ], [ -81.721701000002255, 35.606308000002684 ], [ -81.752318000002163, 35.612925000003017 ], [ -81.796693000001184, 35.583786000002824 ], [ -81.824122000002276, 35.5749830000033 ], [ -81.84267400000212, 35.542262000003461 ], [ -81.856654000001512, 35.542187000003246 ], [ -81.894783000001667, 35.541975000003362 ], [ -81.967619000001605, 35.526007000003446 ], [ -81.997290000002124, 35.546630000002722 ], [ -82.002733000002124, 35.551811000002893 ], [ -82.039843000002136, 35.532704000003157 ], [ -82.09576600000122, 35.531666000002708 ], [ -82.155032000001839, 35.520397000003257 ] ] ] } },
{ "type": "Feature", "properties": { "opt_all": 11, "population": 746376.0, "voting_age_pop": 609666.0, "dem_votes": 179000.0, "rep_votes": 211993.0, "minority_pop": 95514.0, "dem_pct": 0.45780870745568114, "rep_pct": 0.54219129228855978 }, "geometry": { "type": "Polygon", "coordinates": [ [ [ -84.290519000001794, 35.223571000002721 ], [ -84.211395000002383, 35.265621000002945 ], [ -84.179067000001595, 35.24043400000275 ], [ -84.080324000002264, 35.261430000002569 ], [ -84.029067000002286, 35.292248000003376 ], [ -84.035829000001627, 35.315798000002872 ], [ -84.008305000001528, 35.371996000003016 ], [ -84.021452000002057, 35.404223000003213 ], [ -83.952972000001424, 35.460552000002615 ], [ -83.911875000001402, 35.47606800000284 ], [ -83.880312000001624, 35.518782000003263 ], [ -83.825566000001302, 35.524311000002982 ], [ -83.770587000002266, 35.561743000002679 ], [ -83.706607000001526, 35.568612000002759 ], [ -83.644614000001553, 35.565897000003361 ], [ -83.601774000002123, 35.578919000002529 ], [ -83.58437400000166, 35.562698000002996 ], [ -83.542553000002059, 35.56517900000285 ], [ -83.498544000001601, 35.562888000002829 ], [ -83.472796000002134, 35.586319000003414 ], [ -83.429484000002091, 35.61028600000256 ], [ -83.368295000002192, 35.63776900000331 ], [ -83.350985000001913, 35.66044900000324 ], [ -83.312379000001343, 35.654706000003252 ], [ -83.2542570000018, 35.695593000002823 ], [ -83.240827000002085, 35.726856000003139 ], [ -83.185137000001376, 35.730753000003126 ], [ -83.165059000002231, 35.759504000002906 ], [ -83.099429000001422, 35.775097000003264 ], [ -83.078745000002087, 35.789587000002946 ], [ -83.036487000001586, 35.787488000002845 ], [ -82.995851000001679, 35.773085000003157 ], [ -82.961754000001832, 35.790959000002914 ], [ -82.945630000001856, 35.824615000003185 ], [ -82.916462000002056, 35.841560000003035 ], [ -82.920831000001655, 35.86817800000312 ], [ -82.896776000001296, 35.878257000003366 ], [ -82.913581000001628, 35.924341000003253 ], [ -82.898182000001484, 35.945230000003214 ], [ -82.852030000001548, 35.949329000002614 ], [ -82.805910000001646, 35.935688000002791 ], [ -82.776006000001885, 35.971350000002538 ], [ -82.78530200000165, 35.988384000002675 ], [ -82.684073000002144, 36.045795000002578 ], [ -82.637230000001992, 36.065820000002738 ], [ -82.590995000002295, 36.031574000002571 ], [ -82.615177000002248, 36.000826000003386 ], [ -82.610467000001719, 35.967100000003285 ], [ -82.549975000001709, 35.963840000002932 ], [ -82.505425000001921, 35.977432000003233 ], [ -82.460461000002013, 36.007889000003289 ], [ -82.416738000001274, 36.072827000002981 ], [ -82.345290000002251, 36.076459000002806 ], [ -82.328192000001451, 36.029200000002874 ], [ -82.320604000002135, 36.025712000002557 ], [ -82.301867000001664, 36.045245000002652 ], [ -82.267967000001889, 36.014362000002556 ], [ -82.238521000001313, 36.004837000002802 ], [ -82.195948000001849, 36.0126670000027 ], [ -82.191353000001357, 35.981880000002718 ], [ -82.186099000002315, 35.943681000003195 ], [ -82.148328000001669, 35.932861000003264 ], [ -82.145305000001386, 35.877834000003418 ], [ -82.133484000001289, 35.823309000002915 ], [ -82.167895000001465, 35.789138000003391 ], [ -82.162372000001739, 35.773453000003443 ], [ -82.20091200000148, 35.733565000003189 ], [ -82.275399000001642, 35.704438000002838 ], [ -82.295007000001576, 35.684317000003148 ], [ -82.27265100000227, 35.621949000002836 ], [ -82.291026000002162, 35.591322000003046 ], [ -82.267359000001534, 35.572213000003387 ], [ -82.16904900000128, 35.527811000002771 ], [ -82.155493000001599, 35.520643000003126 ], [ -82.155032000001839, 35.520397000003257 ], [ -82.09576600000122, 35.531666000002708 ], [ -82.039843000002136, 35.532704000003157 ], [ -82.002733000002124, 35.551811000002893 ], [ -81.997290000002124, 35.546630000002722 ], [ -81.967619000001605, 35.526007000003446 ], [ -81.894783000001667, 35.541975000003362 ], [ -81.856654000001512, 35.542187000003246 ], [ -81.84267400000212, 35.542262000003461 ], [ -81.824122000002276, 35.5749830000033 ], [ -81.796693000001184, 35.583786000002824 ], [ -81.752318000002163, 35.612925000003017 ], [ -81.721701000002255, 35.606308000002684 ], [ -81.691989000001854, 35.580041000002616 ], [ -81.695863000002319, 35.483901000003293 ], [ -81.700971000001317, 35.400656000003011 ], [ -81.7019630000013, 35.376561000003178 ], [ -81.707302000001818, 35.34660200000318 ], [ -81.743242000001956, 35.259999000003042 ], [ -81.759541000001462, 35.222646000003486 ], [ -81.768102000001505, 35.180611000003324 ], [ -81.857838000001635, 35.183508000003187 ], [ -81.969348000002128, 35.187217000002825 ], [ -82.13901600000149, 35.193071000002966 ], [ -82.199663000001649, 35.195241000003087 ], [ -82.291080000002211, 35.200085000002751 ], [ -82.313539000001896, 35.19105600000298 ], [ -82.353754000001729, 35.190967000003148 ], [ -82.390077000001284, 35.21533500000303 ], [ -82.419160000002037, 35.199414000003372 ], [ -82.440388000002059, 35.165592000003386 ], [ -82.459939000001526, 35.17800500000304 ], [ -82.574839000001489, 35.14544900000331 ], [ -82.627599000002121, 35.126343000003104 ], [ -82.686965000001251, 35.123542000002985 ], [ -82.697634000001955, 35.095960000003231 ], [ -82.72384900000209, 35.094482000003033 ], [ -82.757176000001294, 35.067203000002806 ], [ -82.783631000001762, 35.085622000002743 ], [ -82.897495000001442, 35.056182000003353 ], [ -83.008531000001796, 35.027394000002793 ], [ -83.108568000001526, 35.001354000003431 ], [ -83.288935000002112, 34.996612000003367 ], [ -83.367758000002198, 34.995139000002581 ], [ -83.48294900000171, 34.993301000002759 ], [ -83.620051000001922, 34.99203200000315 ], [ -83.718538000001416, 34.987519000002969 ], [ -83.790894000001757, 34.987591000002773 ], [ -83.85831800000183, 34.987335000002979 ], [ -83.97957100000167, 34.98727600000273 ], [ -84.005132000001851, 34.987175000002686 ], [ -84.09671500000205, 34.987424000003116 ], [ -84.215982000001389, 34.98787600000334 ], [ -84.321821000001961, 34.988408000002714 ], [ -84.310866000002179, 35.072564000002671 ], [ -84.298030000001972, 35.168380000003161 ], [ -84.290519000001794, 35.223571000002721 ] ] ] } },
{ "type": "Feature", "properties": { "opt_all": 12, "population": 748451.0, "voting_age_pop": 571877.0, "dem_votes": 139699.0, "rep_votes": 214135.0, "minority_pop": 164749.0, "dem_pct": 0.39481508266734822, "rep_pct": 0.60518491705003341 }, "geometry": { "type": "Polygon", "coordinates": [ [ [ -80.843089000001214, 35.367949000003343 ], [ -80.91398800000178, 35.335995000003464 ], [ -80.937268000001581, 35.333458000002842 ], [ -80.943632000001543, 35.350582000003335 ], [ -80.962896000001294, 35.375107000003098 ], [ -80.95486000000156, 35.400078000003155 ], [ -80.955708000001337, 35.40162300000312 ], [ -80.956518000002191, 35.427503000003142 ], [ -80.949015000001665, 35.448475000002858 ], [ -80.950452000002201, 35.473088000003401 ], [ -80.947344000001607, 35.488473000002713 ], [ -80.948723000001294, 35.491669000002915 ], [ -80.956580000001495, 35.53157100000287 ], [ -80.960025000001536, 35.547020000002689 ], [ -80.951295000001863, 35.58127300000281 ], [ -80.933638000001906, 35.590933000002764 ], [ -80.943524000002071, 35.604931000003013 ], [ -80.927540000001429, 35.622978000003222 ], [ -80.958830000001271, 35.654401000003098 ], [ -81.005321000001516, 35.710209000002649 ], [ -81.046431000001618, 35.707663000002597 ], [ -81.074714000001606, 35.743087000002902 ], [ -81.074898000002221, 35.743203000002687 ], [ -81.109507000001841, 35.776594000002966 ], [ -81.060451000001976, 35.835109000002639 ], [ -81.052138000001591, 35.844995000003195 ], [ -81.029900000001206, 35.889968000003151 ], [ -80.981756000002164, 35.878959000003057 ], [ -80.921917000001642, 35.884888000002768 ], [ -80.899360000002133, 35.896658000002702 ], [ -80.813950000001753, 35.883885000003161 ], [ -80.838812000001681, 35.817386000002934 ], [ -80.828177000001958, 35.816393000003181 ], [ -80.723898000001327, 35.807435000003146 ], [ -80.707824000001679, 35.852961000002708 ], [ -80.676845000001563, 35.855845000002979 ], [ -80.632536000001195, 35.845703000002899 ], [ -80.602221000001549, 35.823563000002906 ], [ -80.593153000001536, 35.820622000003226 ], [ -80.535563000001616, 35.791561000003242 ], [ -80.534108000001794, 35.786166000003426 ], [ -80.471820000001273, 35.768356000003173 ], [ -80.458923000001718, 35.742758000002773 ], [ -80.453409000001557, 35.734515000003057 ], [ -80.422899000002019, 35.725869000003058 ], [ -80.391414000001447, 35.722319000003083 ], [ -80.332379000001126, 35.718873000003192 ], [ -80.333317000001955, 35.68356300000336 ], [ -80.317766000001697, 35.672681000002861 ], [ -80.303655000002024, 35.652379000003002 ], [ -80.283678000001487, 35.633345000003146 ], [ -80.250211000001542, 35.619453000002771 ], [ -80.241425000001939, 35.612318000003391 ], [ -80.207101000001245, 35.575998000002677 ], [ -80.210397000001393, 35.555466000003271 ], [ -80.183264000001145, 35.504141000003173 ], [ -80.18255900000203, 35.504151000003496 ], [ -80.176243000001932, 35.485428000003054 ], [ -80.146016000001424, 35.473157000002729 ], [ -80.108495000001398, 35.459451000003533 ], [ -80.09327200000169, 35.419928000003502 ], [ -80.093711000001491, 35.402030000002952 ], [ -80.059780000001254, 35.381137000003143 ], [ -80.065958000001828, 35.345213000002758 ], [ -80.080208000001818, 35.308638000003512 ], [ -80.093966000001444, 35.287087000002771 ], [ -80.09818500000172, 35.255173000003246 ], [ -80.062188000001655, 35.201331000003073 ], [ -80.061917000001813, 35.200676000002815 ], [ -80.056861000001859, 35.164035000003224 ], [ -80.075365000001867, 35.14308100000288 ], [ -80.107444000001351, 35.173664000003143 ], [ -80.157837000002104, 35.172788000002896 ], [ -80.178534000002173, 35.149964000002782 ], [ -80.225002000001936, 35.15624100000327 ], [ -80.253109000001913, 35.210851000003196 ], [ -80.276829000001456, 35.195722000002988 ], [ -80.345199000001543, 35.169647000003067 ], [ -80.370975000002034, 35.179702000002777 ], [ -80.388328000001451, 35.16586200000269 ], [ -80.428192000002113, 35.167578000003296 ], [ -80.470380000001271, 35.167251000003326 ], [ -80.504985000001753, 35.184998000003084 ], [ -80.528015000001744, 35.196961000003256 ], [ -80.550349000001773, 35.208412000002866 ], [ -80.599735000001374, 35.168645000003487 ], [ -80.628302000001369, 35.145725000002898 ], [ -80.636181000001301, 35.139382000003508 ], [ -80.654172000001438, 35.125048000003339 ], [ -80.683274000001333, 35.137460000003188 ], [ -80.699640000002049, 35.161010000003436 ], [ -80.706841000001347, 35.173344000002842 ], [ -80.708115000001669, 35.174551000002992 ], [ -80.713976000002177, 35.183466000003492 ], [ -80.705177000002067, 35.192641000003121 ], [ -80.670115000002227, 35.207994000003033 ], [ -80.670104000002112, 35.208392000002924 ], [ -80.62908500000178, 35.223350000003336 ], [ -80.599733000002189, 35.234105000003034 ], [ -80.627934000001289, 35.248669000002941 ], [ -80.651447000002165, 35.260427000003496 ], [ -80.666095000002187, 35.267747000002956 ], [ -80.672489000001576, 35.284568000002857 ], [ -80.67811700000162, 35.301195000003318 ], [ -80.683017000001485, 35.31564700000331 ], [ -80.693654000002084, 35.346734000003259 ], [ -80.695473000001755, 35.347759000003421 ], [ -80.719672000001523, 35.362792000003417 ], [ -80.732757000001499, 35.371931000003187 ], [ -80.764295000002036, 35.400203000003202 ], [ -80.786697000001908, 35.384439000003219 ], [ -80.819722000001633, 35.363869000003355 ], [ -80.843089000001214, 35.367949000003343 ] ] ] } },
{ "type": "Feature", "properties": { "opt_all": 13, "population": 744476.0, "voting_age_pop": 557378.0, "dem_votes": 189015.0, "rep_votes": 166358.0, "minority_pop": 191087.0, "dem_pct": 0.53187777334466102, "rep_pct": 0.46812222637394452 }, "geometry": { "type": "Polygon", "coordinates": [ [ [ -79.183556000001843, 35.307161000003447 ], [ -79.238984000001665, 35.33430900000328 ], [ -79.265713000002023, 35.345279000003018 ], [ -79.2895610000012, 35.400439000003338 ], [ -79.299632000001282, 35.40292600000285 ], [ -79.328888000001086, 35.423105000003098 ], [ -79.359453000001764, 35.469364000003367 ], [ -79.3358780000015, 35.49797300000354 ], [ -79.350073000001373, 35.518002000003314 ], [ -79.421874000002134, 35.517007000003062 ], [ -79.430041000001211, 35.516891000003447 ], [ -79.49420700000168, 35.515964000002988 ], [ -79.555804000001487, 35.515039000002638 ], [ -79.551423000001449, 35.631484000003439 ], [ -79.546895000001797, 35.705514000003021 ], [ -79.545541000001506, 35.74260100000334 ], [ -79.544301000001511, 35.782927000002736 ], [ -79.543218000001758, 35.81775800000338 ], [ -79.542428000001678, 35.843303000003338 ], [ -79.432774000001174, 35.843684000002675 ], [ -79.350051000001969, 35.843908000002919 ], [ -79.237316000001556, 35.844247000003342 ], [ -79.249538000001863, 35.876810000003168 ], [ -79.148579000001448, 35.866898000003523 ], [ -79.119623000001212, 35.86418600000281 ], [ -79.082158000001698, 35.860785000002714 ], [ -79.081938000002012, 35.860780000002748 ], [ -79.016305000001822, 35.863210000002859 ], [ -79.01148300000213, 35.863423000002939 ], [ -78.943730000001608, 35.866432000003506 ], [ -78.906071000001134, 35.868096000002737 ], [ -78.89240100000174, 35.867902000003127 ], [ -78.890486000001133, 35.867874000003248 ], [ -78.881309000001167, 35.843998000003161 ], [ -78.872604000002113, 35.822632000003168 ], [ -78.87235300000151, 35.820590000002944 ], [ -78.847723000001025, 35.820003000002892 ], [ -78.847219000001203, 35.791431000003122 ], [ -78.838318000001522, 35.792779000002859 ], [ -78.831687000002034, 35.790666000003341 ], [ -78.804777000001948, 35.80319800000305 ], [ -78.807020000001955, 35.822927000003027 ], [ -78.780170000001121, 35.839320000003291 ], [ -78.77156200000212, 35.819091000002864 ], [ -78.781126000001109, 35.809825000003116 ], [ -78.767646000001193, 35.794072000003453 ], [ -78.763343000001967, 35.795248000003447 ], [ -78.745178000001488, 35.792060000002976 ], [ -78.721236000001539, 35.845245000002983 ], [ -78.71195700000203, 35.844875000003185 ], [ -78.674912000001584, 35.836719000003136 ], [ -78.704895000001514, 35.820012000003544 ], [ -78.706251000001885, 35.794466000002714 ], [ -78.717542000001359, 35.788834000003199 ], [ -78.718637000001692, 35.786433000002773 ], [ -78.712676000001679, 35.786482000003055 ], [ -78.723441000001941, 35.769350000003513 ], [ -78.728944000001036, 35.758152000003179 ], [ -78.736373000001763, 35.745652000003275 ], [ -78.704365000001445, 35.71563000000311 ], [ -78.683398000001972, 35.726709000002884 ], [ -78.68035300000146, 35.74299800000346 ], [ -78.651305000001273, 35.731267000003164 ], [ -78.64857400000156, 35.725364000002926 ], [ -78.62638100000153, 35.729656000002755 ], [ -78.600217000001692, 35.728018000003203 ], [ -78.582762000002077, 35.753868000002747 ], [ -78.579098000002105, 35.755622000003036 ], [ -78.568230000001705, 35.746818000002825 ], [ -78.588851000001227, 35.70335600000341 ], [ -78.584533000001187, 35.696478000003388 ], [ -78.575313000001088, 35.670653000003234 ], [ -78.540033000002026, 35.649734000002915 ], [ -78.566639000001587, 35.629002000003382 ], [ -78.587878000001538, 35.612551000003464 ], [ -78.543059000001008, 35.580365000002942 ], [ -78.537373000001139, 35.575133000002715 ], [ -78.558354000001046, 35.551963000002807 ], [ -78.53440100000104, 35.535313000002773 ], [ -78.553721000001318, 35.515881000003134 ], [ -78.573865000001661, 35.497283000003506 ], [ -78.581576000002002, 35.464732000002847 ], [ -78.614775000002069, 35.440280000002701 ], [ -78.607417000001576, 35.430956000002702 ], [ -78.595094000002092, 35.401948000002818 ], [ -78.574452000001244, 35.388505000003114 ], [ -78.562832000001578, 35.363960000002834 ], [ -78.535196000001932, 35.345032000003421 ], [ -78.538349000001261, 35.31641000000311 ], [ -78.580802000001725, 35.298194000003484 ], [ -78.599800000002048, 35.258716000003169 ], [ -78.617114000001109, 35.245718000002711 ], [ -78.643526000001543, 35.249121000003214 ], [ -78.702740000001938, 35.25681500000286 ], [ -78.783743000002119, 35.262526000002694 ], [ -78.867507000001396, 35.245015000003278 ], [ -78.878390000001687, 35.231602000003029 ], [ -78.93553400000161, 35.218734000003501 ], [ -78.941816000001793, 35.219276000002964 ], [ -79.016130000001098, 35.210241000003506 ], [ -79.027039000001295, 35.20787900000316 ], [ -79.095808000001099, 35.192068000003417 ], [ -79.152080000001448, 35.214501000003104 ], [ -79.165108000001865, 35.240925000002868 ], [ -79.22302100000158, 35.268133000002692 ], [ -79.183556000001843, 35.307161000003447 ] ] ] } },
{ "type": "Feature", "properties": { "opt_all": 14, "population": 742519.0, "voting_age_pop": 579726.0, "dem_votes": 207176.0, "rep_votes": 107590.0, "minority_pop": 322233.0, "dem_pct": 0.65819052862819027, "rep_pct": 0.34180947105411336 }, "geometry": { "type": "Polygon", "coordinates": [ [ [ -81.269442000001987, 35.161256000003505 ], [ -81.328037000001316, 35.163467000003401 ], [ -81.324261000001385, 35.241118000002842 ], [ -81.321729000001199, 35.260449000003405 ], [ -81.326212000001917, 35.262829000003002 ], [ -81.353507000001471, 35.277351000002668 ], [ -81.359857000001455, 35.301968000002816 ], [ -81.364925000001762, 35.311225000002821 ], [ -81.356682000001726, 35.330604000003419 ], [ -81.350114000001426, 35.348603000002932 ], [ -81.324340000002096, 35.36811600000302 ], [ -81.248893000001829, 35.353263000002862 ], [ -81.214383000001291, 35.410842000003306 ], [ -81.184647000001434, 35.409806000002717 ], [ -81.177945000001174, 35.409573000003235 ], [ -81.094164000001641, 35.406632000003405 ], [ -81.083826000001324, 35.406272000003064 ], [ -81.030675000002205, 35.404402000003273 ], [ -81.030512000001451, 35.404393000003381 ], [ -80.95486000000156, 35.400078000003155 ], [ -80.962896000001294, 35.375107000003098 ], [ -80.943632000001543, 35.350582000003335 ], [ -80.937268000001581, 35.333458000002842 ], [ -80.91398800000178, 35.335995000003464 ], [ -80.843089000001214, 35.367949000003343 ], [ -80.819722000001633, 35.363869000003355 ], [ -80.786697000001908, 35.384439000003219 ], [ -80.764295000002036, 35.400203000003202 ], [ -80.732757000001499, 35.371931000003187 ], [ -80.719672000001523, 35.362792000003417 ], [ -80.695473000001755, 35.347759000003421 ], [ -80.693654000002084, 35.346734000003259 ], [ -80.683017000001485, 35.31564700000331 ], [ -80.67811700000162, 35.301195000003318 ], [ -80.672489000001576, 35.284568000002857 ], [ -80.666095000002187, 35.267747000002956 ], [ -80.651447000002165, 35.260427000003496 ], [ -80.687120000001556, 35.215152000003165 ], [ -80.71195600000199, 35.229816000003446 ], [ -80.719986000001384, 35.230026000002731 ], [ -80.739917000001341, 35.231733000002855 ], [ -80.759239000001728, 35.237858000002674 ], [ -80.775653000001739, 35.236789000003249 ], [ -80.774516000001185, 35.23344800000276 ], [ -80.780725000002192, 35.215613000002847 ], [ -80.786247000001822, 35.201927000003295 ], [ -80.790598000001822, 35.194289000002641 ], [ -80.793677000002106, 35.191093000003242 ], [ -80.810874000001888, 35.190623000003242 ], [ -80.812522000002048, 35.199510000003187 ], [ -80.813672000002072, 35.192436000002644 ], [ -80.827216000001357, 35.195922000003513 ], [ -80.83647800000179, 35.181190000003426 ], [ -80.836974000001177, 35.179377000002688 ], [ -80.84484200000216, 35.18155000000327 ], [ -80.851360000001662, 35.180016000003313 ], [ -80.851159000001488, 35.172073000003053 ], [ -80.850264000001431, 35.16502100000281 ], [ -80.848782000001876, 35.160040000002603 ], [ -80.857372000002243, 35.151090000003471 ], [ -80.857795000002028, 35.148011000002803 ], [ -80.86510000000186, 35.131712000003489 ], [ -80.868109000001951, 35.118317000002811 ], [ -80.881165000001701, 35.119627000003405 ], [ -80.882920000001747, 35.102414000002987 ], [ -80.904713000001436, 35.118423000002956 ], [ -80.917517000002178, 35.125263000003038 ], [ -80.953347000001941, 35.152654000003203 ], [ -80.921222000002004, 35.16374100000337 ], [ -80.929171000002015, 35.189837000003436 ], [ -80.957967000001545, 35.189614000002635 ], [ -80.959402000001788, 35.172915000002597 ], [ -81.003185000001636, 35.173182000003088 ], [ -81.009510000001882, 35.153126000002807 ], [ -81.031371000001585, 35.148443000002892 ], [ -81.033909000001245, 35.148690000003015 ], [ -81.056370000001948, 35.150511000003462 ], [ -81.1807190000021, 35.157412000003234 ], [ -81.269195000002085, 35.16124700000335 ], [ -81.269442000001987, 35.161256000003505 ] ] ] } }
]
}
