{
"type": "FeatureCollection",
"name": "north_carolina_enacted_districts",
"crs": { "type": "name", "properties": { "name": "urn:ogc:def:crs:OGC:1.3:CRS84" } },
"features": [
{ "type": "Feature", "properties": { "enacted_district": 1, "population": 745599.0, "voting_age_pop": 587900.0, "dem_votes": 206212.0, "rep_votes": 162166.0, "minority_pop": 293530.0, "dem_pct": 0.55978370028617785, "rep_pct": 0.44021629944236185 }, "geometry": { "type": "Polygon", "coordinates": [ [ [ -78.162194000001463, 35.713186000003347 ], [ -78.192117000001758, 35.730545000002842 ], [ -78.215472000001114, 35.735837000003286 ], [ -78.249103000001796, 35.772392000002768 ], [ -78.255973000001873, 35.818120000003532 ], [ -78.275286000001913, 35.862284000002838 ], [ -78.298882000001313, 35.886897000002861 ], [ -78.310488000001087, 35.896337000002951 ], [ -78.351206000001326, 35.910845000003128 ], [ -78.354268000001298, 35.931196000003062 ], [ -78.391939000001159, 35.936538000003104 ], [ -78.435073000001765, 35.978430000002675 ], [ -78.448065000001151, 35.983832000002842 ], [ -78.455764000001111, 35.987035000003424 ], [ -78.486656000001375, 35.999873000003085 ], [ -78.493542000001668, 36.002668000003219 ], [ -78.518106000001254, 36.011624000003131 ], [ -78.546414000001775, 36.02182600000291 ], [ -78.544931000001512, 36.077247000002835 ], [ -78.496614000001017, 36.17519900000331 ], [ -78.508331000001235, 36.18295600000301 ], [ -78.508942000001113, 36.240592000003232 ], [ -78.509210000001687, 36.265694000002981 ], [ -78.509678000001514, 36.309729000002818 ], [ -78.51045300000132, 36.382353000003285 ], [ -78.510960000001276, 36.430752000002748 ], [ -78.511224000001334, 36.454808000002672 ], [ -78.493325000001192, 36.518307000003517 ], [ -78.456913000001251, 36.542541000003077 ], [ -78.323991000001897, 36.543822000002891 ], [ -78.264317000001967, 36.544325000003241 ], [ -78.198340000002034, 36.544315000003174 ], [ -78.105345000001847, 36.5436800000031 ], [ -78.046462000001199, 36.543551000003397 ], [ -77.899773000000977, 36.54459600000353 ], [ -77.738798000001808, 36.545431000003383 ], [ -77.576407000001836, 36.545187000003487 ], [ -77.497642000001193, 36.545088000003332 ], [ -77.372710000001163, 36.544768000003543 ], [ -77.226184000001908, 36.544508000003205 ], [ -77.164377000001409, 36.546329000002807 ], [ -76.915977000001178, 36.54388400000289 ], [ -76.915899000001446, 36.552149000002871 ], [ -76.73811500000177, 36.550783000002966 ], [ -76.541966000000954, 36.550653000003344 ], [ -76.491336000001311, 36.510677000003355 ], [ -76.437286000001734, 36.467846000003256 ], [ -76.394749000001951, 36.454549000003297 ], [ -76.367429000001593, 36.43122200000348 ], [ -76.323078000001431, 36.417389000002999 ], [ -76.299755000000886, 36.394672000003091 ], [ -76.258891000001839, 36.384274000003089 ], [ -76.250653000001094, 36.363678000003176 ], [ -76.238244000001131, 36.371588000003619 ], [ -76.185193000001718, 36.3154460000029 ], [ -76.20897600000157, 36.305007000003165 ], [ -76.217054000000857, 36.301201000002898 ], [ -76.19645200000177, 36.291159000003347 ], [ -76.142907000001927, 36.275586000003422 ], [ -76.100969000001115, 36.230157000002926 ], [ -76.068605000001654, 36.216590000003258 ], [ -76.029390000001598, 36.158819000003376 ], [ -76.022607000000917, 36.096725000003516 ], [ -76.022398000000905, 36.086654000003207 ], [ -75.906295000001236, 36.085877000003073 ], [ -75.889534000001944, 36.055339000003052 ], [ -75.840046000001664, 36.028834000003151 ], [ -75.881244000001431, 36.015828000002919 ], [ -75.95437400000111, 35.990064000003215 ], [ -75.973152000001491, 35.976643000003037 ], [ -75.985774000001641, 35.922019000002869 ], [ -76.008348000001888, 35.895802000003307 ], [ -76.020573000001207, 35.841085000003169 ], [ -76.019276000000886, 35.752763000002929 ], [ -76.027479000001094, 35.668849000003185 ], [ -76.092627000001059, 35.669764000003575 ], [ -76.127511000001377, 35.691013000003203 ], [ -76.168555000001334, 35.698874000002768 ], [ -76.178230000001562, 35.654442000003314 ], [ -76.19260600000176, 35.646359000003429 ], [ -76.214165000001415, 35.59825000000356 ], [ -76.29785300000097, 35.609027000003245 ], [ -76.269316000001695, 35.690556000003582 ], [ -76.317053000001081, 35.693048000003614 ], [ -76.405971000001657, 35.697579000003508 ], [ -76.504062000001369, 35.703206000003014 ], [ -76.606775000001619, 35.705158000002889 ], [ -76.637513000000951, 35.705215000002916 ], [ -76.655444000001594, 35.705283000003391 ], [ -76.754903000001761, 35.705507000003244 ], [ -76.84462000000147, 35.705719000003548 ], [ -76.847264000001445, 35.719982000002737 ], [ -76.862885000001057, 35.713111000003138 ], [ -76.947741000001784, 35.675691000003297 ], [ -76.985842000001099, 35.658848000003609 ], [ -77.055890000001725, 35.689633000003212 ], [ -77.068985000001035, 35.694949000002815 ], [ -77.164847000001018, 35.7387820000029 ], [ -77.1740000000012, 35.732831000002697 ], [ -77.192982000001479, 35.694158000002965 ], [ -77.169849000001349, 35.684339000002929 ], [ -77.168248000001995, 35.631200000002828 ], [ -77.142390000001413, 35.617880000003289 ], [ -77.087435000001761, 35.564119000002883 ], [ -77.084643000001833, 35.552601000002745 ], [ -77.100803000001704, 35.551455000003287 ], [ -77.127396000001369, 35.55376300000286 ], [ -77.176210000001916, 35.519100000003078 ], [ -77.173828000001478, 35.472634000002778 ], [ -77.226957000001562, 35.522127000003017 ], [ -77.294393000001932, 35.553473000003464 ], [ -77.322011000001424, 35.56859400000279 ], [ -77.323430000001551, 35.576485000003537 ], [ -77.34147400000154, 35.571467000003175 ], [ -77.350677000001625, 35.566991000003384 ], [ -77.347049000001249, 35.524858000003512 ], [ -77.35399200000117, 35.491641000002971 ], [ -77.366337000002005, 35.488830000002778 ], [ -77.365098000001069, 35.485369000002727 ], [ -77.354635000001267, 35.474686000003253 ], [ -77.35486500000097, 35.429935000002715 ], [ -77.396838000001637, 35.450084000003329 ], [ -77.433306000001792, 35.431211000003003 ], [ -77.469904000001719, 35.419924000003036 ], [ -77.475515000001266, 35.426655000003514 ], [ -77.493568000001048, 35.411618000002747 ], [ -77.528338000001497, 35.414336000003409 ], [ -77.540785000001165, 35.395929000002731 ], [ -77.589323000001727, 35.37376300000323 ], [ -77.610962000001365, 35.378633000002772 ], [ -77.63910100000156, 35.354086000003392 ], [ -77.660842000001892, 35.352814000003079 ], [ -77.697516000001059, 35.377097000003232 ], [ -77.741176000001701, 35.371966000003113 ], [ -77.806248000001275, 35.368754000003392 ], [ -77.802815000001374, 35.372971000002714 ], [ -77.805536000001538, 35.407504000003328 ], [ -77.826744000001057, 35.424090000003424 ], [ -77.825530000001152, 35.470419000003389 ], [ -77.825371000002065, 35.476492000003226 ], [ -77.822511000001043, 35.585383000002786 ], [ -77.87375100000105, 35.586241000003 ], [ -77.953906000001666, 35.585843000002761 ], [ -77.983164000001153, 35.585683000002795 ], [ -78.058006000001782, 35.597806000002812 ], [ -78.064784000001666, 35.585263000002847 ], [ -78.125539000001893, 35.603107000003561 ], [ -78.151350000001784, 35.669214000003009 ], [ -78.160825000001367, 35.696267000002898 ], [ -78.162194000001463, 35.713186000003347 ] ] ] } },
{ "type": "Feature", "properties": { "enacted_district": 2, "population": 746208.0, "voting_age_pop": 574328.0, "dem_votes": 234965.0, "rep_votes": 137870.0, "minority_pop": 229041.0, "dem_pct": 0.63021175570152699, "rep_pct": 0.36978824403025784 }, "geometry": { "type": "Polygon", "coordinates": [ [ [ -78.946988000001696, 35.741366000003381 ], [ -78.936271000001895, 35.77189800000329 ], [ -78.930891000001751, 35.794377000003472 ], [ -78.918583000001348, 35.819769000002708 ], [ -78.913164000001544, 35.833471000003399 ], [ -78.906071000001134, 35.868096000002737 ], [ -78.89240100000174, 35.867902000003127 ], [ -78.890486000001133, 35.867874000003248 ], [ -78.870298000001313, 35.867560000002669 ], [ -78.828350000002089, 35.870876000003491 ], [ -78.806756000001613, 35.922925000003005 ], [ -78.804975000001733, 35.927218000003485 ], [ -78.801972000001513, 35.926972000002721 ], [ -78.758210000001128, 35.921558000003159 ], [ -78.72777100000134, 35.949374000003068 ], [ -78.713411000002097, 35.968949000002709 ], [ -78.699847000001782, 36.011427000003209 ], [ -78.754026000001176, 36.047812000003347 ], [ -78.75127300000112, 36.070834000002748 ], [ -78.71878800000151, 36.075918000002837 ], [ -78.67122900000146, 36.069594000003029 ], [ -78.627315000001474, 36.051689000003307 ], [ -78.557663000001028, 36.025702000003442 ], [ -78.553827000001945, 36.02434800000281 ], [ -78.546414000001775, 36.02182600000291 ], [ -78.518106000001254, 36.011624000003131 ], [ -78.493542000001668, 36.002668000003219 ], [ -78.486656000001375, 35.999873000003085 ], [ -78.455764000001111, 35.987035000003424 ], [ -78.448065000001151, 35.983832000002842 ], [ -78.435073000001765, 35.978430000002675 ], [ -78.391939000001159, 35.936538000003104 ], [ -78.354268000001298, 35.931196000003062 ], [ -78.351206000001326, 35.910845000003128 ], [ -78.310488000001087, 35.896337000002951 ], [ -78.298882000001313, 35.886897000002861 ], [ -78.275286000001913, 35.862284000002838 ], [ -78.255973000001873, 35.818120000003532 ], [ -78.256162000001083, 35.81800200000324 ], [ -78.324246000001736, 35.779002000002933 ], [ -78.324899000001537, 35.778638000003518 ], [ -78.365477000001704, 35.756233000002773 ], [ -78.460036000001296, 35.705691000002787 ], [ -78.473735000001852, 35.701520000003278 ], [ -78.478090000002069, 35.724352000002909 ], [ -78.465673000001232, 35.748704000002824 ], [ -78.473611000001199, 35.773445000003449 ], [ -78.490314000001163, 35.77713400000335 ], [ -78.531972000001787, 35.754551000003509 ], [ -78.539728000001332, 35.773258000003423 ], [ -78.539370000001369, 35.793434000002733 ], [ -78.562814000001893, 35.798637000003176 ], [ -78.577681000001178, 35.797296000002774 ], [ -78.582638000001054, 35.794539000003411 ], [ -78.582624000001658, 35.794341000002738 ], [ -78.592464000001144, 35.783005000003378 ], [ -78.613472000001806, 35.779825000003534 ], [ -78.616008000002054, 35.79251900000267 ], [ -78.620351000002074, 35.792828000002686 ], [ -78.628213000001637, 35.780066000002918 ], [ -78.641710000001623, 35.780473000002793 ], [ -78.638357000001477, 35.775561000002682 ], [ -78.638495000001882, 35.772882000002767 ], [ -78.647218000001345, 35.767444000002747 ], [ -78.63991500000148, 35.758788000003335 ], [ -78.641345000001195, 35.754524000003187 ], [ -78.665156000001318, 35.757469000002793 ], [ -78.664052000001533, 35.758743000002916 ], [ -78.689035000002008, 35.769632000003583 ], [ -78.694301000001403, 35.765917000002688 ], [ -78.703638000001419, 35.762093000003368 ], [ -78.723441000001941, 35.769350000003513 ], [ -78.728944000001036, 35.758152000003179 ], [ -78.735374000001855, 35.766504000003373 ], [ -78.744887000001938, 35.761951000003421 ], [ -78.764077000001294, 35.772280000003185 ], [ -78.771605000001529, 35.766155000003472 ], [ -78.781754000001143, 35.771179000003492 ], [ -78.783415000002094, 35.761858000002931 ], [ -78.795215000002017, 35.771701000002835 ], [ -78.808488000001148, 35.754963000003144 ], [ -78.816424000001803, 35.746122000003083 ], [ -78.828437000002026, 35.760051000003429 ], [ -78.846353000002111, 35.754527000002817 ], [ -78.84864600000148, 35.750210000003548 ], [ -78.850329000001281, 35.732508000003122 ], [ -78.854153000001631, 35.727182000002813 ], [ -78.862584000001817, 35.735716000002718 ], [ -78.870718000002, 35.737090000002773 ], [ -78.896038000001752, 35.735055000003548 ], [ -78.946988000001696, 35.741366000003381 ] ] ] } },
{ "type": "Feature", "properties": { "enacted_district": 3, "population": 745852.0, "voting_age_pop": 585141.0, "dem_votes": 127317.0, "rep_votes": 203977.0, "minority_pop": 190780.0, "dem_pct": 0.38430216050266464, "rep_pct": 0.61569783919548859 }, "geometry": { "type": "Polygon", "coordinates": [ [ [ -77.484538000001066, 34.399705000003017 ], [ -77.527063000001377, 34.451114000003599 ], [ -77.575947000001065, 34.476359000002972 ], [ -77.618679000001237, 34.587087000003137 ], [ -77.640365000001566, 34.634720000003433 ], [ -77.668177000001123, 34.695083000002846 ], [ -77.680127000001917, 34.720595000002824 ], [ -77.921538000001505, 34.719746000003305 ], [ -77.928493000001453, 34.721922000002962 ], [ -77.991255000001757, 34.71605600000327 ], [ -78.034747000001246, 34.726858000002899 ], [ -78.114007000001237, 34.721795000003354 ], [ -78.114210000001748, 34.706735000002759 ], [ -78.156520000001706, 34.679070000003243 ], [ -78.233546000001752, 34.58036200000334 ], [ -78.254441000001151, 34.553595000003355 ], [ -78.265935000001917, 34.583588000002969 ], [ -78.303240000001026, 34.600531000003144 ], [ -78.324520000001314, 34.666095000003487 ], [ -78.369118000001762, 34.696740000003004 ], [ -78.391978000001146, 34.741265000003033 ], [ -78.420386000001514, 34.765876000002741 ], [ -78.442110000001549, 34.802063000002676 ], [ -78.484189000001123, 34.836408000003473 ], [ -78.493400000001898, 34.847082000003546 ], [ -78.494705000001886, 34.856182000003038 ], [ -78.522812000001608, 34.883600000002914 ], [ -78.641049000001544, 34.988801000003512 ], [ -78.646881000002082, 35.001795000003042 ], [ -78.672292000002059, 35.085281000003491 ], [ -78.652231000001649, 35.119790000003043 ], [ -78.639735000001494, 35.155639000003127 ], [ -78.633188000001539, 35.213719000002897 ], [ -78.617114000001109, 35.245718000002711 ], [ -78.599800000002048, 35.258716000003169 ], [ -78.580802000001725, 35.298194000003484 ], [ -78.538349000001261, 35.31641000000311 ], [ -78.509817000001362, 35.28166500000281 ], [ -78.491897000001998, 35.263319000002724 ], [ -78.450167000001073, 35.258625000003143 ], [ -78.4117340000018, 35.254663000003205 ], [ -78.392539000001619, 35.264378000003546 ], [ -78.364213000001541, 35.272123000003049 ], [ -78.306580000001603, 35.287604000002879 ], [ -78.245021000001074, 35.22595100000288 ], [ -78.161845000001421, 35.204323000002752 ], [ -78.163420000001068, 35.189716000003202 ], [ -78.144499000001943, 35.186509000003497 ], [ -78.077389000001887, 35.175135000002975 ], [ -78.058627000001337, 35.185066000002955 ], [ -78.055421000001331, 35.208211000002848 ], [ -78.017403000002048, 35.256063000002996 ], [ -78.011278000001525, 35.293423000003216 ], [ -78.016912000001284, 35.317081000003412 ], [ -77.997451000001348, 35.337202000002868 ], [ -77.970588000001982, 35.321634000003087 ], [ -77.950733000001307, 35.353238000002818 ], [ -77.957988000001706, 35.364532000003273 ], [ -77.956716000001592, 35.367581000003426 ], [ -77.967776000001351, 35.385790000002977 ], [ -77.963526000001238, 35.387189000003033 ], [ -77.953015000001827, 35.390815000002803 ], [ -77.943902000001913, 35.409246000003186 ], [ -77.963777000001272, 35.424721000003089 ], [ -77.957472000001061, 35.444939000003536 ], [ -77.973603000001347, 35.466731000003541 ], [ -77.948420000001633, 35.511600000002893 ], [ -77.936251000001135, 35.549222000002729 ], [ -77.967450000001207, 35.559738000002888 ], [ -77.953906000001666, 35.585843000002761 ], [ -77.87375100000105, 35.586241000003 ], [ -77.822511000001043, 35.585383000002786 ], [ -77.825371000002065, 35.476492000003226 ], [ -77.825530000001152, 35.470419000003389 ], [ -77.826744000001057, 35.424090000003424 ], [ -77.805536000001538, 35.407504000003328 ], [ -77.802815000001374, 35.372971000002714 ], [ -77.806248000001275, 35.368754000003392 ], [ -77.741176000001701, 35.371966000003113 ], [ -77.697516000001059, 35.377097000003232 ], [ -77.660842000001892, 35.352814000003079 ], [ -77.63910100000156, 35.354086000003392 ], [ -77.610962000001365, 35.378633000002772 ], [ -77.589323000001727, 35.37376300000323 ], [ -77.540785000001165, 35.395929000002731 ], [ -77.528338000001497, 35.414336000003409 ], [ -77.493568000001048, 35.411618000002747 ], [ -77.475515000001266, 35.426655000003514 ], [ -77.469904000001719, 35.419924000003036 ], [ -77.433306000001792, 35.431211000003003 ], [ -77.396838000001637, 35.450084000003329 ], [ -77.35486500000097, 35.429935000002715 ], [ -77.354635000001267, 35.474686000003253 ], [ -77.365098000001069, 35.485369000002727 ], [ -77.366337000002005, 35.488830000002778 ], [ -77.35399200000117, 35.491641000002971 ], [ -77.347049000001249, 35.524858000003512 ], [ -77.350677000001625, 35.566991000003384 ], [ -77.34147400000154, 35.571467000003175 ], [ -77.323430000001551, 35.576485000003537 ], [ -77.322011000001424, 35.56859400000279 ], [ -77.294393000001932, 35.553473000003464 ], [ -77.226957000001562, 35.522127000003017 ], [ -77.173828000001478, 35.472634000002778 ], [ -77.176210000001916, 35.519100000003078 ], [ -77.127396000001369, 35.55376300000286 ], [ -77.100803000001704, 35.551455000003287 ], [ -77.084643000001833, 35.552601000002745 ], [ -77.087435000001761, 35.564119000002883 ], [ -77.142390000001413, 35.617880000003289 ], [ -77.168248000001995, 35.631200000002828 ], [ -77.169849000001349, 35.684339000002929 ], [ -77.192982000001479, 35.694158000002965 ], [ -77.1740000000012, 35.732831000002697 ], [ -77.164847000001018, 35.7387820000029 ], [ -77.068985000001035, 35.694949000002815 ], [ -77.055890000001725, 35.689633000003212 ], [ -76.985842000001099, 35.658848000003609 ], [ -76.947741000001784, 35.675691000003297 ], [ -76.862885000001057, 35.713111000003138 ], [ -76.847264000001445, 35.719982000002737 ], [ -76.84462000000147, 35.705719000003548 ], [ -76.754903000001761, 35.705507000003244 ], [ -76.655444000001594, 35.705283000003391 ], [ -76.637513000000951, 35.705215000002916 ], [ -76.606775000001619, 35.705158000002889 ], [ -76.504062000001369, 35.703206000003014 ], [ -76.405971000001657, 35.697579000003508 ], [ -76.317053000001081, 35.693048000003614 ], [ -76.269316000001695, 35.690556000003582 ], [ -76.29785300000097, 35.609027000003245 ], [ -76.214165000001415, 35.59825000000356 ], [ -76.19260600000176, 35.646359000003429 ], [ -76.178230000001562, 35.654442000003314 ], [ -76.168555000001334, 35.698874000002768 ], [ -76.127511000001377, 35.691013000003203 ], [ -76.092627000001059, 35.669764000003575 ], [ -76.027479000001094, 35.668849000003185 ], [ -76.019276000000886, 35.752763000002929 ], [ -76.020573000001207, 35.841085000003169 ], [ -76.008348000001888, 35.895802000003307 ], [ -75.985774000001641, 35.922019000002869 ], [ -75.973152000001491, 35.976643000003037 ], [ -75.95437400000111, 35.990064000003215 ], [ -75.881244000001431, 36.015828000002919 ], [ -75.840046000001664, 36.028834000003151 ], [ -75.889534000001944, 36.055339000003052 ], [ -75.906295000001236, 36.085877000003073 ], [ -76.022398000000905, 36.086654000003207 ], [ -76.022607000000917, 36.096725000003516 ], [ -76.029390000001598, 36.158819000003376 ], [ -76.068605000001654, 36.216590000003258 ], [ -76.100969000001115, 36.230157000002926 ], [ -76.142907000001927, 36.275586000003422 ], [ -76.19645200000177, 36.291159000003347 ], [ -76.217054000000857, 36.301201000002898 ], [ -76.20897600000157, 36.305007000003165 ], [ -76.185193000001718, 36.3154460000029 ], [ -76.238244000001131, 36.371588000003619 ], [ -76.250653000001094, 36.363678000003176 ], [ -76.258891000001839, 36.384274000003089 ], [ -76.299755000000886, 36.394672000003091 ], [ -76.323078000001431, 36.417389000002999 ], [ -76.367429000001593, 36.43122200000348 ], [ -76.394749000001951, 36.454549000003297 ], [ -76.437286000001734, 36.467846000003256 ], [ -76.491336000001311, 36.510677000003355 ], [ -76.541966000000954, 36.550653000003344 ], [ -76.313303000001341, 36.550520000002827 ], [ -76.151731000001874, 36.550501000003003 ], [ -76.0267210000018, 36.550470000003493 ], [ -75.906880000001863, 36.550553000002829 ], [ -75.79749700000086, 36.550916000003021 ], [ -75.790558000001113, 36.500156000002811 ], [ -75.769834000001083, 36.426163000003314 ], [ -75.749635000001021, 36.353606000003317 ], [ -75.709078000001881, 36.244984000003143 ], [ -75.67306500000096, 36.16240900000281 ], [ -75.649513000001249, 36.118866000003003 ], [ -75.621461000001545, 36.070690000002969 ], [ -75.586164000001844, 36.00822600000329 ], [ -75.566047000001419, 35.975614000003453 ], [ -75.48050100000107, 35.814207000003456 ], [ -75.471816000001283, 35.80698500000296 ], [ -75.43761700000114, 35.746960000003433 ], [ -75.417820000001072, 35.686082000003452 ], [ -75.400390000001522, 35.593512000002882 ], [ -75.40733200000156, 35.528230000003248 ], [ -75.415089000001842, 35.500180000003247 ], [ -75.425581000001543, 35.390009000003374 ], [ -75.455561000000827, 35.26779500000363 ], [ -75.474600000000905, 35.202029000002895 ], [ -75.49959300000161, 35.177172000002948 ], [ -75.548003000001572, 35.168184000003144 ], [ -75.581108000001436, 35.183784000002788 ], [ -75.611367000001721, 35.179152000003 ], [ -75.707370000000864, 35.146111000002769 ], [ -75.736620000001722, 35.140565000003178 ], [ -75.807724000001087, 35.115906000003342 ], [ -75.908588000000904, 35.071522000003007 ], [ -75.985351000001216, 35.013977000002775 ], [ -76.006936000001048, 35.006031000003325 ], [ -76.024430000001246, 35.005364000002814 ], [ -76.124626000001413, 34.933081000003391 ], [ -76.236676000001907, 34.843741000003625 ], [ -76.311895000001414, 34.779541000002794 ], [ -76.370718000001006, 34.720111000003172 ], [ -76.437383000000921, 34.642253000003002 ], [ -76.491991000001136, 34.546532000002998 ], [ -76.524378000001292, 34.532155000003613 ], [ -76.562509000001654, 34.536912000003362 ], [ -76.58372000000189, 34.552625000003118 ], [ -76.614722000001009, 34.618278000003045 ], [ -76.692800000001796, 34.642950000003594 ], [ -76.782315000001091, 34.645794000003583 ], [ -76.867031000000949, 34.636813000003464 ], [ -76.909869000001905, 34.631526000003092 ], [ -76.999666000001156, 34.617009000003456 ], [ -77.117198000000997, 34.584367000003581 ], [ -77.156425000001988, 34.570487000002977 ], [ -77.219176000001099, 34.539660000003359 ], [ -77.305388000001187, 34.484255000002889 ], [ -77.418832000001913, 34.435923000003257 ], [ -77.484538000001066, 34.399705000003017 ] ] ] } },
{ "type": "Feature", "properties": { "enacted_district": 4, "population": 745033.0, "voting_age_pop": 592219.0, "dem_votes": 252161.0, "rep_votes": 118268.0, "minority_pop": 262659.0, "dem_pct": 0.68072694074148432, "rep_pct": 0.3192730589885584 }, "geometry": { "type": "Polygon", "coordinates": [ [ [ -79.541728000002081, 35.899851000003345 ], [ -79.540390000001295, 35.966481000002666 ], [ -79.539673000001144, 36.012836000003411 ], [ -79.539412000002088, 36.045738000003496 ], [ -79.539163000001068, 36.081152000002682 ], [ -79.537550000002, 36.126119000003371 ], [ -79.537234000001646, 36.135859000003222 ], [ -79.536717000001985, 36.15177800000302 ], [ -79.53510400000161, 36.182412000003033 ], [ -79.53241000000159, 36.241463000002895 ], [ -79.531865000001488, 36.249673000003256 ], [ -79.442680000001545, 36.247647000002686 ], [ -79.394207000001842, 36.246544000003411 ], [ -79.365367000001839, 36.245887000003506 ], [ -79.264795000001357, 36.243600000003362 ], [ -79.257952000001282, 36.243445000003398 ], [ -79.190135000001874, 36.242428000003152 ], [ -79.153997000001098, 36.241875000002892 ], [ -79.148456000001801, 36.348203000002712 ], [ -79.148239000002093, 36.352370000003056 ], [ -79.143179000002135, 36.446747000002901 ], [ -79.143161000002152, 36.447067000003152 ], [ -79.138320000001642, 36.541975000003049 ], [ -78.964529000001761, 36.542179000003387 ], [ -78.871663000001973, 36.542015000002905 ], [ -78.796274000001759, 36.541741000003228 ], [ -78.654868000001258, 36.541909000003024 ], [ -78.456913000001251, 36.542541000003077 ], [ -78.493325000001192, 36.518307000003517 ], [ -78.511224000001334, 36.454808000002672 ], [ -78.510960000001276, 36.430752000002748 ], [ -78.51045300000132, 36.382353000003285 ], [ -78.509678000001514, 36.309729000002818 ], [ -78.509210000001687, 36.265694000002981 ], [ -78.508942000001113, 36.240592000003232 ], [ -78.508331000001235, 36.18295600000301 ], [ -78.496614000001017, 36.17519900000331 ], [ -78.544931000001512, 36.077247000002835 ], [ -78.546414000001775, 36.02182600000291 ], [ -78.553827000001945, 36.02434800000281 ], [ -78.557663000001028, 36.025702000003442 ], [ -78.627315000001474, 36.051689000003307 ], [ -78.67122900000146, 36.069594000003029 ], [ -78.71878800000151, 36.075918000002837 ], [ -78.75127300000112, 36.070834000002748 ], [ -78.754026000001176, 36.047812000003347 ], [ -78.699847000001782, 36.011427000003209 ], [ -78.713411000002097, 35.968949000002709 ], [ -78.72777100000134, 35.949374000003068 ], [ -78.758210000001128, 35.921558000003159 ], [ -78.801972000001513, 35.926972000002721 ], [ -78.804975000001733, 35.927218000003485 ], [ -78.806756000001613, 35.922925000003005 ], [ -78.828350000002089, 35.870876000003491 ], [ -78.870298000001313, 35.867560000002669 ], [ -78.890486000001133, 35.867874000003248 ], [ -78.89240100000174, 35.867902000003127 ], [ -78.906071000001134, 35.868096000002737 ], [ -78.943730000001608, 35.866432000003506 ], [ -79.01148300000213, 35.863423000002939 ], [ -79.016305000001822, 35.863210000002859 ], [ -79.081938000002012, 35.860780000002748 ], [ -79.082158000001698, 35.860785000002714 ], [ -79.119623000001212, 35.86418600000281 ], [ -79.148579000001448, 35.866898000003523 ], [ -79.249538000001863, 35.876810000003168 ], [ -79.237316000001556, 35.844247000003342 ], [ -79.350051000001969, 35.843908000002919 ], [ -79.432774000001174, 35.843684000002675 ], [ -79.542428000001678, 35.843303000003338 ], [ -79.541728000002081, 35.899851000003345 ] ] ] } },
{ "type": "Feature", "properties": { "enacted_district": 5, "population": 747128.0, "voting_age_pop": 596366.0, "dem_votes": 150139.0, "rep_votes": 218544.0, "minority_pop": 144836.0, "dem_pct": 0.40723060178873705, "rep_pct": 0.59276939794002725 }, "geometry": { "type": "Polygon", "coordinates": [ [ [ -81.807132000001971, 35.961572000002931 ], [ -81.807162000002137, 35.961955000003364 ], [ -81.870031000002044, 35.976306000003127 ], [ -81.899871000001411, 35.999909000002646 ], [ -81.943188000001541, 35.960050000002646 ], [ -81.957608000002168, 35.946777000002733 ], [ -81.954353000001646, 35.92700600000294 ], [ -81.981954000001679, 35.911361000002827 ], [ -81.980168000001754, 35.885046000003321 ], [ -82.013607000001386, 35.885218000003213 ], [ -82.046864000001818, 35.854177000002736 ], [ -82.100825000002104, 35.842723000003019 ], [ -82.133484000001289, 35.823309000002915 ], [ -82.145305000001386, 35.877834000003418 ], [ -82.148328000001669, 35.932861000003264 ], [ -82.186099000002315, 35.943681000003195 ], [ -82.191353000001357, 35.981880000002718 ], [ -82.195948000001849, 36.0126670000027 ], [ -82.238521000001313, 36.004837000002802 ], [ -82.267967000001889, 36.014362000002556 ], [ -82.301867000001664, 36.045245000002652 ], [ -82.320604000002135, 36.025712000002557 ], [ -82.328192000001451, 36.029200000002874 ], [ -82.345290000002251, 36.076459000002806 ], [ -82.416738000001274, 36.072827000002981 ], [ -82.355684000001602, 36.115139000003111 ], [ -82.297270000002086, 36.133448000002765 ], [ -82.245215000001437, 36.131221000003066 ], [ -82.213898000001947, 36.15904100000337 ], [ -82.177217000001946, 36.142373000003353 ], [ -82.148175000001842, 36.147952000003215 ], [ -82.130626000001513, 36.105024000003198 ], [ -82.081079000001964, 36.103170000002578 ], [ -82.054012000001975, 36.12667400000278 ], [ -82.033839000002246, 36.12047500000282 ], [ -82.019447000002017, 36.141004000002603 ], [ -82.016572000001929, 36.145136000003063 ], [ -81.970704000001547, 36.212310000003278 ], [ -81.918119000001695, 36.287129000002579 ], [ -81.841191000001373, 36.343353000002892 ], [ -81.788600000001637, 36.348163000002835 ], [ -81.764703000002228, 36.338778000003408 ], [ -81.707450000001529, 36.335849000003094 ], [ -81.731246000001491, 36.374145000002734 ], [ -81.728781000001561, 36.391309000002671 ], [ -81.715430000002115, 36.457636000003426 ], [ -81.695109000001523, 36.467565000003468 ], [ -81.697230000001269, 36.496377000002937 ], [ -81.70787800000123, 36.536006000002686 ], [ -81.677382000001529, 36.581444000003337 ], [ -81.600455000001475, 36.586948000002977 ], [ -81.535358000001807, 36.581715000003229 ], [ -81.434898000002164, 36.576591000002914 ], [ -81.353259000001586, 36.574692000003132 ], [ -81.202071000001951, 36.572274000002864 ], [ -81.062183000001355, 36.567095000002709 ], [ -80.901641000001163, 36.561766000003125 ], [ -80.823013000001922, 36.559861000002599 ], [ -80.792720000002021, 36.560573000003103 ], [ -80.688143000001219, 36.561417000002862 ], [ -80.653387000001231, 36.559183000002946 ], [ -80.560521000001245, 36.55623100000318 ], [ -80.510924000001935, 36.55392300000306 ], [ -80.440340000001626, 36.550665000002638 ], [ -80.294877000001506, 36.544053000002833 ], [ -80.172967000001663, 36.543182000003029 ], [ -80.027339000001874, 36.542480000003472 ], [ -80.029926000001709, 36.447838000002982 ], [ -80.031882000002113, 36.376177000003025 ], [ -80.032730000001933, 36.344982000002851 ], [ -80.035119000001131, 36.257184000003221 ], [ -80.035984000001733, 36.228712000002986 ], [ -80.037791000001519, 36.176378000003453 ], [ -80.100434000001712, 36.177634000002669 ], [ -80.122919000001843, 36.178019000003147 ], [ -80.13719000000205, 36.165009000002932 ], [ -80.160775000002062, 36.170441000003393 ], [ -80.165508000001779, 36.172656000003371 ], [ -80.202092000001656, 36.184399000003111 ], [ -80.241442000001783, 36.191549000003334 ], [ -80.261103000001697, 36.167848000003055 ], [ -80.251426000001302, 36.157456000002803 ], [ -80.244084000001919, 36.147951000003125 ], [ -80.242642000001865, 36.136793000002669 ], [ -80.241925000001743, 36.122061000003207 ], [ -80.241880000002212, 36.115982000002866 ], [ -80.236553000001365, 36.11465500000282 ], [ -80.233241000001868, 36.124330000002637 ], [ -80.23199900000138, 36.131038000003365 ], [ -80.214049000001737, 36.118298000002909 ], [ -80.206211000001176, 36.12212800000291 ], [ -80.217610000001528, 36.099489000003153 ], [ -80.216448000001506, 36.095425000003374 ], [ -80.219235000001873, 36.089054000003252 ], [ -80.211963000001262, 36.088338000003013 ], [ -80.189523000001358, 36.090594000003428 ], [ -80.185234000001799, 36.07422200000336 ], [ -80.132834000001779, 36.075166000003357 ], [ -80.11910800000139, 36.048546000002943 ], [ -80.137528000001268, 36.024971000002999 ], [ -80.162032000001716, 36.026759000003196 ], [ -80.213784000001652, 36.024072000002661 ], [ -80.238314000001125, 35.996677000002933 ], [ -80.266851000002163, 35.99663900000327 ], [ -80.336216000001357, 35.994360000003134 ], [ -80.394307000002158, 35.972762000003399 ], [ -80.369065000001527, 35.930402000002971 ], [ -80.373863000001478, 35.909272000003121 ], [ -80.367560000001916, 35.889160000003052 ], [ -80.39159200000131, 35.869845000002776 ], [ -80.389501000001758, 35.843969000003007 ], [ -80.429257000001243, 35.829947000003052 ], [ -80.470034000002144, 35.837210000003004 ], [ -80.466943000001521, 35.813939000003359 ], [ -80.476702000002206, 35.789093000002801 ], [ -80.450658000001724, 35.765757000002814 ], [ -80.458923000001718, 35.742758000002773 ], [ -80.471820000001273, 35.768356000003173 ], [ -80.534108000001794, 35.786166000003426 ], [ -80.535563000001616, 35.791561000003242 ], [ -80.593153000001536, 35.820622000003226 ], [ -80.602221000001549, 35.823563000002906 ], [ -80.632536000001195, 35.845703000002899 ], [ -80.676845000001563, 35.855845000002979 ], [ -80.707824000001679, 35.852961000002708 ], [ -80.707629000001248, 35.85559300000272 ], [ -80.703797000001444, 35.907570000003304 ], [ -80.700976000001148, 35.945811000003232 ], [ -80.699777000002044, 35.962172000002894 ], [ -80.693197000002058, 36.051260000002827 ], [ -80.75389400000212, 36.052923000003418 ], [ -80.805241000002141, 36.053973000003111 ], [ -80.881591000001791, 36.055718000003182 ], [ -80.897540000001683, 36.056027000003468 ], [ -80.98766000000218, 36.055846000002681 ], [ -81.011104000002035, 36.050044000003325 ], [ -81.028833000001441, 36.045652000002718 ], [ -81.057572000001429, 36.031550000003172 ], [ -81.098113000001945, 36.028162000002766 ], [ -81.132830000001817, 36.036923000003291 ], [ -81.145832000002173, 36.033760000003213 ], [ -81.167286000001909, 36.025493000002783 ], [ -81.214119000001247, 36.032920000003152 ], [ -81.268894000001325, 36.024744000003068 ], [ -81.299310000001554, 36.006402000002687 ], [ -81.328324000001373, 35.996583000002857 ], [ -81.342858000001698, 35.923362000003436 ], [ -81.3333730000016, 35.878892000002686 ], [ -81.343595000002026, 35.826987000002795 ], [ -81.361617000001985, 35.84181700000336 ], [ -81.399464000001757, 35.806251000003108 ], [ -81.436405000001955, 35.814905000003158 ], [ -81.439888000002099, 35.817749000002635 ], [ -81.455394000001917, 35.784895000002699 ], [ -81.48286400000228, 35.782171000003444 ], [ -81.493386000002204, 35.7805650000032 ], [ -81.502906000001445, 35.780704000002792 ], [ -81.533872000002077, 35.779705000002799 ], [ -81.54703300000196, 35.777207000003067 ], [ -81.555994000001562, 35.777538000003005 ], [ -81.591818000001794, 35.815460000002581 ], [ -81.632109000002004, 35.835739000003379 ], [ -81.669228000001823, 35.860039000002701 ], [ -81.709824000001959, 35.87503400000292 ], [ -81.752523000002242, 35.924426000002924 ], [ -81.807132000001971, 35.961572000002931 ] ] ] } },
{ "type": "Feature", "properties": { "enacted_district": 6, "population": 746272.0, "voting_age_pop": 585181.0, "dem_votes": 205919.0, "rep_votes": 155803.0, "minority_pop": 265152.0, "dem_pct": 0.56927419383690392, "rep_pct": 0.43072580588664061 }, "geometry": { "type": "Polygon", "coordinates": [ [ [ -80.110483000001736, 36.020932000002915 ], [ -80.137528000001268, 36.024971000002999 ], [ -80.11910800000139, 36.048546000002943 ], [ -80.132834000001779, 36.075166000003357 ], [ -80.185234000001799, 36.07422200000336 ], [ -80.189523000001358, 36.090594000003428 ], [ -80.211963000001262, 36.088338000003013 ], [ -80.219235000001873, 36.089054000003252 ], [ -80.216448000001506, 36.095425000003374 ], [ -80.217610000001528, 36.099489000003153 ], [ -80.206211000001176, 36.12212800000291 ], [ -80.214049000001737, 36.118298000002909 ], [ -80.23199900000138, 36.131038000003365 ], [ -80.233241000001868, 36.124330000002637 ], [ -80.236553000001365, 36.11465500000282 ], [ -80.241880000002212, 36.115982000002866 ], [ -80.241925000001743, 36.122061000003207 ], [ -80.242642000001865, 36.136793000002669 ], [ -80.244084000001919, 36.147951000003125 ], [ -80.251426000001302, 36.157456000002803 ], [ -80.261103000001697, 36.167848000003055 ], [ -80.241442000001783, 36.191549000003334 ], [ -80.202092000001656, 36.184399000003111 ], [ -80.165508000001779, 36.172656000003371 ], [ -80.160775000002062, 36.170441000003393 ], [ -80.13719000000205, 36.165009000002932 ], [ -80.122919000001843, 36.178019000003147 ], [ -80.100434000001712, 36.177634000002669 ], [ -80.037791000001519, 36.176378000003453 ], [ -80.035984000001733, 36.228712000002986 ], [ -80.035119000001131, 36.257184000003221 ], [ -80.032730000001933, 36.344982000002851 ], [ -80.031882000002113, 36.376177000003025 ], [ -80.029926000001709, 36.447838000002982 ], [ -80.027339000001874, 36.542480000003472 ], [ -79.992230000001783, 36.542426000002898 ], [ -79.829182000001595, 36.542472000003016 ], [ -79.775078000002082, 36.542242000003448 ], [ -79.731892000001352, 36.542027000002868 ], [ -79.604774000002138, 36.541553000003162 ], [ -79.513638000001279, 36.540902000002731 ], [ -79.343430000001305, 36.541592000003362 ], [ -79.138320000001642, 36.541975000003049 ], [ -79.143161000002152, 36.447067000003152 ], [ -79.143179000002135, 36.446747000002901 ], [ -79.148239000002093, 36.352370000003056 ], [ -79.148456000001801, 36.348203000002712 ], [ -79.153997000001098, 36.241875000002892 ], [ -79.190135000001874, 36.242428000003152 ], [ -79.257952000001282, 36.243445000003398 ], [ -79.264795000001357, 36.243600000003362 ], [ -79.365367000001839, 36.245887000003506 ], [ -79.394207000001842, 36.246544000003411 ], [ -79.442680000001545, 36.247647000002686 ], [ -79.531865000001488, 36.249673000003256 ], [ -79.53241000000159, 36.241463000002895 ], [ -79.53510400000161, 36.182412000003033 ], [ -79.536717000001985, 36.15177800000302 ], [ -79.537234000001646, 36.135859000003222 ], [ -79.537550000002, 36.126119000003371 ], [ -79.539163000001068, 36.081152000002682 ], [ -79.539412000002088, 36.045738000003496 ], [ -79.539673000001144, 36.012836000003411 ], [ -79.540390000001295, 35.966481000002666 ], [ -79.541728000002081, 35.899851000003345 ], [ -79.627946000001728, 35.903368000003333 ], [ -79.629457000002091, 35.903429000003307 ], [ -79.713233000001722, 35.906790000002665 ], [ -79.763309000001385, 35.908842000003126 ], [ -79.791236000001916, 35.910102000002986 ], [ -79.854633000001925, 35.912946000003153 ], [ -79.920518000001465, 35.915738000002904 ], [ -79.972287000001771, 35.917810000002845 ], [ -80.008492000001269, 35.919073000003124 ], [ -80.020467000001318, 35.919577000002938 ], [ -80.046869000001209, 35.920693000003354 ], [ -80.046293000001299, 35.939651000002748 ], [ -80.046050000001983, 35.945457000003429 ], [ -80.045616000002141, 35.955749000002896 ], [ -80.044942000001541, 35.972674000002868 ], [ -80.04399100000191, 35.993490000003348 ], [ -80.043783000001241, 35.998356000002751 ], [ -80.043238000001253, 36.010758000003413 ], [ -80.110483000001736, 36.020932000002915 ] ] ] } },
{ "type": "Feature", "properties": { "enacted_district": 7, "population": 746762.0, "voting_age_pop": 594771.0, "dem_votes": 164637.0, "rep_votes": 196345.0, "minority_pop": 209190.0, "dem_pct": 0.45608091249533744, "rep_pct": 0.54391908722764037 }, "geometry": { "type": "Polygon", "coordinates": [ [ [ -79.192195000001874, 34.401109000003508 ], [ -79.275187000001196, 34.472282000003268 ], [ -79.365407000001895, 34.551650000002866 ], [ -79.419309000002002, 34.596243000003113 ], [ -79.46150600000216, 34.630379000002897 ], [ -79.361642000001368, 34.740150000003474 ], [ -79.331693000001351, 34.773008000003003 ], [ -79.355442000001915, 34.8152650000035 ], [ -79.347868000002038, 34.838553000002854 ], [ -79.23168800000181, 34.834980000002993 ], [ -79.204668000001234, 34.834136000003575 ], [ -79.166706000001469, 34.853007000003309 ], [ -79.130760000001118, 34.881053000003213 ], [ -79.066758000002096, 34.930919000003293 ], [ -79.038747000001536, 34.952715000003238 ], [ -79.037302000001702, 34.953839000003505 ], [ -79.036917000001168, 34.956953000002812 ], [ -79.056831000002077, 34.999824000002839 ], [ -79.049226000001838, 35.006995000003215 ], [ -79.015183000001755, 34.981317000002925 ], [ -78.986041000001705, 34.977282000002745 ], [ -78.973182000001628, 34.975559000003081 ], [ -78.968594000001559, 34.988309000003426 ], [ -78.965480000001804, 34.987173000003054 ], [ -78.954611000001833, 34.988440000003344 ], [ -78.938364000001044, 34.999534000003095 ], [ -78.950529000001424, 35.010542000003248 ], [ -78.949113000001134, 35.017665000002935 ], [ -78.95159400000172, 35.021279000003254 ], [ -78.9304150000021, 35.030752000003048 ], [ -78.949970000001386, 35.04358200000307 ], [ -78.950884000002105, 35.048791000002836 ], [ -78.935201000002024, 35.044797000003371 ], [ -78.944106000001867, 35.061248000002813 ], [ -78.918263000001673, 35.052100000002987 ], [ -78.902109000001786, 35.043122000003031 ], [ -78.899058000001375, 35.05665800000336 ], [ -78.88024400000117, 35.058399000002936 ], [ -78.887576000001644, 35.060728000003543 ], [ -78.891496000001496, 35.068025000002962 ], [ -78.888222000001775, 35.079808000003339 ], [ -78.890712000001486, 35.096193000002856 ], [ -78.877218000001434, 35.096099000002894 ], [ -78.879990000002081, 35.116955000003387 ], [ -78.874286000001121, 35.139782000003301 ], [ -78.869907000001589, 35.154303000002699 ], [ -78.843337000001398, 35.151398000003077 ], [ -78.837818000001704, 35.159640000003165 ], [ -78.829957000002082, 35.166439000002995 ], [ -78.852562000001456, 35.179783000003084 ], [ -78.8489920000019, 35.205365000002708 ], [ -78.878390000001687, 35.231602000003029 ], [ -78.867507000001396, 35.245015000003278 ], [ -78.783743000002119, 35.262526000002694 ], [ -78.702740000001938, 35.25681500000286 ], [ -78.643526000001543, 35.249121000003214 ], [ -78.617114000001109, 35.245718000002711 ], [ -78.633188000001539, 35.213719000002897 ], [ -78.639735000001494, 35.155639000003127 ], [ -78.652231000001649, 35.119790000003043 ], [ -78.672292000002059, 35.085281000003491 ], [ -78.646881000002082, 35.001795000003042 ], [ -78.641049000001544, 34.988801000003512 ], [ -78.522812000001608, 34.883600000002914 ], [ -78.494705000001886, 34.856182000003038 ], [ -78.493400000001898, 34.847082000003546 ], [ -78.484189000001123, 34.836408000003473 ], [ -78.442110000001549, 34.802063000002676 ], [ -78.420386000001514, 34.765876000002741 ], [ -78.391978000001146, 34.741265000003033 ], [ -78.369118000001762, 34.696740000003004 ], [ -78.324520000001314, 34.666095000003487 ], [ -78.303240000001026, 34.600531000003144 ], [ -78.265935000001917, 34.583588000002969 ], [ -78.254441000001151, 34.553595000003355 ], [ -78.233546000001752, 34.58036200000334 ], [ -78.156520000001706, 34.679070000003243 ], [ -78.114210000001748, 34.706735000002759 ], [ -78.114007000001237, 34.721795000003354 ], [ -78.034747000001246, 34.726858000002899 ], [ -77.991255000001757, 34.71605600000327 ], [ -77.928493000001453, 34.721922000002962 ], [ -77.921538000001505, 34.719746000003305 ], [ -77.680127000001917, 34.720595000002824 ], [ -77.668177000001123, 34.695083000002846 ], [ -77.640365000001566, 34.634720000003433 ], [ -77.618679000001237, 34.587087000003137 ], [ -77.575947000001065, 34.476359000002972 ], [ -77.527063000001377, 34.451114000003599 ], [ -77.484538000001066, 34.399705000003017 ], [ -77.556732000001418, 34.35365100000341 ], [ -77.611297000001088, 34.308539000003165 ], [ -77.675276000001205, 34.253130000003068 ], [ -77.680321000001783, 34.250169000002955 ], [ -77.691093000001842, 34.245744000003434 ], [ -77.747420000001881, 34.175594000003009 ], [ -77.753507000001022, 34.155469000002761 ], [ -77.785555000001239, 34.125171000003228 ], [ -77.813741000001073, 34.06415700000273 ], [ -77.840419000001376, 34.004207000003298 ], [ -77.863534000001167, 33.934670000003564 ], [ -77.884519000001774, 33.903670000002947 ], [ -77.898970000000986, 33.854639000003203 ], [ -77.897011000002024, 33.786800000002984 ], [ -77.917505000001526, 33.763820000002802 ], [ -77.964052000001686, 33.752899000003261 ], [ -77.999710000001826, 33.76713000000354 ], [ -78.012860000001837, 33.803863000003346 ], [ -78.05289500000184, 33.827432000003476 ], [ -78.066581000001605, 33.847985000003604 ], [ -78.145353000001379, 33.862734000003144 ], [ -78.233090000001255, 33.862518000003099 ], [ -78.262335000001684, 33.863163000003418 ], [ -78.368392000002075, 33.851174000002956 ], [ -78.465265000001367, 33.823910000003494 ], [ -78.499301000001907, 33.812852000003396 ], [ -78.573261000001523, 33.878847000003489 ], [ -78.592442000001995, 33.89517600000336 ], [ -78.650342000001316, 33.944365000002868 ], [ -78.73483400000174, 34.016028000003452 ], [ -78.797871000001308, 34.069258000003352 ], [ -78.93089200000135, 34.18148600000341 ], [ -78.988196000001281, 34.229645000003437 ], [ -79.071211000001114, 34.299342000003094 ], [ -79.108761000001309, 34.330935000003002 ], [ -79.192195000001874, 34.401109000003508 ] ] ] } },
{ "type": "Feature", "properties": { "enacted_district": 8, "population": 745889.0, "voting_age_pop": 570127.0, "dem_votes": 119765.0, "rep_votes": 232298.0, "minority_pop": 155410.0, "dem_pct": 0.34018059258139011, "rep_pct": 0.65981940713456988 }, "geometry": { "type": "Polygon", "coordinates": [ [ [ -80.840278000001575, 35.001692000003025 ], [ -80.811156000002057, 35.021480000003372 ], [ -80.804506000001737, 35.027749000002949 ], [ -80.792806000001306, 35.029914000003437 ], [ -80.77979500000194, 35.032738000003484 ], [ -80.767555000001366, 35.036286000002846 ], [ -80.736466000001982, 35.060113000003213 ], [ -80.705195000001453, 35.084402000003287 ], [ -80.681398000002218, 35.103409000003197 ], [ -80.654172000001438, 35.125048000003339 ], [ -80.636181000001301, 35.139382000003508 ], [ -80.628302000001369, 35.145725000002898 ], [ -80.599735000001374, 35.168645000003487 ], [ -80.550349000001773, 35.208412000002866 ], [ -80.575938000001216, 35.221814000003207 ], [ -80.599733000002189, 35.234105000003034 ], [ -80.627934000001289, 35.248669000002941 ], [ -80.624101000001261, 35.291927000003405 ], [ -80.594794000002054, 35.303418000002942 ], [ -80.560416000002107, 35.324688000003398 ], [ -80.575142000001307, 35.348087000002877 ], [ -80.581872000001695, 35.382198000003307 ], [ -80.569410000001199, 35.381373000002824 ], [ -80.551561000001755, 35.375706000002765 ], [ -80.540877000002084, 35.397568000003012 ], [ -80.549451000001966, 35.415969000003095 ], [ -80.566121000001388, 35.425989000003007 ], [ -80.567049000002072, 35.427997000002691 ], [ -80.583470000001427, 35.482788000002806 ], [ -80.570602000001855, 35.503318000002949 ], [ -80.609201000001576, 35.504748000002643 ], [ -80.618518000001416, 35.504991000002853 ], [ -80.646028000001351, 35.505547000003141 ], [ -80.65742600000118, 35.50563800000306 ], [ -80.672911000001605, 35.506402000003312 ], [ -80.688297000001199, 35.505803000003063 ], [ -80.737249000001498, 35.50580100000284 ], [ -80.739797000001218, 35.544145000003148 ], [ -80.755460000002117, 35.607284000003247 ], [ -80.75768400000193, 35.616239000002615 ], [ -80.771582000001871, 35.672163000002946 ], [ -80.765373000002143, 35.689809000003144 ], [ -80.752052000001996, 35.72761700000293 ], [ -80.744691000001822, 35.748502000003093 ], [ -80.738542000002155, 35.765946000003133 ], [ -80.723898000001327, 35.807435000003146 ], [ -80.707824000001679, 35.852961000002708 ], [ -80.676845000001563, 35.855845000002979 ], [ -80.632536000001195, 35.845703000002899 ], [ -80.602221000001549, 35.823563000002906 ], [ -80.593153000001536, 35.820622000003226 ], [ -80.535563000001616, 35.791561000003242 ], [ -80.534108000001794, 35.786166000003426 ], [ -80.471820000001273, 35.768356000003173 ], [ -80.458923000001718, 35.742758000002773 ], [ -80.450658000001724, 35.765757000002814 ], [ -80.476702000002206, 35.789093000002801 ], [ -80.466943000001521, 35.813939000003359 ], [ -80.470034000002144, 35.837210000003004 ], [ -80.429257000001243, 35.829947000003052 ], [ -80.389501000001758, 35.843969000003007 ], [ -80.39159200000131, 35.869845000002776 ], [ -80.367560000001916, 35.889160000003052 ], [ -80.373863000001478, 35.909272000003121 ], [ -80.369065000001527, 35.930402000002971 ], [ -80.394307000002158, 35.972762000003399 ], [ -80.336216000001357, 35.994360000003134 ], [ -80.266851000002163, 35.99663900000327 ], [ -80.238314000001125, 35.996677000002933 ], [ -80.213784000001652, 36.024072000002661 ], [ -80.162032000001716, 36.026759000003196 ], [ -80.137528000001268, 36.024971000002999 ], [ -80.110483000001736, 36.020932000002915 ], [ -80.043238000001253, 36.010758000003413 ], [ -80.043783000001241, 35.998356000002751 ], [ -80.04399100000191, 35.993490000003348 ], [ -80.044942000001541, 35.972674000002868 ], [ -80.045616000002141, 35.955749000002896 ], [ -80.046050000001983, 35.945457000003429 ], [ -80.046293000001299, 35.939651000002748 ], [ -80.046869000001209, 35.920693000003354 ], [ -80.047004000001294, 35.916807000002926 ], [ -80.048807000001887, 35.881131000002647 ], [ -80.049177000001379, 35.874985000002944 ], [ -80.052410000001231, 35.819373000003516 ], [ -80.052547000001667, 35.816906000002994 ], [ -80.053437000001239, 35.801643000002713 ], [ -80.056352000001965, 35.750132000002843 ], [ -80.058236000001131, 35.71323300000298 ], [ -80.058681000001485, 35.704184000002634 ], [ -80.062927000002176, 35.612617000002651 ], [ -80.06684200000133, 35.505661000003045 ], [ -79.995600000001602, 35.507107000002826 ], [ -79.939811000001711, 35.508705000002692 ], [ -79.881539000001681, 35.510149000002826 ], [ -79.812786000001168, 35.510994000003492 ], [ -79.804573000001284, 35.511078000003138 ], [ -79.767957000002156, 35.511484000003009 ], [ -79.764192000002168, 35.475735000003269 ], [ -79.741405000001819, 35.409045000003275 ], [ -79.73527900000218, 35.388403000003024 ], [ -79.720732000001078, 35.338685000003025 ], [ -79.704978000001532, 35.263308000002738 ], [ -79.673005000001751, 35.245396000003474 ], [ -79.664600000002181, 35.220772000002718 ], [ -79.657498000001098, 35.191518000002773 ], [ -79.614304000002008, 35.163679000003064 ], [ -79.622453000001656, 35.162592000003379 ], [ -79.663728000002124, 35.131489000003441 ], [ -79.66415100000205, 35.114012000003548 ], [ -79.665270000001769, 35.092040000003379 ], [ -79.697232000001648, 35.055034000002721 ], [ -79.663145000001805, 35.030948000002866 ], [ -79.643358000001513, 34.999372000003 ], [ -79.597862000001498, 34.978844000003129 ], [ -79.64921900000121, 34.976133000003344 ], [ -79.703885000001122, 34.95626500000332 ], [ -79.700719000001371, 34.911978000003415 ], [ -79.741740000001286, 34.912261000003298 ], [ -79.741505000001254, 34.910580000002845 ], [ -79.686005000001799, 34.876280000003064 ], [ -79.658897000001275, 34.874794000003035 ], [ -79.624266000001242, 34.855425000002789 ], [ -79.614045000002051, 34.815309000003005 ], [ -79.634571000002026, 34.825493000002865 ], [ -79.692944000001873, 34.805155000003012 ], [ -79.774093000001244, 34.805692000003553 ], [ -79.927412000001723, 34.806734000002685 ], [ -80.043172000001476, 34.809061000003204 ], [ -80.189214000001172, 34.811832000003491 ], [ -80.320828000001583, 34.813906000003392 ], [ -80.485676000001163, 34.816686000003465 ], [ -80.626077000001246, 34.818208000002741 ], [ -80.693720000001349, 34.818994000002782 ], [ -80.797484000002143, 34.81980300000302 ], [ -80.795392000001456, 34.835467000003433 ], [ -80.786651000001484, 34.902456000003021 ], [ -80.781924000001425, 34.935828000003475 ], [ -80.803054000001552, 34.959097000003396 ], [ -80.831536000002131, 34.991335000003474 ], [ -80.840278000001575, 35.001692000003025 ] ] ] } },
{ "type": "Feature", "properties": { "enacted_district": 9, "population": 742227.0, "voting_age_pop": 568169.0, "dem_votes": 151090.0, "rep_votes": 167643.0, "minority_pop": 232795.0, "dem_pct": 0.47403312475519221, "rep_pct": 0.52596687493106553 }, "geometry": { "type": "Polygon", "coordinates": [ [ [ -79.692944000001873, 34.805155000003012 ], [ -79.634571000002026, 34.825493000002865 ], [ -79.614045000002051, 34.815309000003005 ], [ -79.624266000001242, 34.855425000002789 ], [ -79.658897000001275, 34.874794000003035 ], [ -79.686005000001799, 34.876280000003064 ], [ -79.741505000001254, 34.910580000002845 ], [ -79.741740000001286, 34.912261000003298 ], [ -79.700719000001371, 34.911978000003415 ], [ -79.703885000001122, 34.95626500000332 ], [ -79.64921900000121, 34.976133000003344 ], [ -79.597862000001498, 34.978844000003129 ], [ -79.643358000001513, 34.999372000003 ], [ -79.663145000001805, 35.030948000002866 ], [ -79.697232000001648, 35.055034000002721 ], [ -79.665270000001769, 35.092040000003379 ], [ -79.66415100000205, 35.114012000003548 ], [ -79.663728000002124, 35.131489000003441 ], [ -79.622453000001656, 35.162592000003379 ], [ -79.614304000002008, 35.163679000003064 ], [ -79.657498000001098, 35.191518000002773 ], [ -79.664600000002181, 35.220772000002718 ], [ -79.673005000001751, 35.245396000003474 ], [ -79.704978000001532, 35.263308000002738 ], [ -79.720732000001078, 35.338685000003025 ], [ -79.73527900000218, 35.388403000003024 ], [ -79.741405000001819, 35.409045000003275 ], [ -79.764192000002168, 35.475735000003269 ], [ -79.767957000002156, 35.511484000003009 ], [ -79.804573000001284, 35.511078000003138 ], [ -79.812786000001168, 35.510994000003492 ], [ -79.881539000001681, 35.510149000002826 ], [ -79.939811000001711, 35.508705000002692 ], [ -79.995600000001602, 35.507107000002826 ], [ -80.06684200000133, 35.505661000003045 ], [ -80.062927000002176, 35.612617000002651 ], [ -80.058681000001485, 35.704184000002634 ], [ -80.058236000001131, 35.71323300000298 ], [ -80.056352000001965, 35.750132000002843 ], [ -80.053437000001239, 35.801643000002713 ], [ -80.052547000001667, 35.816906000002994 ], [ -80.052410000001231, 35.819373000003516 ], [ -80.049177000001379, 35.874985000002944 ], [ -80.048807000001887, 35.881131000002647 ], [ -80.047004000001294, 35.916807000002926 ], [ -80.046869000001209, 35.920693000003354 ], [ -80.020467000001318, 35.919577000002938 ], [ -80.008492000001269, 35.919073000003124 ], [ -79.972287000001771, 35.917810000002845 ], [ -79.920518000001465, 35.915738000002904 ], [ -79.854633000001925, 35.912946000003153 ], [ -79.791236000001916, 35.910102000002986 ], [ -79.763309000001385, 35.908842000003126 ], [ -79.713233000001722, 35.906790000002665 ], [ -79.629457000002091, 35.903429000003307 ], [ -79.627946000001728, 35.903368000003333 ], [ -79.541728000002081, 35.899851000003345 ], [ -79.542428000001678, 35.843303000003338 ], [ -79.432774000001174, 35.843684000002675 ], [ -79.350051000001969, 35.843908000002919 ], [ -79.237316000001556, 35.844247000003342 ], [ -79.249538000001863, 35.876810000003168 ], [ -79.148579000001448, 35.866898000003523 ], [ -79.119623000001212, 35.86418600000281 ], [ -79.082158000001698, 35.860785000002714 ], [ -79.081938000002012, 35.860780000002748 ], [ -79.016305000001822, 35.863210000002859 ], [ -79.01148300000213, 35.863423000002939 ], [ -78.943730000001608, 35.866432000003506 ], [ -78.906071000001134, 35.868096000002737 ], [ -78.913164000001544, 35.833471000003399 ], [ -78.918583000001348, 35.819769000002708 ], [ -78.930891000001751, 35.794377000003472 ], [ -78.936271000001895, 35.77189800000329 ], [ -78.946988000001696, 35.741366000003381 ], [ -78.955933000001281, 35.716080000003366 ], [ -78.968951000001795, 35.681931000002912 ], [ -78.99504800000139, 35.61016600000324 ], [ -78.939068000001882, 35.592104000002884 ], [ -78.914732000001493, 35.583682000002725 ], [ -78.96964000000203, 35.521669000003421 ], [ -78.969816000001259, 35.521498000002673 ], [ -79.07641800000178, 35.414787000003457 ], [ -79.076636000001855, 35.414568000003158 ], [ -79.044628000001637, 35.407977000003051 ], [ -78.992340000001249, 35.378527000002748 ], [ -78.95151600000105, 35.340328000003346 ], [ -78.918726000002053, 35.32563200000331 ], [ -78.885199000001506, 35.329652000003065 ], [ -78.878315000001137, 35.348855000003461 ], [ -78.842820000001211, 35.359993000003392 ], [ -78.867507000001396, 35.245015000003278 ], [ -78.878390000001687, 35.231602000003029 ], [ -78.8489920000019, 35.205365000002708 ], [ -78.852562000001456, 35.179783000003084 ], [ -78.829957000002082, 35.166439000002995 ], [ -78.837818000001704, 35.159640000003165 ], [ -78.843337000001398, 35.151398000003077 ], [ -78.869907000001589, 35.154303000002699 ], [ -78.874286000001121, 35.139782000003301 ], [ -78.879990000002081, 35.116955000003387 ], [ -78.877218000001434, 35.096099000002894 ], [ -78.890712000001486, 35.096193000002856 ], [ -78.888222000001775, 35.079808000003339 ], [ -78.891496000001496, 35.068025000002962 ], [ -78.887576000001644, 35.060728000003543 ], [ -78.88024400000117, 35.058399000002936 ], [ -78.899058000001375, 35.05665800000336 ], [ -78.902109000001786, 35.043122000003031 ], [ -78.918263000001673, 35.052100000002987 ], [ -78.944106000001867, 35.061248000002813 ], [ -78.935201000002024, 35.044797000003371 ], [ -78.950884000002105, 35.048791000002836 ], [ -78.949970000001386, 35.04358200000307 ], [ -78.9304150000021, 35.030752000003048 ], [ -78.95159400000172, 35.021279000003254 ], [ -78.949113000001134, 35.017665000002935 ], [ -78.950529000001424, 35.010542000003248 ], [ -78.938364000001044, 34.999534000003095 ], [ -78.954611000001833, 34.988440000003344 ], [ -78.965480000001804, 34.987173000003054 ], [ -78.968594000001559, 34.988309000003426 ], [ -78.973182000001628, 34.975559000003081 ], [ -78.986041000001705, 34.977282000002745 ], [ -79.015183000001755, 34.981317000002925 ], [ -79.049226000001838, 35.006995000003215 ], [ -79.056831000002077, 34.999824000002839 ], [ -79.036917000001168, 34.956953000002812 ], [ -79.037302000001702, 34.953839000003505 ], [ -79.038747000001536, 34.952715000003238 ], [ -79.066758000002096, 34.930919000003293 ], [ -79.130760000001118, 34.881053000003213 ], [ -79.166706000001469, 34.853007000003309 ], [ -79.204668000001234, 34.834136000003575 ], [ -79.23168800000181, 34.834980000002993 ], [ -79.347868000002038, 34.838553000002854 ], [ -79.355442000001915, 34.8152650000035 ], [ -79.331693000001351, 34.773008000003003 ], [ -79.361642000001368, 34.740150000003474 ], [ -79.46150600000216, 34.630379000002897 ], [ -79.504942000001776, 34.665757000002742 ], [ -79.532567000001521, 34.688260000003488 ], [ -79.676494000001284, 34.805065000003367 ], [ -79.692944000001873, 34.805155000003012 ] ] ] } },
{ "type": "Feature", "properties": { "enacted_district": 10, "population": 744646.0, "voting_age_pop": 584877.0, "dem_votes": 113805.0, "rep_votes": 240334.0, "minority_pop": 125745.0, "dem_pct": 0.32135686825756077, "rep_pct": 0.67864313146006428 }, "geometry": { "type": "Polygon", "coordinates": [ [ [ -81.969348000002128, 35.187217000002825 ], [ -81.963869000001793, 35.249450000003264 ], [ -81.935021000001626, 35.323233000002681 ], [ -81.95120500000202, 35.328201000003183 ], [ -81.962899000002224, 35.340648000003007 ], [ -81.952931000001229, 35.390426000003337 ], [ -81.969099000001805, 35.407705000002814 ], [ -81.940661000001242, 35.409951000003197 ], [ -81.887901000002174, 35.381069000003443 ], [ -81.865728000002065, 35.380782000003471 ], [ -81.859895000001529, 35.377223000002779 ], [ -81.845696000001382, 35.414211000003206 ], [ -81.86343300000209, 35.440412000003214 ], [ -81.849338000002064, 35.466316000002927 ], [ -81.856654000001512, 35.542187000003246 ], [ -81.84267400000212, 35.542262000003461 ], [ -81.824122000002276, 35.5749830000033 ], [ -81.861444000002209, 35.694035000002849 ], [ -81.869388000001564, 35.719624000003463 ], [ -81.933886000001948, 35.768642000002906 ], [ -81.986939000001925, 35.806923000002783 ], [ -81.919242000001773, 35.848759000003234 ], [ -81.912764000001573, 35.900063000002625 ], [ -81.943188000001541, 35.960050000002646 ], [ -81.899871000001411, 35.999909000002646 ], [ -81.870031000002044, 35.976306000003127 ], [ -81.807162000002137, 35.961955000003364 ], [ -81.807132000001971, 35.961572000002931 ], [ -81.752523000002242, 35.924426000002924 ], [ -81.709824000001959, 35.87503400000292 ], [ -81.669228000001823, 35.860039000002701 ], [ -81.632109000002004, 35.835739000003379 ], [ -81.591818000001794, 35.815460000002581 ], [ -81.555994000001562, 35.777538000003005 ], [ -81.54703300000196, 35.777207000003067 ], [ -81.533872000002077, 35.779705000002799 ], [ -81.502906000001445, 35.780704000002792 ], [ -81.493386000002204, 35.7805650000032 ], [ -81.48286400000228, 35.782171000003444 ], [ -81.455394000001917, 35.784895000002699 ], [ -81.439888000002099, 35.817749000002635 ], [ -81.436405000001955, 35.814905000003158 ], [ -81.399464000001757, 35.806251000003108 ], [ -81.361617000001985, 35.84181700000336 ], [ -81.343595000002026, 35.826987000002795 ], [ -81.3333730000016, 35.878892000002686 ], [ -81.342858000001698, 35.923362000003436 ], [ -81.328324000001373, 35.996583000002857 ], [ -81.299310000001554, 36.006402000002687 ], [ -81.268894000001325, 36.024744000003068 ], [ -81.214119000001247, 36.032920000003152 ], [ -81.167286000001909, 36.025493000002783 ], [ -81.145832000002173, 36.033760000003213 ], [ -81.132830000001817, 36.036923000003291 ], [ -81.098113000001945, 36.028162000002766 ], [ -81.057572000001429, 36.031550000003172 ], [ -81.028833000001441, 36.045652000002718 ], [ -81.011104000002035, 36.050044000003325 ], [ -80.98766000000218, 36.055846000002681 ], [ -80.897540000001683, 36.056027000003468 ], [ -80.881591000001791, 36.055718000003182 ], [ -80.805241000002141, 36.053973000003111 ], [ -80.75389400000212, 36.052923000003418 ], [ -80.693197000002058, 36.051260000002827 ], [ -80.699777000002044, 35.962172000002894 ], [ -80.700976000001148, 35.945811000003232 ], [ -80.703797000001444, 35.907570000003304 ], [ -80.707629000001248, 35.85559300000272 ], [ -80.707824000001679, 35.852961000002708 ], [ -80.723898000001327, 35.807435000003146 ], [ -80.738542000002155, 35.765946000003133 ], [ -80.744691000001822, 35.748502000003093 ], [ -80.752052000001996, 35.72761700000293 ], [ -80.765373000002143, 35.689809000003144 ], [ -80.771582000001871, 35.672163000002946 ], [ -80.75768400000193, 35.616239000002615 ], [ -80.755460000002117, 35.607284000003247 ], [ -80.739797000001218, 35.544145000003148 ], [ -80.737249000001498, 35.50580100000284 ], [ -80.768258000001509, 35.505947000003069 ], [ -80.784167000001247, 35.506017000002764 ], [ -80.784270000001271, 35.50602000000314 ], [ -80.801125000001988, 35.50731800000306 ], [ -80.833513000002213, 35.509648000003189 ], [ -80.874373000001199, 35.512524000002678 ], [ -80.908723000001856, 35.51348900000329 ], [ -80.940669000002231, 35.49278400000297 ], [ -80.947344000001607, 35.488473000002713 ], [ -80.950452000002201, 35.473088000003401 ], [ -80.949015000001665, 35.448475000002858 ], [ -80.956518000002191, 35.427503000003142 ], [ -80.955708000001337, 35.40162300000312 ], [ -80.95486000000156, 35.400078000003155 ], [ -81.030512000001451, 35.404393000003381 ], [ -81.030675000002205, 35.404402000003273 ], [ -81.083826000001324, 35.406272000003064 ], [ -81.094164000001641, 35.406632000003405 ], [ -81.177945000001174, 35.409573000003235 ], [ -81.184647000001434, 35.409806000002717 ], [ -81.162508000001822, 35.3592150000026 ], [ -81.207084000001885, 35.341764000002655 ], [ -81.248893000001829, 35.353263000002862 ], [ -81.271616000001998, 35.316298000003101 ], [ -81.232634000001511, 35.305356000002625 ], [ -81.259763000001797, 35.286911000002824 ], [ -81.239465000001246, 35.284065000003146 ], [ -81.241392000001369, 35.256922000003044 ], [ -81.241672000001756, 35.253517000003001 ], [ -81.310164000001663, 35.248459000002697 ], [ -81.321729000001199, 35.260449000003405 ], [ -81.324261000001385, 35.241118000002842 ], [ -81.328037000001316, 35.163467000003401 ], [ -81.366600000001455, 35.164883000002789 ], [ -81.516867000001994, 35.170805000003263 ], [ -81.572807000001859, 35.172741000003349 ], [ -81.609001000001285, 35.174350000003287 ], [ -81.768102000001505, 35.180611000003324 ], [ -81.857838000001635, 35.183508000003187 ], [ -81.969348000002128, 35.187217000002825 ] ] ] } },
{ "type": "Feature", "properties": { "enacted_district": 11, "population": 745420.0, "voting_age_pop": 609627.0, "dem_votes": 178805.0, "rep_votes": 211997.0, "minority_pop": 93500.0, "dem_pct": 0.45753348231136648, "rep_pct": 0.54246651743274943 }, "geometry": { "type": "Polygon", "coordinates": [ [ [ -84.290519000001794, 35.223571000002721 ], [ -84.211395000002383, 35.265621000002945 ], [ -84.179067000001595, 35.24043400000275 ], [ -84.080324000002264, 35.261430000002569 ], [ -84.029067000002286, 35.292248000003376 ], [ -84.035829000001627, 35.315798000002872 ], [ -84.008305000001528, 35.371996000003016 ], [ -84.021452000002057, 35.404223000003213 ], [ -83.952972000001424, 35.460552000002615 ], [ -83.911875000001402, 35.47606800000284 ], [ -83.880312000001624, 35.518782000003263 ], [ -83.825566000001302, 35.524311000002982 ], [ -83.770587000002266, 35.561743000002679 ], [ -83.706607000001526, 35.568612000002759 ], [ -83.644614000001553, 35.565897000003361 ], [ -83.601774000002123, 35.578919000002529 ], [ -83.58437400000166, 35.562698000002996 ], [ -83.542553000002059, 35.56517900000285 ], [ -83.498544000001601, 35.562888000002829 ], [ -83.472796000002134, 35.586319000003414 ], [ -83.429484000002091, 35.61028600000256 ], [ -83.368295000002192, 35.63776900000331 ], [ -83.350985000001913, 35.66044900000324 ], [ -83.312379000001343, 35.654706000003252 ], [ -83.2542570000018, 35.695593000002823 ], [ -83.240827000002085, 35.726856000003139 ], [ -83.185137000001376, 35.730753000003126 ], [ -83.165059000002231, 35.759504000002906 ], [ -83.099429000001422, 35.775097000003264 ], [ -83.078745000002087, 35.789587000002946 ], [ -83.036487000001586, 35.787488000002845 ], [ -82.995851000001679, 35.773085000003157 ], [ -82.961754000001832, 35.790959000002914 ], [ -82.945630000001856, 35.824615000003185 ], [ -82.916462000002056, 35.841560000003035 ], [ -82.920831000001655, 35.86817800000312 ], [ -82.896776000001296, 35.878257000003366 ], [ -82.913581000001628, 35.924341000003253 ], [ -82.898182000001484, 35.945230000003214 ], [ -82.852030000001548, 35.949329000002614 ], [ -82.805910000001646, 35.935688000002791 ], [ -82.776006000001885, 35.971350000002538 ], [ -82.78530200000165, 35.988384000002675 ], [ -82.684073000002144, 36.045795000002578 ], [ -82.637230000001992, 36.065820000002738 ], [ -82.590995000002295, 36.031574000002571 ], [ -82.615177000002248, 36.000826000003386 ], [ -82.610467000001719, 35.967100000003285 ], [ -82.549975000001709, 35.963840000002932 ], [ -82.505425000001921, 35.977432000003233 ], [ -82.460461000002013, 36.007889000003289 ], [ -82.416738000001274, 36.072827000002981 ], [ -82.345290000002251, 36.076459000002806 ], [ -82.328192000001451, 36.029200000002874 ], [ -82.320604000002135, 36.025712000002557 ], [ -82.301867000001664, 36.045245000002652 ], [ -82.267967000001889, 36.014362000002556 ], [ -82.238521000001313, 36.004837000002802 ], [ -82.195948000001849, 36.0126670000027 ], [ -82.191353000001357, 35.981880000002718 ], [ -82.186099000002315, 35.943681000003195 ], [ -82.148328000001669, 35.932861000003264 ], [ -82.145305000001386, 35.877834000003418 ], [ -82.133484000001289, 35.823309000002915 ], [ -82.100825000002104, 35.842723000003019 ], [ -82.046864000001818, 35.854177000002736 ], [ -82.013607000001386, 35.885218000003213 ], [ -81.980168000001754, 35.885046000003321 ], [ -81.981954000001679, 35.911361000002827 ], [ -81.954353000001646, 35.92700600000294 ], [ -81.957608000002168, 35.946777000002733 ], [ -81.943188000001541, 35.960050000002646 ], [ -81.912764000001573, 35.900063000002625 ], [ -81.919242000001773, 35.848759000003234 ], [ -81.986939000001925, 35.806923000002783 ], [ -81.933886000001948, 35.768642000002906 ], [ -81.869388000001564, 35.719624000003463 ], [ -81.861444000002209, 35.694035000002849 ], [ -81.824122000002276, 35.5749830000033 ], [ -81.84267400000212, 35.542262000003461 ], [ -81.856654000001512, 35.542187000003246 ], [ -81.849338000002064, 35.466316000002927 ], [ -81.86343300000209, 35.440412000003214 ], [ -81.845696000001382, 35.414211000003206 ], [ -81.859895000001529, 35.377223000002779 ], [ -81.865728000002065, 35.380782000003471 ], [ -81.887901000002174, 35.381069000003443 ], [ -81.940661000001242, 35.409951000003197 ], [ -81.969099000001805, 35.407705000002814 ], [ -81.952931000001229, 35.390426000003337 ], [ -81.962899000002224, 35.340648000003007 ], [ -81.95120500000202, 35.328201000003183 ], [ -81.935021000001626, 35.323233000002681 ], [ -81.963869000001793, 35.249450000003264 ], [ -81.969348000002128, 35.187217000002825 ], [ -82.13901600000149, 35.193071000002966 ], [ -82.199663000001649, 35.195241000003087 ], [ -82.291080000002211, 35.200085000002751 ], [ -82.313539000001896, 35.19105600000298 ], [ -82.353754000001729, 35.190967000003148 ], [ -82.390077000001284, 35.21533500000303 ], [ -82.419160000002037, 35.199414000003372 ], [ -82.440388000002059, 35.165592000003386 ], [ -82.459939000001526, 35.17800500000304 ], [ -82.574839000001489, 35.14544900000331 ], [ -82.627599000002121, 35.126343000003104 ], [ -82.686965000001251, 35.123542000002985 ], [ -82.697634000001955, 35.095960000003231 ], [ -82.72384900000209, 35.094482000003033 ], [ -82.757176000001294, 35.067203000002806 ], [ -82.783631000001762, 35.085622000002743 ], [ -82.897495000001442, 35.056182000003353 ], [ -83.008531000001796, 35.027394000002793 ], [ -83.108568000001526, 35.001354000003431 ], [ -83.288935000002112, 34.996612000003367 ], [ -83.367758000002198, 34.995139000002581 ], [ -83.48294900000171, 34.993301000002759 ], [ -83.620051000001922, 34.99203200000315 ], [ -83.718538000001416, 34.987519000002969 ], [ -83.790894000001757, 34.987591000002773 ], [ -83.85831800000183, 34.987335000002979 ], [ -83.97957100000167, 34.98727600000273 ], [ -84.005132000001851, 34.987175000002686 ], [ -84.09671500000205, 34.987424000003116 ], [ -84.215982000001389, 34.98787600000334 ], [ -84.321821000001961, 34.988408000002714 ], [ -84.310866000002179, 35.072564000002671 ], [ -84.298030000001972, 35.168380000003161 ], [ -84.290519000001794, 35.223571000002721 ] ] ] } },
{ "type": "Feature", "properties": { "enacted_district": 12, "population": 747640.0, "voting_age_pop": 566125.0, "dem_votes": 208948.0, "rep_votes": 116439.0, "minority_pop": 318572.0, "dem_pct": 0.64215226771747114, "rep_pct": 0.35784773197520253 }, "geometry": { "type": "Polygon", "coordinates": [ [ [ -80.863629000001453, 35.233904000003349 ], [ -80.866931000001784, 35.228978000003238 ], [ -80.868296000001493, 35.223996000003034 ], [ -80.891097000001423, 35.224287000003379 ], [ -80.897191000001357, 35.24567800000338 ], [ -80.921182000001664, 35.244658000002687 ], [ -80.939834000001468, 35.259863000003392 ], [ -80.938924000001208, 35.280623000003239 ], [ -80.969323000001893, 35.290977000003203 ], [ -80.979141000001249, 35.298239000003235 ], [ -80.986946000001723, 35.301042000002852 ], [ -81.00385400000151, 35.297929000003158 ], [ -80.972670000001756, 35.350257000003211 ], [ -80.943632000001543, 35.350582000003335 ], [ -80.962896000001294, 35.375107000003098 ], [ -80.95486000000156, 35.400078000003155 ], [ -80.955708000001337, 35.40162300000312 ], [ -80.956518000002191, 35.427503000003142 ], [ -80.949015000001665, 35.448475000002858 ], [ -80.950452000002201, 35.473088000003401 ], [ -80.947344000001607, 35.488473000002713 ], [ -80.940669000002231, 35.49278400000297 ], [ -80.908723000001856, 35.51348900000329 ], [ -80.874373000001199, 35.512524000002678 ], [ -80.833513000002213, 35.509648000003189 ], [ -80.801125000001988, 35.50731800000306 ], [ -80.784270000001271, 35.50602000000314 ], [ -80.784167000001247, 35.506017000002764 ], [ -80.768258000001509, 35.505947000003069 ], [ -80.737249000001498, 35.50580100000284 ], [ -80.688297000001199, 35.505803000003063 ], [ -80.672911000001605, 35.506402000003312 ], [ -80.65742600000118, 35.50563800000306 ], [ -80.646028000001351, 35.505547000003141 ], [ -80.618518000001416, 35.504991000002853 ], [ -80.609201000001576, 35.504748000002643 ], [ -80.570602000001855, 35.503318000002949 ], [ -80.583470000001427, 35.482788000002806 ], [ -80.567049000002072, 35.427997000002691 ], [ -80.566121000001388, 35.425989000003007 ], [ -80.549451000001966, 35.415969000003095 ], [ -80.540877000002084, 35.397568000003012 ], [ -80.551561000001755, 35.375706000002765 ], [ -80.569410000001199, 35.381373000002824 ], [ -80.581872000001695, 35.382198000003307 ], [ -80.575142000001307, 35.348087000002877 ], [ -80.560416000002107, 35.324688000003398 ], [ -80.594794000002054, 35.303418000002942 ], [ -80.624101000001261, 35.291927000003405 ], [ -80.627934000001289, 35.248669000002941 ], [ -80.599733000002189, 35.234105000003034 ], [ -80.575938000001216, 35.221814000003207 ], [ -80.550349000001773, 35.208412000002866 ], [ -80.599735000001374, 35.168645000003487 ], [ -80.628302000001369, 35.145725000002898 ], [ -80.636181000001301, 35.139382000003508 ], [ -80.654172000001438, 35.125048000003339 ], [ -80.681398000002218, 35.103409000003197 ], [ -80.688652000001909, 35.110177000003375 ], [ -80.698008000001522, 35.118958000003083 ], [ -80.720322000001929, 35.142582000003003 ], [ -80.722520000001879, 35.145089000003338 ], [ -80.736366000001823, 35.159765000003496 ], [ -80.739407000001805, 35.162614000003465 ], [ -80.742526000001646, 35.166944000003397 ], [ -80.749314000001618, 35.175774000002669 ], [ -80.756477000001269, 35.183762000002808 ], [ -80.736545000001328, 35.186707000003324 ], [ -80.743276000001686, 35.193848000003079 ], [ -80.741152000002018, 35.203099000002922 ], [ -80.757143000001221, 35.209870000003043 ], [ -80.771281000002006, 35.213992000003053 ], [ -80.780725000002192, 35.215613000002847 ], [ -80.774516000001185, 35.23344800000276 ], [ -80.775653000001739, 35.236789000003249 ], [ -80.781027000001842, 35.249517000003245 ], [ -80.777328000002015, 35.259638000003058 ], [ -80.791082000002007, 35.258383000002993 ], [ -80.794765000001334, 35.258342000002983 ], [ -80.815813000001341, 35.248811000003165 ], [ -80.829766000001783, 35.237078000003471 ], [ -80.832118000001614, 35.235169000003147 ], [ -80.836550000001466, 35.238701000002614 ], [ -80.85221500000165, 35.243275000003294 ], [ -80.863629000001453, 35.233904000003349 ] ] ] } },
{ "type": "Feature", "properties": { "enacted_district": 13, "population": 745370.0, "voting_age_pop": 559542.0, "dem_votes": 178600.0, "rep_votes": 170369.0, "minority_pop": 214032.0, "dem_pct": 0.51179331100705416, "rep_pct": 0.48820668870638745 }, "geometry": { "type": "Polygon", "coordinates": [ [ [ -78.878315000001137, 35.348855000003461 ], [ -78.885199000001506, 35.329652000003065 ], [ -78.918726000002053, 35.32563200000331 ], [ -78.95151600000105, 35.340328000003346 ], [ -78.992340000001249, 35.378527000002748 ], [ -79.044628000001637, 35.407977000003051 ], [ -79.076636000001855, 35.414568000003158 ], [ -79.07641800000178, 35.414787000003457 ], [ -78.969816000001259, 35.521498000002673 ], [ -78.96964000000203, 35.521669000003421 ], [ -78.914732000001493, 35.583682000002725 ], [ -78.939068000001882, 35.592104000002884 ], [ -78.99504800000139, 35.61016600000324 ], [ -78.968951000001795, 35.681931000002912 ], [ -78.955933000001281, 35.716080000003366 ], [ -78.946988000001696, 35.741366000003381 ], [ -78.896038000001752, 35.735055000003548 ], [ -78.870718000002, 35.737090000002773 ], [ -78.862584000001817, 35.735716000002718 ], [ -78.854153000001631, 35.727182000002813 ], [ -78.850329000001281, 35.732508000003122 ], [ -78.84864600000148, 35.750210000003548 ], [ -78.846353000002111, 35.754527000002817 ], [ -78.828437000002026, 35.760051000003429 ], [ -78.816424000001803, 35.746122000003083 ], [ -78.808488000001148, 35.754963000003144 ], [ -78.795215000002017, 35.771701000002835 ], [ -78.783415000002094, 35.761858000002931 ], [ -78.781754000001143, 35.771179000003492 ], [ -78.771605000001529, 35.766155000003472 ], [ -78.764077000001294, 35.772280000003185 ], [ -78.744887000001938, 35.761951000003421 ], [ -78.735374000001855, 35.766504000003373 ], [ -78.728944000001036, 35.758152000003179 ], [ -78.723441000001941, 35.769350000003513 ], [ -78.703638000001419, 35.762093000003368 ], [ -78.694301000001403, 35.765917000002688 ], [ -78.689035000002008, 35.769632000003583 ], [ -78.664052000001533, 35.758743000002916 ], [ -78.665156000001318, 35.757469000002793 ], [ -78.641345000001195, 35.754524000003187 ], [ -78.63991500000148, 35.758788000003335 ], [ -78.647218000001345, 35.767444000002747 ], [ -78.638495000001882, 35.772882000002767 ], [ -78.638357000001477, 35.775561000002682 ], [ -78.641710000001623, 35.780473000002793 ], [ -78.628213000001637, 35.780066000002918 ], [ -78.620351000002074, 35.792828000002686 ], [ -78.616008000002054, 35.79251900000267 ], [ -78.613472000001806, 35.779825000003534 ], [ -78.592464000001144, 35.783005000003378 ], [ -78.582624000001658, 35.794341000002738 ], [ -78.582638000001054, 35.794539000003411 ], [ -78.577681000001178, 35.797296000002774 ], [ -78.562814000001893, 35.798637000003176 ], [ -78.539370000001369, 35.793434000002733 ], [ -78.539728000001332, 35.773258000003423 ], [ -78.531972000001787, 35.754551000003509 ], [ -78.490314000001163, 35.77713400000335 ], [ -78.473611000001199, 35.773445000003449 ], [ -78.465673000001232, 35.748704000002824 ], [ -78.478090000002069, 35.724352000002909 ], [ -78.473735000001852, 35.701520000003278 ], [ -78.460036000001296, 35.705691000002787 ], [ -78.365477000001704, 35.756233000002773 ], [ -78.324899000001537, 35.778638000003518 ], [ -78.324246000001736, 35.779002000002933 ], [ -78.256162000001083, 35.81800200000324 ], [ -78.255973000001873, 35.818120000003532 ], [ -78.249103000001796, 35.772392000002768 ], [ -78.215472000001114, 35.735837000003286 ], [ -78.192117000001758, 35.730545000002842 ], [ -78.162194000001463, 35.713186000003347 ], [ -78.160825000001367, 35.696267000002898 ], [ -78.151350000001784, 35.669214000003009 ], [ -78.125539000001893, 35.603107000003561 ], [ -78.064784000001666, 35.585263000002847 ], [ -78.058006000001782, 35.597806000002812 ], [ -77.983164000001153, 35.585683000002795 ], [ -77.953906000001666, 35.585843000002761 ], [ -77.967450000001207, 35.559738000002888 ], [ -77.936251000001135, 35.549222000002729 ], [ -77.948420000001633, 35.511600000002893 ], [ -77.973603000001347, 35.466731000003541 ], [ -77.957472000001061, 35.444939000003536 ], [ -77.963777000001272, 35.424721000003089 ], [ -77.943902000001913, 35.409246000003186 ], [ -77.953015000001827, 35.390815000002803 ], [ -77.963526000001238, 35.387189000003033 ], [ -77.967776000001351, 35.385790000002977 ], [ -77.956716000001592, 35.367581000003426 ], [ -77.957988000001706, 35.364532000003273 ], [ -77.950733000001307, 35.353238000002818 ], [ -77.970588000001982, 35.321634000003087 ], [ -77.997451000001348, 35.337202000002868 ], [ -78.016912000001284, 35.317081000003412 ], [ -78.011278000001525, 35.293423000003216 ], [ -78.017403000002048, 35.256063000002996 ], [ -78.055421000001331, 35.208211000002848 ], [ -78.058627000001337, 35.185066000002955 ], [ -78.077389000001887, 35.175135000002975 ], [ -78.144499000001943, 35.186509000003497 ], [ -78.163420000001068, 35.189716000003202 ], [ -78.161845000001421, 35.204323000002752 ], [ -78.245021000001074, 35.22595100000288 ], [ -78.306580000001603, 35.287604000002879 ], [ -78.364213000001541, 35.272123000003049 ], [ -78.392539000001619, 35.264378000003546 ], [ -78.4117340000018, 35.254663000003205 ], [ -78.450167000001073, 35.258625000003143 ], [ -78.491897000001998, 35.263319000002724 ], [ -78.509817000001362, 35.28166500000281 ], [ -78.538349000001261, 35.31641000000311 ], [ -78.580802000001725, 35.298194000003484 ], [ -78.599800000002048, 35.258716000003169 ], [ -78.617114000001109, 35.245718000002711 ], [ -78.643526000001543, 35.249121000003214 ], [ -78.702740000001938, 35.25681500000286 ], [ -78.783743000002119, 35.262526000002694 ], [ -78.867507000001396, 35.245015000003278 ], [ -78.842820000001211, 35.359993000003392 ], [ -78.878315000001137, 35.348855000003461 ] ] ] } },
{ "type": "Feature", "properties": { "enacted_district": 14, "population": 745342.0, "voting_age_pop": 580726.0, "dem_votes": 193266.0, "rep_votes": 151987.0, "minority_pop": 230224.0, "dem_pct": 0.55978079826684179, "rep_pct": 0.44021920144351556 }, "geometry": { "type": "Polygon", "coordinates": [ [ [ -81.056370000001948, 35.150511000003462 ], [ -81.1807190000021, 35.157412000003234 ], [ -81.269195000002085, 35.16124700000335 ], [ -81.269442000001987, 35.161256000003505 ], [ -81.328037000001316, 35.163467000003401 ], [ -81.324261000001385, 35.241118000002842 ], [ -81.321729000001199, 35.260449000003405 ], [ -81.310164000001663, 35.248459000002697 ], [ -81.241672000001756, 35.253517000003001 ], [ -81.241392000001369, 35.256922000003044 ], [ -81.239465000001246, 35.284065000003146 ], [ -81.259763000001797, 35.286911000002824 ], [ -81.232634000001511, 35.305356000002625 ], [ -81.271616000001998, 35.316298000003101 ], [ -81.248893000001829, 35.353263000002862 ], [ -81.207084000001885, 35.341764000002655 ], [ -81.162508000001822, 35.3592150000026 ], [ -81.184647000001434, 35.409806000002717 ], [ -81.177945000001174, 35.409573000003235 ], [ -81.094164000001641, 35.406632000003405 ], [ -81.083826000001324, 35.406272000003064 ], [ -81.030675000002205, 35.404402000003273 ], [ -81.030512000001451, 35.404393000003381 ], [ -80.95486000000156, 35.400078000003155 ], [ -80.962896000001294, 35.375107000003098 ], [ -80.943632000001543, 35.350582000003335 ], [ -80.972670000001756, 35.350257000003211 ], [ -81.00385400000151, 35.297929000003158 ], [ -80.986946000001723, 35.301042000002852 ], [ -80.979141000001249, 35.298239000003235 ], [ -80.969323000001893, 35.290977000003203 ], [ -80.938924000001208, 35.280623000003239 ], [ -80.939834000001468, 35.259863000003392 ], [ -80.921182000001664, 35.244658000002687 ], [ -80.897191000001357, 35.24567800000338 ], [ -80.891097000001423, 35.224287000003379 ], [ -80.868296000001493, 35.223996000003034 ], [ -80.866931000001784, 35.228978000003238 ], [ -80.863629000001453, 35.233904000003349 ], [ -80.85221500000165, 35.243275000003294 ], [ -80.836550000001466, 35.238701000002614 ], [ -80.832118000001614, 35.235169000003147 ], [ -80.829766000001783, 35.237078000003471 ], [ -80.815813000001341, 35.248811000003165 ], [ -80.794765000001334, 35.258342000002983 ], [ -80.791082000002007, 35.258383000002993 ], [ -80.777328000002015, 35.259638000003058 ], [ -80.781027000001842, 35.249517000003245 ], [ -80.775653000001739, 35.236789000003249 ], [ -80.774516000001185, 35.23344800000276 ], [ -80.780725000002192, 35.215613000002847 ], [ -80.771281000002006, 35.213992000003053 ], [ -80.757143000001221, 35.209870000003043 ], [ -80.741152000002018, 35.203099000002922 ], [ -80.743276000001686, 35.193848000003079 ], [ -80.736545000001328, 35.186707000003324 ], [ -80.756477000001269, 35.183762000002808 ], [ -80.749314000001618, 35.175774000002669 ], [ -80.742526000001646, 35.166944000003397 ], [ -80.739407000001805, 35.162614000003465 ], [ -80.736366000001823, 35.159765000003496 ], [ -80.722520000001879, 35.145089000003338 ], [ -80.720322000001929, 35.142582000003003 ], [ -80.698008000001522, 35.118958000003083 ], [ -80.688652000001909, 35.110177000003375 ], [ -80.681398000002218, 35.103409000003197 ], [ -80.705195000001453, 35.084402000003287 ], [ -80.736466000001982, 35.060113000003213 ], [ -80.767555000001366, 35.036286000002846 ], [ -80.77979500000194, 35.032738000003484 ], [ -80.792806000001306, 35.029914000003437 ], [ -80.804506000001737, 35.027749000002949 ], [ -80.811156000002057, 35.021480000003372 ], [ -80.840278000001575, 35.001692000003025 ], [ -80.87050200000121, 35.036835000002945 ], [ -80.898167000001692, 35.067633000003184 ], [ -80.919818000001655, 35.091691000002776 ], [ -80.947090000001353, 35.09956400000317 ], [ -81.041496000001374, 35.044713000003021 ], [ -81.057672000002071, 35.061867000003417 ], [ -81.040125000001794, 35.101737000003411 ], [ -81.051884000001905, 35.134497000003392 ], [ -81.033909000001245, 35.148690000003015 ], [ -81.056370000001948, 35.150511000003462 ] ] ] } }
]
}
