{
"type": "FeatureCollection",
"name": "north_dakota_optimized_districts_all",
"crs": { "type": "name", "properties": { "name": "urn:ogc:def:crs:OGC:1.3:CRS84" } },
"features": [
{ "type": "Feature", "properties": { "opt_all": 1, "population": 779094.0, "voting_age_pop": 596093.0, "dem_votes": 99369.0, "rep_votes": 227267.0, "minority_pop": 92940.0, "dem_pct": 0.30421937560335682, "rep_pct": 0.69578062409049202 }, "geometry": { "type": "Polygon", "coordinates": [ [ [ -99.015266000001802, 45.939799000001926 ], [ -99.760635000001557, 45.940811000001979 ], [ -100.308163000001514, 45.943258000002082 ], [ -101.04113700000272, 45.943455000002025 ], [ -101.420443000002123, 45.94380600000143 ], [ -101.786099000001954, 45.944341000002112 ], [ -102.445961000001859, 45.944916000002166 ], [ -102.983434000002276, 45.945079000002117 ], [ -103.369029000002058, 45.945152000001613 ], [ -104.045547000002117, 45.945308000001482 ], [ -104.045153000002486, 46.510055000001238 ], [ -104.045977000002381, 46.874530000001513 ], [ -104.044853000001396, 47.406722000001686 ], [ -104.041443000001522, 47.863054000001668 ], [ -104.044044000001918, 47.996082000001579 ], [ -104.047549000002647, 48.498789000001928 ], [ -104.048692000002376, 48.999899000001719 ], [ -103.599299000001622, 48.999256000001616 ], [ -103.130799000002, 48.999364000001634 ], [ -102.631416000001835, 48.999067000001588 ], [ -101.980800000002503, 48.998879000001573 ], [ -101.190614000001915, 48.999504000001586 ], [ -100.684756000002395, 48.999458000001567 ], [ -100.137552000002117, 48.99928800000162 ], [ -99.779070000001923, 48.999174000001709 ], [ -99.178330000001793, 48.999760000001295 ], [ -98.737129000001644, 49.000122000002129 ], [ -98.186783000002194, 49.000252000001616 ], [ -97.556945000002074, 49.000528000001758 ], [ -97.228961000002684, 49.000454000001625 ], [ -97.234128000002045, 48.9478980000018 ], [ -97.1998910000015, 48.882590000002189 ], [ -97.1730520000024, 48.851675000001919 ], [ -97.179831000002523, 48.800783000001807 ], [ -97.156858000001876, 48.789941000002152 ], [ -97.105442000001474, 48.68964800000208 ], [ -97.108972000002041, 48.633733000002216 ], [ -97.143822000001464, 48.598359000001693 ], [ -97.166271000002595, 48.551065000002282 ], [ -97.152765000001622, 48.530285000001761 ], [ -97.131479000002599, 48.40658600000144 ], [ -97.155481000002396, 48.363768000001741 ], [ -97.126745000001506, 48.342140000001869 ], [ -97.116570000002056, 48.27966100000183 ], [ -97.149755000002486, 48.185824000002256 ], [ -97.146531000001715, 48.144055000001586 ], [ -97.098829000001757, 48.071477000001458 ], [ -97.071288000002497, 48.045797000001897 ], [ -97.055597000001526, 47.949129000001435 ], [ -97.018107000002402, 47.920228000001487 ], [ -97.016547000002561, 47.871346000002319 ], [ -96.981878000001956, 47.830641000002302 ], [ -96.899237000001506, 47.689579000001814 ], [ -96.888074000001581, 47.638316000002106 ], [ -96.849908000001918, 47.590754000002129 ], [ -96.863690000001796, 47.48979100000227 ], [ -96.854430000002566, 47.42505900000203 ], [ -96.830618000001834, 47.338014000001891 ], [ -96.843857000002046, 47.292939000002264 ], [ -96.829126000002361, 47.234723000002127 ], [ -96.836083000002105, 47.148500000001953 ], [ -96.816191000001567, 47.108481000001795 ], [ -96.817737000002538, 47.051118000001942 ], [ -96.834839000001537, 47.007254000002078 ], [ -96.792962000002206, 46.946604000001805 ], [ -96.761693000001642, 46.934558000001822 ], [ -96.783503000002298, 46.826224000002362 ], [ -96.781100000001857, 46.722048000001607 ], [ -96.79946000000254, 46.677807000001856 ], [ -96.796041000001537, 46.631209000001675 ], [ -96.74569700000184, 46.571027000001962 ], [ -96.750448000002635, 46.544048000002071 ], [ -96.667422000002659, 46.37611700000226 ], [ -96.599660000002203, 46.330481000002344 ], [ -96.597792000002357, 46.228880000002292 ], [ -96.588387000001902, 46.179084000002042 ], [ -96.554436000001743, 46.084186000001637 ], [ -96.577875000002479, 46.027034000002047 ], [ -96.563672000002725, 45.935245000002475 ], [ -97.2257970000027, 45.935370000001953 ], [ -97.81224300000224, 45.935510000001919 ], [ -98.311300000002475, 45.936120000001935 ], [ -99.015266000001802, 45.939799000001926 ] ] ] } }
]
}
