{
"type": "FeatureCollection",
"name": "oklahoma_enacted_districts",
"crs": { "type": "name", "properties": { "name": "urn:ogc:def:crs:OGC:1.3:CRS84" } },
"features": [
{ "type": "Feature", "properties": { "enacted_district": 1, "population": 790239.0, "voting_age_pop": 596710.0, "dem_votes": 103765.0, "rep_votes": 169063.0, "minority_pop": 225478.0, "dem_pct": 0.38033119753825445, "rep_pct": 0.61966880209521424 }, "geometry": { "type": "Polygon", "coordinates": [ [ [ -96.190324000002121, 35.990124000002687 ], [ -96.208195000002263, 35.988602000002786 ], [ -96.190230000002245, 36.03217300000226 ], [ -96.190366000002584, 36.075732000002319 ], [ -96.297501000001958, 36.075766000002773 ], [ -96.297888000002317, 36.162279000002883 ], [ -96.268287000001862, 36.161980000002593 ], [ -96.174638000002417, 36.161064000002661 ], [ -96.15418400000236, 36.161028000002879 ], [ -96.141501000002719, 36.161005000002667 ], [ -96.10610600000274, 36.160934000002513 ], [ -96.090779000002641, 36.16090100000271 ], [ -96.082939000002682, 36.160951000002399 ], [ -96.047288000001714, 36.161133000002508 ], [ -96.04375200000176, 36.161127000002054 ], [ -96.019852000002714, 36.161252000002655 ], [ -96.010951000001796, 36.161317000002363 ], [ -96.001226000002021, 36.161296000002885 ], [ -96.001236000001754, 36.176941000002749 ], [ -96.001238000002616, 36.180574000002032 ], [ -96.001249000002417, 36.191500000002264 ], [ -96.001266000002687, 36.205917000002408 ], [ -96.001275000002678, 36.219252000002228 ], [ -96.001418000001962, 36.220637000002739 ], [ -96.00139600000216, 36.2421350000022 ], [ -96.001407000002004, 36.244824000002581 ], [ -96.001313000002725, 36.250019000002567 ], [ -96.001317000002359, 36.279372000002738 ], [ -96.001504000002697, 36.303372000002241 ], [ -96.001463000002161, 36.307448000002125 ], [ -96.001327000002718, 36.334474000002501 ], [ -96.001249000002119, 36.361539000002878 ], [ -96.001180000002677, 36.414950000002207 ], [ -96.0011710000026, 36.423686000002157 ], [ -95.920636000002318, 36.423702000002677 ], [ -95.920323000002483, 36.423703000002234 ], [ -95.88419400000268, 36.423722000002414 ], [ -95.848288000002313, 36.423612000002109 ], [ -95.812342000001976, 36.423580000002403 ], [ -95.794370000002701, 36.423580000002062 ], [ -95.794250000002435, 36.394505000002709 ], [ -95.812176000001941, 36.365543000002738 ], [ -95.812210000002324, 36.351010000002631 ], [ -95.812220000001943, 36.336520000002501 ], [ -95.812200000002235, 36.322050000002648 ], [ -95.776270000002143, 36.321870000002697 ], [ -95.776330000002559, 36.292960000002282 ], [ -95.776073000002285, 36.263982000002386 ], [ -95.758379000002634, 36.25016900000206 ], [ -95.760040000002036, 36.235160000002097 ], [ -95.725832000002484, 36.2066580000023 ], [ -95.726407000002155, 36.162449000002624 ], [ -95.672684000002221, 36.162333000002207 ], [ -95.619185000002517, 36.162602000002131 ], [ -95.609660000002464, 36.140874000002235 ], [ -95.567844000002381, 36.12937800000222 ], [ -95.571525000001685, 36.075282000002311 ], [ -95.551091000002344, 36.065793000002515 ], [ -95.523196000002159, 36.04974100000257 ], [ -95.543343000002565, 36.000052000002832 ], [ -95.49518100000256, 35.955511000002474 ], [ -95.479490000001718, 35.906973000002132 ], [ -95.40253300000272, 35.885457000002496 ], [ -95.401905000002358, 35.806767000002772 ], [ -95.402214000002559, 35.806633000002272 ], [ -95.445601000002782, 35.799899000002924 ], [ -95.500086000002582, 35.798699000002429 ], [ -95.514477000002103, 35.793944000002043 ], [ -95.556066000002616, 35.788699000002076 ], [ -95.579872000002354, 35.769743000002727 ], [ -95.590149000002356, 35.76542800000221 ], [ -95.639779000002264, 35.791807000002123 ], [ -95.654730000002218, 35.856639000002239 ], [ -95.766114000002361, 35.856284000002134 ], [ -95.819459000002098, 35.856255000002491 ], [ -95.908370000001796, 35.856399000002611 ], [ -95.926178000002764, 35.856525000002343 ], [ -96.033118000002119, 35.856824000002192 ], [ -96.086128000002319, 35.857197000002046 ], [ -96.139743000002284, 35.857090000002465 ], [ -96.117451000002035, 35.945721000002038 ], [ -96.136907000001926, 35.973959000002004 ], [ -96.172278000002436, 35.991801000002674 ], [ -96.190324000002121, 35.990124000002687 ] ] ] } },
{ "type": "Feature", "properties": { "enacted_district": 2, "population": 792532.0, "voting_age_pop": 609790.0, "dem_votes": 75391.0, "rep_votes": 201273.0, "minority_pop": 210810.0, "dem_pct": 0.27250021677106517, "rep_pct": 0.72749978286748551 }, "geometry": { "type": "Polygon", "coordinates": [ [ [ -96.419124000002327, 33.771825000002138 ], [ -96.457111000002243, 33.77571400000258 ], [ -96.500984000002077, 33.772801000002588 ], [ -96.532651000002119, 33.823143000002801 ], [ -96.571113000002043, 33.818955000002752 ], [ -96.623147000002476, 33.84149600000211 ], [ -96.588502000002578, 33.894983000002917 ], [ -96.654308000002402, 33.913188000002336 ], [ -96.680561000002683, 33.896960000002679 ], [ -96.690708000002417, 33.849959000002073 ], [ -96.761587000002095, 33.824407000002616 ], [ -96.794276000002199, 33.868886000002576 ], [ -96.833786000002362, 33.873525000002708 ], [ -96.866438000002674, 33.853149000002489 ], [ -96.895728000002762, 33.896414000002842 ], [ -96.910014000002221, 33.952783000002178 ], [ -96.934840000002438, 33.9544530000028 ], [ -96.934833000001944, 34.012930000002527 ], [ -96.9697360000023, 34.012953000002064 ], [ -96.969627000002063, 34.071020000002505 ], [ -96.968296000002638, 34.100944000002329 ], [ -96.968691000002082, 34.163064000002876 ], [ -96.933503000001878, 34.172748000002613 ], [ -96.933305000002633, 34.332561000002691 ], [ -96.881005000002077, 34.332977000002757 ], [ -96.880790000002236, 34.506053000002083 ], [ -96.827343000002642, 34.506062000002323 ], [ -96.740376000002399, 34.505903000002178 ], [ -96.676373000002314, 34.505783000002445 ], [ -96.565979000002002, 34.505484000002411 ], [ -96.513787000002424, 34.505396000002449 ], [ -96.512071000001939, 34.51948400000262 ], [ -96.512057000002798, 34.540132000002671 ], [ -96.512171000002283, 34.680065000002486 ], [ -96.406357000002515, 34.680023000002663 ], [ -96.4065150000024, 34.709168000002265 ], [ -96.406483000001998, 34.767328000002777 ], [ -96.406252000002198, 34.803710000002482 ], [ -96.406171000001805, 34.898103000002038 ], [ -96.406135000002607, 34.934191000002301 ], [ -96.435587000002315, 34.902280000002662 ], [ -96.490786000001762, 34.910585000002342 ], [ -96.490535000002282, 35.049896000002136 ], [ -96.490477000002542, 35.086814000002882 ], [ -96.49043400000194, 35.115857000002805 ], [ -96.441305000002203, 35.115771000002482 ], [ -96.441192000002246, 35.173922000002662 ], [ -96.441368000001802, 35.290122000002725 ], [ -96.441250000001801, 35.387229000002364 ], [ -96.441290000002482, 35.467712000002365 ], [ -96.496594000002659, 35.428896000002894 ], [ -96.546241000002482, 35.457383000002814 ], [ -96.569710000002317, 35.44059700000242 ], [ -96.535146000002598, 35.391371000002579 ], [ -96.623699000002716, 35.400722000002048 ], [ -96.624681000002198, 35.462707000002574 ], [ -96.621091000002522, 35.609666000002406 ], [ -96.620828000002405, 35.639005000002413 ], [ -96.496860000001845, 35.639032000002047 ], [ -96.476563000001875, 35.639040000002829 ], [ -96.387625000002657, 35.639291000002558 ], [ -96.28148800000244, 35.638818000002807 ], [ -96.19256300000184, 35.639087000002803 ], [ -96.192502000002165, 35.692240000002826 ], [ -96.191930000002444, 35.856990000002362 ], [ -96.139743000002284, 35.857090000002465 ], [ -96.086128000002319, 35.857197000002046 ], [ -96.033118000002119, 35.856824000002192 ], [ -95.926178000002764, 35.856525000002343 ], [ -95.908370000001796, 35.856399000002611 ], [ -95.819459000002098, 35.856255000002491 ], [ -95.766114000002361, 35.856284000002134 ], [ -95.654730000002218, 35.856639000002239 ], [ -95.639779000002264, 35.791807000002123 ], [ -95.590149000002356, 35.76542800000221 ], [ -95.579872000002354, 35.769743000002727 ], [ -95.556066000002616, 35.788699000002076 ], [ -95.514477000002103, 35.793944000002043 ], [ -95.500086000002582, 35.798699000002429 ], [ -95.445601000002782, 35.799899000002924 ], [ -95.402214000002559, 35.806633000002272 ], [ -95.401905000002358, 35.806767000002772 ], [ -95.40253300000272, 35.885457000002496 ], [ -95.479490000001718, 35.906973000002132 ], [ -95.49518100000256, 35.955511000002474 ], [ -95.543343000002565, 36.000052000002832 ], [ -95.523196000002159, 36.04974100000257 ], [ -95.551091000002344, 36.065793000002515 ], [ -95.571525000001685, 36.075282000002311 ], [ -95.567844000002381, 36.12937800000222 ], [ -95.609660000002464, 36.140874000002235 ], [ -95.619185000002517, 36.162602000002131 ], [ -95.672684000002221, 36.162333000002207 ], [ -95.726407000002155, 36.162449000002624 ], [ -95.725832000002484, 36.2066580000023 ], [ -95.760040000002036, 36.235160000002097 ], [ -95.758379000002634, 36.25016900000206 ], [ -95.776073000002285, 36.263982000002386 ], [ -95.776330000002559, 36.292960000002282 ], [ -95.776270000002143, 36.321870000002697 ], [ -95.812200000002235, 36.322050000002648 ], [ -95.812220000001943, 36.336520000002501 ], [ -95.812210000002324, 36.351010000002631 ], [ -95.812176000001941, 36.365543000002738 ], [ -95.794250000002435, 36.394505000002709 ], [ -95.794370000002701, 36.423580000002062 ], [ -95.812342000001976, 36.423580000002403 ], [ -95.848288000002313, 36.423612000002109 ], [ -95.88419400000268, 36.423722000002414 ], [ -95.920323000002483, 36.423703000002234 ], [ -95.920636000002318, 36.423702000002677 ], [ -96.0011710000026, 36.423686000002157 ], [ -96.001145000002595, 36.439763000002245 ], [ -96.0009240000022, 36.554078000002789 ], [ -96.000728000002127, 36.641069000002403 ], [ -96.000665000002144, 36.736754000002243 ], [ -96.000660000002483, 36.770275000002655 ], [ -96.000690000002294, 36.780397000002083 ], [ -96.000742000002475, 36.834049000002537 ], [ -96.000758000001682, 36.858680000002714 ], [ -96.000810000002076, 36.998860000002459 ], [ -95.786762000002284, 36.999310000002346 ], [ -95.628750000002753, 36.99937800000265 ], [ -95.407733000001883, 36.999311000002422 ], [ -95.281580000002577, 36.999548000002697 ], [ -95.007620000002362, 36.999514000002883 ], [ -94.866890000002641, 36.998860000002388 ], [ -94.617964000002274, 36.998905000002772 ], [ -94.618177000002717, 36.967715000002649 ], [ -94.618119000002523, 36.964956000002744 ], [ -94.618053000002476, 36.911510000002288 ], [ -94.618420000002601, 36.824553000002574 ], [ -94.618077000002756, 36.667921000002387 ], [ -94.617918000002206, 36.568708000002907 ], [ -94.612896000002564, 36.468635000002664 ], [ -94.591330000002074, 36.332526000002083 ], [ -94.577705000002766, 36.249684000002105 ], [ -94.562727000002397, 36.161893000002365 ], [ -94.543299000002222, 36.051433000002689 ], [ -94.519087000002742, 35.911290000002523 ], [ -94.503073000001677, 35.81752900000221 ], [ -94.484394000001998, 35.706814000002893 ], [ -94.472623000002315, 35.638557000002685 ], [ -94.453978000001797, 35.526562000002805 ], [ -94.435884000002261, 35.419475000002386 ], [ -94.434376000002473, 35.38743100000233 ], [ -94.433417000002336, 35.365514000002136 ], [ -94.434048000002235, 35.31676200000291 ], [ -94.436375000002599, 35.258142000002756 ], [ -94.438407000002641, 35.201902000002612 ], [ -94.441527000002395, 35.11119900000228 ], [ -94.446173000002446, 34.978226000002238 ], [ -94.447396000002001, 34.941921000002722 ], [ -94.449350000002141, 34.884633000002985 ], [ -94.451214000002594, 34.827596000002444 ], [ -94.454582000001679, 34.72398900000298 ], [ -94.455598000002482, 34.693503000002565 ], [ -94.458487000002563, 34.599794000002831 ], [ -94.461149000002123, 34.507457000002198 ], [ -94.461962000001876, 34.477710000002538 ], [ -94.469301000002716, 34.230716000002502 ], [ -94.477396000002486, 33.940952000002312 ], [ -94.479761000002242, 33.856708000002477 ], [ -94.481846000002719, 33.788729000002967 ], [ -94.485903000002367, 33.637858000002609 ], [ -94.505655000002434, 33.62066800000219 ], [ -94.564076000001819, 33.626265000002995 ], [ -94.593294000002317, 33.66525800000268 ], [ -94.64277900000252, 33.701005000003036 ], [ -94.684796000001924, 33.684353000002595 ], [ -94.736814000002724, 33.692332000002338 ], [ -94.788637000002154, 33.735669000002957 ], [ -94.763778000002702, 33.759925000002141 ], [ -94.802252000002781, 33.732788000002259 ], [ -94.860687000002216, 33.741945000002822 ], [ -94.911427000001765, 33.778383000002343 ], [ -94.964401000002184, 33.83702100000253 ], [ -95.029715000002525, 33.860091000002186 ], [ -95.049025000002246, 33.864090000002875 ], [ -95.155882000002634, 33.936572000002577 ], [ -95.225786000001847, 33.962122000002303 ], [ -95.230865000002794, 33.959512000002469 ], [ -95.247630000002687, 33.914744000002486 ], [ -95.33192900000256, 33.879818000002892 ], [ -95.406752000001759, 33.864729000002633 ], [ -95.533798000002122, 33.881153000002222 ], [ -95.562505000002218, 33.932589000002366 ], [ -95.597593000002604, 33.941496000002488 ], [ -95.627318000001978, 33.907806000002914 ], [ -95.688876000002423, 33.888486000002672 ], [ -95.733183000001844, 33.89644700000207 ], [ -95.761520000002434, 33.873118000002691 ], [ -95.815723000002293, 33.859815000002861 ], [ -95.830406000002526, 33.834785000002803 ], [ -95.932209000002644, 33.883882000002913 ], [ -95.946030000002324, 33.859338000002239 ], [ -96.048834000002785, 33.836468000002469 ], [ -96.084626000002402, 33.846656000002099 ], [ -96.149227000001801, 33.83709100000258 ], [ -96.165199000002076, 33.780130000002679 ], [ -96.196388000001804, 33.753264000002375 ], [ -96.230352000001801, 33.748524000002085 ], [ -96.290359000002127, 33.77083100000214 ], [ -96.318759000002686, 33.696753000002872 ], [ -96.359374000002404, 33.689432000002846 ], [ -96.419124000002327, 33.771825000002138 ] ] ] } },
{ "type": "Feature", "properties": { "enacted_district": 3, "population": 800196.0, "voting_age_pop": 601516.0, "dem_votes": 70319.0, "rep_votes": 174197.0, "minority_pop": 211260.0, "dem_pct": 0.28758445243354852, "rep_pct": 0.71241554715748023 }, "geometry": { "type": "Polygon", "coordinates": [ [ [ -99.844585000001956, 34.506915000002685 ], [ -99.888741000002284, 34.55045200000248 ], [ -99.956563000002106, 34.576729000002096 ], [ -100.000277000002683, 34.560450000002419 ], [ -100.000376000001921, 34.696267000002194 ], [ -100.000381000002236, 34.854386000002265 ], [ -100.000384000002754, 35.029930000002281 ], [ -100.000419000001784, 35.204839000002572 ], [ -100.00038700000276, 35.300072000002494 ], [ -99.999660000001882, 35.422364000002624 ], [ -100.000391000001997, 35.624962000002547 ], [ -100.000395000002726, 35.813036000002008 ], [ -100.000396000002638, 35.88123300000224 ], [ -100.000390000002625, 36.130969000002366 ], [ -100.000405000001876, 36.433367000001986 ], [ -100.003762000002084, 36.499849000002278 ], [ -100.310969000002245, 36.499629000002066 ], [ -100.685151000002563, 36.49951600000233 ], [ -100.954153000001753, 36.499916000002429 ], [ -101.289709000002446, 36.499536000002109 ], [ -101.596593000001846, 36.499519000002053 ], [ -101.709374000001901, 36.499719000002486 ], [ -102.032338000002156, 36.500575000002215 ], [ -102.355464000001717, 36.500392000001945 ], [ -102.696965000002379, 36.500454000002087 ], [ -103.002290000001736, 36.500887000001789 ], [ -103.002329000002604, 37.000150000001987 ], [ -102.841921000002699, 36.999600000002488 ], [ -102.524683000001758, 36.994871000001787 ], [ -102.028204000001793, 36.993102000002224 ], [ -101.595196000002503, 36.995095000002074 ], [ -101.485216000002239, 36.995683000002266 ], [ -101.265910000002606, 36.996807000001908 ], [ -101.214917000001762, 36.996997000002509 ], [ -100.945463000002647, 36.998416000002202 ], [ -100.639200000001779, 37.00012000000239 ], [ -100.543809000001758, 37.000617000002073 ], [ -100.412525000002276, 37.001183000001845 ], [ -100.002563000001956, 37.001706000002521 ], [ -99.828879000002118, 37.001233000002003 ], [ -99.575172000002127, 36.999871000001967 ], [ -99.456203000002176, 36.999471000002657 ], [ -98.923039000002476, 36.999558000002189 ], [ -98.544661000002236, 36.998759000002472 ], [ -98.363776000002602, 36.998034000002491 ], [ -98.111985000002178, 36.998093000001987 ], [ -97.876452000002004, 36.998657000002531 ], [ -97.6087900000026, 36.99869000000281 ], [ -97.54647700000254, 36.998638000002039 ], [ -97.462346000001915, 36.998701000002711 ], [ -97.300790000001896, 36.998866000002288 ], [ -97.138260000002276, 36.999010000002087 ], [ -96.925294000002395, 36.999129000002732 ], [ -96.7498380000022, 36.998988000002548 ], [ -96.415238000002461, 36.999218000002841 ], [ -96.184708000001677, 36.999338000002467 ], [ -96.000810000002076, 36.998860000002459 ], [ -96.000758000001682, 36.858680000002714 ], [ -96.000742000002475, 36.834049000002537 ], [ -96.000690000002294, 36.780397000002083 ], [ -96.000660000002483, 36.770275000002655 ], [ -96.000665000002144, 36.736754000002243 ], [ -96.000728000002127, 36.641069000002403 ], [ -96.0009240000022, 36.554078000002789 ], [ -96.001145000002595, 36.439763000002245 ], [ -96.0011710000026, 36.423686000002157 ], [ -96.001180000002677, 36.414950000002207 ], [ -96.001249000002119, 36.361539000002878 ], [ -96.001327000002718, 36.334474000002501 ], [ -96.001463000002161, 36.307448000002125 ], [ -96.001504000002697, 36.303372000002241 ], [ -96.001317000002359, 36.279372000002738 ], [ -96.001313000002725, 36.250019000002567 ], [ -96.001407000002004, 36.244824000002581 ], [ -96.00139600000216, 36.2421350000022 ], [ -96.001418000001962, 36.220637000002739 ], [ -96.001275000002678, 36.219252000002228 ], [ -96.001266000002687, 36.205917000002408 ], [ -96.001249000002417, 36.191500000002264 ], [ -96.001238000002616, 36.180574000002032 ], [ -96.001236000001754, 36.176941000002749 ], [ -96.001226000002021, 36.161296000002885 ], [ -96.010951000001796, 36.161317000002363 ], [ -96.019852000002714, 36.161252000002655 ], [ -96.04375200000176, 36.161127000002054 ], [ -96.047288000001714, 36.161133000002508 ], [ -96.082939000002682, 36.160951000002399 ], [ -96.090779000002641, 36.16090100000271 ], [ -96.10610600000274, 36.160934000002513 ], [ -96.141501000002719, 36.161005000002667 ], [ -96.15418400000236, 36.161028000002879 ], [ -96.174638000002417, 36.161064000002661 ], [ -96.268287000001862, 36.161980000002593 ], [ -96.297888000002317, 36.162279000002883 ], [ -96.297501000001958, 36.075766000002773 ], [ -96.190366000002584, 36.075732000002319 ], [ -96.190230000002245, 36.03217300000226 ], [ -96.208195000002263, 35.988602000002786 ], [ -96.190324000002121, 35.990124000002687 ], [ -96.172278000002436, 35.991801000002674 ], [ -96.136907000001926, 35.973959000002004 ], [ -96.117451000002035, 35.945721000002038 ], [ -96.139743000002284, 35.857090000002465 ], [ -96.191930000002444, 35.856990000002362 ], [ -96.192502000002165, 35.692240000002826 ], [ -96.19256300000184, 35.639087000002803 ], [ -96.28148800000244, 35.638818000002807 ], [ -96.387625000002657, 35.639291000002558 ], [ -96.476563000001875, 35.639040000002829 ], [ -96.496860000001845, 35.639032000002047 ], [ -96.620828000002405, 35.639005000002413 ], [ -96.619722000002355, 35.768528000001986 ], [ -96.6197210000024, 35.770367000002771 ], [ -96.61934800000266, 35.855519000002054 ], [ -96.619655000002282, 35.94157100000232 ], [ -96.731535000001955, 35.942176000002206 ], [ -96.820292000001956, 35.942290000002849 ], [ -96.927040000002435, 35.94203800000269 ], [ -96.945041000001879, 35.942153000002641 ], [ -97.016421000002481, 35.942068000002642 ], [ -97.105008000002044, 35.942253000002125 ], [ -97.140583000001996, 35.941991000002638 ], [ -97.203592000001919, 35.94479500000282 ], [ -97.221192000002034, 35.964573000002638 ], [ -97.277560000002197, 35.973782000002167 ], [ -97.294601000002203, 36.005557000002398 ], [ -97.339311000002695, 35.994532000002771 ], [ -97.353249000002435, 35.985334000002482 ], [ -97.353852000002675, 35.92749500000243 ], [ -97.407520000001725, 35.898623000002182 ], [ -97.428617000001964, 35.880146000002497 ], [ -97.45181900000216, 35.894527000002093 ], [ -97.512131000002725, 35.907354000002691 ], [ -97.590901000002475, 35.88738800000278 ], [ -97.674391000002444, 35.861013000002721 ], [ -97.674388000001983, 35.860431000002414 ], [ -97.674026000002641, 35.725970000002768 ], [ -97.78055800000196, 35.725722000002655 ], [ -97.780630000001963, 35.638229000002418 ], [ -97.7806370000024, 35.623713000002603 ], [ -97.745218000002595, 35.604525000002134 ], [ -97.745234000002, 35.580079000002243 ], [ -97.869798000002206, 35.58036600000235 ], [ -97.848729000001896, 35.551208000002781 ], [ -97.848716000002526, 35.500438000002404 ], [ -97.777625000002601, 35.495477000002595 ], [ -97.760131000002247, 35.487059000002425 ], [ -97.760254000002519, 35.464386000002001 ], [ -97.742539000001941, 35.464405000002607 ], [ -97.74244000000192, 35.449993000002074 ], [ -97.724652000002564, 35.449856000002569 ], [ -97.706913000002217, 35.449634000002064 ], [ -97.671430000002317, 35.447893000001997 ], [ -97.671530000002065, 35.46020300000206 ], [ -97.671534000002396, 35.469214000002239 ], [ -97.618914000002519, 35.471544000002673 ], [ -97.618931000002576, 35.47878500000256 ], [ -97.610061000002446, 35.478780000002523 ], [ -97.601085000002087, 35.47877400000263 ], [ -97.6011130000023, 35.48604700000233 ], [ -97.601142000002326, 35.493309000002526 ], [ -97.596685000002154, 35.493316000002821 ], [ -97.583370000002759, 35.493335000001956 ], [ -97.578818000002556, 35.493291000002024 ], [ -97.570178000002443, 35.493167000002046 ], [ -97.565663000001805, 35.499473000002368 ], [ -97.561016000002624, 35.500398000002249 ], [ -97.556596000002713, 35.500455000002496 ], [ -97.556641000001761, 35.485936000002724 ], [ -97.547808000002036, 35.485969000002626 ], [ -97.547693000001885, 35.493271000002828 ], [ -97.536781000002676, 35.493273000002581 ], [ -97.534241000002154, 35.50776900000205 ], [ -97.529829000002422, 35.507770000002317 ], [ -97.529936000002081, 35.493274000002607 ], [ -97.530011000002304, 35.48273400000248 ], [ -97.530047000002156, 35.477463000002764 ], [ -97.530078000002021, 35.472244000002611 ], [ -97.530132000002283, 35.458029000002426 ], [ -97.512748000002162, 35.456196000002812 ], [ -97.512403000001882, 35.455614000001972 ], [ -97.509840000001844, 35.45613100000206 ], [ -97.493012000002082, 35.462256000002192 ], [ -97.493985000002624, 35.463002000002454 ], [ -97.476753000002404, 35.464013000002858 ], [ -97.468923000002079, 35.463948000002596 ], [ -97.464020000002606, 35.466920000002787 ], [ -97.45899000000216, 35.466686000002554 ], [ -97.459203000001807, 35.449757000002322 ], [ -97.459208000002477, 35.435250000002689 ], [ -97.459196000001782, 35.420810000002362 ], [ -97.441310000002446, 35.420749000002402 ], [ -97.423569000002757, 35.420739000002214 ], [ -97.423613000002476, 35.406272000002765 ], [ -97.423566000002594, 35.377316000002097 ], [ -97.441222000001758, 35.377274000002487 ], [ -97.459227000002144, 35.377340000002192 ], [ -97.476985000002543, 35.377316000002644 ], [ -97.494894000002802, 35.377271000002345 ], [ -97.503515000002565, 35.377241000002726 ], [ -97.521258000002675, 35.377181000002267 ], [ -97.530106000002647, 35.377148000002791 ], [ -97.544380000002405, 35.377135000002632 ], [ -97.547826000002047, 35.37713100000218 ], [ -97.547863000002678, 35.377131000002066 ], [ -97.559176000002196, 35.377113000002517 ], [ -97.565552000002199, 35.377103000002201 ], [ -97.565564000002766, 35.377103000002307 ], [ -97.575010000002678, 35.377124000002617 ], [ -97.671369000002514, 35.377151000002755 ], [ -97.671415000002796, 35.337465000002425 ], [ -97.671414000002358, 35.335946000002245 ], [ -97.737305000001953, 35.323762000002276 ], [ -97.761499000002317, 35.340347000002154 ], [ -97.794290000001965, 35.335827000002432 ], [ -97.825600000002567, 35.333763000002094 ], [ -97.833675000002216, 35.335362000002796 ], [ -97.920835000002299, 35.353518000002154 ], [ -97.955124000002698, 35.34604800000254 ], [ -98.017453000002405, 35.377911000002754 ], [ -98.096014000002057, 35.37775300000218 ], [ -98.095001000001815, 35.247340000002097 ], [ -98.091340000002702, 35.20373000000194 ], [ -98.091293000002153, 35.145709000002782 ], [ -98.091146000002041, 35.116665000002563 ], [ -98.092884000002599, 35.083207000002815 ], [ -98.093056000002164, 35.028817000001972 ], [ -98.093057000002602, 34.985228000002728 ], [ -98.09307800000208, 34.883934000002519 ], [ -98.093127000002639, 34.854988000001988 ], [ -98.178320000001918, 34.855107000002597 ], [ -98.303917000001874, 34.855144000002454 ], [ -98.355646000002196, 34.855131000002778 ], [ -98.387202000001778, 34.855165000002025 ], [ -98.545461000002561, 34.855272000002564 ], [ -98.619816000001762, 34.855340000002691 ], [ -98.787368000002601, 34.855595000002069 ], [ -98.826091000002762, 34.855428000002654 ], [ -98.826317000002504, 34.77164600000247 ], [ -98.826240000002485, 34.696034000002022 ], [ -98.8262130000018, 34.681441000002259 ], [ -98.826008000002005, 34.594413000002717 ], [ -99.001107000002094, 34.594366000002729 ], [ -99.001025000002485, 34.637872000002147 ], [ -99.103150000001762, 34.637950000002363 ], [ -99.099668000002083, 34.594126000002419 ], [ -99.163320000002599, 34.588036000001892 ], [ -99.208029000002398, 34.507134000002672 ], [ -99.238060000002093, 34.425009000002227 ], [ -99.205412000002724, 34.372508000002057 ], [ -99.19540600000262, 34.341476000002359 ], [ -99.206905000002337, 34.338277000002471 ], [ -99.23413500000278, 34.353464000002234 ], [ -99.261275000001916, 34.403508000002667 ], [ -99.320073000001997, 34.4092670000027 ], [ -99.375550000002505, 34.458789000002376 ], [ -99.398728000002762, 34.37583200000207 ], [ -99.486809000002367, 34.397874000002211 ], [ -99.569696000002835, 34.418418000002688 ], [ -99.600026000002273, 34.374688000001889 ], [ -99.694528000001839, 34.378218000002434 ], [ -99.753447000002382, 34.420853000002701 ], [ -99.844585000001956, 34.506915000002685 ] ] ] } },
{ "type": "Feature", "properties": { "enacted_district": 4, "population": 793572.0, "voting_age_pop": 606972.0, "dem_votes": 91899.0, "rep_votes": 174411.0, "minority_pop": 194672.0, "dem_pct": 0.34508279811307019, "rep_pct": 0.65491720151142763 }, "geometry": { "type": "Polygon", "coordinates": [ [ [ -98.6900720000028, 34.133155000002098 ], [ -98.766671000001921, 34.136834000002175 ], [ -98.857967000002617, 34.159353000002724 ], [ -98.920704000001834, 34.183435000002063 ], [ -98.951284000002445, 34.212189000002326 ], [ -99.056350000002439, 34.200014000002561 ], [ -99.189776000002354, 34.21435700000216 ], [ -99.213161000002316, 34.308476000001988 ], [ -99.206905000002337, 34.338277000002471 ], [ -99.19540600000262, 34.341476000002359 ], [ -99.205412000002724, 34.372508000002057 ], [ -99.238060000002093, 34.425009000002227 ], [ -99.208029000002398, 34.507134000002672 ], [ -99.163320000002599, 34.588036000001892 ], [ -99.099668000002083, 34.594126000002419 ], [ -99.103150000001762, 34.637950000002363 ], [ -99.001025000002485, 34.637872000002147 ], [ -99.001107000002094, 34.594366000002729 ], [ -98.826008000002005, 34.594413000002717 ], [ -98.8262130000018, 34.681441000002259 ], [ -98.826240000002485, 34.696034000002022 ], [ -98.826317000002504, 34.77164600000247 ], [ -98.826091000002762, 34.855428000002654 ], [ -98.787368000002601, 34.855595000002069 ], [ -98.619816000001762, 34.855340000002691 ], [ -98.545461000002561, 34.855272000002564 ], [ -98.387202000001778, 34.855165000002025 ], [ -98.355646000002196, 34.855131000002778 ], [ -98.303917000001874, 34.855144000002454 ], [ -98.178320000001918, 34.855107000002597 ], [ -98.093127000002639, 34.854988000001988 ], [ -98.09307800000208, 34.883934000002519 ], [ -98.093057000002602, 34.985228000002728 ], [ -98.093056000002164, 35.028817000001972 ], [ -98.092884000002599, 35.083207000002815 ], [ -98.091146000002041, 35.116665000002563 ], [ -98.091293000002153, 35.145709000002782 ], [ -98.091340000002702, 35.20373000000194 ], [ -98.095001000001815, 35.247340000002097 ], [ -98.096014000002057, 35.37775300000218 ], [ -98.017453000002405, 35.377911000002754 ], [ -97.955124000002698, 35.34604800000254 ], [ -97.920835000002299, 35.353518000002154 ], [ -97.833675000002216, 35.335362000002796 ], [ -97.825600000002567, 35.333763000002094 ], [ -97.794290000001965, 35.335827000002432 ], [ -97.761499000002317, 35.340347000002154 ], [ -97.737305000001953, 35.323762000002276 ], [ -97.671414000002358, 35.335946000002245 ], [ -97.671415000002796, 35.337465000002425 ], [ -97.671369000002514, 35.377151000002755 ], [ -97.575010000002678, 35.377124000002617 ], [ -97.565564000002766, 35.377103000002307 ], [ -97.565552000002199, 35.377103000002201 ], [ -97.559176000002196, 35.377113000002517 ], [ -97.547863000002678, 35.377131000002066 ], [ -97.547826000002047, 35.37713100000218 ], [ -97.544380000002405, 35.377135000002632 ], [ -97.530106000002647, 35.377148000002791 ], [ -97.521258000002675, 35.377181000002267 ], [ -97.503515000002565, 35.377241000002726 ], [ -97.494894000002802, 35.377271000002345 ], [ -97.476985000002543, 35.377316000002644 ], [ -97.459227000002144, 35.377340000002192 ], [ -97.441222000001758, 35.377274000002487 ], [ -97.423566000002594, 35.377316000002097 ], [ -97.423613000002476, 35.406272000002765 ], [ -97.423569000002757, 35.420739000002214 ], [ -97.441310000002446, 35.420749000002402 ], [ -97.459196000001782, 35.420810000002362 ], [ -97.459208000002477, 35.435250000002689 ], [ -97.459203000001807, 35.449757000002322 ], [ -97.45899000000216, 35.466686000002554 ], [ -97.441577000002241, 35.478199000001993 ], [ -97.423986000002259, 35.478674000002378 ], [ -97.424125000002618, 35.493062000002134 ], [ -97.379760000002577, 35.493060000002522 ], [ -97.35311900000228, 35.493006000002417 ], [ -97.353103000002434, 35.486875000002335 ], [ -97.353112000002355, 35.478539000002662 ], [ -97.335585000001913, 35.478546000002218 ], [ -97.335600000002685, 35.471202000002265 ], [ -97.335642000002665, 35.464056000001975 ], [ -97.318005000002159, 35.464065000002819 ], [ -97.326949000002713, 35.449940000002258 ], [ -97.335725000002398, 35.449892000002215 ], [ -97.335729000002161, 35.436254000002499 ], [ -97.335727000002422, 35.435387000002585 ], [ -97.333547000002767, 35.435385000002526 ], [ -97.317977000002315, 35.435368000002768 ], [ -97.317957000002437, 35.420925000002342 ], [ -97.317832000002255, 35.377286000002293 ], [ -97.317737000001927, 35.377286000002172 ], [ -97.3001740000024, 35.377322000002465 ], [ -97.23904000000276, 35.377286000002172 ], [ -97.212858000002086, 35.377140000002747 ], [ -97.142114000001754, 35.376860000002161 ], [ -97.142026000002076, 35.333210000002261 ], [ -97.141941000002021, 35.318722000002047 ], [ -97.141862000001794, 35.275211000002379 ], [ -97.141946000002363, 35.247356000002782 ], [ -97.142147000002325, 35.192078000002766 ], [ -97.142060000002218, 35.145213000002677 ], [ -97.142091000002154, 35.10171600000276 ], [ -97.142185000002044, 35.072791000002219 ], [ -97.142084000001745, 35.014818000002727 ], [ -97.142349000002042, 34.928176000002601 ], [ -97.101296000002364, 34.930324000002159 ], [ -97.015930000002683, 34.907348000002798 ], [ -96.930586000001796, 34.964364000002625 ], [ -96.929872000001922, 34.965109000002577 ], [ -96.885400000002178, 34.926251000002495 ], [ -96.821488000002475, 34.946112000002465 ], [ -96.775681000002677, 34.89995800000235 ], [ -96.749594000002602, 34.892083000002138 ], [ -96.701492000002673, 34.864884000002178 ], [ -96.711492000002139, 34.916282000002035 ], [ -96.68357400000184, 34.933035000002192 ], [ -96.627388000001943, 34.89887800000249 ], [ -96.577089000002317, 34.91658400000253 ], [ -96.528587000002076, 34.869586000002428 ], [ -96.510486000002516, 34.878620000002662 ], [ -96.490786000001762, 34.910585000002342 ], [ -96.435587000002315, 34.902280000002662 ], [ -96.406135000002607, 34.934191000002301 ], [ -96.406171000001805, 34.898103000002038 ], [ -96.406252000002198, 34.803710000002482 ], [ -96.406483000001998, 34.767328000002777 ], [ -96.4065150000024, 34.709168000002265 ], [ -96.406357000002515, 34.680023000002663 ], [ -96.512171000002283, 34.680065000002486 ], [ -96.512057000002798, 34.540132000002671 ], [ -96.512071000001939, 34.51948400000262 ], [ -96.513787000002424, 34.505396000002449 ], [ -96.565979000002002, 34.505484000002411 ], [ -96.676373000002314, 34.505783000002445 ], [ -96.740376000002399, 34.505903000002178 ], [ -96.827343000002642, 34.506062000002323 ], [ -96.880790000002236, 34.506053000002083 ], [ -96.881005000002077, 34.332977000002757 ], [ -96.933305000002633, 34.332561000002691 ], [ -96.933503000001878, 34.172748000002613 ], [ -96.968691000002082, 34.163064000002876 ], [ -96.968296000002638, 34.100944000002329 ], [ -96.969627000002063, 34.071020000002505 ], [ -96.9697360000023, 34.012953000002064 ], [ -96.934833000001944, 34.012930000002527 ], [ -96.934840000002438, 33.9544530000028 ], [ -96.995452000002047, 33.934584000002253 ], [ -96.983815000002707, 33.893186000002657 ], [ -97.021438000002462, 33.846379000002322 ], [ -97.086787000001962, 33.853835000002114 ], [ -97.048324000002367, 33.817269000002455 ], [ -97.09264600000256, 33.804198000002721 ], [ -97.095644000002153, 33.729222000002466 ], [ -97.154367000002566, 33.724094000002786 ], [ -97.192969000002421, 33.760784000002204 ], [ -97.205705000001899, 33.802908000002127 ], [ -97.166851000001714, 33.840899000002509 ], [ -97.185458000002754, 33.900700000002104 ], [ -97.212601000002081, 33.915900000002409 ], [ -97.245049000002723, 33.903216000002551 ], [ -97.255639000002077, 33.863702000002341 ], [ -97.310143000002441, 33.888532000002542 ], [ -97.374690000002275, 33.818552000002498 ], [ -97.426799000002703, 33.818641000002671 ], [ -97.463202000002724, 33.843090000002697 ], [ -97.451058000002519, 33.891676000002512 ], [ -97.484163000002795, 33.915510000002705 ], [ -97.560858000002398, 33.899645000002401 ], [ -97.589254000002796, 33.90392200000214 ], [ -97.597980000002224, 33.955247000002309 ], [ -97.661489000002561, 33.990818000002541 ], [ -97.751143000002074, 33.936979000002346 ], [ -97.833505000002219, 33.858096000002483 ], [ -97.877387000002514, 33.850236000002745 ], [ -97.984373000002677, 33.898024000002451 ], [ -97.953008000002313, 33.932560000002752 ], [ -97.946802000002265, 33.990893000002735 ], [ -97.971670000002845, 34.00543400000204 ], [ -98.041117000002643, 33.993456000002674 ], [ -98.084435000002699, 34.002893000002679 ], [ -98.114587000002473, 34.062280000002346 ], [ -98.112383000002495, 34.091087000002155 ], [ -98.090550000002366, 34.122484000002643 ], [ -98.139072000001804, 34.141870000002086 ], [ -98.168790000002645, 34.114262000002782 ], [ -98.232474000002, 34.134641000002361 ], [ -98.300209000002155, 34.134579000002766 ], [ -98.367907000002717, 34.155824000002148 ], [ -98.398389000002766, 34.104566000002762 ], [ -98.486328000001805, 34.062598000001948 ], [ -98.536082000002224, 34.107073000002643 ], [ -98.577356000001984, 34.149100000002022 ], [ -98.609987000002079, 34.157154000002492 ], [ -98.643223000002678, 34.164531000002491 ], [ -98.6900720000028, 34.133155000002098 ] ] ] } },
{ "type": "Feature", "properties": { "enacted_district": 5, "population": 782814.0, "voting_age_pop": 595710.0, "dem_votes": 110727.0, "rep_votes": 168531.0, "minority_pop": 204624.0, "dem_pct": 0.39650430770237405, "rep_pct": 0.60349569193953412 }, "geometry": { "type": "Polygon", "coordinates": [ [ [ -97.777625000002601, 35.495477000002595 ], [ -97.848716000002526, 35.500438000002404 ], [ -97.848729000001896, 35.551208000002781 ], [ -97.869798000002206, 35.58036600000235 ], [ -97.745234000002, 35.580079000002243 ], [ -97.745218000002595, 35.604525000002134 ], [ -97.7806370000024, 35.623713000002603 ], [ -97.780630000001963, 35.638229000002418 ], [ -97.78055800000196, 35.725722000002655 ], [ -97.674026000002641, 35.725970000002768 ], [ -97.674388000001983, 35.860431000002414 ], [ -97.674391000002444, 35.861013000002721 ], [ -97.590901000002475, 35.88738800000278 ], [ -97.512131000002725, 35.907354000002691 ], [ -97.45181900000216, 35.894527000002093 ], [ -97.428617000001964, 35.880146000002497 ], [ -97.407520000001725, 35.898623000002182 ], [ -97.353852000002675, 35.92749500000243 ], [ -97.353249000002435, 35.985334000002482 ], [ -97.339311000002695, 35.994532000002771 ], [ -97.294601000002203, 36.005557000002398 ], [ -97.277560000002197, 35.973782000002167 ], [ -97.221192000002034, 35.964573000002638 ], [ -97.203592000001919, 35.94479500000282 ], [ -97.140583000001996, 35.941991000002638 ], [ -97.105008000002044, 35.942253000002125 ], [ -97.016421000002481, 35.942068000002642 ], [ -96.945041000001879, 35.942153000002641 ], [ -96.927040000002435, 35.94203800000269 ], [ -96.820292000001956, 35.942290000002849 ], [ -96.731535000001955, 35.942176000002206 ], [ -96.619655000002282, 35.94157100000232 ], [ -96.61934800000266, 35.855519000002054 ], [ -96.6197210000024, 35.770367000002771 ], [ -96.619722000002355, 35.768528000001986 ], [ -96.620828000002405, 35.639005000002413 ], [ -96.621091000002522, 35.609666000002406 ], [ -96.624681000002198, 35.462707000002574 ], [ -96.623699000002716, 35.400722000002048 ], [ -96.535146000002598, 35.391371000002579 ], [ -96.569710000002317, 35.44059700000242 ], [ -96.546241000002482, 35.457383000002814 ], [ -96.496594000002659, 35.428896000002894 ], [ -96.441290000002482, 35.467712000002365 ], [ -96.441250000001801, 35.387229000002364 ], [ -96.441368000001802, 35.290122000002725 ], [ -96.441192000002246, 35.173922000002662 ], [ -96.441305000002203, 35.115771000002482 ], [ -96.49043400000194, 35.115857000002805 ], [ -96.490477000002542, 35.086814000002882 ], [ -96.490535000002282, 35.049896000002136 ], [ -96.490786000001762, 34.910585000002342 ], [ -96.510486000002516, 34.878620000002662 ], [ -96.528587000002076, 34.869586000002428 ], [ -96.577089000002317, 34.91658400000253 ], [ -96.627388000001943, 34.89887800000249 ], [ -96.68357400000184, 34.933035000002192 ], [ -96.711492000002139, 34.916282000002035 ], [ -96.701492000002673, 34.864884000002178 ], [ -96.749594000002602, 34.892083000002138 ], [ -96.775681000002677, 34.89995800000235 ], [ -96.821488000002475, 34.946112000002465 ], [ -96.885400000002178, 34.926251000002495 ], [ -96.929872000001922, 34.965109000002577 ], [ -96.930586000001796, 34.964364000002625 ], [ -97.015930000002683, 34.907348000002798 ], [ -97.101296000002364, 34.930324000002159 ], [ -97.142349000002042, 34.928176000002601 ], [ -97.142084000001745, 35.014818000002727 ], [ -97.142185000002044, 35.072791000002219 ], [ -97.142091000002154, 35.10171600000276 ], [ -97.142060000002218, 35.145213000002677 ], [ -97.142147000002325, 35.192078000002766 ], [ -97.141946000002363, 35.247356000002782 ], [ -97.141862000001794, 35.275211000002379 ], [ -97.141941000002021, 35.318722000002047 ], [ -97.142026000002076, 35.333210000002261 ], [ -97.142114000001754, 35.376860000002161 ], [ -97.212858000002086, 35.377140000002747 ], [ -97.23904000000276, 35.377286000002172 ], [ -97.3001740000024, 35.377322000002465 ], [ -97.317737000001927, 35.377286000002172 ], [ -97.317832000002255, 35.377286000002293 ], [ -97.317957000002437, 35.420925000002342 ], [ -97.317977000002315, 35.435368000002768 ], [ -97.333547000002767, 35.435385000002526 ], [ -97.335727000002422, 35.435387000002585 ], [ -97.335729000002161, 35.436254000002499 ], [ -97.335725000002398, 35.449892000002215 ], [ -97.326949000002713, 35.449940000002258 ], [ -97.318005000002159, 35.464065000002819 ], [ -97.335642000002665, 35.464056000001975 ], [ -97.335600000002685, 35.471202000002265 ], [ -97.335585000001913, 35.478546000002218 ], [ -97.353112000002355, 35.478539000002662 ], [ -97.353103000002434, 35.486875000002335 ], [ -97.35311900000228, 35.493006000002417 ], [ -97.379760000002577, 35.493060000002522 ], [ -97.424125000002618, 35.493062000002134 ], [ -97.423986000002259, 35.478674000002378 ], [ -97.441577000002241, 35.478199000001993 ], [ -97.45899000000216, 35.466686000002554 ], [ -97.464020000002606, 35.466920000002787 ], [ -97.468923000002079, 35.463948000002596 ], [ -97.476753000002404, 35.464013000002858 ], [ -97.493985000002624, 35.463002000002454 ], [ -97.493012000002082, 35.462256000002192 ], [ -97.509840000001844, 35.45613100000206 ], [ -97.512403000001882, 35.455614000001972 ], [ -97.512748000002162, 35.456196000002812 ], [ -97.530132000002283, 35.458029000002426 ], [ -97.530078000002021, 35.472244000002611 ], [ -97.530047000002156, 35.477463000002764 ], [ -97.530011000002304, 35.48273400000248 ], [ -97.529936000002081, 35.493274000002607 ], [ -97.529829000002422, 35.507770000002317 ], [ -97.534241000002154, 35.50776900000205 ], [ -97.536781000002676, 35.493273000002581 ], [ -97.547693000001885, 35.493271000002828 ], [ -97.547808000002036, 35.485969000002626 ], [ -97.556641000001761, 35.485936000002724 ], [ -97.556596000002713, 35.500455000002496 ], [ -97.561016000002624, 35.500398000002249 ], [ -97.565663000001805, 35.499473000002368 ], [ -97.570178000002443, 35.493167000002046 ], [ -97.578818000002556, 35.493291000002024 ], [ -97.583370000002759, 35.493335000001956 ], [ -97.596685000002154, 35.493316000002821 ], [ -97.601142000002326, 35.493309000002526 ], [ -97.6011130000023, 35.48604700000233 ], [ -97.601085000002087, 35.47877400000263 ], [ -97.610061000002446, 35.478780000002523 ], [ -97.618931000002576, 35.47878500000256 ], [ -97.618914000002519, 35.471544000002673 ], [ -97.671534000002396, 35.469214000002239 ], [ -97.671530000002065, 35.46020300000206 ], [ -97.671430000002317, 35.447893000001997 ], [ -97.706913000002217, 35.449634000002064 ], [ -97.724652000002564, 35.449856000002569 ], [ -97.74244000000192, 35.449993000002074 ], [ -97.742539000001941, 35.464405000002607 ], [ -97.760254000002519, 35.464386000002001 ], [ -97.760131000002247, 35.487059000002425 ], [ -97.777625000002601, 35.495477000002595 ] ] ] } }
]
}
