{
"type": "FeatureCollection",
"name": "oklahoma_optimized_districts_all",
"crs": { "type": "name", "properties": { "name": "urn:ogc:def:crs:OGC:1.3:CRS84" } },
"features": [
{ "type": "Feature", "properties": { "opt_all": 1, "population": 789156.0, "voting_age_pop": 598872.0, "dem_votes": 103952.0, "rep_votes": 167939.0, "minority_pop": 223957.0, "dem_pct": 0.38232968344581847, "rep_pct": 0.61767031618638701 }, "geometry": { "type": "Polygon", "coordinates": [ [ [ -96.496860000001845, 35.639032000002047 ], [ -96.620828000002405, 35.639005000002413 ], [ -96.619722000002355, 35.768528000001986 ], [ -96.6197210000024, 35.770367000002771 ], [ -96.61934800000266, 35.855519000002054 ], [ -96.619655000002282, 35.94157100000232 ], [ -96.62035700000196, 35.959306000002712 ], [ -96.62235300000232, 36.046919000002646 ], [ -96.622354000002744, 36.046967000002418 ], [ -96.622120000001857, 36.159903000002423 ], [ -96.5527980000018, 36.16349500000215 ], [ -96.512716000002541, 36.163476000002611 ], [ -96.400806000001765, 36.162880000002637 ], [ -96.375660000002156, 36.16272300000248 ], [ -96.329224000002739, 36.162459000002528 ], [ -96.297888000002317, 36.162279000002883 ], [ -96.268287000001862, 36.161980000002593 ], [ -96.242823000002673, 36.204729000002359 ], [ -96.25679800000178, 36.225727000002379 ], [ -96.326732000002366, 36.226551000002083 ], [ -96.415502000002718, 36.276245000002213 ], [ -96.453269000002393, 36.329403000002827 ], [ -96.456832000002422, 36.332173000002442 ], [ -96.515229000002122, 36.29833200000224 ], [ -96.573481000002715, 36.315709000002329 ], [ -96.559027000002644, 36.348543000002245 ], [ -96.518709000002445, 36.377576000002577 ], [ -96.540725000002325, 36.400402000002451 ], [ -96.601880000002041, 36.382258000002025 ], [ -96.620232000001877, 36.409950000002773 ], [ -96.689534000002041, 36.423851000002543 ], [ -96.717126000002594, 36.445344000001974 ], [ -96.706195000002324, 36.477564000002666 ], [ -96.727926000002739, 36.530548000002732 ], [ -96.769470000002585, 36.565407000002466 ], [ -96.821031000001739, 36.53877100000259 ], [ -96.844118000001998, 36.503878000001997 ], [ -96.875321000002344, 36.470915000002215 ], [ -96.940235000002218, 36.455525000001984 ], [ -97.005473000001743, 36.486026000002013 ], [ -97.009785000002594, 36.506935000002713 ], [ -96.996194000002703, 36.528979000002188 ], [ -96.899080000002641, 36.553224000002373 ], [ -96.909279000002002, 36.596310000002163 ], [ -97.002857000001924, 36.582564000001994 ], [ -97.057556000002663, 36.593872000002172 ], [ -97.139428000001757, 36.594028000002226 ], [ -97.211002000002381, 36.593981000001939 ], [ -97.268388000001821, 36.59390500000228 ], [ -97.461603000002313, 36.593637000002232 ], [ -97.462459000002781, 36.593627000002314 ], [ -97.604409000001894, 36.5935090000023 ], [ -97.642103000001882, 36.593462000002567 ], [ -97.774146000002759, 36.593297000002643 ], [ -97.875143000002154, 36.59346100000193 ], [ -97.926115000002326, 36.593575000002616 ], [ -98.015106000001936, 36.593573000002543 ], [ -98.104286000002318, 36.593578000002168 ], [ -98.109500000002598, 36.622632000002312 ], [ -98.109958000002138, 36.724051000002092 ], [ -98.110182000002098, 36.796715000002209 ], [ -98.111985000002178, 36.998093000001987 ], [ -97.876452000002004, 36.998657000002531 ], [ -97.6087900000026, 36.99869000000281 ], [ -97.54647700000254, 36.998638000002039 ], [ -97.462346000001915, 36.998701000002711 ], [ -97.300790000001896, 36.998866000002288 ], [ -97.138260000002276, 36.999010000002087 ], [ -96.925294000002395, 36.999129000002732 ], [ -96.7498380000022, 36.998988000002548 ], [ -96.415238000002461, 36.999218000002841 ], [ -96.184708000001677, 36.999338000002467 ], [ -96.000810000002076, 36.998860000002459 ], [ -96.000758000001682, 36.858680000002714 ], [ -96.000742000002475, 36.834049000002537 ], [ -96.000690000002294, 36.780397000002083 ], [ -96.000660000002483, 36.770275000002655 ], [ -96.000665000002144, 36.736754000002243 ], [ -96.000728000002127, 36.641069000002403 ], [ -96.0009240000022, 36.554078000002789 ], [ -96.001145000002595, 36.439763000002245 ], [ -96.0011710000026, 36.423686000002157 ], [ -96.001180000002677, 36.414950000002207 ], [ -96.001249000002119, 36.361539000002878 ], [ -96.001327000002718, 36.334474000002501 ], [ -96.001463000002161, 36.307448000002125 ], [ -96.001504000002697, 36.303372000002241 ], [ -96.001317000002359, 36.279372000002738 ], [ -96.001313000002725, 36.250019000002567 ], [ -96.001407000002004, 36.244824000002581 ], [ -96.00139600000216, 36.2421350000022 ], [ -95.993438000002541, 36.242172000002533 ], [ -95.984563000002154, 36.249525000002208 ], [ -95.974779000002286, 36.24955400000286 ], [ -95.932358000001855, 36.249548000002513 ], [ -95.924049000001844, 36.26400900000241 ], [ -95.884068000002657, 36.278607000002374 ], [ -95.867581000002033, 36.278577000002826 ], [ -95.866585000002104, 36.249450000002675 ], [ -95.848012000001717, 36.249520000002882 ], [ -95.847966000002799, 36.264080000002238 ], [ -95.847821000002355, 36.278563000002002 ], [ -95.850479000002437, 36.278554000002607 ], [ -95.848142000001957, 36.292985000002197 ], [ -95.812180000001803, 36.293050000002772 ], [ -95.812160000001796, 36.278530000002107 ], [ -95.812180000002044, 36.264010000002557 ], [ -95.815340000002706, 36.249530000002771 ], [ -95.815270000002542, 36.224450000002307 ], [ -95.815310000002086, 36.187700000002543 ], [ -95.815400000001759, 36.16263000000275 ], [ -95.794420000002106, 36.162620000002789 ], [ -95.779580000002696, 36.162610000002104 ], [ -95.761650000002604, 36.162750000002681 ], [ -95.761664000001801, 36.133471000002075 ], [ -95.761641000002356, 36.11898100000235 ], [ -95.761667000002063, 36.104450000002402 ], [ -95.761656000002404, 36.090289000002393 ], [ -95.761652000001874, 36.075451000002118 ], [ -95.761674000002643, 36.060947000002358 ], [ -95.761632000001725, 36.046435000002852 ], [ -95.761629000002159, 36.031919000002816 ], [ -95.76165000000276, 36.017439000002732 ], [ -95.761630000002, 35.993413000002462 ], [ -95.761656000002304, 35.988387000002348 ], [ -95.761623000002459, 35.973795000002191 ], [ -95.761703000002043, 35.918031000002919 ], [ -95.761699000002366, 35.915474000002632 ], [ -95.76169800000244, 35.909297000002582 ], [ -95.819477000001839, 35.901094000002601 ], [ -95.819459000002098, 35.856255000002491 ], [ -95.908370000001796, 35.856399000002611 ], [ -95.926178000002764, 35.856525000002343 ], [ -96.033118000002119, 35.856824000002192 ], [ -96.086128000002319, 35.857197000002046 ], [ -96.139743000002284, 35.857090000002465 ], [ -96.191930000002444, 35.856990000002362 ], [ -96.192502000002165, 35.692240000002826 ], [ -96.19256300000184, 35.639087000002803 ], [ -96.28148800000244, 35.638818000002807 ], [ -96.387625000002657, 35.639291000002558 ], [ -96.476563000001875, 35.639040000002829 ], [ -96.496860000001845, 35.639032000002047 ] ] ] } },
{ "type": "Feature", "properties": { "opt_all": 2, "population": 792323.0, "voting_age_pop": 605449.0, "dem_votes": 78020.0, "rep_votes": 204800.0, "minority_pop": 208215.0, "dem_pct": 0.27586450736303497, "rep_pct": 0.72413549228338325 }, "geometry": { "type": "Polygon", "coordinates": [ [ [ -96.330919000001941, 34.766806000002148 ], [ -96.406483000001998, 34.767328000002777 ], [ -96.406252000002198, 34.803710000002482 ], [ -96.406171000001805, 34.898103000002038 ], [ -96.406135000002607, 34.934191000002301 ], [ -96.435587000002315, 34.902280000002662 ], [ -96.490786000001762, 34.910585000002342 ], [ -96.490535000002282, 35.049896000002136 ], [ -96.490477000002542, 35.086814000002882 ], [ -96.49043400000194, 35.115857000002805 ], [ -96.441305000002203, 35.115771000002482 ], [ -96.441192000002246, 35.173922000002662 ], [ -96.441368000001802, 35.290122000002725 ], [ -96.282100000002686, 35.29005100000272 ], [ -96.122879000001873, 35.289962000002383 ], [ -96.034507000002421, 35.289795000002073 ], [ -95.981511000002442, 35.289780000002395 ], [ -95.981505000001874, 35.303396000002209 ], [ -95.981465000001833, 35.376788000002698 ], [ -96.087530000002445, 35.37687700000248 ], [ -96.087719000002096, 35.463981000002597 ], [ -96.087801000002756, 35.552003000002429 ], [ -96.109278000001794, 35.552044000002731 ], [ -96.192700000001764, 35.551968000002653 ], [ -96.19256300000184, 35.639087000002803 ], [ -96.192502000002165, 35.692240000002826 ], [ -96.191930000002444, 35.856990000002362 ], [ -96.139743000002284, 35.857090000002465 ], [ -96.086128000002319, 35.857197000002046 ], [ -96.033118000002119, 35.856824000002192 ], [ -95.926178000002764, 35.856525000002343 ], [ -95.908370000001796, 35.856399000002611 ], [ -95.819459000002098, 35.856255000002491 ], [ -95.819477000001839, 35.901094000002601 ], [ -95.76169800000244, 35.909297000002582 ], [ -95.761699000002366, 35.915474000002632 ], [ -95.761703000002043, 35.918031000002919 ], [ -95.761623000002459, 35.973795000002191 ], [ -95.761656000002304, 35.988387000002348 ], [ -95.761630000002, 35.993413000002462 ], [ -95.76165000000276, 36.017439000002732 ], [ -95.761629000002159, 36.031919000002816 ], [ -95.761632000001725, 36.046435000002852 ], [ -95.761674000002643, 36.060947000002358 ], [ -95.761652000001874, 36.075451000002118 ], [ -95.761656000002404, 36.090289000002393 ], [ -95.761667000002063, 36.104450000002402 ], [ -95.761641000002356, 36.11898100000235 ], [ -95.761664000001801, 36.133471000002075 ], [ -95.761650000002604, 36.162750000002681 ], [ -95.779580000002696, 36.162610000002104 ], [ -95.794420000002106, 36.162620000002789 ], [ -95.815400000001759, 36.16263000000275 ], [ -95.815310000002086, 36.187700000002543 ], [ -95.815270000002542, 36.224450000002307 ], [ -95.815340000002706, 36.249530000002771 ], [ -95.812180000002044, 36.264010000002557 ], [ -95.812160000001796, 36.278530000002107 ], [ -95.812180000001803, 36.293050000002772 ], [ -95.848142000001957, 36.292985000002197 ], [ -95.850479000002437, 36.278554000002607 ], [ -95.847821000002355, 36.278563000002002 ], [ -95.847966000002799, 36.264080000002238 ], [ -95.848012000001717, 36.249520000002882 ], [ -95.866585000002104, 36.249450000002675 ], [ -95.867581000002033, 36.278577000002826 ], [ -95.884068000002657, 36.278607000002374 ], [ -95.924049000001844, 36.26400900000241 ], [ -95.932358000001855, 36.249548000002513 ], [ -95.974779000002286, 36.24955400000286 ], [ -95.984563000002154, 36.249525000002208 ], [ -95.993438000002541, 36.242172000002533 ], [ -96.00139600000216, 36.2421350000022 ], [ -96.001407000002004, 36.244824000002581 ], [ -96.001313000002725, 36.250019000002567 ], [ -96.001317000002359, 36.279372000002738 ], [ -96.001504000002697, 36.303372000002241 ], [ -96.001463000002161, 36.307448000002125 ], [ -96.001327000002718, 36.334474000002501 ], [ -96.001249000002119, 36.361539000002878 ], [ -96.001180000002677, 36.414950000002207 ], [ -96.0011710000026, 36.423686000002157 ], [ -96.001145000002595, 36.439763000002245 ], [ -96.0009240000022, 36.554078000002789 ], [ -96.000728000002127, 36.641069000002403 ], [ -96.000665000002144, 36.736754000002243 ], [ -96.000660000002483, 36.770275000002655 ], [ -96.000690000002294, 36.780397000002083 ], [ -96.000742000002475, 36.834049000002537 ], [ -96.000758000001682, 36.858680000002714 ], [ -96.000810000002076, 36.998860000002459 ], [ -95.786762000002284, 36.999310000002346 ], [ -95.628750000002753, 36.99937800000265 ], [ -95.407733000001883, 36.999311000002422 ], [ -95.281580000002577, 36.999548000002697 ], [ -95.007620000002362, 36.999514000002883 ], [ -94.866890000002641, 36.998860000002388 ], [ -94.617964000002274, 36.998905000002772 ], [ -94.618177000002717, 36.967715000002649 ], [ -94.618119000002523, 36.964956000002744 ], [ -94.618053000002476, 36.911510000002288 ], [ -94.618420000002601, 36.824553000002574 ], [ -94.618077000002756, 36.667921000002387 ], [ -94.617918000002206, 36.568708000002907 ], [ -94.612896000002564, 36.468635000002664 ], [ -94.591330000002074, 36.332526000002083 ], [ -94.577705000002766, 36.249684000002105 ], [ -94.562727000002397, 36.161893000002365 ], [ -94.543299000002222, 36.051433000002689 ], [ -94.519087000002742, 35.911290000002523 ], [ -94.503073000001677, 35.81752900000221 ], [ -94.484394000001998, 35.706814000002893 ], [ -94.472623000002315, 35.638557000002685 ], [ -94.453978000001797, 35.526562000002805 ], [ -94.435884000002261, 35.419475000002386 ], [ -94.434376000002473, 35.38743100000233 ], [ -94.433417000002336, 35.365514000002136 ], [ -94.434048000002235, 35.31676200000291 ], [ -94.436375000002599, 35.258142000002756 ], [ -94.438407000002641, 35.201902000002612 ], [ -94.441527000002395, 35.11119900000228 ], [ -94.446173000002446, 34.978226000002238 ], [ -94.447396000002001, 34.941921000002722 ], [ -94.449350000002141, 34.884633000002985 ], [ -94.451214000002594, 34.827596000002444 ], [ -94.454582000001679, 34.72398900000298 ], [ -94.455598000002482, 34.693503000002565 ], [ -94.458487000002563, 34.599794000002831 ], [ -94.461149000002123, 34.507457000002198 ], [ -94.461962000001876, 34.477710000002538 ], [ -94.469301000002716, 34.230716000002502 ], [ -94.477396000002486, 33.940952000002312 ], [ -94.479761000002242, 33.856708000002477 ], [ -94.481846000002719, 33.788729000002967 ], [ -94.485903000002367, 33.637858000002609 ], [ -94.505655000002434, 33.62066800000219 ], [ -94.564076000001819, 33.626265000002995 ], [ -94.593294000002317, 33.66525800000268 ], [ -94.64277900000252, 33.701005000003036 ], [ -94.684796000001924, 33.684353000002595 ], [ -94.736814000002724, 33.692332000002338 ], [ -94.788637000002154, 33.735669000002957 ], [ -94.763778000002702, 33.759925000002141 ], [ -94.802252000002781, 33.732788000002259 ], [ -94.860687000002216, 33.741945000002822 ], [ -94.911427000001765, 33.778383000002343 ], [ -94.964401000002184, 33.83702100000253 ], [ -95.029715000002525, 33.860091000002186 ], [ -95.049025000002246, 33.864090000002875 ], [ -95.155882000002634, 33.936572000002577 ], [ -95.156466000002524, 34.014490000002212 ], [ -95.156481000002117, 34.089828000002221 ], [ -95.156533000002725, 34.113301000002778 ], [ -95.156521000002556, 34.156965000002195 ], [ -95.151323000002506, 34.243737000002568 ], [ -95.135597000002264, 34.243743000002333 ], [ -95.060091000002004, 34.243775000002877 ], [ -95.046608000002564, 34.297993000002741 ], [ -95.046767000001765, 34.417547000002507 ], [ -95.046746000002486, 34.507276000002591 ], [ -94.967384000002525, 34.507295000002756 ], [ -94.937604000002537, 34.507296000002945 ], [ -94.93754300000252, 34.603185000002583 ], [ -94.937502000001984, 34.625104000002473 ], [ -94.937555000001723, 34.680792000002661 ], [ -95.059616000002265, 34.680736000002881 ], [ -95.132088000002199, 34.680585000002203 ], [ -95.187911000002444, 34.680540000002871 ], [ -95.514475000002761, 34.680718000002635 ], [ -95.51451100000196, 34.594153000002265 ], [ -95.671810000002239, 34.59373200000293 ], [ -95.695056000002353, 34.59372300000215 ], [ -95.752959000001738, 34.593708000002408 ], [ -95.835970000002476, 34.593611000002674 ], [ -95.881987000001985, 34.593528000002074 ], [ -95.882198000002461, 34.680475000002758 ], [ -96.00446000000278, 34.680444000002097 ], [ -96.092043000002576, 34.680556000002774 ], [ -96.092001000002284, 34.767479000002815 ], [ -96.168197000002195, 34.767214000002248 ], [ -96.258212000002317, 34.76687900000217 ], [ -96.330919000001941, 34.766806000002148 ] ] ] } },
{ "type": "Feature", "properties": { "opt_all": 3, "population": 792281.0, "voting_age_pop": 598498.0, "dem_votes": 66877.0, "rep_votes": 190735.0, "minority_pop": 174660.0, "dem_pct": 0.25960358979410758, "rep_pct": 0.74039640981771171 }, "geometry": { "type": "Polygon", "coordinates": [ [ [ -99.844585000001956, 34.506915000002685 ], [ -99.888741000002284, 34.55045200000248 ], [ -99.956563000002106, 34.576729000002096 ], [ -100.000277000002683, 34.560450000002419 ], [ -100.000376000001921, 34.696267000002194 ], [ -100.000381000002236, 34.854386000002265 ], [ -100.000384000002754, 35.029930000002281 ], [ -100.000419000001784, 35.204839000002572 ], [ -100.00038700000276, 35.300072000002494 ], [ -99.999660000001882, 35.422364000002624 ], [ -100.000391000001997, 35.624962000002547 ], [ -100.000395000002726, 35.813036000002008 ], [ -100.000396000002638, 35.88123300000224 ], [ -100.000390000002625, 36.130969000002366 ], [ -100.000405000001876, 36.433367000001986 ], [ -100.003762000002084, 36.499849000002278 ], [ -100.310969000002245, 36.499629000002066 ], [ -100.685151000002563, 36.49951600000233 ], [ -100.954153000001753, 36.499916000002429 ], [ -101.289709000002446, 36.499536000002109 ], [ -101.596593000001846, 36.499519000002053 ], [ -101.709374000001901, 36.499719000002486 ], [ -102.032338000002156, 36.500575000002215 ], [ -102.355464000001717, 36.500392000001945 ], [ -102.696965000002379, 36.500454000002087 ], [ -103.002290000001736, 36.500887000001789 ], [ -103.002329000002604, 37.000150000001987 ], [ -102.841921000002699, 36.999600000002488 ], [ -102.524683000001758, 36.994871000001787 ], [ -102.028204000001793, 36.993102000002224 ], [ -101.595196000002503, 36.995095000002074 ], [ -101.485216000002239, 36.995683000002266 ], [ -101.265910000002606, 36.996807000001908 ], [ -101.214917000001762, 36.996997000002509 ], [ -100.945463000002647, 36.998416000002202 ], [ -100.639200000001779, 37.00012000000239 ], [ -100.543809000001758, 37.000617000002073 ], [ -100.412525000002276, 37.001183000001845 ], [ -100.002563000001956, 37.001706000002521 ], [ -99.828879000002118, 37.001233000002003 ], [ -99.575172000002127, 36.999871000001967 ], [ -99.456203000002176, 36.999471000002657 ], [ -98.923039000002476, 36.999558000002189 ], [ -98.544661000002236, 36.998759000002472 ], [ -98.363776000002602, 36.998034000002491 ], [ -98.111985000002178, 36.998093000001987 ], [ -98.110182000002098, 36.796715000002209 ], [ -98.109958000002138, 36.724051000002092 ], [ -98.109500000002598, 36.622632000002312 ], [ -98.104286000002318, 36.593578000002168 ], [ -98.015106000001936, 36.593573000002543 ], [ -97.926115000002326, 36.593575000002616 ], [ -97.875143000002154, 36.59346100000193 ], [ -97.774146000002759, 36.593297000002643 ], [ -97.642103000001882, 36.593462000002567 ], [ -97.604409000001894, 36.5935090000023 ], [ -97.462459000002781, 36.593627000002314 ], [ -97.461603000002313, 36.593637000002232 ], [ -97.268388000001821, 36.59390500000228 ], [ -97.211002000002381, 36.593981000001939 ], [ -97.139428000001757, 36.594028000002226 ], [ -97.057556000002663, 36.593872000002172 ], [ -97.002857000001924, 36.582564000001994 ], [ -96.909279000002002, 36.596310000002163 ], [ -96.899080000002641, 36.553224000002373 ], [ -96.996194000002703, 36.528979000002188 ], [ -97.009785000002594, 36.506935000002713 ], [ -97.005473000001743, 36.486026000002013 ], [ -96.940235000002218, 36.455525000001984 ], [ -96.875321000002344, 36.470915000002215 ], [ -96.844118000001998, 36.503878000001997 ], [ -96.821031000001739, 36.53877100000259 ], [ -96.769470000002585, 36.565407000002466 ], [ -96.727926000002739, 36.530548000002732 ], [ -96.706195000002324, 36.477564000002666 ], [ -96.717126000002594, 36.445344000001974 ], [ -96.689534000002041, 36.423851000002543 ], [ -96.620232000001877, 36.409950000002773 ], [ -96.601880000002041, 36.382258000002025 ], [ -96.540725000002325, 36.400402000002451 ], [ -96.518709000002445, 36.377576000002577 ], [ -96.559027000002644, 36.348543000002245 ], [ -96.573481000002715, 36.315709000002329 ], [ -96.515229000002122, 36.29833200000224 ], [ -96.456832000002422, 36.332173000002442 ], [ -96.453269000002393, 36.329403000002827 ], [ -96.415502000002718, 36.276245000002213 ], [ -96.326732000002366, 36.226551000002083 ], [ -96.25679800000178, 36.225727000002379 ], [ -96.242823000002673, 36.204729000002359 ], [ -96.268287000001862, 36.161980000002593 ], [ -96.297888000002317, 36.162279000002883 ], [ -96.329224000002739, 36.162459000002528 ], [ -96.375660000002156, 36.16272300000248 ], [ -96.400806000001765, 36.162880000002637 ], [ -96.512716000002541, 36.163476000002611 ], [ -96.5527980000018, 36.16349500000215 ], [ -96.622120000001857, 36.159903000002423 ], [ -96.622354000002744, 36.046967000002418 ], [ -96.62235300000232, 36.046919000002646 ], [ -96.62035700000196, 35.959306000002712 ], [ -96.619655000002282, 35.94157100000232 ], [ -96.61934800000266, 35.855519000002054 ], [ -96.6197210000024, 35.770367000002771 ], [ -96.619722000002355, 35.768528000001986 ], [ -96.620828000002405, 35.639005000002413 ], [ -96.621091000002522, 35.609666000002406 ], [ -96.624681000002198, 35.462707000002574 ], [ -96.806557000002201, 35.463251000002145 ], [ -96.929701000002041, 35.463462000002778 ], [ -96.965156000002366, 35.463550000002478 ], [ -97.03566200000256, 35.463575000002244 ], [ -97.141490000002662, 35.463977000002387 ], [ -97.141340000002515, 35.492545000002046 ], [ -97.140801000002241, 35.564977000002564 ], [ -97.141134000002424, 35.60848200000261 ], [ -97.141302000002156, 35.637508000002818 ], [ -97.141066000001857, 35.724401000001947 ], [ -97.247132000001841, 35.724869000002819 ], [ -97.247139000002306, 35.724799000002498 ], [ -97.264951000002554, 35.724956000001988 ], [ -97.353780000002715, 35.725361000002081 ], [ -97.371579000002356, 35.725294000002648 ], [ -97.389482000001834, 35.725273000002808 ], [ -97.443055000002474, 35.725279000001997 ], [ -97.460514000002618, 35.725340000002667 ], [ -97.496220000002481, 35.725466000001958 ], [ -97.514049000002046, 35.725564000002066 ], [ -97.531857000002447, 35.725654000002834 ], [ -97.531911000002495, 35.696395000001921 ], [ -97.567148000002163, 35.682214000002311 ], [ -97.638524000002718, 35.68203000000257 ], [ -97.638552000002036, 35.638540000002024 ], [ -97.638579000002807, 35.623618000002757 ], [ -97.673999000002041, 35.623962000001953 ], [ -97.67403600000182, 35.594822000002679 ], [ -97.674036000002246, 35.594759000002327 ], [ -97.67403500000232, 35.580280000002311 ], [ -97.674052000002504, 35.565697000002757 ], [ -97.674047000001863, 35.551133000002693 ], [ -97.671443000002327, 35.551112000002242 ], [ -97.671467000002735, 35.530020000002288 ], [ -97.671483000001885, 35.514918000002424 ], [ -97.671491000002717, 35.507448000002498 ], [ -97.671485000002178, 35.486073000002513 ], [ -97.67146500000176, 35.478745000002554 ], [ -97.67153300000254, 35.471354000002705 ], [ -97.671534000002396, 35.469214000002239 ], [ -97.671530000002065, 35.46020300000206 ], [ -97.671430000002317, 35.447893000001997 ], [ -97.671411000002777, 35.435471000002494 ], [ -97.67142200000248, 35.420777000002325 ], [ -97.671383000002123, 35.406217000002677 ], [ -97.671369000002514, 35.377151000002755 ], [ -97.671415000002796, 35.337465000002425 ], [ -97.671414000002358, 35.335946000002245 ], [ -97.737305000001953, 35.323762000002276 ], [ -97.761499000002317, 35.340347000002154 ], [ -97.794290000001965, 35.335827000002432 ], [ -97.825600000002567, 35.333763000002094 ], [ -97.833675000002216, 35.335362000002796 ], [ -97.920835000002299, 35.353518000002154 ], [ -97.955124000002698, 35.34604800000254 ], [ -98.017453000002405, 35.377911000002754 ], [ -98.096014000002057, 35.37775300000218 ], [ -98.095001000001815, 35.247340000002097 ], [ -98.091340000002702, 35.20373000000194 ], [ -98.091293000002153, 35.145709000002782 ], [ -98.091146000002041, 35.116665000002563 ], [ -98.092884000002599, 35.083207000002815 ], [ -98.093056000002164, 35.028817000001972 ], [ -98.093057000002602, 34.985228000002728 ], [ -98.09307800000208, 34.883934000002519 ], [ -98.093127000002639, 34.854988000001988 ], [ -98.089036000002039, 34.840718000002092 ], [ -98.089097000002482, 34.681163000002137 ], [ -98.141799000002379, 34.681158000002817 ], [ -98.142101000002583, 34.550605000002172 ], [ -98.142148000002379, 34.506994000002251 ], [ -98.139164000002481, 34.391304000002158 ], [ -98.139180000001957, 34.364709000002392 ], [ -98.139190000002444, 34.362330000002089 ], [ -98.139299000002794, 34.340446000002046 ], [ -98.139227000002222, 34.289824000002653 ], [ -98.067320000002482, 34.289726000002062 ], [ -97.982166000002522, 34.28910400000283 ], [ -97.81594800000228, 34.289227000002555 ], [ -97.754818000002558, 34.289260000002017 ], [ -97.56251200000176, 34.289183000002467 ], [ -97.562556000002246, 34.274536000002719 ], [ -97.562505000002318, 34.201998000002163 ], [ -97.562509000002336, 34.172921000002397 ], [ -97.560761000001875, 34.071150000002127 ], [ -97.560755000002544, 34.056700000002337 ], [ -97.560872000002576, 34.002978000002507 ], [ -97.536818000002157, 33.983877000002522 ], [ -97.560743000002176, 33.983964000002416 ], [ -97.560858000002398, 33.899645000002401 ], [ -97.589254000002796, 33.90392200000214 ], [ -97.597980000002224, 33.955247000002309 ], [ -97.661489000002561, 33.990818000002541 ], [ -97.751143000002074, 33.936979000002346 ], [ -97.833505000002219, 33.858096000002483 ], [ -97.877387000002514, 33.850236000002745 ], [ -97.984373000002677, 33.898024000002451 ], [ -97.953008000002313, 33.932560000002752 ], [ -97.946802000002265, 33.990893000002735 ], [ -97.971670000002845, 34.00543400000204 ], [ -98.041117000002643, 33.993456000002674 ], [ -98.084435000002699, 34.002893000002679 ], [ -98.114587000002473, 34.062280000002346 ], [ -98.112383000002495, 34.091087000002155 ], [ -98.090550000002366, 34.122484000002643 ], [ -98.139072000001804, 34.141870000002086 ], [ -98.168790000002645, 34.114262000002782 ], [ -98.232474000002, 34.134641000002361 ], [ -98.300209000002155, 34.134579000002766 ], [ -98.367907000002717, 34.155824000002148 ], [ -98.398389000002766, 34.104566000002762 ], [ -98.486328000001805, 34.062598000001948 ], [ -98.536082000002224, 34.107073000002643 ], [ -98.577356000001984, 34.149100000002022 ], [ -98.609987000002079, 34.157154000002492 ], [ -98.643223000002678, 34.164531000002491 ], [ -98.6900720000028, 34.133155000002098 ], [ -98.766671000001921, 34.136834000002175 ], [ -98.857967000002617, 34.159353000002724 ], [ -98.920704000001834, 34.183435000002063 ], [ -98.951284000002445, 34.212189000002326 ], [ -99.056350000002439, 34.200014000002561 ], [ -99.189776000002354, 34.21435700000216 ], [ -99.213161000002316, 34.308476000001988 ], [ -99.206905000002337, 34.338277000002471 ], [ -99.23413500000278, 34.353464000002234 ], [ -99.261275000001916, 34.403508000002667 ], [ -99.320073000001997, 34.4092670000027 ], [ -99.375550000002505, 34.458789000002376 ], [ -99.398728000002762, 34.37583200000207 ], [ -99.486809000002367, 34.397874000002211 ], [ -99.569696000002835, 34.418418000002688 ], [ -99.600026000002273, 34.374688000001889 ], [ -99.694528000001839, 34.378218000002434 ], [ -99.753447000002382, 34.420853000002701 ], [ -99.844585000001956, 34.506915000002685 ] ] ] } },
{ "type": "Feature", "properties": { "opt_all": 4, "population": 794003.0, "voting_age_pop": 609341.0, "dem_votes": 83946.0, "rep_votes": 190410.0, "minority_pop": 176149.0, "dem_pct": 0.30597471886673711, "rep_pct": 0.6940252807687729 }, "geometry": { "type": "Polygon", "coordinates": [ [ [ -98.089036000002039, 34.840718000002092 ], [ -98.093127000002639, 34.854988000001988 ], [ -98.09307800000208, 34.883934000002519 ], [ -98.093057000002602, 34.985228000002728 ], [ -98.093056000002164, 35.028817000001972 ], [ -98.092884000002599, 35.083207000002815 ], [ -98.091146000002041, 35.116665000002563 ], [ -98.091293000002153, 35.145709000002782 ], [ -98.091340000002702, 35.20373000000194 ], [ -98.095001000001815, 35.247340000002097 ], [ -98.096014000002057, 35.37775300000218 ], [ -98.017453000002405, 35.377911000002754 ], [ -97.955124000002698, 35.34604800000254 ], [ -97.920835000002299, 35.353518000002154 ], [ -97.833675000002216, 35.335362000002796 ], [ -97.825600000002567, 35.333763000002094 ], [ -97.794290000001965, 35.335827000002432 ], [ -97.761499000002317, 35.340347000002154 ], [ -97.737305000001953, 35.323762000002276 ], [ -97.671414000002358, 35.335946000002245 ], [ -97.671415000002796, 35.337465000002425 ], [ -97.671369000002514, 35.377151000002755 ], [ -97.575010000002678, 35.377124000002617 ], [ -97.565564000002766, 35.377103000002307 ], [ -97.565552000002199, 35.377103000002201 ], [ -97.559176000002196, 35.377113000002517 ], [ -97.547863000002678, 35.377131000002066 ], [ -97.547826000002047, 35.37713100000218 ], [ -97.544380000002405, 35.377135000002632 ], [ -97.530106000002647, 35.377148000002791 ], [ -97.521258000002675, 35.377181000002267 ], [ -97.503515000002565, 35.377241000002726 ], [ -97.494894000002802, 35.377271000002345 ], [ -97.476985000002543, 35.377316000002644 ], [ -97.459227000002144, 35.377340000002192 ], [ -97.441222000001758, 35.377274000002487 ], [ -97.423566000002594, 35.377316000002097 ], [ -97.388214000001881, 35.377260000002408 ], [ -97.317832000002255, 35.377286000002293 ], [ -97.317737000001927, 35.377286000002172 ], [ -97.3001740000024, 35.377322000002465 ], [ -97.23904000000276, 35.377286000002172 ], [ -97.212858000002086, 35.377140000002747 ], [ -97.142114000001754, 35.376860000002161 ], [ -97.141668000001886, 35.434906000002812 ], [ -97.141490000002662, 35.463977000002387 ], [ -97.03566200000256, 35.463575000002244 ], [ -96.965156000002366, 35.463550000002478 ], [ -96.929701000002041, 35.463462000002778 ], [ -96.806557000002201, 35.463251000002145 ], [ -96.624681000002198, 35.462707000002574 ], [ -96.621091000002522, 35.609666000002406 ], [ -96.620828000002405, 35.639005000002413 ], [ -96.496860000001845, 35.639032000002047 ], [ -96.476563000001875, 35.639040000002829 ], [ -96.387625000002657, 35.639291000002558 ], [ -96.28148800000244, 35.638818000002807 ], [ -96.19256300000184, 35.639087000002803 ], [ -96.192700000001764, 35.551968000002653 ], [ -96.109278000001794, 35.552044000002731 ], [ -96.087801000002756, 35.552003000002429 ], [ -96.087719000002096, 35.463981000002597 ], [ -96.087530000002445, 35.37687700000248 ], [ -95.981465000001833, 35.376788000002698 ], [ -95.981505000001874, 35.303396000002209 ], [ -95.981511000002442, 35.289780000002395 ], [ -96.034507000002421, 35.289795000002073 ], [ -96.122879000001873, 35.289962000002383 ], [ -96.282100000002686, 35.29005100000272 ], [ -96.441368000001802, 35.290122000002725 ], [ -96.441192000002246, 35.173922000002662 ], [ -96.441305000002203, 35.115771000002482 ], [ -96.49043400000194, 35.115857000002805 ], [ -96.490477000002542, 35.086814000002882 ], [ -96.490535000002282, 35.049896000002136 ], [ -96.490786000001762, 34.910585000002342 ], [ -96.435587000002315, 34.902280000002662 ], [ -96.406135000002607, 34.934191000002301 ], [ -96.406171000001805, 34.898103000002038 ], [ -96.406252000002198, 34.803710000002482 ], [ -96.406483000001998, 34.767328000002777 ], [ -96.330919000001941, 34.766806000002148 ], [ -96.258212000002317, 34.76687900000217 ], [ -96.168197000002195, 34.767214000002248 ], [ -96.092001000002284, 34.767479000002815 ], [ -96.092043000002576, 34.680556000002774 ], [ -96.00446000000278, 34.680444000002097 ], [ -95.882198000002461, 34.680475000002758 ], [ -95.881987000001985, 34.593528000002074 ], [ -95.835970000002476, 34.593611000002674 ], [ -95.752959000001738, 34.593708000002408 ], [ -95.695056000002353, 34.59372300000215 ], [ -95.671810000002239, 34.59373200000293 ], [ -95.51451100000196, 34.594153000002265 ], [ -95.514475000002761, 34.680718000002635 ], [ -95.187911000002444, 34.680540000002871 ], [ -95.132088000002199, 34.680585000002203 ], [ -95.059616000002265, 34.680736000002881 ], [ -94.937555000001723, 34.680792000002661 ], [ -94.937502000001984, 34.625104000002473 ], [ -94.93754300000252, 34.603185000002583 ], [ -94.937604000002537, 34.507296000002945 ], [ -94.967384000002525, 34.507295000002756 ], [ -95.046746000002486, 34.507276000002591 ], [ -95.046767000001765, 34.417547000002507 ], [ -95.046608000002564, 34.297993000002741 ], [ -95.060091000002004, 34.243775000002877 ], [ -95.135597000002264, 34.243743000002333 ], [ -95.151323000002506, 34.243737000002568 ], [ -95.156521000002556, 34.156965000002195 ], [ -95.156533000002725, 34.113301000002778 ], [ -95.156481000002117, 34.089828000002221 ], [ -95.156466000002524, 34.014490000002212 ], [ -95.155882000002634, 33.936572000002577 ], [ -95.225786000001847, 33.962122000002303 ], [ -95.230865000002794, 33.959512000002469 ], [ -95.247630000002687, 33.914744000002486 ], [ -95.33192900000256, 33.879818000002892 ], [ -95.406752000001759, 33.864729000002633 ], [ -95.533798000002122, 33.881153000002222 ], [ -95.562505000002218, 33.932589000002366 ], [ -95.597593000002604, 33.941496000002488 ], [ -95.627318000001978, 33.907806000002914 ], [ -95.688876000002423, 33.888486000002672 ], [ -95.733183000001844, 33.89644700000207 ], [ -95.761520000002434, 33.873118000002691 ], [ -95.815723000002293, 33.859815000002861 ], [ -95.830406000002526, 33.834785000002803 ], [ -95.932209000002644, 33.883882000002913 ], [ -95.946030000002324, 33.859338000002239 ], [ -96.048834000002785, 33.836468000002469 ], [ -96.084626000002402, 33.846656000002099 ], [ -96.149227000001801, 33.83709100000258 ], [ -96.165199000002076, 33.780130000002679 ], [ -96.196388000001804, 33.753264000002375 ], [ -96.230352000001801, 33.748524000002085 ], [ -96.290359000002127, 33.77083100000214 ], [ -96.318759000002686, 33.696753000002872 ], [ -96.359374000002404, 33.689432000002846 ], [ -96.419124000002327, 33.771825000002138 ], [ -96.457111000002243, 33.77571400000258 ], [ -96.500984000002077, 33.772801000002588 ], [ -96.532651000002119, 33.823143000002801 ], [ -96.571113000002043, 33.818955000002752 ], [ -96.623147000002476, 33.84149600000211 ], [ -96.588502000002578, 33.894983000002917 ], [ -96.654308000002402, 33.913188000002336 ], [ -96.680561000002683, 33.896960000002679 ], [ -96.690708000002417, 33.849959000002073 ], [ -96.761587000002095, 33.824407000002616 ], [ -96.794276000002199, 33.868886000002576 ], [ -96.833786000002362, 33.873525000002708 ], [ -96.866438000002674, 33.853149000002489 ], [ -96.895728000002762, 33.896414000002842 ], [ -96.910014000002221, 33.952783000002178 ], [ -96.934840000002438, 33.9544530000028 ], [ -96.995452000002047, 33.934584000002253 ], [ -96.983815000002707, 33.893186000002657 ], [ -97.021438000002462, 33.846379000002322 ], [ -97.086787000001962, 33.853835000002114 ], [ -97.048324000002367, 33.817269000002455 ], [ -97.09264600000256, 33.804198000002721 ], [ -97.095644000002153, 33.729222000002466 ], [ -97.154367000002566, 33.724094000002786 ], [ -97.192969000002421, 33.760784000002204 ], [ -97.205705000001899, 33.802908000002127 ], [ -97.166851000001714, 33.840899000002509 ], [ -97.185458000002754, 33.900700000002104 ], [ -97.212601000002081, 33.915900000002409 ], [ -97.245049000002723, 33.903216000002551 ], [ -97.255639000002077, 33.863702000002341 ], [ -97.310143000002441, 33.888532000002542 ], [ -97.374690000002275, 33.818552000002498 ], [ -97.426799000002703, 33.818641000002671 ], [ -97.463202000002724, 33.843090000002697 ], [ -97.451058000002519, 33.891676000002512 ], [ -97.484163000002795, 33.915510000002705 ], [ -97.560858000002398, 33.899645000002401 ], [ -97.560743000002176, 33.983964000002416 ], [ -97.536818000002157, 33.983877000002522 ], [ -97.560872000002576, 34.002978000002507 ], [ -97.560755000002544, 34.056700000002337 ], [ -97.560761000001875, 34.071150000002127 ], [ -97.562509000002336, 34.172921000002397 ], [ -97.562505000002318, 34.201998000002163 ], [ -97.562556000002246, 34.274536000002719 ], [ -97.56251200000176, 34.289183000002467 ], [ -97.754818000002558, 34.289260000002017 ], [ -97.81594800000228, 34.289227000002555 ], [ -97.982166000002522, 34.28910400000283 ], [ -98.067320000002482, 34.289726000002062 ], [ -98.139227000002222, 34.289824000002653 ], [ -98.139299000002794, 34.340446000002046 ], [ -98.139190000002444, 34.362330000002089 ], [ -98.139180000001957, 34.364709000002392 ], [ -98.139164000002481, 34.391304000002158 ], [ -98.142148000002379, 34.506994000002251 ], [ -98.142101000002583, 34.550605000002172 ], [ -98.141799000002379, 34.681158000002817 ], [ -98.089097000002482, 34.681163000002137 ], [ -98.089036000002039, 34.840718000002092 ] ] ] } },
{ "type": "Feature", "properties": { "opt_all": 5, "population": 791590.0, "voting_age_pop": 598538.0, "dem_votes": 119306.0, "rep_votes": 133591.0, "minority_pop": 263863.0, "dem_pct": 0.47175727649131571, "rep_pct": 0.52824272311326637 }, "geometry": { "type": "Polygon", "coordinates": [ [ [ -97.67142200000248, 35.420777000002325 ], [ -97.671411000002777, 35.435471000002494 ], [ -97.671430000002317, 35.447893000001997 ], [ -97.671530000002065, 35.46020300000206 ], [ -97.671534000002396, 35.469214000002239 ], [ -97.67153300000254, 35.471354000002705 ], [ -97.67146500000176, 35.478745000002554 ], [ -97.671485000002178, 35.486073000002513 ], [ -97.671491000002717, 35.507448000002498 ], [ -97.671483000001885, 35.514918000002424 ], [ -97.671467000002735, 35.530020000002288 ], [ -97.671443000002327, 35.551112000002242 ], [ -97.674047000001863, 35.551133000002693 ], [ -97.674052000002504, 35.565697000002757 ], [ -97.67403500000232, 35.580280000002311 ], [ -97.674036000002246, 35.594759000002327 ], [ -97.67403600000182, 35.594822000002679 ], [ -97.673999000002041, 35.623962000001953 ], [ -97.638579000002807, 35.623618000002757 ], [ -97.638552000002036, 35.638540000002024 ], [ -97.638524000002718, 35.68203000000257 ], [ -97.567148000002163, 35.682214000002311 ], [ -97.531911000002495, 35.696395000001921 ], [ -97.531857000002447, 35.725654000002834 ], [ -97.514049000002046, 35.725564000002066 ], [ -97.496220000002481, 35.725466000001958 ], [ -97.460514000002618, 35.725340000002667 ], [ -97.443055000002474, 35.725279000001997 ], [ -97.389482000001834, 35.725273000002808 ], [ -97.371579000002356, 35.725294000002648 ], [ -97.353780000002715, 35.725361000002081 ], [ -97.264951000002554, 35.724956000001988 ], [ -97.247139000002306, 35.724799000002498 ], [ -97.247132000001841, 35.724869000002819 ], [ -97.141066000001857, 35.724401000001947 ], [ -97.141302000002156, 35.637508000002818 ], [ -97.141134000002424, 35.60848200000261 ], [ -97.140801000002241, 35.564977000002564 ], [ -97.141340000002515, 35.492545000002046 ], [ -97.141490000002662, 35.463977000002387 ], [ -97.141668000001886, 35.434906000002812 ], [ -97.142114000001754, 35.376860000002161 ], [ -97.212858000002086, 35.377140000002747 ], [ -97.23904000000276, 35.377286000002172 ], [ -97.3001740000024, 35.377322000002465 ], [ -97.317737000001927, 35.377286000002172 ], [ -97.317832000002255, 35.377286000002293 ], [ -97.388214000001881, 35.377260000002408 ], [ -97.423566000002594, 35.377316000002097 ], [ -97.441222000001758, 35.377274000002487 ], [ -97.459227000002144, 35.377340000002192 ], [ -97.476985000002543, 35.377316000002644 ], [ -97.494894000002802, 35.377271000002345 ], [ -97.503515000002565, 35.377241000002726 ], [ -97.521258000002675, 35.377181000002267 ], [ -97.530106000002647, 35.377148000002791 ], [ -97.544380000002405, 35.377135000002632 ], [ -97.547826000002047, 35.37713100000218 ], [ -97.547863000002678, 35.377131000002066 ], [ -97.559176000002196, 35.377113000002517 ], [ -97.565552000002199, 35.377103000002201 ], [ -97.565564000002766, 35.377103000002307 ], [ -97.575010000002678, 35.377124000002617 ], [ -97.671369000002514, 35.377151000002755 ], [ -97.671383000002123, 35.406217000002677 ], [ -97.67142200000248, 35.420777000002325 ] ] ] } }
]
}
