{
"type": "FeatureCollection",
"name": "oregon_optimized_districts_all",
"crs": { "type": "name", "properties": { "name": "urn:ogc:def:crs:OGC:1.3:CRS84" } },
"features": [
{ "type": "Feature", "properties": { "opt_all": 1, "population": 703520.0, "voting_age_pop": 556460.0, "dem_votes": 131645.0, "rep_votes": 185963.0, "minority_pop": 113128.0, "dem_pct": 0.41448892961937706, "rep_pct": 0.58551107006576941 }, "geometry": { "type": "Polygon", "coordinates": [ [ [ -123.814997000001242, 42.262603000000929 ], [ -123.892651000001237, 42.353293000000903 ], [ -124.025984000001245, 42.359409000000909 ], [ -124.017488000001237, 42.410959000000929 ], [ -124.003935000001235, 42.451543000000903 ], [ -124.011544000001194, 42.489628000000877 ], [ -123.998780000001247, 42.499962000000878 ], [ -123.890657000001255, 42.50053800000088 ], [ -123.830315000001235, 42.595067000000903 ], [ -123.831264000001283, 42.632313000000906 ], [ -123.757263000001245, 42.720584000000891 ], [ -123.716492000001239, 42.784061000000904 ], [ -123.716505000001263, 42.739658000000887 ], [ -123.581699000001279, 42.739920000000879 ], [ -123.542539000001256, 42.709832000000908 ], [ -123.445456000001244, 42.703025000000906 ], [ -123.366666000001274, 42.732194000000909 ], [ -123.274283000001276, 42.732030000000918 ], [ -123.229619000001279, 42.702610000000931 ], [ -123.152233000001303, 42.755835000000928 ], [ -123.009765000001295, 42.752144000000925 ], [ -122.951190000001304, 42.767555000000939 ], [ -122.868692000001317, 42.774541000000951 ], [ -122.794776000001278, 42.778221000000947 ], [ -122.775223000001276, 42.828800000000918 ], [ -122.736367000001337, 42.823496000000944 ], [ -122.621665000001315, 42.896812000000914 ], [ -122.560273000001274, 42.939185000000947 ], [ -122.460224000001361, 42.939873000000951 ], [ -122.401025000001326, 42.996632000000957 ], [ -122.282730000001365, 42.996499000000959 ], [ -122.282622000001354, 43.056265000000934 ], [ -122.282585000001362, 43.067719000000928 ], [ -122.093776000001355, 43.07625700000095 ], [ -122.066475000001361, 43.152230000000955 ], [ -122.027600000001357, 43.220179000000968 ], [ -121.980554000001362, 43.265180000000953 ], [ -122.022662000001361, 43.362304000000961 ], [ -122.084678000001318, 43.422579000000951 ], [ -122.13203400000134, 43.440221000000953 ], [ -122.12872100000132, 43.496887000000946 ], [ -122.149534000001324, 43.520693000000925 ], [ -122.130689000001354, 43.557143000000963 ], [ -122.002362000001327, 43.615498000000962 ], [ -121.600018000001356, 43.616443000000963 ], [ -121.587285000001344, 43.655803000000965 ], [ -121.504993000001377, 43.687269000000967 ], [ -121.498950000001344, 43.703615000000951 ], [ -121.551789000001364, 43.703384000000945 ], [ -121.60353400000136, 43.739674000000946 ], [ -121.515337000001381, 43.776829000000944 ], [ -121.49871600000138, 43.817569000000951 ], [ -121.520294000001357, 43.856702000000944 ], [ -121.48421100000138, 43.868475000000949 ], [ -121.462241000001356, 43.944130000000939 ], [ -121.43710200000136, 43.95493000000095 ], [ -121.3636500000014, 44.022146000000966 ], [ -121.38354600000136, 44.050062000000949 ], [ -121.383640000001364, 44.079780000000973 ], [ -121.403821000001358, 44.130794000000947 ], [ -121.437923000001376, 44.167207000000928 ], [ -121.472862000001342, 44.239795000000932 ], [ -121.398382000001362, 44.196184000000962 ], [ -121.317448000001363, 44.181662000000976 ], [ -121.259149000001358, 44.159925000000946 ], [ -121.295176000001376, 44.109290000000975 ], [ -121.263941000001367, 44.085047000000955 ], [ -121.253716000001376, 44.06576000000095 ], [ -121.263839000001354, 44.065769000000962 ], [ -121.271184000001384, 44.054947000000965 ], [ -121.268723000001359, 44.037054000000971 ], [ -121.243614000001401, 44.036848000000958 ], [ -121.244306000001359, 43.987387000000957 ], [ -121.193918000001361, 43.993539000000943 ], [ -121.193367000001359, 44.035406000000982 ], [ -121.091887000001378, 44.02773900000097 ], [ -120.987084000001403, 44.076292000000954 ], [ -120.986587000001407, 43.960852000000962 ], [ -120.748249000001422, 43.957310000000987 ], [ -120.747848000001397, 43.871331000000971 ], [ -120.378740000001443, 43.872362000000997 ], [ -120.378107000001464, 43.785429000001024 ], [ -120.258386000001437, 43.78529700000103 ], [ -120.25777700000144, 43.698762000001018 ], [ -119.897434000001482, 43.698200000001023 ], [ -119.777528000001482, 43.697957000001026 ], [ -119.775402000001463, 43.959086000001015 ], [ -119.657183000001481, 43.958920000001029 ], [ -119.655517000001481, 44.307045000001025 ], [ -119.65318400000146, 44.762701000001002 ], [ -119.671532000001463, 44.823343000000989 ], [ -119.672228000001439, 44.995117000000988 ], [ -119.791162000001421, 44.994755000000978 ], [ -119.790699000001425, 45.067823000000971 ], [ -119.950613000001439, 45.065825000000963 ], [ -120.495160000001405, 45.068279000000942 ], [ -120.503733000001404, 45.083477000000954 ], [ -120.729792000001353, 45.083731000000952 ], [ -120.723569000001362, 45.130911000000928 ], [ -120.771887000001342, 45.162694000000926 ], [ -120.889357000001354, 45.202305000000948 ], [ -120.987364000001335, 45.198917000000932 ], [ -121.024294000001362, 45.219531000000927 ], [ -121.015690000001356, 45.307148000000922 ], [ -120.956471000001315, 45.3103450000009 ], [ -120.920371000001353, 45.359344000000931 ], [ -120.868569000001358, 45.401146000000892 ], [ -120.865871000001363, 45.443946000000899 ], [ -120.835671000001341, 45.469746000000917 ], [ -120.838772000001356, 45.515946000000923 ], [ -120.882656000001319, 45.527564000000908 ], [ -120.908459000001315, 45.558241000000912 ], [ -120.895139000001365, 45.589041000000911 ], [ -120.915850000001342, 45.641200000000893 ], [ -120.855415000001344, 45.671729000000902 ], [ -120.689535000001356, 45.715727000000911 ], [ -120.653503000001365, 45.73718100000093 ], [ -120.591144000001364, 45.746509000000898 ], [ -120.50574300000136, 45.699949000000935 ], [ -120.403651000001361, 45.699444000000938 ], [ -120.283431000001357, 45.721165000000909 ], [ -120.210774000001379, 45.725915000000938 ], [ -120.170603000001378, 45.761980000000946 ], [ -120.070236000001401, 45.785156000000931 ], [ -119.999501000001402, 45.812517000000923 ], [ -119.802705000001396, 45.847630000000947 ], [ -119.672348000001406, 45.856651000000959 ], [ -119.623628000001446, 45.905602000000954 ], [ -119.57160200000142, 45.925478000000957 ], [ -119.488083000001396, 45.906361000000977 ], [ -119.432150000001442, 45.918271000000964 ], [ -119.312797000001424, 45.934237000000977 ], [ -119.257072000001401, 45.939867000000952 ], [ -119.141389000001482, 45.930999000000973 ], [ -119.008651000001464, 45.979223000000957 ], [ -118.987258000001447, 45.999855000000963 ], [ -118.788976000001483, 46.000981000000998 ], [ -118.424028000001513, 46.000759000000997 ], [ -117.977664000001525, 46.000522000001013 ], [ -117.479751000001556, 45.997783000001029 ], [ -117.090177000001603, 45.99763400000105 ], [ -116.916071000001594, 45.995357000001064 ], [ -116.875980000001562, 45.954775000001064 ], [ -116.866544000001582, 45.916958000001074 ], [ -116.814131000001581, 45.877641000001063 ], [ -116.763402000001605, 45.816580000001089 ], [ -116.698079000001599, 45.820852000001075 ], [ -116.665268000001618, 45.782059000001077 ], [ -116.594210000001581, 45.779080000001102 ], [ -116.535698000001602, 45.734231000001088 ], [ -116.535117000001605, 45.691277000001122 ], [ -116.488818000001601, 45.650799000001101 ], [ -116.463635000001602, 45.602785000001077 ], [ -116.557621000001646, 45.503495000001102 ], [ -116.554830000001601, 45.462930000001109 ], [ -116.588195000001619, 45.442920000001095 ], [ -116.674648000001596, 45.315082000001119 ], [ -116.674730000001603, 45.275844000001101 ], [ -116.703697000001597, 45.240099000001102 ], [ -116.728757000001622, 45.144381000001104 ], [ -116.783829000001603, 45.078263000001108 ], [ -116.848037000001597, 45.021728000001112 ], [ -116.85754900000164, 44.982567000001126 ], [ -116.831990000001625, 44.933007000001133 ], [ -116.85242700000164, 44.887578000001099 ], [ -116.932199000001646, 44.802781000001104 ], [ -116.934700000001598, 44.783881000001095 ], [ -117.044217000001595, 44.745140000001122 ], [ -117.095868000001616, 44.664737000001111 ], [ -117.144161000001603, 44.545647000001125 ], [ -117.221455000001598, 44.484529000001125 ], [ -117.215072000001641, 44.427162000001118 ], [ -117.242675000001597, 44.396548000001125 ], [ -117.189842000001605, 44.335007000001141 ], [ -117.220048000001597, 44.301404000001114 ], [ -117.170341000001599, 44.258889000001112 ], [ -117.119861000001634, 44.278272000001131 ], [ -117.056510000001637, 44.230874000001123 ], [ -117.031862000001595, 44.248635000001102 ], [ -116.975382000001645, 44.242392000001146 ], [ -116.967259000001647, 44.194581000001129 ], [ -116.903607000001642, 44.179985000001146 ], [ -116.895931000001639, 44.154295000001142 ], [ -116.933701000001633, 44.100043000001158 ], [ -116.976092000001643, 44.08180300000113 ], [ -116.97203500000164, 44.048614000001123 ], [ -116.944099000001643, 44.001382000001144 ], [ -116.982347000001681, 43.868840000001136 ], [ -117.021638000001616, 43.856393000001162 ], [ -117.026634000001621, 43.808110000001143 ], [ -117.026868000001642, 43.564721000001157 ], [ -117.026874000001683, 43.127005000001184 ], [ -117.026231000001658, 42.831194000001183 ], [ -117.026531000001683, 42.374871000001193 ], [ -117.026197000001673, 41.999890000001216 ], [ -117.506682000001675, 41.999268000001194 ], [ -117.613208000001634, 41.998529000001184 ], [ -118.197371000001596, 41.997344000001171 ], [ -118.676499000001641, 41.99215400000115 ], [ -119.360122000001553, 41.994278000001131 ], [ -119.948657000001518, 41.996736000001079 ], [ -120.159410000001486, 41.994603000001064 ], [ -120.326387000001517, 41.992586000001069 ], [ -120.879926000001475, 41.993764000001043 ], [ -121.316487000001416, 41.997057000001028 ], [ -121.519446000001423, 41.998260000001025 ], [ -121.825079000001395, 42.002467000001012 ], [ -122.289748000001339, 42.008098000000992 ], [ -122.615339000001313, 42.00545300000099 ], [ -122.961661000001342, 42.003498000000967 ], [ -123.145735000001295, 42.008761000000952 ], [ -123.231113000001287, 42.00394300000098 ], [ -123.3474510000013, 41.999277000000944 ], [ -123.631511000001282, 41.998710000000941 ], [ -123.822041000001278, 41.995580000000913 ], [ -123.843151000001285, 42.048965000000919 ], [ -123.822139000001258, 42.087522000000888 ], [ -123.858549000001261, 42.13511600000092 ], [ -123.822386000001273, 42.15933300000092 ], [ -123.805991000001285, 42.216849000000927 ], [ -123.814997000001242, 42.262603000000929 ] ] ] } },
{ "type": "Feature", "properties": { "opt_all": 2, "population": 708122.0, "voting_age_pop": 576498.0, "dem_votes": 168993.0, "rep_votes": 171798.0, "minority_pop": 103186.0, "dem_pct": 0.49588457427106802, "rep_pct": 0.50411542543549703 }, "geometry": { "type": "Polygon", "coordinates": [ [ [ -123.814997000001242, 42.262603000000929 ], [ -123.805991000001285, 42.216849000000927 ], [ -123.822386000001273, 42.15933300000092 ], [ -123.858549000001261, 42.13511600000092 ], [ -123.822139000001258, 42.087522000000888 ], [ -123.843151000001285, 42.048965000000919 ], [ -123.822041000001278, 41.995580000000913 ], [ -124.217027000001238, 41.998447000000944 ], [ -124.32883500000122, 41.998334000000924 ], [ -124.409314000001203, 42.064077000000886 ], [ -124.433514000001196, 42.164832000000914 ], [ -124.471356000001194, 42.203723000000871 ], [ -124.490334000001241, 42.290646000000883 ], [ -124.494154000001245, 42.396086000000892 ], [ -124.532572000001196, 42.40839600000087 ], [ -124.565352000001155, 42.443565000000909 ], [ -124.567221000001197, 42.477791000000892 ], [ -124.4898380000012, 42.542901000000874 ], [ -124.473554000001158, 42.61473400000088 ], [ -124.540590000001202, 42.644492000000874 ], [ -124.544129000001178, 42.68381700000085 ], [ -124.584689000001177, 42.719302000000873 ], [ -124.64213000000116, 42.716113000000881 ], [ -124.68241400000116, 42.730185000000851 ], [ -124.700283000001178, 42.784028000000838 ], [ -124.645154000001156, 42.86189200000085 ], [ -124.572353000001158, 42.922514000000852 ], [ -124.552373000001197, 42.954311000000857 ], [ -124.505331000001206, 43.067953000000855 ], [ -124.505969000001201, 43.143379000000849 ], [ -124.465235000001158, 43.200308000000859 ], [ -124.476948000001158, 43.329371000000869 ], [ -124.425643000001145, 43.385886000000866 ], [ -124.38027400000118, 43.402846000000878 ], [ -124.343836000001204, 43.465012000000868 ], [ -124.290236000001144, 43.610959000000854 ], [ -124.285296000001154, 43.672726000000829 ], [ -124.265705000001162, 43.701558000000851 ], [ -124.23017800000116, 43.863723000000839 ], [ -124.195377000001159, 44.097462000000888 ], [ -124.182832000001156, 44.230952000000826 ], [ -124.187409000001139, 44.276871000000824 ], [ -124.120578000001117, 44.276374000000835 ], [ -124.117736000001145, 44.276315000000828 ], [ -123.941072000001199, 44.277375000000838 ], [ -123.7989550000012, 44.283304000000854 ], [ -123.775598000001196, 44.283547000000823 ], [ -123.593323000001206, 44.276694000000852 ], [ -123.455686000001194, 44.280647000000883 ], [ -123.288655000001242, 44.283724000000866 ], [ -123.248679000001204, 44.283726000000868 ], [ -123.180388000001244, 44.28372500000085 ], [ -123.165428000001242, 44.200071000000861 ], [ -123.060853000001217, 44.200077000000853 ], [ -122.979520000001244, 44.200613000000885 ], [ -122.905755000001236, 44.20073600000088 ], [ -122.903999000001235, 44.259129000000911 ], [ -122.819352000001246, 44.275804000000868 ], [ -122.762735000001243, 44.29053700000086 ], [ -122.646812000001262, 44.266618000000904 ], [ -122.577232000001274, 44.228044000000864 ], [ -122.533745000001275, 44.233706000000893 ], [ -122.367197000001283, 44.209380000000891 ], [ -122.327150000001296, 44.252841000000885 ], [ -122.027996000001323, 44.253818000000926 ], [ -121.799426000001318, 44.258280000000937 ], [ -121.807791000001316, 44.260147000000927 ], [ -121.837190000001314, 44.303011000000929 ], [ -121.843138000001318, 44.392630000000914 ], [ -121.84688000000132, 44.491090000000909 ], [ -121.793895000001342, 44.594056000000904 ], [ -121.797622000001326, 44.649507000000895 ], [ -121.800015000001338, 44.683425000000902 ], [ -121.791661000001326, 44.746261000000885 ], [ -121.811952000001327, 44.811081000000904 ], [ -121.752994000001294, 44.829919000000899 ], [ -121.725068000001301, 44.825519000000916 ], [ -121.090568000001355, 44.824093000000921 ], [ -120.371441000001397, 44.82176900000097 ], [ -120.404685000001393, 44.792695000000954 ], [ -120.385687000001397, 44.761175000000961 ], [ -120.386561000001393, 44.564009000000958 ], [ -120.3860740000014, 44.436083000000977 ], [ -120.101166000001442, 44.438210000001 ], [ -120.021621000001417, 44.43879300000097 ], [ -120.02070800000142, 44.38968700000099 ], [ -119.899283000001446, 44.389575000000988 ], [ -119.899002000001445, 44.30662000000099 ], [ -119.655517000001481, 44.307045000001025 ], [ -119.657183000001481, 43.958920000001029 ], [ -119.775402000001463, 43.959086000001015 ], [ -119.777528000001482, 43.697957000001026 ], [ -119.897434000001482, 43.698200000001023 ], [ -120.25777700000144, 43.698762000001018 ], [ -120.258386000001437, 43.78529700000103 ], [ -120.378107000001464, 43.785429000001024 ], [ -120.378740000001443, 43.872362000000997 ], [ -120.747848000001397, 43.871331000000971 ], [ -120.748249000001422, 43.957310000000987 ], [ -120.986587000001407, 43.960852000000962 ], [ -120.987084000001403, 44.076292000000954 ], [ -121.091887000001378, 44.02773900000097 ], [ -121.193367000001359, 44.035406000000982 ], [ -121.193918000001361, 43.993539000000943 ], [ -121.244306000001359, 43.987387000000957 ], [ -121.243614000001401, 44.036848000000958 ], [ -121.268723000001359, 44.037054000000971 ], [ -121.271184000001384, 44.054947000000965 ], [ -121.263839000001354, 44.065769000000962 ], [ -121.253716000001376, 44.06576000000095 ], [ -121.263941000001367, 44.085047000000955 ], [ -121.295176000001376, 44.109290000000975 ], [ -121.259149000001358, 44.159925000000946 ], [ -121.317448000001363, 44.181662000000976 ], [ -121.398382000001362, 44.196184000000962 ], [ -121.472862000001342, 44.239795000000932 ], [ -121.437923000001376, 44.167207000000928 ], [ -121.403821000001358, 44.130794000000947 ], [ -121.383640000001364, 44.079780000000973 ], [ -121.38354600000136, 44.050062000000949 ], [ -121.3636500000014, 44.022146000000966 ], [ -121.43710200000136, 43.95493000000095 ], [ -121.462241000001356, 43.944130000000939 ], [ -121.48421100000138, 43.868475000000949 ], [ -121.520294000001357, 43.856702000000944 ], [ -121.49871600000138, 43.817569000000951 ], [ -121.515337000001381, 43.776829000000944 ], [ -121.60353400000136, 43.739674000000946 ], [ -121.551789000001364, 43.703384000000945 ], [ -121.498950000001344, 43.703615000000951 ], [ -121.504993000001377, 43.687269000000967 ], [ -121.587285000001344, 43.655803000000965 ], [ -121.600018000001356, 43.616443000000963 ], [ -122.002362000001327, 43.615498000000962 ], [ -122.130689000001354, 43.557143000000963 ], [ -122.149534000001324, 43.520693000000925 ], [ -122.12872100000132, 43.496887000000946 ], [ -122.13203400000134, 43.440221000000953 ], [ -122.084678000001318, 43.422579000000951 ], [ -122.022662000001361, 43.362304000000961 ], [ -121.980554000001362, 43.265180000000953 ], [ -122.027600000001357, 43.220179000000968 ], [ -122.066475000001361, 43.152230000000955 ], [ -122.093776000001355, 43.07625700000095 ], [ -122.282585000001362, 43.067719000000928 ], [ -122.282622000001354, 43.056265000000934 ], [ -122.282730000001365, 42.996499000000959 ], [ -122.401025000001326, 42.996632000000957 ], [ -122.460224000001361, 42.939873000000951 ], [ -122.560273000001274, 42.939185000000947 ], [ -122.621665000001315, 42.896812000000914 ], [ -122.736367000001337, 42.823496000000944 ], [ -122.775223000001276, 42.828800000000918 ], [ -122.794776000001278, 42.778221000000947 ], [ -122.868692000001317, 42.774541000000951 ], [ -122.951190000001304, 42.767555000000939 ], [ -123.009765000001295, 42.752144000000925 ], [ -123.152233000001303, 42.755835000000928 ], [ -123.229619000001279, 42.702610000000931 ], [ -123.274283000001276, 42.732030000000918 ], [ -123.366666000001274, 42.732194000000909 ], [ -123.445456000001244, 42.703025000000906 ], [ -123.542539000001256, 42.709832000000908 ], [ -123.581699000001279, 42.739920000000879 ], [ -123.716505000001263, 42.739658000000887 ], [ -123.716492000001239, 42.784061000000904 ], [ -123.757263000001245, 42.720584000000891 ], [ -123.831264000001283, 42.632313000000906 ], [ -123.830315000001235, 42.595067000000903 ], [ -123.890657000001255, 42.50053800000088 ], [ -123.998780000001247, 42.499962000000878 ], [ -124.011544000001194, 42.489628000000877 ], [ -124.003935000001235, 42.451543000000903 ], [ -124.017488000001237, 42.410959000000929 ], [ -124.025984000001245, 42.359409000000909 ], [ -123.892651000001237, 42.353293000000903 ], [ -123.814997000001242, 42.262603000000929 ] ] ] } },
{ "type": "Feature", "properties": { "opt_all": 3, "population": 704476.0, "voting_age_pop": 553945.0, "dem_votes": 176289.0, "rep_votes": 158307.0, "minority_pop": 121567.0, "dem_pct": 0.5268712116920492, "rep_pct": 0.47312878800908292 }, "geometry": { "type": "Polygon", "coordinates": [ [ [ -124.012360000001166, 45.044999000000779 ], [ -124.095833000001164, 45.043986000000785 ], [ -124.050131000001144, 45.1406880000008 ], [ -124.059487000001127, 45.206655000000794 ], [ -124.040257000001105, 45.268828000000795 ], [ -124.076977000001136, 45.341846000000778 ], [ -124.043308000001119, 45.384061000000806 ], [ -124.035819000001098, 45.422051000000785 ], [ -124.064549000001122, 45.467567000000763 ], [ -124.016648000001126, 45.632119000000792 ], [ -124.010805000001099, 45.708285000000778 ], [ -124.060016000001113, 45.739541000000749 ], [ -124.065448000001098, 45.783054000000774 ], [ -124.037704000001099, 45.841614000000781 ], [ -124.045819000001075, 45.890596000000777 ], [ -124.092434000001077, 45.934261000000781 ], [ -124.070819000001123, 45.973939000000783 ], [ -124.008125000001101, 46.009940000000761 ], [ -124.009796000001103, 46.081973000000779 ], [ -124.067313000001079, 46.183849000000762 ], [ -124.123418000001081, 46.202729000000772 ], [ -124.159546000001086, 46.261132000000757 ], [ -124.035680000001122, 46.271474000000765 ], [ -123.960924000001114, 46.262010000000778 ], [ -123.930477000001105, 46.238805000000767 ], [ -123.871869000001141, 46.234949000000761 ], [ -123.7423710000011, 46.268768000000762 ], [ -123.688115000001119, 46.250105000000787 ], [ -123.558976000001124, 46.258095000000793 ], [ -123.479644000001144, 46.269131000000769 ], [ -123.427629000001119, 46.229348000000776 ], [ -123.430987000001167, 46.18157100000078 ], [ -123.363743000001165, 46.146333000000787 ], [ -123.280166000001117, 46.144843000000797 ], [ -123.166416000001163, 46.188979000000792 ], [ -123.105021000001159, 46.17767600000078 ], [ -122.90411900000116, 46.083734000000817 ], [ -122.87767000000116, 46.031027000000819 ], [ -122.813999000001203, 45.960983000000802 ], [ -122.811218000001205, 45.9138610000008 ], [ -122.794621000001158, 45.879998000000832 ], [ -122.78529900000116, 45.858097000000832 ], [ -122.795605000001203, 45.810000000000812 ], [ -122.769532000001206, 45.780583000000824 ], [ -122.762437000001199, 45.728665000000817 ], [ -122.762410000001225, 45.656438000000833 ], [ -122.643907000001235, 45.609739000000843 ], [ -122.586006000001206, 45.604740000000845 ], [ -122.438674000001242, 45.563585000000842 ], [ -122.401202000001206, 45.571041000000839 ], [ -122.331502000001237, 45.548241000000829 ], [ -122.248993000001207, 45.547745000000852 ], [ -122.182864000001246, 45.576781000000857 ], [ -122.101750000001246, 45.583169000000865 ], [ -121.922028000001276, 45.649205000000883 ], [ -121.867021000001273, 45.693391000000858 ], [ -121.811197000001286, 45.706708000000852 ], [ -121.735073000001265, 45.694002000000879 ], [ -121.638120000001322, 45.704774000000867 ], [ -121.562723000001299, 45.719912000000882 ], [ -121.494685000001297, 45.718453000000864 ], [ -121.4412290000013, 45.697280000000895 ], [ -121.337712000001275, 45.704839000000888 ], [ -121.215768000001304, 45.671228000000895 ], [ -121.196584000001323, 45.635056000000887 ], [ -121.196061000001322, 45.620651000000905 ], [ -121.170475000001318, 45.606154000000892 ], [ -121.123869000001321, 45.615094000000909 ], [ -121.08486300000132, 45.647932000000907 ], [ -120.944018000001321, 45.656392000000892 ], [ -120.915850000001342, 45.641200000000893 ], [ -120.895139000001365, 45.589041000000911 ], [ -120.908459000001315, 45.558241000000912 ], [ -120.882656000001319, 45.527564000000908 ], [ -120.838772000001356, 45.515946000000923 ], [ -120.835671000001341, 45.469746000000917 ], [ -120.865871000001363, 45.443946000000899 ], [ -120.868569000001358, 45.401146000000892 ], [ -120.920371000001353, 45.359344000000931 ], [ -120.956471000001315, 45.3103450000009 ], [ -121.015690000001356, 45.307148000000922 ], [ -121.024294000001362, 45.219531000000927 ], [ -120.987364000001335, 45.198917000000932 ], [ -120.889357000001354, 45.202305000000948 ], [ -120.771887000001342, 45.162694000000926 ], [ -120.723569000001362, 45.130911000000928 ], [ -120.729792000001353, 45.083731000000952 ], [ -120.503733000001404, 45.083477000000954 ], [ -120.495160000001405, 45.068279000000942 ], [ -119.950613000001439, 45.065825000000963 ], [ -119.790699000001425, 45.067823000000971 ], [ -119.791162000001421, 44.994755000000978 ], [ -119.672228000001439, 44.995117000000988 ], [ -119.671532000001463, 44.823343000000989 ], [ -119.65318400000146, 44.762701000001002 ], [ -119.655517000001481, 44.307045000001025 ], [ -119.899002000001445, 44.30662000000099 ], [ -119.899283000001446, 44.389575000000988 ], [ -120.02070800000142, 44.38968700000099 ], [ -120.021621000001417, 44.43879300000097 ], [ -120.101166000001442, 44.438210000001 ], [ -120.3860740000014, 44.436083000000977 ], [ -120.386561000001393, 44.564009000000958 ], [ -120.385687000001397, 44.761175000000961 ], [ -120.404685000001393, 44.792695000000954 ], [ -120.371441000001397, 44.82176900000097 ], [ -121.090568000001355, 44.824093000000921 ], [ -121.725068000001301, 44.825519000000916 ], [ -121.752994000001294, 44.829919000000899 ], [ -121.734223000001322, 44.88572000000088 ], [ -122.257482000001275, 44.885720000000866 ], [ -122.388999000001235, 44.885720000000852 ], [ -122.508106000001234, 44.919599000000865 ], [ -122.592472000001237, 44.988875000000867 ], [ -122.595523000001236, 45.01967900000087 ], [ -122.705237000001233, 45.059290000000871 ], [ -122.785380000001197, 45.132497000000861 ], [ -122.773688000001243, 45.163454000000854 ], [ -122.750085000001221, 45.233603000000841 ], [ -122.784757000001235, 45.261940000000834 ], [ -122.834765000001198, 45.273822000000841 ], [ -122.849925000001221, 45.259697000000841 ], [ -122.867891000001222, 45.317345000000856 ], [ -122.846485000001238, 45.32815100000083 ], [ -122.843407000001207, 45.346154000000851 ], [ -122.807188000001219, 45.346276000000842 ], [ -122.805556000001246, 45.345660000000834 ], [ -122.769123000001215, 45.331909000000806 ], [ -122.746817000001244, 45.332045000000839 ], [ -122.743741000001194, 45.332067000000833 ], [ -122.74379800000122, 45.355871000000811 ], [ -122.743923000001217, 45.371751000000842 ], [ -122.743933000001221, 45.375538000000816 ], [ -122.743919000001199, 45.386122000000846 ], [ -122.743848000001222, 45.396544000000837 ], [ -122.743974000001202, 45.407918000000848 ], [ -122.74402900000122, 45.415311000000841 ], [ -122.744006000001207, 45.421046000000842 ], [ -122.743721000001244, 45.433294000000849 ], [ -122.725541000001243, 45.433167000000822 ], [ -122.712169000001239, 45.433056000000832 ], [ -122.707893000001206, 45.433042000000839 ], [ -122.673311000001206, 45.432795000000837 ], [ -122.648725000001221, 45.432718000000861 ], [ -122.646160000001203, 45.441424000000822 ], [ -122.660979000001234, 45.45781900000086 ], [ -122.646958000001234, 45.458669000000853 ], [ -122.636587000001199, 45.461476000000829 ], [ -122.636560000001239, 45.461474000000848 ], [ -122.616816000001236, 45.461468000000849 ], [ -122.615374000001225, 45.461481000000845 ], [ -122.60145400000124, 45.461464000000852 ], [ -122.598959000001202, 45.447956000000843 ], [ -122.598486000001216, 45.432097000000851 ], [ -122.579235000001233, 45.432535000000833 ], [ -122.576295000001238, 45.42182100000084 ], [ -122.574010000001238, 45.414865000000837 ], [ -122.566296000001216, 45.413160000000829 ], [ -122.524728000001247, 45.410373000000817 ], [ -122.517501000001246, 45.41010400000085 ], [ -122.492758000001245, 45.427229000000835 ], [ -122.485745000001245, 45.426259000000883 ], [ -122.486584000001216, 45.461132000000852 ], [ -122.527468000001221, 45.46127300000083 ], [ -122.52357800000128, 45.481170000000851 ], [ -122.485160000001201, 45.485466000000855 ], [ -122.484673000001195, 45.492309000000859 ], [ -122.484663000001234, 45.504581000000847 ], [ -122.496624000001219, 45.504572000000856 ], [ -122.49644700000124, 45.519156000000848 ], [ -122.496377000001203, 45.526424000000851 ], [ -122.495784000001237, 45.534262000000851 ], [ -122.49573200000124, 45.542725000000829 ], [ -122.510307000001234, 45.552666000000841 ], [ -122.519189000001234, 45.554231000000854 ], [ -122.53775200000122, 45.557461000000849 ], [ -122.557856000001237, 45.560956000000829 ], [ -122.577705000001217, 45.564380000000831 ], [ -122.590647000001198, 45.566658000000842 ], [ -122.618684000001195, 45.570419000000832 ], [ -122.630645000001195, 45.572743000000855 ], [ -122.633555000001195, 45.574262000000829 ], [ -122.642540000001219, 45.603162000000829 ], [ -122.715449000001243, 45.619748000000826 ], [ -122.765077000001199, 45.652887000000817 ], [ -122.790845000001241, 45.619479000000823 ], [ -122.833372000001205, 45.605646000000853 ], [ -122.867495000001199, 45.606226000000838 ], [ -122.868303000001205, 45.606223000000838 ], [ -122.929128000001199, 45.635313000000814 ], [ -122.929146000001197, 45.72148200000079 ], [ -123.031837000001204, 45.751420000000792 ], [ -123.030873000001193, 45.779159000000803 ], [ -123.115179000001163, 45.780131000000814 ], [ -123.122083000001183, 45.78015400000082 ], [ -123.340410000001157, 45.779849000000787 ], [ -123.36162200000112, 45.779579000000815 ], [ -123.361028000001156, 45.708696000000799 ], [ -123.48472600000116, 45.708764000000784 ], [ -123.464329000001158, 45.669573000000788 ], [ -123.42327300000116, 45.636176000000809 ], [ -123.37691600000116, 45.622077000000822 ], [ -123.361131000001166, 45.578779000000793 ], [ -123.461181000001162, 45.491560000000803 ], [ -123.464880000001159, 45.433332000000803 ], [ -123.46369200000116, 45.367548000000824 ], [ -123.46310100000116, 45.280192000000817 ], [ -123.483026000001161, 45.216134000000821 ], [ -123.761994000001167, 45.216283000000814 ], [ -123.784540000001144, 45.216294000000808 ], [ -123.784218000001161, 45.076655000000827 ], [ -123.724368000001164, 45.076226000000815 ], [ -123.724663000001144, 45.044432000000803 ], [ -123.95500700000116, 45.045720000000813 ], [ -124.010291000001118, 45.0449990000008 ], [ -124.012360000001166, 45.044999000000779 ] ] ] } },
{ "type": "Feature", "properties": { "opt_all": 4, "population": 707542.0, "voting_age_pop": 552868.0, "dem_votes": 149790.0, "rep_votes": 152908.0, "minority_pop": 144901.0, "dem_pct": 0.49484965196504449, "rep_pct": 0.50515034770459322 }, "geometry": { "type": "Polygon", "coordinates": [ [ [ -123.288655000001242, 44.283724000000866 ], [ -123.455686000001194, 44.280647000000883 ], [ -123.593323000001206, 44.276694000000852 ], [ -123.775598000001196, 44.283547000000823 ], [ -123.7989550000012, 44.283304000000854 ], [ -123.941072000001199, 44.277375000000838 ], [ -124.117736000001145, 44.276315000000828 ], [ -124.120578000001117, 44.276374000000835 ], [ -124.187409000001139, 44.276871000000824 ], [ -124.163520000001157, 44.374841000000828 ], [ -124.153428000001156, 44.465036000000801 ], [ -124.162619000001158, 44.51291200000081 ], [ -124.134313000001157, 44.583182000000797 ], [ -124.151221000001158, 44.602911000000816 ], [ -124.139118000001119, 44.710536000000822 ], [ -124.147638000001137, 44.7691130000008 ], [ -124.136209000001102, 44.849241000000781 ], [ -124.116574000001123, 44.866335000000802 ], [ -124.086205000001115, 45.002864000000798 ], [ -124.095833000001164, 45.043986000000785 ], [ -124.012360000001166, 45.044999000000779 ], [ -124.010291000001118, 45.0449990000008 ], [ -123.95500700000116, 45.045720000000813 ], [ -123.724663000001144, 45.044432000000803 ], [ -123.724368000001164, 45.076226000000815 ], [ -123.4126980000012, 45.075365000000843 ], [ -123.396679000001157, 45.075389000000833 ], [ -123.321413000001158, 45.075527000000832 ], [ -123.1862760000012, 45.075013000000837 ], [ -123.092128000001196, 45.074932000000828 ], [ -123.068667000001241, 45.074860000000861 ], [ -123.044916000001223, 45.090273000000835 ], [ -122.996693000001201, 45.117063000000819 ], [ -123.033304000001181, 45.152810000000841 ], [ -122.999145000001235, 45.224105000000833 ], [ -122.999811000001202, 45.260850000000815 ], [ -122.974568000001241, 45.279932000000848 ], [ -122.962300000001207, 45.283880000000849 ], [ -122.882506000001243, 45.255313000000854 ], [ -122.849925000001221, 45.259697000000841 ], [ -122.834765000001198, 45.273822000000841 ], [ -122.784757000001235, 45.261940000000834 ], [ -122.750085000001221, 45.233603000000841 ], [ -122.773688000001243, 45.163454000000854 ], [ -122.785380000001197, 45.132497000000861 ], [ -122.705237000001233, 45.059290000000871 ], [ -122.595523000001236, 45.01967900000087 ], [ -122.592472000001237, 44.988875000000867 ], [ -122.508106000001234, 44.919599000000865 ], [ -122.388999000001235, 44.885720000000852 ], [ -122.257482000001275, 44.885720000000866 ], [ -121.734223000001322, 44.88572000000088 ], [ -121.752994000001294, 44.829919000000899 ], [ -121.811952000001327, 44.811081000000904 ], [ -121.791661000001326, 44.746261000000885 ], [ -121.800015000001338, 44.683425000000902 ], [ -121.797622000001326, 44.649507000000895 ], [ -121.793895000001342, 44.594056000000904 ], [ -121.84688000000132, 44.491090000000909 ], [ -121.843138000001318, 44.392630000000914 ], [ -121.837190000001314, 44.303011000000929 ], [ -121.807791000001316, 44.260147000000927 ], [ -121.799426000001318, 44.258280000000937 ], [ -122.027996000001323, 44.253818000000926 ], [ -122.327150000001296, 44.252841000000885 ], [ -122.367197000001283, 44.209380000000891 ], [ -122.533745000001275, 44.233706000000893 ], [ -122.577232000001274, 44.228044000000864 ], [ -122.646812000001262, 44.266618000000904 ], [ -122.762735000001243, 44.29053700000086 ], [ -122.819352000001246, 44.275804000000868 ], [ -122.903999000001235, 44.259129000000911 ], [ -122.905755000001236, 44.20073600000088 ], [ -122.979520000001244, 44.200613000000885 ], [ -123.060853000001217, 44.200077000000853 ], [ -123.165428000001242, 44.200071000000861 ], [ -123.180388000001244, 44.28372500000085 ], [ -123.248679000001204, 44.283726000000868 ], [ -123.288655000001242, 44.283724000000866 ] ] ] } },
{ "type": "Feature", "properties": { "opt_all": 5, "population": 705502.0, "voting_age_pop": 581581.0, "dem_votes": 280120.0, "rep_votes": 62165.0, "minority_pop": 177805.0, "dem_pct": 0.81838234196111947, "rep_pct": 0.18161765774672636 }, "geometry": { "type": "Polygon", "coordinates": [ [ [ -122.743745000001198, 45.487084000000834 ], [ -122.743746000001224, 45.487250000000834 ], [ -122.743794000001202, 45.492555000000834 ], [ -122.743813000001239, 45.507886000000823 ], [ -122.74385900000118, 45.516665000000849 ], [ -122.764464000001198, 45.519562000000846 ], [ -122.764458000001241, 45.529727000000833 ], [ -122.784232000001239, 45.533982000000833 ], [ -122.784769000001219, 45.543979000000853 ], [ -122.795111000001242, 45.548433000000841 ], [ -122.805432000001204, 45.555687000000802 ], [ -122.826222000001195, 45.568063000000826 ], [ -122.867495000001199, 45.606226000000838 ], [ -122.833372000001205, 45.605646000000853 ], [ -122.790845000001241, 45.619479000000823 ], [ -122.765077000001199, 45.652887000000817 ], [ -122.715449000001243, 45.619748000000826 ], [ -122.642540000001219, 45.603162000000829 ], [ -122.633555000001195, 45.574262000000829 ], [ -122.630645000001195, 45.572743000000855 ], [ -122.618684000001195, 45.570419000000832 ], [ -122.590647000001198, 45.566658000000842 ], [ -122.577705000001217, 45.564380000000831 ], [ -122.557856000001237, 45.560956000000829 ], [ -122.53775200000122, 45.557461000000849 ], [ -122.519189000001234, 45.554231000000854 ], [ -122.510307000001234, 45.552666000000841 ], [ -122.49573200000124, 45.542725000000829 ], [ -122.495784000001237, 45.534262000000851 ], [ -122.496377000001203, 45.526424000000851 ], [ -122.49644700000124, 45.519156000000848 ], [ -122.496624000001219, 45.504572000000856 ], [ -122.484663000001234, 45.504581000000847 ], [ -122.484673000001195, 45.492309000000859 ], [ -122.485160000001201, 45.485466000000855 ], [ -122.52357800000128, 45.481170000000851 ], [ -122.527468000001221, 45.46127300000083 ], [ -122.486584000001216, 45.461132000000852 ], [ -122.485745000001245, 45.426259000000883 ], [ -122.492758000001245, 45.427229000000835 ], [ -122.517501000001246, 45.41010400000085 ], [ -122.524728000001247, 45.410373000000817 ], [ -122.566296000001216, 45.413160000000829 ], [ -122.574010000001238, 45.414865000000837 ], [ -122.576295000001238, 45.42182100000084 ], [ -122.579235000001233, 45.432535000000833 ], [ -122.598486000001216, 45.432097000000851 ], [ -122.598959000001202, 45.447956000000843 ], [ -122.60145400000124, 45.461464000000852 ], [ -122.615374000001225, 45.461481000000845 ], [ -122.616816000001236, 45.461468000000849 ], [ -122.636560000001239, 45.461474000000848 ], [ -122.636587000001199, 45.461476000000829 ], [ -122.646958000001234, 45.458669000000853 ], [ -122.660979000001234, 45.45781900000086 ], [ -122.646160000001203, 45.441424000000822 ], [ -122.648725000001221, 45.432718000000861 ], [ -122.673311000001206, 45.432795000000837 ], [ -122.707893000001206, 45.433042000000839 ], [ -122.712169000001239, 45.433056000000832 ], [ -122.725541000001243, 45.433167000000822 ], [ -122.743721000001244, 45.433294000000849 ], [ -122.743703000001247, 45.442944000000828 ], [ -122.743649000001199, 45.454892000000847 ], [ -122.743663000001206, 45.467532000000851 ], [ -122.7436260000012, 45.476439000000816 ], [ -122.743745000001198, 45.487084000000834 ] ] ] } },
{ "type": "Feature", "properties": { "opt_all": 6, "population": 708094.0, "voting_age_pop": 549300.0, "dem_votes": 185569.0, "rep_votes": 123065.0, "minority_pop": 183790.0, "dem_pct": 0.60125909634024144, "rep_pct": 0.39874090333575013 }, "geometry": { "type": "Polygon", "coordinates": [ [ [ -123.784540000001144, 45.216294000000808 ], [ -123.761994000001167, 45.216283000000814 ], [ -123.483026000001161, 45.216134000000821 ], [ -123.46310100000116, 45.280192000000817 ], [ -123.46369200000116, 45.367548000000824 ], [ -123.464880000001159, 45.433332000000803 ], [ -123.461181000001162, 45.491560000000803 ], [ -123.361131000001166, 45.578779000000793 ], [ -123.37691600000116, 45.622077000000822 ], [ -123.42327300000116, 45.636176000000809 ], [ -123.464329000001158, 45.669573000000788 ], [ -123.48472600000116, 45.708764000000784 ], [ -123.361028000001156, 45.708696000000799 ], [ -123.36162200000112, 45.779579000000815 ], [ -123.340410000001157, 45.779849000000787 ], [ -123.122083000001183, 45.78015400000082 ], [ -123.115179000001163, 45.780131000000814 ], [ -123.030873000001193, 45.779159000000803 ], [ -123.031837000001204, 45.751420000000792 ], [ -122.929146000001197, 45.72148200000079 ], [ -122.929128000001199, 45.635313000000814 ], [ -122.868303000001205, 45.606223000000838 ], [ -122.867495000001199, 45.606226000000838 ], [ -122.826222000001195, 45.568063000000826 ], [ -122.805432000001204, 45.555687000000802 ], [ -122.795111000001242, 45.548433000000841 ], [ -122.784769000001219, 45.543979000000853 ], [ -122.784232000001239, 45.533982000000833 ], [ -122.764458000001241, 45.529727000000833 ], [ -122.764464000001198, 45.519562000000846 ], [ -122.74385900000118, 45.516665000000849 ], [ -122.743813000001239, 45.507886000000823 ], [ -122.743794000001202, 45.492555000000834 ], [ -122.743746000001224, 45.487250000000834 ], [ -122.743745000001198, 45.487084000000834 ], [ -122.7436260000012, 45.476439000000816 ], [ -122.743663000001206, 45.467532000000851 ], [ -122.743649000001199, 45.454892000000847 ], [ -122.743703000001247, 45.442944000000828 ], [ -122.743721000001244, 45.433294000000849 ], [ -122.744006000001207, 45.421046000000842 ], [ -122.74402900000122, 45.415311000000841 ], [ -122.743974000001202, 45.407918000000848 ], [ -122.743848000001222, 45.396544000000837 ], [ -122.743919000001199, 45.386122000000846 ], [ -122.743933000001221, 45.375538000000816 ], [ -122.743923000001217, 45.371751000000842 ], [ -122.74379800000122, 45.355871000000811 ], [ -122.743741000001194, 45.332067000000833 ], [ -122.746817000001244, 45.332045000000839 ], [ -122.769123000001215, 45.331909000000806 ], [ -122.805556000001246, 45.345660000000834 ], [ -122.807188000001219, 45.346276000000842 ], [ -122.843407000001207, 45.346154000000851 ], [ -122.846485000001238, 45.32815100000083 ], [ -122.867891000001222, 45.317345000000856 ], [ -122.849925000001221, 45.259697000000841 ], [ -122.882506000001243, 45.255313000000854 ], [ -122.962300000001207, 45.283880000000849 ], [ -122.974568000001241, 45.279932000000848 ], [ -122.999811000001202, 45.260850000000815 ], [ -122.999145000001235, 45.224105000000833 ], [ -123.033304000001181, 45.152810000000841 ], [ -122.996693000001201, 45.117063000000819 ], [ -123.044916000001223, 45.090273000000835 ], [ -123.068667000001241, 45.074860000000861 ], [ -123.092128000001196, 45.074932000000828 ], [ -123.1862760000012, 45.075013000000837 ], [ -123.321413000001158, 45.075527000000832 ], [ -123.396679000001157, 45.075389000000833 ], [ -123.4126980000012, 45.075365000000843 ], [ -123.724368000001164, 45.076226000000815 ], [ -123.784218000001161, 45.076655000000827 ], [ -123.784540000001144, 45.216294000000808 ] ] ] } }
]
}
