{
"type": "FeatureCollection",
"name": "pennsylvania_optimized_districts_headcount",
"crs": { "type": "name", "properties": { "name": "urn:ogc:def:crs:OGC:1.3:CRS84" } },
"features": [
{ "type": "Feature", "properties": { "district_id": 0, "voting_age_pop": 605752, "lib_votes": 0, "grn_votes": 0, "con_votes": 0, "ref_votes": 0, "total_pop": 774044, "dem_votes_sum": 143995, "rep_votes_sum": 165674, "lib_votes_sum": 0, "grn_votes_sum": 0, "con_votes_sum": 0, "ref_votes_sum": 0, "minority_pop_sum": 31353, "dem_pct": 0.46499649625890871, "rep_pct": 0.53500350374109129, "lib_pct": 0.0, "grn_pct": 0.0, "con_pct": 0.0, "ref_pct": 0.0, "minority_pct": 0.040505449302623626, "compactness": 0.29076339677827184 }, "geometry": { "type": "Polygon", "coordinates": [ [ [ -80.327801000582227, 41.127184999999557 ], [ -80.323386000581408, 41.082749999999457 ], [ -80.384006000630137, 41.081602999999419 ], [ -80.384551000627738, 41.126499999999538 ], [ -80.519037000747957, 41.125092999999481 ], [ -80.519421000683181, 41.977523000002066 ], [ -80.328142000528587, 42.03669300000162 ], [ -80.188093000434918, 42.093991000001353 ], [ -80.15579700041522, 42.112771000001324 ], [ -80.13481800040168, 42.150735000001333 ], [ -80.115392000390329, 42.166711000001314 ], [ -80.07441300036848, 42.172452000001222 ], [ -80.084592000373846, 42.170632000001248 ], [ -80.072047000368002, 42.155472000001183 ], [ -80.128782000398445, 42.148736000001307 ], [ -80.151525000412789, 42.112702000001299 ], [ -80.099151000383216, 42.13070100000121 ], [ -80.078762000371626, 42.151536000001215 ], [ -80.058839000361658, 42.145813000001155 ], [ -79.874132000275338, 42.231618000000914 ], [ -79.762390000232685, 42.269327000000779 ], [ -79.761313000239568, 41.998808000000551 ], [ -78.571538000031509, 41.999935 ], [ -78.589463000032751, 41.975171 ], [ -78.61709200003456, 41.977109 ], [ -78.618374000034706, 41.9642 ], [ -78.583749000032469, 41.955129 ], [ -78.534934000029452, 41.959611 ], [ -78.532971000029391, 41.948965 ], [ -78.502662000027627, 41.958168 ], [ -78.512015000028185, 41.946645 ], [ -78.492035000027073, 41.947928 ], [ -78.480676000026506, 41.934128 ], [ -78.473425000026069, 41.945011 ], [ -78.442860000024538, 41.934199 ], [ -78.425750000023669, 41.941399 ], [ -78.425599000023738, 41.911296 ], [ -78.460484000025488, 41.910609 ], [ -78.460258000025519, 41.896005 ], [ -78.532624000029529, 41.895008 ], [ -78.532524000029554, 41.880306 ], [ -78.560480000031276, 41.880135 ], [ -78.551584000030772, 41.860418 ], [ -78.572612000032137, 41.848343 ], [ -78.547072000030568, 41.843392 ], [ -78.537882000030066, 41.820351 ], [ -78.551040000030952, 41.79382 ], [ -78.519785000029131, 41.778888 ], [ -78.550662000031068, 41.762703 ], [ -78.445226000025102, 41.763264 ], [ -78.445435000025512, 41.616654 ], [ -78.262069000017362, 41.61617 ], [ -78.256588000017189, 41.597279 ], [ -78.276454000017935, 41.601187 ], [ -78.292342000018579, 41.578955 ], [ -78.28024000001821, 41.537267 ], [ -78.245183000016922, 41.509521 ], [ -78.260707000017518, 41.490511 ], [ -78.244816000016996, 41.461489 ], [ -78.25366900001741, 41.404782 ], [ -78.096476000012302, 41.405403 ], [ -78.093381000012442, 41.216931 ], [ -78.038203000011023, 41.153633 ], [ -78.070371000011917, 41.121966 ], [ -78.112239000013119, 41.114217 ], [ -78.096621000012703, 41.073383 ], [ -78.119790000013353, 41.099478 ], [ -78.127024000013577, 41.084049 ], [ -78.116224000013275, 41.07282 ], [ -78.137935000013968, 41.059917 ], [ -78.212866000016461, 41.060503 ], [ -78.236300000017337, 41.077429 ], [ -78.236817000017069, 41.230475 ], [ -78.484712000028679, 41.24394 ], [ -78.485207000029007, 41.147975 ], [ -78.569508000034304, 41.148551 ], [ -78.583488000035587, 41.052768 ], [ -78.65604000004096, 41.053999 ], [ -78.661031000041476, 41.031302 ], [ -78.683682000043305, 41.03156 ], [ -78.681859000043289, 41.000193 ], [ -78.707530000045494, 40.993231 ], [ -78.804047000054524, 40.993855 ], [ -78.80403900005463, 40.972823 ], [ -78.89112300006407, 40.972361 ], [ -78.903317000066494, 40.815939999999856 ], [ -78.925544000069195, 40.817099999999847 ], [ -78.928640000069521, 40.829160999999857 ], [ -78.993168000078029, 40.820272999999837 ], [ -78.992966000077885, 40.837568999999853 ], [ -79.101106000094035, 40.839043999999809 ], [ -79.102155000093575, 40.910204999999834 ], [ -79.215310000113362, 40.911345999999803 ], [ -79.246574000119367, 40.917906999999801 ], [ -79.249715000119863, 40.929817999999784 ], [ -79.27045300012422, 40.917154999999788 ], [ -79.293730000128917, 40.929406999999799 ], [ -79.366028000145093, 40.928017999999753 ], [ -79.372271000147776, 40.840496999999708 ], [ -79.480562000175141, 40.871953999999668 ], [ -79.483507000175621, 40.893083999999668 ], [ -79.614529000215256, 40.894084999999606 ], [ -79.601401000212775, 40.805678999999564 ], [ -79.691970000244183, 40.806388999999498 ], [ -79.691495000242199, 40.884892999999565 ], [ -79.78331800027776, 40.886283999999506 ], [ -79.784034000276165, 40.95629799999957 ], [ -79.878684000317193, 40.958490999999512 ], [ -79.885546000313653, 41.172462999999766 ], [ -79.999779000369443, 41.171860999999751 ], [ -79.999199000368719, 41.183358999999768 ], [ -79.963520000350258, 41.189747999999781 ], [ -79.96958500035268, 41.207368999999794 ], [ -79.999668000368018, 41.209078999999797 ], [ -79.999779000366942, 41.238652999999843 ], [ -80.115858000431842, 41.236592999999829 ], [ -80.131538000443939, 41.177268999999725 ], [ -80.257869000527307, 41.180813999999707 ], [ -80.256223000528919, 41.128141999999592 ], [ -80.327801000582227, 41.127184999999557 ] ] ] } },
{ "type": "Feature", "properties": { "district_id": 1, "voting_age_pop": 574713, "lib_votes": 0, "grn_votes": 0, "con_votes": 0, "ref_votes": 0, "total_pop": 727022, "dem_votes_sum": 149706, "rep_votes_sum": 192575, "lib_votes_sum": 0, "grn_votes_sum": 0, "con_votes_sum": 0, "ref_votes_sum": 0, "minority_pop_sum": 33627, "dem_pct": 0.4373774764009688, "rep_pct": 0.5626225235990312, "lib_pct": 0.0, "grn_pct": 0.0, "con_pct": 0.0, "ref_pct": 0.0, "minority_pct": 0.046253070746139734, "compactness": 0.18002019155749299 }, "geometry": { "type": "Polygon", "coordinates": [ [ [ -80.243326000591424, 39.721116999996347 ], [ -80.519342000851694, 39.721402999994581 ], [ -80.519037000747957, 41.125092999999481 ], [ -80.384551000627738, 41.126499999999538 ], [ -80.384006000630137, 41.081602999999419 ], [ -80.323386000581408, 41.082749999999457 ], [ -80.327801000582227, 41.127184999999557 ], [ -80.256223000528919, 41.128141999999592 ], [ -80.257869000527307, 41.180813999999707 ], [ -80.131538000443939, 41.177268999999725 ], [ -80.115858000431842, 41.236592999999829 ], [ -79.999779000366942, 41.238652999999843 ], [ -79.999668000368018, 41.209078999999797 ], [ -79.96958500035268, 41.207368999999794 ], [ -79.963520000350258, 41.189747999999781 ], [ -79.999199000368719, 41.183358999999768 ], [ -79.999779000369443, 41.171860999999751 ], [ -79.885546000313653, 41.172462999999766 ], [ -79.878684000317193, 40.958490999999512 ], [ -79.90168400032799, 40.95720499999949 ], [ -79.903075000329423, 40.932489999999468 ], [ -79.944810000349761, 40.933715999999443 ], [ -79.922088000340096, 40.886693999999409 ], [ -79.972489000365528, 40.886678999999347 ], [ -79.970080000366778, 40.816365999999235 ], [ -80.0249500003968, 40.806820999999182 ], [ -80.028525000398432, 40.817015999999192 ], [ -80.063065000418206, 40.817259999999145 ], [ -80.060910000418659, 40.774533999999086 ], [ -80.071463000425211, 40.766575999999063 ], [ -80.059405000418963, 40.744995999999041 ], [ -80.107945000448311, 40.744867999998966 ], [ -80.101761000446203, 40.704026999998916 ], [ -80.125933000461714, 40.697492999998865 ], [ -80.129798000464859, 40.681832999998811 ], [ -80.11649800045673, 40.673826999998823 ], [ -80.148677000477463, 40.674378999998758 ], [ -80.144850000477689, 40.613473999998654 ], [ -80.180133000501627, 40.609396999998594 ], [ -80.206472000521032, 40.588164999998483 ], [ -80.207206000520301, 40.613786999998538 ], [ -80.221944000530868, 40.613221999998522 ], [ -80.236176000541775, 40.602165999998455 ], [ -80.222430000533606, 40.565019999998405 ], [ -80.240140000547356, 40.550235999998336 ], [ -80.235291000544365, 40.537971999998319 ], [ -80.257265000560537, 40.542916999998269 ], [ -80.251189000556252, 40.53721199999827 ], [ -80.270451000571242, 40.530998999998225 ], [ -80.240907000550351, 40.502484999998231 ], [ -80.220800000534837, 40.516427999998299 ], [ -80.203932000522968, 40.511130999998336 ], [ -80.201544000522745, 40.480240999998287 ], [ -80.212000000530509, 40.475193999998226 ], [ -80.172152000503175, 40.458322999998309 ], [ -80.170066000502999, 40.430630999998236 ], [ -80.134114000478704, 40.430619999998342 ], [ -80.099767000457263, 40.410981999998377 ], [ -80.091803000451833, 40.420087999998422 ], [ -80.056021000430448, 40.404200999998473 ], [ -80.066222000437008, 40.394548999998428 ], [ -80.079881000445226, 40.399871999998396 ], [ -80.073805000441823, 40.390783999998412 ], [ -80.097131000457068, 40.375518999998327 ], [ -80.087934000451611, 40.366477999998324 ], [ -80.097562000458069, 40.357909999998299 ], [ -80.061195000435717, 40.34967199999835 ], [ -80.098976000459686, 40.34062399999825 ], [ -80.107760000465049, 40.347730999998248 ], [ -80.114062000469801, 40.331809999998207 ], [ -80.079458000447346, 40.340834999998314 ], [ -80.072174000443709, 40.318513999998281 ], [ -80.042980000425416, 40.331181999998371 ], [ -80.016248000410442, 40.310652999998403 ], [ -80.001323000401044, 40.333291999998472 ], [ -80.030802000417893, 40.33876799999841 ], [ -80.030634000417038, 40.359101999998458 ], [ -80.009643000404807, 40.360266999998501 ], [ -79.999123000398228, 40.377343999998565 ], [ -79.985355000392047, 40.333425999998497 ], [ -79.972655000384847, 40.338427999998551 ], [ -79.969936000383612, 40.330574999998539 ], [ -79.951536000373096, 40.347731999998608 ], [ -79.902519000347567, 40.352495999998709 ], [ -79.855113000323882, 40.371267999998835 ], [ -79.842813000318642, 40.353055999998823 ], [ -79.803551000300871, 40.349810999998894 ], [ -79.810262000304149, 40.339126999998882 ], [ -79.78185100029205, 40.323844999998897 ], [ -79.787853000295343, 40.297692999998851 ], [ -79.774923000290045, 40.28648899999888 ], [ -79.801238000301623, 40.283195999998817 ], [ -79.827803000313139, 40.302023999998802 ], [ -79.851799000324988, 40.279373999998718 ], [ -79.88272000033993, 40.279408999998672 ], [ -79.881819000340641, 40.241548999998621 ], [ -79.9127320003563, 40.23959699999854 ], [ -79.912431000355781, 40.251155999998559 ], [ -79.951856000376864, 40.24089599999845 ], [ -79.935404000368862, 40.21692999999847 ], [ -79.897765000349324, 40.21855999999854 ], [ -79.894347000348247, 40.197749999998535 ], [ -79.930507000366987, 40.195151999998437 ], [ -79.965375000387965, 40.130638999998247 ], [ -79.958172000384181, 40.125178999998255 ], [ -79.939352000373532, 40.13862399999833 ], [ -79.897346000351845, 40.130339999998441 ], [ -79.878105000342728, 40.111095999998433 ], [ -79.901370000354788, 40.101607999998372 ], [ -79.946891000378685, 40.105723999998254 ], [ -79.944107000377883, 40.084386999998245 ], [ -79.964086000388875, 40.08308999999818 ], [ -79.966834000391287, 40.056873999998146 ], [ -79.989337000404049, 40.056501999998069 ], [ -79.981905000401241, 40.015351999998025 ], [ -79.994807000408656, 40.015527999997992 ], [ -79.992888000408286, 39.994332999997951 ], [ -80.014249000420875, 39.993148999997878 ], [ -80.045832000442132, 39.938103999997686 ], [ -80.045121000442521, 39.91629899999765 ], [ -80.023976000429698, 39.911547999997723 ], [ -80.039694000440335, 39.884574999997618 ], [ -80.056073000450326, 39.891510999997564 ], [ -80.079660000466305, 39.869935999997416 ], [ -80.121549000494653, 39.861608999997259 ], [ -80.135390000503904, 39.869107999997198 ], [ -80.143950000510458, 39.855918999997151 ], [ -80.18304800053906, 39.847195999996956 ], [ -80.191408000546929, 39.810429999996835 ], [ -80.220027000568734, 39.810388999996697 ], [ -80.223085000570435, 39.824317999996687 ], [ -80.239856000583586, 39.823848999996613 ], [ -80.252610000596974, 39.759405999996403 ], [ -80.243326000591424, 39.721116999996347 ] ] ] } },
{ "type": "Feature", "properties": { "district_id": 2, "voting_age_pop": 546329, "lib_votes": 0, "grn_votes": 0, "con_votes": 0, "ref_votes": 0, "total_pop": 733755, "dem_votes_sum": 220407, "rep_votes_sum": 66503, "lib_votes_sum": 0, "grn_votes_sum": 0, "con_votes_sum": 0, "ref_votes_sum": 0, "minority_pop_sum": 180249, "dem_pct": 0.76820954306228439, "rep_pct": 0.23179045693771566, "lib_pct": 0.0, "grn_pct": 0.0, "con_pct": 0.0, "ref_pct": 0.0, "minority_pct": 0.24565284052578859, "compactness": 0.24623088647041821 }, "geometry": { "type": "Polygon", "coordinates": [ [ [ -75.118958, 39.965535 ], [ -75.165043, 39.992378 ], [ -75.147461, 39.994656 ], [ -75.157952, 40.014016 ], [ -75.148953, 40.019743 ], [ -75.164617, 40.023718 ], [ -75.133814, 40.0526 ], [ -75.136879, 40.080037 ], [ -75.154854, 40.089016 ], [ -75.147734, 40.09623 ], [ -75.129027, 40.093502 ], [ -75.114397, 40.118074 ], [ -75.100344, 40.113042 ], [ -75.110158, 40.107507 ], [ -75.074097, 40.115313 ], [ -75.094791, 40.128229 ], [ -75.075543, 40.13989 ], [ -75.070386, 40.12633 ], [ -75.054717, 40.125223 ], [ -75.042315, 40.145416 ], [ -75.023279, 40.141654 ], [ -75.015066, 40.137992 ], [ -75.033263, 40.123385 ], [ -75.005391, 40.114802 ], [ -74.969118, 40.128755 ], [ -74.953567, 40.110965 ], [ -74.959629, 40.079353 ], [ -74.934827, 40.083624 ], [ -74.924899, 40.071095 ], [ -75.04709, 40.009941 ], [ -75.075605, 39.978041 ], [ -75.118958, 39.965535 ] ] ] } },
{ "type": "Feature", "properties": { "district_id": 3, "voting_age_pop": 582673, "lib_votes": 0, "grn_votes": 0, "con_votes": 0, "ref_votes": 0, "total_pop": 721026, "dem_votes_sum": 314633, "rep_votes_sum": 41194, "lib_votes_sum": 0, "grn_votes_sum": 0, "con_votes_sum": 0, "ref_votes_sum": 0, "minority_pop_sum": 348925, "dem_pct": 0.88423025796243682, "rep_pct": 0.1157697420375632, "lib_pct": 0.0, "grn_pct": 0.0, "con_pct": 0.0, "ref_pct": 0.0, "minority_pct": 0.48392845750361291, "compactness": 0.13984737980095377 }, "geometry": { "type": "Polygon", "coordinates": [ [ [ -75.215722, 39.876087 ], [ -75.324261, 39.887078 ], [ -75.296346, 39.893666 ], [ -75.30232, 39.907872 ], [ -75.275311, 39.923225 ], [ -75.246308, 39.917176 ], [ -75.216238, 39.938303 ], [ -75.237821, 39.943829 ], [ -75.238166, 39.955011 ], [ -75.209268, 39.949874 ], [ -75.204056, 39.972701 ], [ -75.193055, 39.973852 ], [ -75.204417, 39.983169 ], [ -75.191492, 40.00214 ], [ -75.230896, 39.99913 ], [ -75.239975, 40.018104 ], [ -75.268937, 40.033389 ], [ -75.236635, 40.052674 ], [ -75.203997, 40.044553 ], [ -75.183016, 40.088505 ], [ -75.158417, 40.074169 ], [ -75.147975, 40.086934 ], [ -75.133814, 40.0526 ], [ -75.164617, 40.023718 ], [ -75.148953, 40.019743 ], [ -75.157952, 40.014016 ], [ -75.147461, 39.994656 ], [ -75.165043, 39.992378 ], [ -75.118958, 39.965535 ], [ -75.135239, 39.950677 ], [ -75.137296, 39.889966 ], [ -75.211463, 39.867004 ], [ -75.215722, 39.876087 ] ] ] } },
{ "type": "Feature", "properties": { "district_id": 4, "voting_age_pop": 595435, "lib_votes": 0, "grn_votes": 0, "con_votes": 0, "ref_votes": 0, "total_pop": 778514, "dem_votes_sum": 272676, "rep_votes_sum": 131598, "lib_votes_sum": 0, "grn_votes_sum": 0, "con_votes_sum": 0, "ref_votes_sum": 0, "minority_pop_sum": 234852, "dem_pct": 0.67448314756823347, "rep_pct": 0.32551685243176659, "lib_pct": 0.0, "grn_pct": 0.0, "con_pct": 0.0, "ref_pct": 0.0, "minority_pct": 0.30166702204456181, "compactness": 0.14586902276887734 }, "geometry": { "type": "Polygon", "coordinates": [ [ [ -75.415062, 39.801919 ], [ -75.522664, 39.837298 ], [ -75.596565, 39.838222 ], [ -75.597914, 39.874464 ], [ -75.571162, 39.888136 ], [ -75.56258, 39.926259 ], [ -75.596808, 39.91082 ], [ -75.641388, 39.947382 ], [ -75.602735, 39.958085 ], [ -75.612339, 39.970084 ], [ -75.619556, 39.960654 ], [ -75.673158, 39.968516 ], [ -75.708953, 39.997259 ], [ -75.675758, 40.005376 ], [ -75.68422, 40.01644 ], [ -75.705148, 40.005906 ], [ -75.705542, 40.020341 ], [ -75.662503, 40.016609 ], [ -75.673653, 40.031918 ], [ -75.653103, 40.03854 ], [ -75.657987, 40.051129 ], [ -75.623426, 40.058929 ], [ -75.663767, 40.082377 ], [ -75.62753, 40.120798 ], [ -75.606336, 40.108208 ], [ -75.582941, 40.131979 ], [ -75.564352, 40.131439 ], [ -75.496525, 40.083714 ], [ -75.535609, 40.073741 ], [ -75.531514, 40.05927 ], [ -75.554866, 40.050939 ], [ -75.502524, 40.036746 ], [ -75.494447, 40.013153 ], [ -75.508196, 40.000062 ], [ -75.473493, 39.96752 ], [ -75.436055, 39.984948 ], [ -75.414139, 39.95891 ], [ -75.39796, 39.970031 ], [ -75.40073, 39.986742 ], [ -75.378204, 39.98394 ], [ -75.343076, 40.004994 ], [ -75.322319, 39.994531 ], [ -75.309596, 40.000171 ], [ -75.293871, 39.983267 ], [ -75.294815, 39.999292 ], [ -75.273436, 40.002307 ], [ -75.285062, 40.00573 ], [ -75.267555, 40.033606 ], [ -75.230896, 39.99913 ], [ -75.191492, 40.00214 ], [ -75.207146, 39.951161 ], [ -75.240979, 39.951198 ], [ -75.216238, 39.938303 ], [ -75.257476, 39.912873 ], [ -75.275311, 39.923225 ], [ -75.292324, 39.915482 ], [ -75.305746, 39.902918 ], [ -75.296346, 39.893666 ], [ -75.303144, 39.897617 ], [ -75.320753, 39.889719 ], [ -75.324261, 39.887078 ], [ -75.215722, 39.876087 ], [ -75.211463, 39.867004 ], [ -75.272202, 39.849076 ], [ -75.341766, 39.846082 ], [ -75.415062, 39.801919 ] ] ] } },
{ "type": "Feature", "properties": { "district_id": 5, "voting_age_pop": 589520, "lib_votes": 0, "grn_votes": 0, "con_votes": 0, "ref_votes": 0, "total_pop": 731515, "dem_votes_sum": 174928, "rep_votes_sum": 152344, "lib_votes_sum": 0, "grn_votes_sum": 0, "con_votes_sum": 0, "ref_votes_sum": 0, "minority_pop_sum": 81122, "dem_pct": 0.53450341000757784, "rep_pct": 0.46549658999242222, "lib_pct": 0.0, "grn_pct": 0.0, "con_pct": 0.0, "ref_pct": 0.0, "minority_pct": 0.11089588046724948, "compactness": 0.17428984248232371 }, "geometry": { "type": "Polygon", "coordinates": [ [ [ -79.056650000096042, 39.722768999999509 ], [ -80.243326000591424, 39.721116999996347 ], [ -80.252610000596974, 39.759405999996403 ], [ -80.239856000583586, 39.823848999996613 ], [ -80.223085000570435, 39.824317999996687 ], [ -80.220027000568734, 39.810388999996697 ], [ -80.191408000546929, 39.810429999996835 ], [ -80.18304800053906, 39.847195999996956 ], [ -80.143950000510458, 39.855918999997151 ], [ -80.135390000503904, 39.869107999997198 ], [ -80.121549000494653, 39.861608999997259 ], [ -80.079660000466305, 39.869935999997416 ], [ -80.056073000450326, 39.891510999997564 ], [ -80.039694000440335, 39.884574999997618 ], [ -80.023976000429698, 39.911547999997723 ], [ -80.045121000442521, 39.91629899999765 ], [ -80.045832000442132, 39.938103999997686 ], [ -80.014249000420875, 39.993148999997878 ], [ -79.992888000408286, 39.994332999997951 ], [ -79.994807000408656, 40.015527999997992 ], [ -79.981905000401241, 40.015351999998025 ], [ -79.989337000404049, 40.056501999998069 ], [ -79.966834000391287, 40.056873999998146 ], [ -79.964086000388875, 40.08308999999818 ], [ -79.944107000377883, 40.084386999998245 ], [ -79.946891000378685, 40.105723999998254 ], [ -79.901370000354788, 40.101607999998372 ], [ -79.878105000342728, 40.111095999998433 ], [ -79.897346000351845, 40.130339999998441 ], [ -79.939352000373532, 40.13862399999833 ], [ -79.958172000384181, 40.125178999998255 ], [ -79.965375000387965, 40.130638999998247 ], [ -79.930507000366987, 40.195151999998437 ], [ -79.894347000348247, 40.197749999998535 ], [ -79.897765000349324, 40.21855999999854 ], [ -79.935404000368862, 40.21692999999847 ], [ -79.951856000376864, 40.24089599999845 ], [ -79.912431000355781, 40.251155999998559 ], [ -79.9127320003563, 40.23959699999854 ], [ -79.881819000340641, 40.241548999998621 ], [ -79.88272000033993, 40.279408999998672 ], [ -79.851799000324988, 40.279373999998718 ], [ -79.827803000313139, 40.302023999998802 ], [ -79.801238000301623, 40.283195999998817 ], [ -79.775247000290179, 40.285729999998871 ], [ -79.787853000295343, 40.297692999998851 ], [ -79.78185100029205, 40.323844999998897 ], [ -79.810262000304149, 40.339126999998882 ], [ -79.801104000299944, 40.344139999998887 ], [ -79.805592000301743, 40.351148999998898 ], [ -79.80750200030279, 40.344136999998881 ], [ -79.831976000313489, 40.35803899999884 ], [ -79.842813000318642, 40.353055999998823 ], [ -79.855113000323882, 40.371267999998835 ], [ -79.885887000339068, 40.359295999998743 ], [ -79.890675000340934, 40.376079999998765 ], [ -79.920307000355891, 40.374227999998702 ], [ -79.917786000354155, 40.388002999998754 ], [ -79.933008000361696, 40.397630999998704 ], [ -79.921112000355208, 40.408297999998751 ], [ -79.953572000371537, 40.425669999998725 ], [ -79.947309000367142, 40.458510999998786 ], [ -79.930074000357962, 40.464504999998816 ], [ -79.942729000364295, 40.472128999998802 ], [ -79.917249000350637, 40.48925799999887 ], [ -79.906923000345515, 40.487097999998888 ], [ -79.907922000346829, 40.46159999999886 ], [ -79.899378000342324, 40.469524999998882 ], [ -79.86175700032436, 40.461447999998938 ], [ -79.854074000320068, 40.484935999998974 ], [ -79.804662000297782, 40.481368999999049 ], [ -79.80674400029811, 40.503113999999051 ], [ -79.791754000291476, 40.507247999999088 ], [ -79.759719000279148, 40.460405999999089 ], [ -79.713143000260928, 40.436887999999129 ], [ -79.744931000274931, 40.385260999999041 ], [ -79.724820000266988, 40.376409999999055 ], [ -79.710605000260685, 40.4055819999991 ], [ -79.694174000254492, 40.396961999999114 ], [ -79.633947000232155, 40.4013349999992 ], [ -79.639310000234317, 40.390829999999184 ], [ -79.599380000220975, 40.361959999999215 ], [ -79.651637000239944, 40.335268999999123 ], [ -79.611399000225845, 40.325385999999177 ], [ -79.577521000213949, 40.346510999999225 ], [ -79.57220000021168, 40.374547999999251 ], [ -79.559330000207581, 40.369855999999274 ], [ -79.535188000199696, 40.38135199999931 ], [ -79.552460000205031, 40.388825999999298 ], [ -79.555136000205181, 40.424811999999328 ], [ -79.483367000183179, 40.438213999999398 ], [ -79.531524000196896, 40.474341999999396 ], [ -79.488635000184075, 40.476290999999421 ], [ -79.478795000180966, 40.492689999999449 ], [ -79.455291000174299, 40.497252999999489 ], [ -79.421744000165461, 40.480887999999489 ], [ -79.402021000160133, 40.491756999999502 ], [ -79.410795000162324, 40.498624999999485 ], [ -79.395767000158045, 40.526517999999534 ], [ -79.376364000153046, 40.536029999999549 ], [ -79.299577000135429, 40.504637999999602 ], [ -79.299605000135728, 40.482756999999573 ], [ -79.337683000144608, 40.469045999999537 ], [ -79.328630000142709, 40.452550999999545 ], [ -79.299740000136026, 40.460126999999588 ], [ -79.300550000136525, 40.434677999999558 ], [ -79.282848000132489, 40.442768999999572 ], [ -79.270738000129967, 40.435419999999588 ], [ -79.266019000129276, 40.408821999999581 ], [ -79.300593000137098, 40.388217999999547 ], [ -79.258899000127911, 40.394812999999573 ], [ -79.220677000120247, 40.373435999999586 ], [ -79.222015000120663, 40.357547999999589 ], [ -79.118159000101059, 40.371380999999658 ], [ -79.088053000096352, 40.329352999999664 ], [ -79.036299000088178, 40.314582999999693 ], [ -79.114053000101833, 40.2067029999996 ], [ -79.130773000104767, 40.208626999999609 ], [ -79.126900000103987, 40.221791999999617 ], [ -79.148291000107662, 40.239559999999585 ], [ -79.168763000111639, 40.224383999999588 ], [ -79.191963000115877, 40.246744999999578 ], [ -79.196917000116741, 40.25590399999956 ], [ -79.160716000109574, 40.280767999999604 ], [ -79.177483000112645, 40.289897999999596 ], [ -79.203549000117917, 40.269475999999564 ], [ -79.222852000121563, 40.29059499999957 ], [ -79.266586000131042, 40.265417999999514 ], [ -79.267554000131724, 40.224291999999487 ], [ -79.292327000137405, 40.209299999999473 ], [ -79.172565000113309, 40.125541999999534 ], [ -79.191546000117185, 40.10989999999952 ], [ -79.141883000107967, 40.080207999999551 ], [ -79.178843000115705, 40.006895999999493 ], [ -79.168077000113755, 39.993443999999492 ], [ -79.125391000105935, 39.975071999999514 ], [ -79.041993000091793, 39.963022999999595 ], [ -79.047394000092879, 39.934295999999563 ], [ -79.094302000101209, 39.881546999999536 ], [ -79.132797000108027, 39.891192999999483 ], [ -79.149823000111581, 39.852647999999441 ], [ -79.122858000106916, 39.810620999999472 ], [ -79.078402000099075, 39.805945999999516 ], [ -79.046166000093905, 39.776523999999519 ], [ -79.017267000089305, 39.771061999999553 ], [ -79.044921000094035, 39.733802999999519 ], [ -79.056650000096042, 39.722768999999509 ] ] ] } },
{ "type": "Feature", "properties": { "district_id": 6, "voting_age_pop": 551901, "lib_votes": 0, "grn_votes": 0, "con_votes": 0, "ref_votes": 0, "total_pop": 735618, "dem_votes_sum": 129389, "rep_votes_sum": 178391, "lib_votes_sum": 0, "grn_votes_sum": 0, "con_votes_sum": 0, "ref_votes_sum": 0, "minority_pop_sum": 37697, "dem_pct": 0.42039443758528822, "rep_pct": 0.57960556241471184, "lib_pct": 0.0, "grn_pct": 0.0, "con_pct": 0.0, "ref_pct": 0.0, "minority_pct": 0.051245347449355508, "compactness": 0.16869931254677398 }, "geometry": { "type": "MultiPolygon", "coordinates": [ [ [ [ -75.81208, 39.722182 ], [ -76.881100000000416, 39.7204 ], [ -76.91437900000048, 39.789506 ], [ -76.874147000000406, 39.820177 ], [ -76.895198000000434, 39.830701 ], [ -76.88990700000042, 39.864281 ], [ -76.9297990000005, 39.859264 ], [ -76.934045000000509, 39.878808 ], [ -76.893285000000432, 39.921532 ], [ -76.817097000000302, 39.894644 ], [ -76.797241000000312, 39.906592 ], [ -76.798350000000283, 39.922334 ], [ -76.7841200000003, 39.911784 ], [ -76.751631000000259, 39.923155 ], [ -76.748223000000252, 39.914199 ], [ -76.724000000000231, 39.927764 ], [ -76.715654000000214, 39.897702 ], [ -76.683987000000201, 39.875698 ], [ -76.648739000000162, 39.883491 ], [ -76.680069000000202, 39.907172 ], [ -76.653596000000178, 39.906698 ], [ -76.661771000000172, 39.930885 ], [ -76.703781000000191, 39.932541 ], [ -76.697624000000204, 39.940263 ], [ -76.726281000000228, 39.974062 ], [ -76.74311700000024, 39.973047 ], [ -76.746686000000253, 39.992584 ], [ -76.761070000000245, 39.980961 ], [ -76.78519900000029, 39.987283 ], [ -76.8018390000003, 40.01177 ], [ -76.755266000000233, 40.052535 ], [ -76.763744000000273, 40.058134 ], [ -76.748856000000259, 40.072574 ], [ -76.73792400000022, 40.069316 ], [ -76.739449000000221, 40.081877 ], [ -76.708431000000189, 40.082952 ], [ -76.704994000000212, 40.100974 ], [ -76.723904000000218, 40.109729 ], [ -76.697352000000208, 40.15664 ], [ -76.690135000000197, 40.148114 ], [ -76.676369000000179, 40.153055 ], [ -76.652083000000147, 40.125726 ], [ -76.635797000000153, 40.135528 ], [ -76.625321000000156, 40.128037 ], [ -76.607052000000124, 40.142326 ], [ -76.581448000000123, 40.139041 ], [ -76.582178000000127, 40.150652 ], [ -76.60928800000012, 40.161862 ], [ -76.601275000000129, 40.172752 ], [ -76.55605100000011, 40.143561 ], [ -76.516076, 40.18558 ], [ -76.463908, 40.182695 ], [ -76.441625, 40.14848 ], [ -76.452229, 40.128288 ], [ -76.389119, 40.174814 ], [ -76.379268, 40.158873 ], [ -76.404674, 40.154938 ], [ -76.406666, 40.116191 ], [ -76.42087, 40.115512 ], [ -76.369555, 40.075315 ], [ -76.388633, 40.05615 ], [ -76.349345, 40.061682 ], [ -76.360034, 40.052876 ], [ -76.325399, 40.041593 ], [ -76.321372, 40.051714 ], [ -76.307183, 40.045872 ], [ -76.320685, 40.074112 ], [ -76.290136, 40.088594 ], [ -76.289018, 40.101618 ], [ -76.226048, 40.107235 ], [ -76.237456, 40.123567 ], [ -76.224113, 40.141375 ], [ -76.280111, 40.147043 ], [ -76.296189, 40.168103 ], [ -76.276659, 40.163611 ], [ -76.26808, 40.188624 ], [ -76.225775, 40.18846 ], [ -76.166134, 40.211504 ], [ -76.147656, 40.195462 ], [ -76.100055, 40.218428 ], [ -76.131914, 40.24323 ], [ -76.091764, 40.277692 ], [ -76.049489, 40.250634 ], [ -76.076298, 40.246545 ], [ -76.072844, 40.232965 ], [ -76.044985, 40.243868 ], [ -76.024791, 40.225866 ], [ -76.023694, 40.214264 ], [ -76.047093, 40.209037 ], [ -76.024194, 40.185645 ], [ -76.049036, 40.174844 ], [ -76.040262, 40.168653 ], [ -75.976665, 40.167432 ], [ -75.941804, 40.181588 ], [ -75.873375, 40.137107 ], [ -75.942997, 40.109266 ], [ -75.909426, 40.086749 ], [ -75.833661, 40.073448 ], [ -75.844149, 40.056763 ], [ -75.839168, 40.04139 ], [ -75.826401, 40.041335 ], [ -75.84572, 40.018246 ], [ -75.823841, 40.004886 ], [ -75.790152, 40.008933 ], [ -75.782235, 39.984228 ], [ -75.822821, 39.954939 ], [ -75.796488, 39.933545 ], [ -75.777465, 39.945091 ], [ -75.78764, 39.916068 ], [ -75.833675, 39.930791 ], [ -75.847073, 39.922886 ], [ -75.83532, 39.90079 ], [ -75.853072, 39.889229 ], [ -75.849008, 39.866506 ], [ -75.785846, 39.871695 ], [ -75.781155, 39.855337 ], [ -75.78872, 39.822211 ], [ -75.776489, 39.78079 ], [ -75.81213, 39.766032 ], [ -75.81208, 39.722182 ] ] ], [ [ [ -76.587852000000126, 40.145366 ], [ -76.592105000000117, 40.148148 ], [ -76.590634000000122, 40.148809 ], [ -76.587852000000126, 40.145366 ] ] ], [ [ [ -76.323769, 40.062138 ], [ -76.321779, 40.062835 ], [ -76.323203, 40.061651 ], [ -76.323769, 40.062138 ] ] ], [ [ [ -76.32327, 40.06275 ], [ -76.32436, 40.062638 ], [ -76.3237, 40.063103 ], [ -76.32327, 40.06275 ] ] ], [ [ [ -76.324191, 40.064331 ], [ -76.325721, 40.063491 ], [ -76.326552, 40.064354 ], [ -76.324191, 40.064331 ] ] ], [ [ [ -76.317078, 40.059176 ], [ -76.315603, 40.059438 ], [ -76.316403, 40.058726 ], [ -76.317078, 40.059176 ] ] ] ] } },
{ "type": "Feature", "properties": { "district_id": 7, "voting_age_pop": 578754, "lib_votes": 0, "grn_votes": 0, "con_votes": 0, "ref_votes": 0, "total_pop": 748991, "dem_votes_sum": 145932, "rep_votes_sum": 195586, "lib_votes_sum": 0, "grn_votes_sum": 0, "con_votes_sum": 0, "ref_votes_sum": 0, "minority_pop_sum": 55996, "dem_pct": 0.42730397812121179, "rep_pct": 0.57269602187878821, "lib_pct": 0.0, "grn_pct": 0.0, "con_pct": 0.0, "ref_pct": 0.0, "minority_pct": 0.07476191302699231, "compactness": 0.19709743452228151 }, "geometry": { "type": "Polygon", "coordinates": [ [ [ -76.926955000000476, 40.117063 ], [ -77.013341000000665, 40.075375 ], [ -77.076724000000823, 40.113615 ], [ -77.114161000000948, 40.122338 ], [ -77.123549000000978, 40.150716 ], [ -77.104290000000901, 40.194864 ], [ -77.036126000000706, 40.205158 ], [ -77.057807000000778, 40.248183 ], [ -77.079960000000838, 40.261652 ], [ -77.06461700000078, 40.301778 ], [ -77.133039000000977, 40.295207 ], [ -77.116542000000948, 40.322224 ], [ -77.123930000000939, 40.365009 ], [ -77.156387000001061, 40.402243 ], [ -77.026749000000692, 40.457302 ], [ -77.016270000000645, 40.425173 ], [ -77.003235000000629, 40.4268 ], [ -76.949319000000514, 40.469339 ], [ -76.953083000000518, 40.490621 ], [ -76.984389000000576, 40.514565 ], [ -76.963311000000544, 40.53623 ], [ -76.938431000000492, 40.538751 ], [ -76.948414000000511, 40.546022 ], [ -76.92552200000047, 40.558237 ], [ -76.910657000000441, 40.542663 ], [ -76.871797000000385, 40.548195 ], [ -76.870068000000387, 40.529851 ], [ -76.731964000000218, 40.551625 ], [ -76.673694000000182, 40.564594 ], [ -76.691875000000195, 40.572264 ], [ -76.661185000000174, 40.608485 ], [ -76.656232000000159, 40.565488 ], [ -76.577073, 40.580677 ], [ -76.609607000000125, 40.600932 ], [ -76.456837, 40.631365 ], [ -76.374021, 40.671322 ], [ -76.359667, 40.64543 ], [ -76.380584, 40.637623 ], [ -76.335545, 40.611029 ], [ -76.298504, 40.622446 ], [ -76.24011, 40.520529 ], [ -76.079566, 40.566077 ], [ -76.04818, 40.499327 ], [ -76.065213, 40.484869 ], [ -75.991191, 40.465379 ], [ -75.97153, 40.447168 ], [ -75.975485, 40.435276 ], [ -75.961597, 40.442404 ], [ -75.939198, 40.41385 ], [ -75.962103, 40.407991 ], [ -76.023879, 40.419597 ], [ -76.051025, 40.389539 ], [ -76.039212, 40.369919 ], [ -76.034603, 40.383805 ], [ -76.020136, 40.366968 ], [ -76.009313, 40.373548 ], [ -75.99311, 40.362197 ], [ -76.131914, 40.24323 ], [ -76.100055, 40.218428 ], [ -76.147656, 40.195462 ], [ -76.166134, 40.211504 ], [ -76.225775, 40.18846 ], [ -76.26808, 40.188624 ], [ -76.276659, 40.163611 ], [ -76.296189, 40.168103 ], [ -76.280111, 40.147043 ], [ -76.224113, 40.141375 ], [ -76.237456, 40.123567 ], [ -76.226048, 40.107235 ], [ -76.289018, 40.101618 ], [ -76.290136, 40.088594 ], [ -76.320685, 40.074112 ], [ -76.307183, 40.045872 ], [ -76.360034, 40.052876 ], [ -76.349345, 40.061682 ], [ -76.388633, 40.05615 ], [ -76.369555, 40.075315 ], [ -76.42087, 40.115512 ], [ -76.406666, 40.116191 ], [ -76.404674, 40.154938 ], [ -76.379268, 40.158873 ], [ -76.397141, 40.17646 ], [ -76.411987, 40.149064 ], [ -76.452229, 40.128288 ], [ -76.441625, 40.14848 ], [ -76.463908, 40.182695 ], [ -76.516076, 40.18558 ], [ -76.55605100000011, 40.143561 ], [ -76.601275000000129, 40.172752 ], [ -76.60928800000012, 40.161862 ], [ -76.582178000000127, 40.150652 ], [ -76.581448000000123, 40.139041 ], [ -76.607052000000124, 40.142326 ], [ -76.625321000000156, 40.128037 ], [ -76.635797000000153, 40.135528 ], [ -76.652083000000147, 40.125726 ], [ -76.676369000000179, 40.153055 ], [ -76.690135000000197, 40.148114 ], [ -76.697352000000208, 40.15664 ], [ -76.723904000000218, 40.109729 ], [ -76.704994000000212, 40.100974 ], [ -76.708111000000201, 40.083432 ], [ -76.730778000000242, 40.087779 ], [ -76.765279000000262, 40.04801 ], [ -76.800040000000308, 40.072745 ], [ -76.80976900000033, 40.098044 ], [ -76.832623000000339, 40.096891 ], [ -76.836030000000349, 40.082171 ], [ -76.842317000000349, 40.099068 ], [ -76.856643000000361, 40.096962 ], [ -76.853795000000375, 40.114638 ], [ -76.926955000000476, 40.117063 ] ], [ [ -76.589856000000125, 40.144276 ], [ -76.590634000000122, 40.148809 ], [ -76.592105000000117, 40.148148 ], [ -76.589856000000125, 40.144276 ] ], [ [ -76.32327, 40.06275 ], [ -76.32436, 40.062638 ], [ -76.323936, 40.062279 ], [ -76.32327, 40.06275 ] ], [ [ -76.32327, 40.06275 ], [ -76.323203, 40.061651 ], [ -76.321779, 40.062835 ], [ -76.323186, 40.062737 ], [ -76.32327, 40.06275 ] ], [ [ -76.317078, 40.059176 ], [ -76.315603, 40.059438 ], [ -76.316276, 40.059889 ], [ -76.317078, 40.059176 ] ], [ [ -76.325721, 40.063491 ], [ -76.325835, 40.064878 ], [ -76.326552, 40.064354 ], [ -76.325721, 40.063491 ] ] ] } },
{ "type": "Feature", "properties": { "district_id": 8, "voting_age_pop": 607411, "lib_votes": 0, "grn_votes": 0, "con_votes": 0, "ref_votes": 0, "total_pop": 777837, "dem_votes_sum": 112052, "rep_votes_sum": 210633, "lib_votes_sum": 0, "grn_votes_sum": 0, "con_votes_sum": 0, "ref_votes_sum": 0, "minority_pop_sum": 28202, "dem_pct": 0.34724886499217505, "rep_pct": 0.652751135007825, "lib_pct": 0.0, "grn_pct": 0.0, "con_pct": 0.0, "ref_pct": 0.0, "minority_pct": 0.036256953577677588, "compactness": 0.21403797332013283 }, "geometry": { "type": "Polygon", "coordinates": [ [ [ -79.056650000096042, 39.722768999999509 ], [ -79.017267000089305, 39.771061999999553 ], [ -79.046166000093905, 39.776523999999519 ], [ -79.078402000099075, 39.805945999999516 ], [ -79.122858000106916, 39.810620999999472 ], [ -79.149823000111581, 39.852647999999441 ], [ -79.132797000108027, 39.891192999999483 ], [ -79.094302000101209, 39.881546999999536 ], [ -79.047394000092879, 39.934295999999563 ], [ -79.041993000091793, 39.963022999999595 ], [ -79.125391000105935, 39.975071999999514 ], [ -79.178843000115705, 40.006895999999493 ], [ -79.139391000107594, 40.075090999999546 ], [ -79.191546000117185, 40.10989999999952 ], [ -79.172565000113309, 40.125541999999534 ], [ -79.292327000137405, 40.209299999999473 ], [ -79.267554000131724, 40.224291999999487 ], [ -79.26540500013077, 40.266727999999517 ], [ -79.222852000121563, 40.29059499999957 ], [ -79.203189000117831, 40.269470999999562 ], [ -79.177483000112645, 40.289897999999596 ], [ -79.160716000109574, 40.280767999999604 ], [ -79.196917000116741, 40.25590399999956 ], [ -79.190786000115665, 40.244932999999563 ], [ -79.168763000111639, 40.224383999999588 ], [ -79.148291000107662, 40.239559999999585 ], [ -79.119323000102781, 40.206004999999614 ], [ -79.055983000091487, 40.285088999999665 ], [ -78.927590000072911, 40.284208999999748 ], [ -78.940578000074538, 40.297917999999747 ], [ -78.915642000071173, 40.313214999999758 ], [ -78.94094100007446, 40.31648399999974 ], [ -78.925319000072236, 40.34074599999974 ], [ -78.921804000071859, 40.328818999999761 ], [ -78.881252000066738, 40.33740299999976 ], [ -78.864677000064816, 40.324435999999785 ], [ -78.839714000061932, 40.32886099999979 ], [ -78.833152000061148, 40.334288999999799 ], [ -78.881804000066722, 40.352527999999772 ], [ -78.880621000066455, 40.370931999999783 ], [ -78.85027600006282, 40.382476999999803 ], [ -78.819154000059385, 40.370656999999802 ], [ -78.825002000060095, 40.360778999999802 ], [ -78.785090000055746, 40.370598999999821 ], [ -78.786166000055971, 40.349095999999811 ], [ -78.748499000052234, 40.332245999999827 ], [ -78.76443200005383, 40.33055199999982 ], [ -78.74998500005249, 40.307963999999821 ], [ -78.738299000051342, 40.311529999999827 ], [ -78.74526100005194, 40.330434999999824 ], [ -78.727410000050241, 40.318608999999832 ], [ -78.71091900004869, 40.324131999999835 ], [ -78.722690000049653, 40.352940999999838 ], [ -78.688858000046466, 40.376524999999859 ], [ -78.680148000045776, 40.355151999999848 ], [ -78.620288000040873, 40.327160999999862 ], [ -78.601852000039358, 40.353203999999877 ], [ -78.539083000034765, 40.345765999999877 ], [ -78.434217000027942, 40.420484 ], [ -78.440620000028304, 40.428374 ], [ -78.420849000027175, 40.429053 ], [ -78.395449000025735, 40.450269 ], [ -78.372234000024562, 40.433625 ], [ -78.355536000023676, 40.45463 ], [ -78.354340000023555, 40.485577 ], [ -78.270066000019611, 40.530199 ], [ -78.260966000019238, 40.520685 ], [ -78.307261000021313, 40.49383 ], [ -78.272917000019888, 40.4469 ], [ -78.290803000020702, 40.418078 ], [ -78.189163000016634, 40.395519 ], [ -78.129768000014451, 40.493666 ], [ -78.055590000012202, 40.489236 ], [ -78.026109000011374, 40.516695 ], [ -78.025886000011383, 40.501621 ], [ -78.006028000010872, 40.496387 ], [ -78.016515000011168, 40.484405 ], [ -77.997313000010649, 40.493693 ], [ -77.994774000010608, 40.488537 ], [ -78.001229000010753, 40.484078 ], [ -78.002288000010793, 40.482934 ], [ -78.001912000010776, 40.482542 ], [ -77.976155000010138, 40.504063 ], [ -77.958930000009687, 40.538182 ], [ -77.905667000008521, 40.561174 ], [ -77.873418000007902, 40.515951 ], [ -77.841827000007271, 40.550035 ], [ -77.815976000006856, 40.499785 ], [ -77.825866000007025, 40.492816 ], [ -77.721861000005433, 40.408542 ], [ -77.752120000005917, 40.378545 ], [ -77.70303000000527, 40.263576 ], [ -77.580621000003745, 40.358556 ], [ -77.499899000003026, 40.238884 ], [ -77.366018000002057, 40.313569 ], [ -77.361236000002009, 40.305193 ], [ -77.420845000002416, 40.255368 ], [ -77.32663700000181, 40.292601 ], [ -77.33121000000186, 40.276418 ], [ -77.316471000001755, 40.26749 ], [ -77.229166000001342, 40.283744 ], [ -77.223780000001312, 40.346827 ], [ -77.207077000001263, 40.357684 ], [ -77.2198110000013, 40.37543 ], [ -77.156387000001061, 40.402243 ], [ -77.123930000000939, 40.365009 ], [ -77.116542000000948, 40.322224 ], [ -77.133039000000977, 40.295207 ], [ -77.06461700000078, 40.301778 ], [ -77.079960000000838, 40.261652 ], [ -77.057807000000778, 40.248183 ], [ -77.036126000000706, 40.205158 ], [ -77.104290000000901, 40.194864 ], [ -77.123549000000978, 40.150716 ], [ -77.114161000000948, 40.122338 ], [ -77.076724000000823, 40.113615 ], [ -77.013341000000665, 40.075375 ], [ -76.953102000000527, 40.110883 ], [ -76.909574000000447, 40.120865 ], [ -76.903039000000447, 40.113004 ], [ -76.853795000000375, 40.114638 ], [ -76.856643000000361, 40.096962 ], [ -76.842317000000349, 40.099068 ], [ -76.836030000000349, 40.082171 ], [ -76.832623000000339, 40.096891 ], [ -76.80976900000033, 40.098044 ], [ -76.800040000000308, 40.072745 ], [ -76.767030000000261, 40.051082 ], [ -76.801850000000314, 40.012162 ], [ -76.792520000000309, 39.992072 ], [ -76.761070000000245, 39.980961 ], [ -76.746686000000253, 39.992584 ], [ -76.74311700000024, 39.973047 ], [ -76.726281000000228, 39.974062 ], [ -76.697624000000204, 39.940263 ], [ -76.703781000000191, 39.932541 ], [ -76.661771000000172, 39.930885 ], [ -76.653596000000178, 39.906698 ], [ -76.680069000000202, 39.907172 ], [ -76.648664000000153, 39.88373 ], [ -76.683987000000201, 39.875698 ], [ -76.715654000000214, 39.897702 ], [ -76.724000000000231, 39.927764 ], [ -76.748223000000252, 39.914199 ], [ -76.751631000000259, 39.923155 ], [ -76.7841200000003, 39.911784 ], [ -76.798350000000283, 39.922334 ], [ -76.797241000000312, 39.906592 ], [ -76.817097000000302, 39.894644 ], [ -76.877392000000427, 39.914548 ], [ -76.878615000000408, 39.923739 ], [ -76.905695000000478, 39.915846 ], [ -76.934045000000509, 39.878808 ], [ -76.9297990000005, 39.859264 ], [ -76.88990700000042, 39.864281 ], [ -76.895198000000434, 39.830701 ], [ -76.874147000000406, 39.820177 ], [ -76.91437900000048, 39.789506 ], [ -76.881100000000416, 39.7204 ], [ -79.056650000096042, 39.722768999999509 ] ] ] } },
{ "type": "Feature", "properties": { "district_id": 9, "voting_age_pop": 581924, "lib_votes": 0, "grn_votes": 0, "con_votes": 0, "ref_votes": 0, "total_pop": 751951, "dem_votes_sum": 213712, "rep_votes_sum": 180286, "lib_votes_sum": 0, "grn_votes_sum": 0, "con_votes_sum": 0, "ref_votes_sum": 0, "minority_pop_sum": 40300, "dem_pct": 0.54241899705074648, "rep_pct": 0.45758100294925352, "lib_pct": 0.0, "grn_pct": 0.0, "con_pct": 0.0, "ref_pct": 0.0, "minority_pct": 0.053593917688785575, "compactness": 0.22364271204952463 }, "geometry": { "type": "Polygon", "coordinates": [ [ [ -75.203997, 40.044553 ], [ -75.259621, 40.049238 ], [ -75.237735, 40.086152 ], [ -75.280444, 40.103591 ], [ -75.290002, 40.122831 ], [ -75.307074, 40.118099 ], [ -75.308071, 40.12937 ], [ -75.295839, 40.126466 ], [ -75.262237, 40.169014 ], [ -75.279318, 40.185719 ], [ -75.26024, 40.204238 ], [ -75.245748, 40.195646 ], [ -75.228353, 40.20833 ], [ -75.215675, 40.200479 ], [ -75.194073, 40.217079 ], [ -75.156647, 40.194684 ], [ -75.139374, 40.211853 ], [ -75.243171, 40.274395 ], [ -75.252887, 40.265137 ], [ -75.243414, 40.244971 ], [ -75.267354, 40.250677 ], [ -75.268748, 40.26081 ], [ -75.256058, 40.281818 ], [ -75.26432, 40.286836 ], [ -75.181369, 40.359386 ], [ -75.204357, 40.382727 ], [ -75.210644, 40.376442 ], [ -75.244761, 40.397942 ], [ -75.253743, 40.419621 ], [ -75.229141, 40.462801 ], [ -75.184625, 40.473282 ], [ -75.231134, 40.517162 ], [ -75.215606, 40.532706 ], [ -75.228019, 40.541736 ], [ -75.134995, 40.575662 ], [ -75.099827, 40.567398 ], [ -75.0681, 40.541488 ], [ -75.070678, 40.456794 ], [ -75.058575, 40.418193 ], [ -75.028633, 40.403971 ], [ -74.99586, 40.410384 ], [ -74.966552, 40.398154 ], [ -74.939711, 40.338006 ], [ -74.868208, 40.295206 ], [ -74.842308, 40.250508 ], [ -74.770706, 40.214908 ], [ -74.721576, 40.15404 ], [ -74.784168, 40.120477 ], [ -74.822531, 40.126844 ], [ -74.861756, 40.083462 ], [ -74.911189, 40.070262 ], [ -74.934827, 40.083624 ], [ -74.9561, 40.075696 ], [ -74.953567, 40.110965 ], [ -74.969118, 40.128755 ], [ -75.005391, 40.114802 ], [ -75.033263, 40.123385 ], [ -75.015066, 40.137992 ], [ -75.023279, 40.141654 ], [ -75.042315, 40.145416 ], [ -75.054717, 40.125223 ], [ -75.079442, 40.139165 ], [ -75.094791, 40.128229 ], [ -75.074097, 40.115313 ], [ -75.110158, 40.107507 ], [ -75.100344, 40.113042 ], [ -75.114397, 40.118074 ], [ -75.129027, 40.093502 ], [ -75.149139, 40.094837 ], [ -75.158417, 40.074169 ], [ -75.183016, 40.088505 ], [ -75.20079, 40.070707 ], [ -75.189423, 40.058417 ], [ -75.203997, 40.044553 ] ] ] } },
{ "type": "Feature", "properties": { "district_id": 10, "voting_age_pop": 567876, "lib_votes": 0, "grn_votes": 0, "con_votes": 0, "ref_votes": 0, "total_pop": 709869, "dem_votes_sum": 187206, "rep_votes_sum": 165867, "lib_votes_sum": 0, "grn_votes_sum": 0, "con_votes_sum": 0, "ref_votes_sum": 0, "minority_pop_sum": 69291, "dem_pct": 0.53021896321723838, "rep_pct": 0.46978103678276162, "lib_pct": 0.0, "grn_pct": 0.0, "con_pct": 0.0, "ref_pct": 0.0, "minority_pct": 0.097610967657412853, "compactness": 0.12259429691410186 }, "geometry": { "type": "Polygon", "coordinates": [ [ [ -80.11320900046897, 40.33818299999821 ], [ -80.107760000465049, 40.347730999998248 ], [ -80.098976000459686, 40.34062399999825 ], [ -80.061195000435717, 40.34967199999835 ], [ -80.097562000458069, 40.357909999998299 ], [ -80.087934000451611, 40.366477999998324 ], [ -80.097131000457068, 40.375518999998327 ], [ -80.073805000441823, 40.390783999998412 ], [ -80.079881000445226, 40.399871999998396 ], [ -80.066222000437008, 40.394548999998428 ], [ -80.056021000430448, 40.404200999998473 ], [ -80.091803000451833, 40.420087999998422 ], [ -80.099767000457263, 40.410981999998377 ], [ -80.134114000478704, 40.430619999998342 ], [ -80.170066000502999, 40.430630999998236 ], [ -80.172152000503175, 40.458322999998309 ], [ -80.192396000517263, 40.459286999998248 ], [ -80.196718000520022, 40.465552999998252 ], [ -80.209574000528875, 40.472489999998245 ], [ -80.212000000530509, 40.475193999998226 ], [ -80.201544000522745, 40.480240999998287 ], [ -80.204562000523396, 40.511753999998319 ], [ -80.220800000534837, 40.516427999998299 ], [ -80.240907000550351, 40.502484999998231 ], [ -80.259685000564033, 40.511106999998191 ], [ -80.269259000570173, 40.533639999998236 ], [ -80.251189000556252, 40.53721199999827 ], [ -80.257000000560353, 40.542967999998275 ], [ -80.235291000544365, 40.537971999998319 ], [ -80.240140000547356, 40.550235999998336 ], [ -80.222430000533606, 40.565019999998405 ], [ -80.235682000541317, 40.603866999998488 ], [ -80.212065000523495, 40.618661999998537 ], [ -80.206472000521032, 40.588164999998483 ], [ -80.180133000501627, 40.609396999998594 ], [ -80.144850000477689, 40.613473999998654 ], [ -80.148677000477463, 40.674378999998758 ], [ -80.11649800045673, 40.673826999998823 ], [ -80.129798000464859, 40.681832999998811 ], [ -80.125933000461714, 40.697492999998865 ], [ -80.101761000446203, 40.704026999998916 ], [ -80.107945000448311, 40.744867999998966 ], [ -80.059405000418963, 40.744995999999041 ], [ -80.071463000425211, 40.766575999999063 ], [ -80.060910000418659, 40.774533999999086 ], [ -80.063065000418206, 40.817259999999145 ], [ -80.028525000398432, 40.817015999999192 ], [ -80.0249500003968, 40.806820999999182 ], [ -79.970080000366778, 40.816365999999235 ], [ -79.972489000365528, 40.886678999999347 ], [ -79.922088000340096, 40.886693999999409 ], [ -79.944496000349616, 40.934013999999451 ], [ -79.90299000032941, 40.932523999999482 ], [ -79.90168400032799, 40.95720499999949 ], [ -79.784034000276165, 40.95629799999957 ], [ -79.78331800027776, 40.886283999999506 ], [ -79.691495000242199, 40.884892999999565 ], [ -79.691968000244032, 40.813359999999513 ], [ -79.783320000279701, 40.814701999999428 ], [ -79.78293900027866, 40.847378999999457 ], [ -79.875507000318805, 40.858809999999409 ], [ -79.87713000032528, 40.672308999999167 ], [ -79.924182000348154, 40.673020999999103 ], [ -79.892734000333462, 40.648727999999124 ], [ -79.881573000329027, 40.619414999999101 ], [ -79.968419000374155, 40.580023999998929 ], [ -79.957459000368388, 40.579470999998932 ], [ -79.958231000369665, 40.554263999998902 ], [ -79.93868000035944, 40.554046999998924 ], [ -79.949512000365814, 40.532660999998882 ], [ -79.937937000359526, 40.539595999998902 ], [ -79.945557000364502, 40.509140999998863 ], [ -79.931916000358569, 40.475216999998828 ], [ -79.942729000364295, 40.472128999998802 ], [ -79.930074000357962, 40.464504999998816 ], [ -79.947309000367142, 40.458510999998786 ], [ -79.953572000371537, 40.425669999998725 ], [ -79.921112000355208, 40.408297999998751 ], [ -79.933008000361696, 40.397630999998704 ], [ -79.917786000354155, 40.388002999998754 ], [ -79.920307000355891, 40.374227999998702 ], [ -79.890675000340934, 40.376079999998765 ], [ -79.885096000338649, 40.360251999998759 ], [ -79.951536000373096, 40.347731999998608 ], [ -79.969936000383612, 40.330574999998539 ], [ -79.972655000384847, 40.338427999998551 ], [ -79.985355000392047, 40.333425999998497 ], [ -79.999123000398228, 40.377343999998565 ], [ -80.009643000404807, 40.360266999998501 ], [ -80.030634000417038, 40.359101999998458 ], [ -80.030802000417893, 40.33876799999841 ], [ -80.001323000401044, 40.333291999998472 ], [ -80.016248000410442, 40.310652999998403 ], [ -80.042980000425416, 40.331181999998371 ], [ -80.072174000443709, 40.318513999998281 ], [ -80.078036000446488, 40.340280999998306 ], [ -80.11320900046897, 40.33818299999821 ] ] ] } },
{ "type": "Feature", "properties": { "district_id": 11, "voting_age_pop": 570162, "lib_votes": 0, "grn_votes": 0, "con_votes": 0, "ref_votes": 0, "total_pop": 741878, "dem_votes_sum": 189005, "rep_votes_sum": 174831, "lib_votes_sum": 0, "grn_votes_sum": 0, "con_votes_sum": 0, "ref_votes_sum": 0, "minority_pop_sum": 45750, "dem_pct": 0.51947855627260631, "rep_pct": 0.48052144372739364, "lib_pct": 0.0, "grn_pct": 0.0, "con_pct": 0.0, "ref_pct": 0.0, "minority_pct": 0.061667821393814076, "compactness": 0.22249703226362919 }, "geometry": { "type": "Polygon", "coordinates": [ [ [ -75.551887, 40.0558 ], [ -75.531514, 40.05927 ], [ -75.535609, 40.073741 ], [ -75.496405, 40.083588 ], [ -75.564352, 40.131439 ], [ -75.582941, 40.131979 ], [ -75.606336, 40.108208 ], [ -75.62753, 40.120798 ], [ -75.6381, 40.109734 ], [ -75.642582, 40.120978 ], [ -75.663479, 40.119581 ], [ -75.637424, 40.152767 ], [ -75.666089, 40.158564 ], [ -75.641084, 40.183399 ], [ -75.678546, 40.202253 ], [ -75.660309, 40.21132 ], [ -75.658923, 40.239398 ], [ -75.676059, 40.242551 ], [ -75.668389, 40.259331 ], [ -75.678098, 40.258148 ], [ -75.665536, 40.267741 ], [ -75.650867, 40.263389 ], [ -75.664596, 40.281018 ], [ -75.645217, 40.304945 ], [ -75.619757, 40.304224 ], [ -75.606686, 40.3154 ], [ -75.599192, 40.307293 ], [ -75.535982, 40.381736 ], [ -75.569274, 40.397892 ], [ -75.456642, 40.517174 ], [ -75.436862, 40.504865 ], [ -75.415839, 40.535633 ], [ -75.391096, 40.527106 ], [ -75.385422, 40.515944 ], [ -75.403905, 40.515321 ], [ -75.401782, 40.501308 ], [ -75.388292, 40.501697 ], [ -75.408763, 40.488601 ], [ -75.380812, 40.48154 ], [ -75.332683, 40.49013 ], [ -75.331409, 40.537027 ], [ -75.314247, 40.548832 ], [ -75.278178, 40.544518 ], [ -75.254471, 40.519614 ], [ -75.217304, 40.512595 ], [ -75.184625, 40.473282 ], [ -75.226578, 40.464358 ], [ -75.254862, 40.433431 ], [ -75.244761, 40.397942 ], [ -75.210644, 40.376442 ], [ -75.204357, 40.382727 ], [ -75.181369, 40.359386 ], [ -75.26432, 40.286836 ], [ -75.267354, 40.250677 ], [ -75.243414, 40.244971 ], [ -75.252887, 40.265137 ], [ -75.243171, 40.274395 ], [ -75.139374, 40.211853 ], [ -75.156647, 40.194684 ], [ -75.194073, 40.217079 ], [ -75.215675, 40.200479 ], [ -75.228353, 40.20833 ], [ -75.245748, 40.195646 ], [ -75.26024, 40.204238 ], [ -75.278478, 40.18707 ], [ -75.262237, 40.169014 ], [ -75.295839, 40.126466 ], [ -75.308071, 40.12937 ], [ -75.307074, 40.118099 ], [ -75.290002, 40.122831 ], [ -75.280444, 40.103591 ], [ -75.237735, 40.086152 ], [ -75.264431, 40.054094 ], [ -75.254226, 40.045689 ], [ -75.280335, 40.022947 ], [ -75.272925, 40.012975 ], [ -75.285062, 40.00573 ], [ -75.273436, 40.002307 ], [ -75.298637, 39.993636 ], [ -75.293871, 39.983267 ], [ -75.309596, 40.000171 ], [ -75.322319, 39.994531 ], [ -75.343076, 40.004994 ], [ -75.378204, 39.98394 ], [ -75.40073, 39.986742 ], [ -75.39796, 39.970031 ], [ -75.414139, 39.95891 ], [ -75.436055, 39.984948 ], [ -75.473493, 39.96752 ], [ -75.508196, 40.000062 ], [ -75.494447, 40.013153 ], [ -75.502524, 40.036746 ], [ -75.551887, 40.0558 ] ] ] } },
{ "type": "Feature", "properties": { "district_id": 12, "voting_age_pop": 621754, "lib_votes": 0, "grn_votes": 0, "con_votes": 0, "ref_votes": 0, "total_pop": 771544, "dem_votes_sum": 139698, "rep_votes_sum": 191032, "lib_votes_sum": 0, "grn_votes_sum": 0, "con_votes_sum": 0, "ref_votes_sum": 0, "minority_pop_sum": 27035, "dem_pct": 0.42239288845886375, "rep_pct": 0.57760711154113631, "lib_pct": 0.0, "grn_pct": 0.0, "con_pct": 0.0, "ref_pct": 0.0, "minority_pct": 0.035040127329095942, "compactness": 0.15325344497666935 }, "geometry": { "type": "Polygon", "coordinates": [ [ [ -79.857284000322068, 40.467827999998946 ], [ -79.907922000346829, 40.46159999999886 ], [ -79.906923000345515, 40.487097999998888 ], [ -79.917249000350637, 40.48925799999887 ], [ -79.931916000358569, 40.475216999998828 ], [ -79.945557000364502, 40.509140999998863 ], [ -79.938033000360278, 40.519326999998889 ], [ -79.936640000359802, 40.512127999998874 ], [ -79.937937000359526, 40.539595999998902 ], [ -79.938009000359656, 40.537188999998911 ], [ -79.942770000362131, 40.537103999998891 ], [ -79.944965000363382, 40.53392799999888 ], [ -79.948494000365287, 40.532077999998876 ], [ -79.949512000365814, 40.532660999998882 ], [ -79.93868000035944, 40.554046999998924 ], [ -79.958231000369665, 40.554263999998902 ], [ -79.957459000368388, 40.579470999998932 ], [ -79.968419000374155, 40.580023999998929 ], [ -79.881573000329027, 40.619414999999101 ], [ -79.892734000333462, 40.648727999999124 ], [ -79.924182000348154, 40.673020999999103 ], [ -79.87713000032528, 40.672308999999167 ], [ -79.875507000318805, 40.858809999999409 ], [ -79.78293900027866, 40.847378999999457 ], [ -79.783320000279701, 40.814701999999428 ], [ -79.601401000212775, 40.805678999999564 ], [ -79.614529000215256, 40.894084999999606 ], [ -79.483507000175621, 40.893083999999668 ], [ -79.480562000175141, 40.871953999999668 ], [ -79.372604000147874, 40.84040899999971 ], [ -79.366028000145093, 40.928017999999753 ], [ -79.293730000128917, 40.929406999999799 ], [ -79.268395000123789, 40.917176999999775 ], [ -79.249715000119863, 40.929817999999784 ], [ -79.246574000119367, 40.917906999999801 ], [ -79.215310000113362, 40.911345999999803 ], [ -79.102155000093575, 40.910204999999834 ], [ -79.101106000094035, 40.839043999999809 ], [ -78.992966000077885, 40.837568999999853 ], [ -78.993168000078029, 40.820272999999837 ], [ -78.928640000069521, 40.829160999999857 ], [ -78.925544000069195, 40.817099999999847 ], [ -78.903317000066494, 40.815939999999856 ], [ -78.89112300006407, 40.972361 ], [ -78.80403900005463, 40.972823 ], [ -78.804047000054524, 40.993855 ], [ -78.707530000045494, 40.993231 ], [ -78.681859000043289, 41.000193 ], [ -78.683682000043305, 41.03156 ], [ -78.661031000041476, 41.031302 ], [ -78.65604000004096, 41.053999 ], [ -78.583488000035587, 41.052768 ], [ -78.569508000034304, 41.148551 ], [ -78.485207000029007, 41.147975 ], [ -78.484712000028679, 41.24394 ], [ -78.236817000017069, 41.230475 ], [ -78.236210000017337, 41.077166 ], [ -78.212866000016461, 41.060503 ], [ -78.152820000014444, 41.055205 ], [ -78.117573000013323, 41.070501 ], [ -78.120709000013363, 41.09927 ], [ -78.112867000013182, 41.081886 ], [ -78.093923000012609, 41.075873 ], [ -78.111203000013077, 41.115418 ], [ -78.070371000011917, 41.121966 ], [ -78.037672000011014, 41.153846 ], [ -78.004688000010219, 41.144123 ], [ -78.000753000010107, 41.16166 ], [ -77.970778000009389, 41.174697 ], [ -77.971751000009391, 41.205939 ], [ -77.959438000009101, 41.217497 ], [ -77.937090000008638, 41.210336 ], [ -77.937909000008645, 41.224841 ], [ -77.898195000007846, 41.252752 ], [ -77.892724000007789, 41.178259 ], [ -77.798560000006162, 41.18195 ], [ -77.789563000006055, 41.142127 ], [ -77.776813000005859, 41.145147 ], [ -77.74185200000538, 41.107547 ], [ -77.663310000004387, 41.108845 ], [ -77.561994000003352, 41.057705 ], [ -77.514416000002939, 41.080721 ], [ -77.452144000002463, 41.00883 ], [ -77.517597000003008, 40.973437 ], [ -77.558664000003333, 41.021316 ], [ -77.637575000004162, 40.963213 ], [ -77.710498000005046, 40.928903 ], [ -77.730758000005309, 40.950441 ], [ -77.812635000006566, 40.91897 ], [ -77.789634000006203, 40.8835 ], [ -77.828168000006826, 40.8537 ], [ -77.8192460000067, 40.838838 ], [ -77.843239000007145, 40.824424 ], [ -77.825208000006853, 40.800152 ], [ -77.80251000000645, 40.795109 ], [ -77.802580000006444, 40.808987 ], [ -77.78060300000611, 40.812338 ], [ -77.781742000006133, 40.791015 ], [ -77.853215000007353, 40.767823 ], [ -77.831430000006975, 40.741116 ], [ -77.894309000008164, 40.716159 ], [ -77.883300000008006, 40.649209 ], [ -77.817115000006837, 40.582892 ], [ -77.873418000007902, 40.515951 ], [ -77.907084000008538, 40.561073 ], [ -77.958930000009687, 40.538182 ], [ -77.976155000010138, 40.504063 ], [ -78.001912000010776, 40.482542 ], [ -77.997313000010649, 40.493693 ], [ -78.016515000011168, 40.484405 ], [ -78.006028000010872, 40.496387 ], [ -78.025886000011383, 40.501621 ], [ -78.026109000011374, 40.516695 ], [ -78.055590000012202, 40.489236 ], [ -78.129768000014451, 40.493666 ], [ -78.189163000016634, 40.395519 ], [ -78.290803000020702, 40.418078 ], [ -78.272917000019888, 40.4469 ], [ -78.307261000021313, 40.49383 ], [ -78.260966000019238, 40.520685 ], [ -78.270066000019611, 40.530199 ], [ -78.354340000023555, 40.485577 ], [ -78.355536000023676, 40.45463 ], [ -78.372234000024562, 40.433625 ], [ -78.395449000025735, 40.450269 ], [ -78.420849000027175, 40.429053 ], [ -78.440620000028304, 40.428374 ], [ -78.434217000027942, 40.420484 ], [ -78.539083000034765, 40.345765999999877 ], [ -78.601852000039358, 40.353203999999877 ], [ -78.620288000040873, 40.327160999999862 ], [ -78.680148000045776, 40.355151999999848 ], [ -78.688858000046466, 40.376524999999859 ], [ -78.722690000049653, 40.352940999999838 ], [ -78.71091900004869, 40.324131999999835 ], [ -78.727410000050241, 40.318608999999832 ], [ -78.74526100005194, 40.330434999999824 ], [ -78.738299000051342, 40.311529999999827 ], [ -78.74998500005249, 40.307963999999821 ], [ -78.76443200005383, 40.33055199999982 ], [ -78.748499000052234, 40.332245999999827 ], [ -78.786166000055971, 40.349095999999811 ], [ -78.785090000055746, 40.370598999999821 ], [ -78.825002000060095, 40.360778999999802 ], [ -78.819154000059385, 40.370656999999802 ], [ -78.85027600006282, 40.382476999999803 ], [ -78.880621000066455, 40.370931999999783 ], [ -78.881804000066722, 40.352527999999772 ], [ -78.833152000061148, 40.334288999999799 ], [ -78.864677000064816, 40.324435999999785 ], [ -78.881252000066738, 40.33740299999976 ], [ -78.922679000071994, 40.329010999999753 ], [ -78.925319000072236, 40.34074599999974 ], [ -78.94094100007446, 40.31648399999974 ], [ -78.915642000071173, 40.313214999999758 ], [ -78.940578000074538, 40.297917999999747 ], [ -78.924179000072428, 40.290438999999751 ], [ -78.927590000072911, 40.284208999999748 ], [ -79.055983000091487, 40.285088999999665 ], [ -79.036299000088178, 40.314582999999693 ], [ -79.088053000096352, 40.329352999999664 ], [ -79.118159000101059, 40.371380999999658 ], [ -79.222015000120663, 40.357547999999589 ], [ -79.220677000120247, 40.373435999999586 ], [ -79.258899000127911, 40.394812999999573 ], [ -79.300593000137098, 40.388217999999547 ], [ -79.266019000129276, 40.408821999999581 ], [ -79.270738000129967, 40.435419999999588 ], [ -79.282848000132489, 40.442768999999572 ], [ -79.300550000136525, 40.434677999999558 ], [ -79.299740000136026, 40.460126999999588 ], [ -79.328630000142709, 40.452550999999545 ], [ -79.337683000144608, 40.469045999999537 ], [ -79.299605000135728, 40.482756999999573 ], [ -79.299577000135429, 40.504637999999602 ], [ -79.376364000153046, 40.536029999999549 ], [ -79.395767000158045, 40.526517999999534 ], [ -79.410795000162324, 40.498624999999485 ], [ -79.402021000160133, 40.491756999999502 ], [ -79.421744000165461, 40.480887999999489 ], [ -79.455291000174299, 40.497252999999489 ], [ -79.478795000180966, 40.492689999999449 ], [ -79.488635000184075, 40.476290999999421 ], [ -79.531524000196896, 40.474341999999396 ], [ -79.483367000183179, 40.438213999999398 ], [ -79.555136000205181, 40.424811999999328 ], [ -79.552460000205031, 40.388825999999298 ], [ -79.535188000199696, 40.38135199999931 ], [ -79.559330000207581, 40.369855999999274 ], [ -79.57220000021168, 40.374547999999251 ], [ -79.577521000213949, 40.346510999999225 ], [ -79.611399000225845, 40.325385999999177 ], [ -79.651637000239944, 40.335268999999123 ], [ -79.599380000220975, 40.361959999999215 ], [ -79.639310000234317, 40.390829999999184 ], [ -79.633947000232155, 40.4013349999992 ], [ -79.694174000254492, 40.396961999999114 ], [ -79.710605000260685, 40.4055819999991 ], [ -79.724820000266988, 40.376409999999055 ], [ -79.744931000274931, 40.385260999999041 ], [ -79.713143000260928, 40.436887999999129 ], [ -79.759719000279148, 40.460405999999089 ], [ -79.791754000291476, 40.507247999999088 ], [ -79.80674400029811, 40.503113999999051 ], [ -79.804662000297782, 40.481368999999049 ], [ -79.854074000320068, 40.484935999998974 ], [ -79.857284000322068, 40.467827999998946 ] ] ] } },
{ "type": "Feature", "properties": { "district_id": 13, "voting_age_pop": 585992, "lib_votes": 0, "grn_votes": 0, "con_votes": 0, "ref_votes": 0, "total_pop": 776910, "dem_votes_sum": 172120, "rep_votes_sum": 168537, "lib_votes_sum": 0, "grn_votes_sum": 0, "con_votes_sum": 0, "ref_votes_sum": 0, "minority_pop_sum": 35100, "dem_pct": 0.50525895548895228, "rep_pct": 0.49474104451104778, "lib_pct": 0.0, "grn_pct": 0.0, "con_pct": 0.0, "ref_pct": 0.0, "minority_pct": 0.045178978260030117, "compactness": 0.12933515331049827 }, "geometry": { "type": "MultiPolygon", "coordinates": [ [ [ [ -75.942032, 40.181309 ], [ -75.976665, 40.167432 ], [ -76.040262, 40.168653 ], [ -76.049036, 40.174844 ], [ -76.024194, 40.185645 ], [ -76.047093, 40.209037 ], [ -76.023694, 40.214264 ], [ -76.024791, 40.225866 ], [ -76.044985, 40.243868 ], [ -76.072844, 40.232965 ], [ -76.076298, 40.246545 ], [ -76.049489, 40.250634 ], [ -76.091764, 40.277692 ], [ -75.99311, 40.362197 ], [ -76.009313, 40.373548 ], [ -76.020136, 40.366968 ], [ -76.034603, 40.383805 ], [ -76.039212, 40.369919 ], [ -76.051114, 40.385369 ], [ -76.023879, 40.419597 ], [ -75.962103, 40.407991 ], [ -75.939152, 40.413408 ], [ -75.961597, 40.442404 ], [ -75.975485, 40.435276 ], [ -75.97153, 40.447168 ], [ -75.991191, 40.465379 ], [ -76.065213, 40.484869 ], [ -76.04818, 40.499327 ], [ -76.079566, 40.566077 ], [ -76.045004, 40.583793 ], [ -76.012226, 40.577713 ], [ -75.994592, 40.635531 ], [ -76.027819, 40.642366 ], [ -76.068869, 40.696574 ], [ -76.125185, 40.68576 ], [ -76.219678, 40.768637 ], [ -76.082774, 40.771401 ], [ -76.066832, 40.726195 ], [ -76.028402, 40.774631 ], [ -75.978845, 40.795515 ], [ -75.946721, 40.759233 ], [ -75.906193, 40.751653 ], [ -75.866119, 40.7216 ], [ -75.812481, 40.707265 ], [ -75.69938, 40.76612 ], [ -75.638591, 40.679682 ], [ -75.593794, 40.717149 ], [ -75.547101, 40.689532 ], [ -75.526622, 40.698331 ], [ -75.485981, 40.632192 ], [ -75.468709, 40.642218 ], [ -75.47128, 40.659449 ], [ -75.449527, 40.656173 ], [ -75.465152, 40.63567 ], [ -75.456106, 40.615825 ], [ -75.466842, 40.612901 ], [ -75.445859, 40.571342 ], [ -75.457987, 40.576088 ], [ -75.483233, 40.556663 ], [ -75.498894, 40.567795 ], [ -75.511464, 40.563559 ], [ -75.498413, 40.552029 ], [ -75.514736, 40.555366 ], [ -75.501434, 40.546841 ], [ -75.540551, 40.512654 ], [ -75.493012, 40.483109 ], [ -75.569274, 40.397892 ], [ -75.535982, 40.381736 ], [ -75.599192, 40.307293 ], [ -75.606686, 40.3154 ], [ -75.619757, 40.304224 ], [ -75.645217, 40.304945 ], [ -75.664596, 40.281018 ], [ -75.650867, 40.263389 ], [ -75.665536, 40.267741 ], [ -75.678098, 40.258148 ], [ -75.668389, 40.259331 ], [ -75.676059, 40.242551 ], [ -75.658923, 40.239398 ], [ -75.660309, 40.21132 ], [ -75.678546, 40.202253 ], [ -75.641084, 40.183399 ], [ -75.666089, 40.158564 ], [ -75.637424, 40.152767 ], [ -75.664651, 40.12146 ], [ -75.654099, 40.113841 ], [ -75.642582, 40.120978 ], [ -75.6381, 40.109734 ], [ -75.663767, 40.082377 ], [ -75.623426, 40.058929 ], [ -75.657987, 40.051129 ], [ -75.653103, 40.03854 ], [ -75.673653, 40.031918 ], [ -75.662503, 40.016609 ], [ -75.705542, 40.020341 ], [ -75.705148, 40.005906 ], [ -75.68422, 40.01644 ], [ -75.675758, 40.005376 ], [ -75.708953, 39.997259 ], [ -75.673158, 39.968516 ], [ -75.619556, 39.960654 ], [ -75.612339, 39.970084 ], [ -75.602735, 39.958085 ], [ -75.641257, 39.947083 ], [ -75.596808, 39.91082 ], [ -75.56258, 39.926259 ], [ -75.562539, 39.901638 ], [ -75.597914, 39.874464 ], [ -75.59488, 39.837525 ], [ -75.706239, 39.799658 ], [ -75.773786, 39.7222 ], [ -75.81208, 39.722182 ], [ -75.818238, 39.739119 ], [ -75.81213, 39.766032 ], [ -75.776489, 39.78079 ], [ -75.785846, 39.871695 ], [ -75.849008, 39.866506 ], [ -75.853072, 39.889229 ], [ -75.83532, 39.90079 ], [ -75.847073, 39.922886 ], [ -75.833675, 39.930791 ], [ -75.78764, 39.916068 ], [ -75.777465, 39.945091 ], [ -75.796488, 39.933545 ], [ -75.822821, 39.954939 ], [ -75.782235, 39.984228 ], [ -75.790152, 40.008933 ], [ -75.823841, 40.004886 ], [ -75.84572, 40.018246 ], [ -75.826401, 40.041335 ], [ -75.839168, 40.04139 ], [ -75.844149, 40.056763 ], [ -75.833661, 40.073448 ], [ -75.909426, 40.086749 ], [ -75.94216, 40.105159 ], [ -75.873375, 40.137107 ], [ -75.942032, 40.181309 ] ] ], [ [ [ -75.593099, 39.837723 ], [ -75.586449, 39.844343 ], [ -75.579926, 39.838862 ], [ -75.593099, 39.837723 ] ] ] ] } },
{ "type": "Feature", "properties": { "district_id": 14, "voting_age_pop": 585895, "lib_votes": 0, "grn_votes": 0, "con_votes": 0, "ref_votes": 0, "total_pop": 752365, "dem_votes_sum": 158679, "rep_votes_sum": 146450, "lib_votes_sum": 0, "grn_votes_sum": 0, "con_votes_sum": 0, "ref_votes_sum": 0, "minority_pop_sum": 43272, "dem_pct": 0.52003906544445133, "rep_pct": 0.47996093455554861, "lib_pct": 0.0, "grn_pct": 0.0, "con_pct": 0.0, "ref_pct": 0.0, "minority_pct": 0.057514637177433825, "compactness": 0.17510604863425219 }, "geometry": { "type": "Polygon", "coordinates": [ [ [ -75.417475, 40.534081 ], [ -75.435263, 40.521608 ], [ -75.43499, 40.505472 ], [ -75.456642, 40.517174 ], [ -75.493012, 40.483109 ], [ -75.540551, 40.512654 ], [ -75.501434, 40.546841 ], [ -75.514736, 40.555366 ], [ -75.498413, 40.552029 ], [ -75.511464, 40.563559 ], [ -75.498894, 40.567795 ], [ -75.483233, 40.556663 ], [ -75.457987, 40.576088 ], [ -75.445859, 40.571342 ], [ -75.466842, 40.612901 ], [ -75.456106, 40.615825 ], [ -75.465152, 40.63567 ], [ -75.449527, 40.656173 ], [ -75.47128, 40.659449 ], [ -75.468709, 40.642218 ], [ -75.485981, 40.632192 ], [ -75.526622, 40.698331 ], [ -75.547101, 40.689532 ], [ -75.593794, 40.717149 ], [ -75.638591, 40.679682 ], [ -75.69938, 40.76612 ], [ -75.807789, 40.707492 ], [ -75.82515, 40.707695 ], [ -75.905653, 40.751439 ], [ -75.947151, 40.759485 ], [ -75.969346, 40.797279 ], [ -75.906242, 40.833736 ], [ -75.926429, 40.851726 ], [ -75.799024, 40.904096 ], [ -75.754138, 40.879035 ], [ -75.737998, 40.888617 ], [ -75.728315, 40.875014 ], [ -75.696232, 40.8827 ], [ -75.715171, 40.91874 ], [ -75.683179, 40.925658 ], [ -75.655731, 40.94837 ], [ -75.657369, 40.934956 ], [ -75.640514, 40.938617 ], [ -75.638624, 40.899688 ], [ -75.650066, 40.887344 ], [ -75.556438, 40.928693 ], [ -75.57459, 40.951323 ], [ -75.49599, 40.987181 ], [ -75.620397, 41.109284 ], [ -75.646641, 41.113525 ], [ -75.649295, 41.124685 ], [ -75.625172, 41.130735 ], [ -75.55717, 41.209235 ], [ -75.628802, 41.269705 ], [ -75.553248, 41.272597 ], [ -75.55717, 41.33205 ], [ -75.512808, 41.33363 ], [ -75.485928, 41.313905 ], [ -75.476985, 41.322957 ], [ -75.443594, 41.303732 ], [ -75.452514, 41.479107 ], [ -75.331155, 41.483563 ], [ -75.334902, 41.537516 ], [ -75.388768, 41.551049 ], [ -75.457297, 41.546471 ], [ -75.459762, 41.595044 ], [ -75.328907, 41.600943 ], [ -75.345943, 41.672587 ], [ -75.312403, 41.673942 ], [ -75.320138, 41.770851 ], [ -75.286962, 41.772141 ], [ -75.21497, 41.867449 ], [ -75.185254, 41.85993 ], [ -75.174574, 41.87266 ], [ -75.162854, 41.850582 ], [ -75.117103, 41.845463 ], [ -75.113334, 41.822782 ], [ -75.072172, 41.813732 ], [ -75.10464, 41.774203 ], [ -75.064901, 41.766686 ], [ -75.053227, 41.751662 ], [ -75.049862, 41.713309 ], [ -75.06883, 41.708161 ], [ -75.052736, 41.688393 ], [ -75.044224, 41.617978 ], [ -75.074613, 41.605711 ], [ -75.018524, 41.551802 ], [ -75.024757, 41.535099 ], [ -75.00385, 41.524052 ], [ -75.003151, 41.508101 ], [ -74.984372, 41.506611 ], [ -74.983341, 41.480894 ], [ -74.912991, 41.475901 ], [ -74.890358, 41.455324 ], [ -74.892625, 41.438617 ], [ -74.858578, 41.444427 ], [ -74.830671, 41.430503 ], [ -74.807582, 41.442847 ], [ -74.790417, 41.42166 ], [ -74.738456, 41.430642 ], [ -74.738554, 41.401191 ], [ -74.689756, 41.361559 ], [ -74.753931, 41.346135 ], [ -74.771588, 41.325079 ], [ -74.794141, 41.321187 ], [ -74.792558, 41.310628 ], [ -74.830057, 41.2872 ], [ -74.857152, 41.248975 ], [ -74.882139, 41.180836 ], [ -74.923169, 41.138146 ], [ -74.982212, 41.108245 ], [ -74.991815, 41.089132 ], [ -74.969434, 41.096074 ], [ -74.969123, 41.086803 ], [ -75.012873, 41.066516 ], [ -75.025777, 41.039806 ], [ -75.131096, 40.990464 ], [ -75.134701, 40.972038 ], [ -75.120435, 40.968302 ], [ -75.051029, 40.865662 ], [ -75.066008, 40.847594 ], [ -75.095784, 40.847082 ], [ -75.083929, 40.824471 ], [ -75.108505, 40.791094 ], [ -75.1344, 40.77377 ], [ -75.171587, 40.777745 ], [ -75.196535, 40.751631 ], [ -75.182084, 40.731522 ], [ -75.203921, 40.691498 ], [ -75.176803, 40.675715 ], [ -75.200452, 40.649219 ], [ -75.188595, 40.623636 ], [ -75.201844, 40.615892 ], [ -75.194937, 40.577142 ], [ -75.166635, 40.564216 ], [ -75.228019, 40.541736 ], [ -75.215606, 40.532706 ], [ -75.240794, 40.513724 ], [ -75.278074, 40.544478 ], [ -75.314247, 40.548832 ], [ -75.331409, 40.537027 ], [ -75.332683, 40.49013 ], [ -75.394314, 40.479909 ], [ -75.408763, 40.488601 ], [ -75.388292, 40.501697 ], [ -75.401782, 40.501308 ], [ -75.403905, 40.515321 ], [ -75.386767, 40.520657 ], [ -75.417475, 40.534081 ] ] ] } },
{ "type": "Feature", "properties": { "district_id": 15, "voting_age_pop": 583718, "lib_votes": 0, "grn_votes": 0, "con_votes": 0, "ref_votes": 0, "total_pop": 732501, "dem_votes_sum": 155706, "rep_votes_sum": 137636, "lib_votes_sum": 0, "grn_votes_sum": 0, "con_votes_sum": 0, "ref_votes_sum": 0, "minority_pop_sum": 16938, "dem_pct": 0.53080022635694857, "rep_pct": 0.46919977364305143, "lib_pct": 0.0, "grn_pct": 0.0, "con_pct": 0.0, "ref_pct": 0.0, "minority_pct": 0.023123517920112056, "compactness": 0.28180589224620911 }, "geometry": { "type": "Polygon", "coordinates": [ [ [ -76.498456, 40.823897 ], [ -76.50578, 40.882382 ], [ -76.557378, 40.888894 ], [ -76.568111000000115, 40.915454 ], [ -76.557013000000111, 40.938617 ], [ -76.613182000000108, 40.951262 ], [ -76.619047000000123, 40.938446 ], [ -76.680725000000166, 40.932423 ], [ -76.652451000000156, 40.961643 ], [ -76.66647000000016, 40.976276 ], [ -76.572411000000116, 40.985021 ], [ -76.619992000000138, 41.061627 ], [ -76.640767000000139, 41.155718 ], [ -76.601171000000107, 41.157395 ], [ -76.607707000000119, 41.193406 ], [ -76.635400000000132, 41.227732 ], [ -76.625548000000137, 41.252303 ], [ -76.591732, 41.264852 ], [ -76.565024, 41.29905 ], [ -76.625428000000142, 41.321542 ], [ -76.713147000000177, 41.286198 ], [ -76.737518000000193, 41.330807 ], [ -76.693550000000187, 41.370176 ], [ -76.653403000000154, 41.448016 ], [ -76.529196, 41.453335 ], [ -76.500369, 41.462934 ], [ -76.497106, 41.482294 ], [ -76.393823, 41.443219 ], [ -76.390974, 41.50171 ], [ -76.3334, 41.489945 ], [ -76.316431, 41.515291 ], [ -76.317241, 41.549463 ], [ -76.469545, 41.561501 ], [ -76.545824, 41.693334 ], [ -76.524843, 41.694716 ], [ -76.524566, 41.723175 ], [ -76.416636, 41.725115 ], [ -76.42357, 41.748362 ], [ -76.390354, 41.772795 ], [ -76.371004, 41.767756 ], [ -76.314878, 41.807514 ], [ -76.311672, 41.821462 ], [ -76.222484, 41.825368 ], [ -76.228439, 41.917837 ], [ -76.25855, 41.92385 ], [ -76.264295, 41.998378 ], [ -75.341868, 41.993262 ], [ -75.342204, 41.972872 ], [ -75.279094, 41.938917 ], [ -75.262802, 41.866213 ], [ -75.240112, 41.866597 ], [ -75.223758, 41.84593 ], [ -75.248714, 41.835926 ], [ -75.286962, 41.772141 ], [ -75.320138, 41.770851 ], [ -75.312403, 41.673942 ], [ -75.345943, 41.672587 ], [ -75.328907, 41.600943 ], [ -75.459762, 41.595044 ], [ -75.457297, 41.546471 ], [ -75.388768, 41.551049 ], [ -75.334902, 41.537516 ], [ -75.331155, 41.483563 ], [ -75.452514, 41.479107 ], [ -75.443594, 41.303732 ], [ -75.476985, 41.322957 ], [ -75.485928, 41.313905 ], [ -75.512808, 41.33363 ], [ -75.55717, 41.33205 ], [ -75.553248, 41.272597 ], [ -75.628802, 41.269705 ], [ -75.55717, 41.209235 ], [ -75.625172, 41.130735 ], [ -75.649295, 41.124685 ], [ -75.646641, 41.113525 ], [ -75.620397, 41.109284 ], [ -75.49599, 40.987181 ], [ -75.57459, 40.951323 ], [ -75.556438, 40.928693 ], [ -75.650066, 40.887344 ], [ -75.638624, 40.899688 ], [ -75.640514, 40.938617 ], [ -75.657369, 40.934956 ], [ -75.655731, 40.94837 ], [ -75.683179, 40.925658 ], [ -75.714954, 40.919047 ], [ -75.696232, 40.8827 ], [ -75.728315, 40.875014 ], [ -75.737868, 40.888594 ], [ -75.754138, 40.879035 ], [ -75.798954, 40.904121 ], [ -75.926429, 40.851726 ], [ -75.906242, 40.833736 ], [ -75.945232, 40.804851 ], [ -75.978975, 40.796379 ], [ -75.973795, 40.811089 ], [ -76.020052, 40.794758 ], [ -76.040041, 40.811066 ], [ -76.029173, 40.831285 ], [ -76.049151, 40.833425 ], [ -76.036284, 40.838289 ], [ -76.044626, 40.850756 ], [ -75.957873, 40.878667 ], [ -75.997348, 40.912985 ], [ -76.02815, 40.901986 ], [ -76.207827, 40.94974 ], [ -76.284611, 40.883588 ], [ -76.2991, 40.831191 ], [ -76.322434, 40.854393 ], [ -76.498456, 40.823897 ] ] ] } },
{ "type": "Feature", "properties": { "district_id": 16, "voting_age_pop": 580415, "lib_votes": 0, "grn_votes": 0, "con_votes": 0, "ref_votes": 0, "total_pop": 737039, "dem_votes_sum": 99531, "rep_votes_sum": 173337, "lib_votes_sum": 0, "grn_votes_sum": 0, "con_votes_sum": 0, "ref_votes_sum": 0, "minority_pop_sum": 17382, "dem_pct": 0.36475878446721494, "rep_pct": 0.63524121553278512, "lib_pct": 0.0, "grn_pct": 0.0, "con_pct": 0.0, "ref_pct": 0.0, "minority_pct": 0.023583555279978401, "compactness": 0.18194601025135901 }, "geometry": { "type": "Polygon", "coordinates": [ [ [ -77.749714000005866, 40.381293 ], [ -77.721861000005433, 40.408542 ], [ -77.825866000007025, 40.492816 ], [ -77.815976000006856, 40.499785 ], [ -77.841827000007271, 40.550035 ], [ -77.817115000006837, 40.582892 ], [ -77.883300000008006, 40.649209 ], [ -77.894309000008164, 40.716159 ], [ -77.831430000006975, 40.741116 ], [ -77.853215000007353, 40.767823 ], [ -77.781742000006133, 40.791015 ], [ -77.78060300000611, 40.812338 ], [ -77.802580000006444, 40.808987 ], [ -77.80251000000645, 40.795109 ], [ -77.825208000006853, 40.800152 ], [ -77.843239000007145, 40.824424 ], [ -77.8192460000067, 40.838838 ], [ -77.828168000006826, 40.8537 ], [ -77.789634000006203, 40.8835 ], [ -77.812635000006566, 40.91897 ], [ -77.730758000005309, 40.950441 ], [ -77.710498000005046, 40.928903 ], [ -77.637575000004162, 40.963213 ], [ -77.558664000003333, 41.021316 ], [ -77.517597000003008, 40.973437 ], [ -77.452144000002463, 41.00883 ], [ -77.460243000002521, 41.027519 ], [ -77.514416000002939, 41.080721 ], [ -77.561994000003352, 41.057705 ], [ -77.663310000004387, 41.108845 ], [ -77.74185200000538, 41.107547 ], [ -77.776813000005859, 41.145147 ], [ -77.789563000006055, 41.142127 ], [ -77.798560000006162, 41.18195 ], [ -77.892724000007789, 41.178259 ], [ -77.898195000007846, 41.252752 ], [ -77.937909000008645, 41.224841 ], [ -77.937090000008638, 41.210336 ], [ -77.959438000009101, 41.217497 ], [ -77.971751000009391, 41.205939 ], [ -77.970778000009389, 41.174697 ], [ -78.000753000010107, 41.16166 ], [ -78.00356900001016, 41.144856 ], [ -78.038203000011023, 41.153633 ], [ -78.093381000012442, 41.216931 ], [ -78.096476000012302, 41.405403 ], [ -78.25366900001741, 41.404782 ], [ -78.244816000016996, 41.461489 ], [ -78.260707000017518, 41.490511 ], [ -78.245183000016922, 41.509521 ], [ -78.28024000001821, 41.537267 ], [ -78.292342000018579, 41.578955 ], [ -78.276454000017935, 41.601187 ], [ -78.256588000017189, 41.597279 ], [ -78.262069000017362, 41.61617 ], [ -78.445435000025512, 41.616654 ], [ -78.445226000025102, 41.763264 ], [ -78.550662000031068, 41.762703 ], [ -78.519785000029131, 41.778888 ], [ -78.551040000030952, 41.79382 ], [ -78.537882000030066, 41.820351 ], [ -78.547072000030568, 41.843392 ], [ -78.572612000032137, 41.848343 ], [ -78.551584000030772, 41.860418 ], [ -78.560480000031276, 41.880135 ], [ -78.532524000029554, 41.880306 ], [ -78.532624000029529, 41.895008 ], [ -78.460258000025519, 41.896005 ], [ -78.460484000025488, 41.910609 ], [ -78.425599000023738, 41.911296 ], [ -78.425750000023669, 41.941399 ], [ -78.442860000024538, 41.934199 ], [ -78.473425000026069, 41.945011 ], [ -78.480676000026506, 41.934128 ], [ -78.492035000027073, 41.947928 ], [ -78.512015000028185, 41.946645 ], [ -78.496194000027288, 41.953818 ], [ -78.502662000027627, 41.958168 ], [ -78.532971000029391, 41.948965 ], [ -78.534934000029452, 41.959611 ], [ -78.583749000032469, 41.955129 ], [ -78.594415000033109, 41.964376 ], [ -78.603716000033728, 41.956693 ], [ -78.61709200003456, 41.977109 ], [ -78.589463000032751, 41.975171 ], [ -78.571538000031509, 41.999935 ], [ -76.264295, 41.998378 ], [ -76.25855, 41.92385 ], [ -76.228439, 41.917837 ], [ -76.222484, 41.825368 ], [ -76.311672, 41.821462 ], [ -76.314878, 41.807514 ], [ -76.371004, 41.767756 ], [ -76.390354, 41.772795 ], [ -76.42357, 41.748362 ], [ -76.416636, 41.725115 ], [ -76.524566, 41.723175 ], [ -76.524843, 41.694716 ], [ -76.545824, 41.693334 ], [ -76.469545, 41.561501 ], [ -76.317241, 41.549463 ], [ -76.316431, 41.515291 ], [ -76.3334, 41.489945 ], [ -76.390974, 41.50171 ], [ -76.393823, 41.443219 ], [ -76.497106, 41.482294 ], [ -76.500369, 41.462934 ], [ -76.529196, 41.453335 ], [ -76.653403000000154, 41.448016 ], [ -76.693550000000187, 41.370176 ], [ -76.737518000000193, 41.330807 ], [ -76.713147000000177, 41.286198 ], [ -76.625428000000142, 41.321542 ], [ -76.565024, 41.29905 ], [ -76.591732, 41.264852 ], [ -76.625548000000137, 41.252303 ], [ -76.635400000000132, 41.227732 ], [ -76.607707000000119, 41.193406 ], [ -76.601171000000107, 41.157395 ], [ -76.640767000000139, 41.155718 ], [ -76.619992000000138, 41.061627 ], [ -76.572411000000116, 40.985021 ], [ -76.66647000000016, 40.976276 ], [ -76.652451000000156, 40.961643 ], [ -76.680725000000166, 40.932423 ], [ -76.619047000000123, 40.938446 ], [ -76.613182000000108, 40.951262 ], [ -76.557013000000111, 40.938617 ], [ -76.568111000000115, 40.915454 ], [ -76.557378, 40.888894 ], [ -76.504377, 40.881226 ], [ -76.498456, 40.823897 ], [ -76.322434, 40.854393 ], [ -76.2991, 40.831191 ], [ -76.284611, 40.883588 ], [ -76.207827, 40.94974 ], [ -76.02815, 40.901986 ], [ -75.997348, 40.912985 ], [ -75.957873, 40.878667 ], [ -76.044626, 40.850756 ], [ -76.036284, 40.838289 ], [ -76.049151, 40.833425 ], [ -76.029173, 40.831285 ], [ -76.040041, 40.811066 ], [ -76.020052, 40.794758 ], [ -75.974867, 40.811251 ], [ -75.978975, 40.796379 ], [ -75.966455, 40.790592 ], [ -75.976572, 40.786691 ], [ -75.978845, 40.795515 ], [ -76.028018, 40.774893 ], [ -76.066832, 40.726195 ], [ -76.082774, 40.771401 ], [ -76.219678, 40.768637 ], [ -76.125185, 40.68576 ], [ -76.068869, 40.696574 ], [ -76.027819, 40.642366 ], [ -75.994592, 40.635531 ], [ -76.012226, 40.577713 ], [ -76.065339, 40.579678 ], [ -76.07944, 40.566098 ], [ -76.24011, 40.520529 ], [ -76.298504, 40.622446 ], [ -76.335545, 40.611029 ], [ -76.380584, 40.637623 ], [ -76.359667, 40.64543 ], [ -76.374021, 40.671322 ], [ -76.456837, 40.631365 ], [ -76.609607000000125, 40.600932 ], [ -76.577073, 40.580677 ], [ -76.656232000000159, 40.565488 ], [ -76.661185000000174, 40.608485 ], [ -76.691875000000195, 40.572264 ], [ -76.673694000000182, 40.564594 ], [ -76.731964000000218, 40.551625 ], [ -76.870068000000387, 40.529851 ], [ -76.871797000000385, 40.548195 ], [ -76.910657000000441, 40.542663 ], [ -76.92552200000047, 40.558237 ], [ -76.948414000000511, 40.546022 ], [ -76.938431000000492, 40.538751 ], [ -76.963311000000544, 40.53623 ], [ -76.984389000000576, 40.514565 ], [ -76.953083000000518, 40.490621 ], [ -76.949319000000514, 40.469339 ], [ -77.003235000000629, 40.4268 ], [ -77.016270000000645, 40.425173 ], [ -77.026749000000692, 40.457302 ], [ -77.2198110000013, 40.37543 ], [ -77.207077000001263, 40.357684 ], [ -77.223780000001312, 40.346827 ], [ -77.229166000001342, 40.283744 ], [ -77.316471000001755, 40.26749 ], [ -77.33121000000186, 40.276418 ], [ -77.32663700000181, 40.292601 ], [ -77.420845000002416, 40.255368 ], [ -77.361236000002009, 40.305193 ], [ -77.366018000002057, 40.313569 ], [ -77.499899000003026, 40.238884 ], [ -77.580621000003745, 40.358556 ], [ -77.70303000000527, 40.263576 ], [ -77.749714000005866, 40.381293 ] ] ] } }
]
}
