{
"type": "FeatureCollection",
"name": "pennsylvania_optimized_districts_race",
"crs": { "type": "name", "properties": { "name": "urn:ogc:def:crs:OGC:1.3:CRS84" } },
"features": [
{ "type": "Feature", "properties": { "district_id": 0, "voting_age_pop": 592353, "lib_votes": 0, "grn_votes": 0, "con_votes": 0, "ref_votes": 0, "total_pop": 757805, "dem_votes_sum": 135382, "rep_votes_sum": 166243, "lib_votes_sum": 0, "grn_votes_sum": 0, "con_votes_sum": 0, "ref_votes_sum": 0, "minority_pop_sum": 25243, "dem_pct": 0.44884210526315788, "rep_pct": 0.55115789473684207, "lib_pct": 0.0, "grn_pct": 0.0, "con_pct": 0.0, "ref_pct": 0.0, "minority_pct": 0.033310680188175061, "compactness": 0.13254039541530557 }, "geometry": { "type": "Polygon", "coordinates": [ [ [ -80.103786000418935, 41.369077 ], [ -80.261567000519904, 41.367439 ], [ -80.263002000518227, 41.417000000000208 ], [ -80.321573000559809, 41.429270000000265 ], [ -80.325984000559856, 41.484262000000406 ], [ -80.278680000525583, 41.483528000000355 ], [ -80.27524000051821, 41.573180000000534 ], [ -80.374766000591492, 41.575159000000653 ], [ -80.387889000600509, 41.595542000000712 ], [ -80.409399000619004, 41.57622000000071 ], [ -80.519374000713796, 41.578470000000877 ], [ -80.519421000683181, 41.977523000002066 ], [ -80.328142000528587, 42.03669300000162 ], [ -80.188093000434918, 42.093991000001353 ], [ -80.15579700041522, 42.112771000001324 ], [ -80.13481800040168, 42.150735000001333 ], [ -80.115392000390329, 42.166711000001314 ], [ -80.07441300036848, 42.172452000001222 ], [ -80.084592000373846, 42.170632000001248 ], [ -80.072047000368002, 42.155472000001183 ], [ -80.128782000398445, 42.148736000001307 ], [ -80.151525000412789, 42.112702000001299 ], [ -80.099151000383216, 42.13070100000121 ], [ -80.078762000371626, 42.151536000001215 ], [ -80.058839000361658, 42.145813000001155 ], [ -79.874132000275338, 42.231618000000914 ], [ -79.762972000232907, 42.269271000000771 ], [ -79.761313000239568, 41.998808000000551 ], [ -75.890619, 41.998606 ], [ -75.884963, 41.891844 ], [ -75.932124, 41.888522 ], [ -75.927779, 41.842784 ], [ -76.024624, 41.837364 ], [ -76.023186, 41.826754 ], [ -76.045608, 41.82667 ], [ -76.035266, 41.912438 ], [ -76.137602, 41.91429 ], [ -76.123, 41.749367 ], [ -76.207859, 41.746146 ], [ -76.203963, 41.673079 ], [ -76.23433, 41.646236 ], [ -76.262063, 41.654205 ], [ -76.363604, 41.567919 ], [ -76.358907, 41.552722 ], [ -76.483539, 41.562633 ], [ -76.497106, 41.482294 ], [ -76.393823, 41.443219 ], [ -76.390974, 41.50171 ], [ -76.3334, 41.489945 ], [ -76.362478, 41.441108 ], [ -76.329793, 41.362996 ], [ -76.302745, 41.335883 ], [ -76.310133, 41.310199 ], [ -76.407934, 41.308418 ], [ -76.425818, 41.293552 ], [ -76.406745, 41.295789 ], [ -76.411128, 41.178443 ], [ -76.479508, 41.191735 ], [ -76.448957, 41.234569 ], [ -76.460762, 41.264848 ], [ -76.556594, 41.186412 ], [ -76.574374000000105, 41.215381 ], [ -76.525751, 41.289372 ], [ -76.625160000000122, 41.321481 ], [ -76.637553000000125, 41.309294 ], [ -76.677634000000154, 41.306687 ], [ -76.703952000000186, 41.285575 ], [ -76.737518000000193, 41.330807 ], [ -76.916660000000419, 41.334699 ], [ -76.912726000000404, 41.353815 ], [ -76.892703000000381, 41.352084 ], [ -76.855387000000334, 41.370115 ], [ -76.851052000000323, 41.3911 ], [ -76.828825000000307, 41.378074 ], [ -76.8271450000003, 41.411809 ], [ -76.897737000000376, 41.411711 ], [ -76.965440000000513, 41.430523 ], [ -77.093554000000779, 41.349492 ], [ -77.092060000000785, 41.319341 ], [ -77.052270000000689, 41.294764 ], [ -77.123915000000878, 41.269065 ], [ -77.11818500000085, 41.256388 ], [ -77.091863000000785, 41.241546 ], [ -77.091571000000798, 41.230083 ], [ -77.043008000000683, 41.239034 ], [ -77.037245000000667, 41.22851 ], [ -77.074744000000749, 41.219044 ], [ -77.085793000000777, 41.193148 ], [ -77.07632100000076, 41.171238 ], [ -77.224065000001218, 41.166882 ], [ -77.251966000001332, 41.153003 ], [ -77.319742000001654, 41.217962 ], [ -77.338459000001748, 41.213929 ], [ -77.329046000001682, 41.207342 ], [ -77.342735000001738, 41.195374 ], [ -77.331295000001703, 41.16755 ], [ -77.348464000001783, 41.17487 ], [ -77.363464000001855, 41.167468 ], [ -77.396517000002078, 41.210455 ], [ -77.344036000001765, 41.220533 ], [ -77.426929000002247, 41.277342 ], [ -77.278617000001461, 41.277901 ], [ -77.236314000001244, 41.355752 ], [ -77.260037000001347, 41.356067 ], [ -77.260513000001339, 41.38497 ], [ -77.292453000001487, 41.385192 ], [ -77.292259000001494, 41.399775 ], [ -77.323033000001629, 41.399619 ], [ -77.345103000001728, 41.412505 ], [ -77.388926000001987, 41.412914 ], [ -77.38673000000199, 41.345399 ], [ -77.472700000002547, 41.317584 ], [ -77.475809000002556, 41.338119 ], [ -77.53743800000305, 41.364803 ], [ -77.584671000003439, 41.441301 ], [ -77.59728200000356, 41.441056 ], [ -77.598129000003567, 41.478576 ], [ -77.765138000005507, 41.477477 ], [ -77.768501000005614, 41.353809 ], [ -77.839767000006717, 41.35323 ], [ -77.83963800000673, 41.344257 ], [ -77.8777090000074, 41.343403 ], [ -77.878192000007417, 41.329139 ], [ -77.9346850000085, 41.32893 ], [ -77.897376000007824, 41.257402 ], [ -77.892724000007789, 41.178259 ], [ -77.86245700000724, 41.179325 ], [ -77.786022000006028, 41.06879 ], [ -77.928244000008618, 40.998752 ], [ -77.985906000009948, 40.940322 ], [ -78.069760000012025, 41.013902 ], [ -78.080356000012287, 41.030783 ], [ -78.057554000011649, 41.036894 ], [ -78.059866000011695, 41.051911 ], [ -78.090525000012562, 41.05975 ], [ -78.111874000013117, 41.110971 ], [ -78.102854000012826, 41.121298 ], [ -78.070371000011917, 41.121966 ], [ -78.038203000011023, 41.153633 ], [ -78.093381000012442, 41.216931 ], [ -78.236831000017062, 41.230187 ], [ -78.236210000017337, 41.077166 ], [ -78.247016000017751, 41.067756 ], [ -78.235496000017321, 41.06249 ], [ -78.259616000018269, 41.050836 ], [ -78.268939000018761, 40.983564 ], [ -78.282810000019325, 40.9836 ], [ -78.283068000019355, 40.969287 ], [ -78.26876300001878, 40.969342 ], [ -78.269969000018932, 40.921341 ], [ -78.436984000026882, 40.912765 ], [ -78.434715000026841, 40.873416 ], [ -78.565913000035252, 40.785628 ], [ -78.627651000039634, 40.827569 ], [ -78.646325000041131, 40.815002 ], [ -78.664975000042617, 40.822731 ], [ -78.66885800004286, 40.841914 ], [ -78.687917000044436, 40.847703 ], [ -78.66137900004216, 40.864876 ], [ -78.709957000046145, 40.895783 ], [ -78.707441000045435, 41.000338 ], [ -78.681859000043289, 41.000193 ], [ -78.681449000042903, 41.086694 ], [ -78.749045000048753, 41.090484 ], [ -78.751099000048853, 41.104778 ], [ -78.804608000053904, 41.119643 ], [ -78.814053000054784, 41.132777 ], [ -78.814430000054756, 41.150486 ], [ -78.796809000053017, 41.146184 ], [ -78.781815000051409, 41.172508 ], [ -78.744385000047998, 41.157066 ], [ -78.757748000049318, 41.135607 ], [ -78.736772000047424, 41.135477 ], [ -78.74057200004782, 41.12465 ], [ -78.687881000043191, 41.139965 ], [ -78.699168000043969, 41.180497 ], [ -78.688409000042952, 41.207327 ], [ -78.710248000044785, 41.201859 ], [ -78.71005900004468, 41.230243 ], [ -78.738214000047108, 41.230672 ], [ -78.7352800000467, 41.262915 ], [ -78.862104000058764, 41.319301 ], [ -78.889704000061826, 41.31102 ], [ -78.888772000062261, 41.227999 ], [ -78.905417000064318, 41.197592 ], [ -78.96865500007226, 41.1664 ], [ -79.008760000077402, 41.189163 ], [ -79.059522000084584, 41.189042 ], [ -79.058261000083533, 41.2944 ], [ -79.209228000108055, 41.297372 ], [ -79.209050000107808, 41.317037 ], [ -79.225690000110816, 41.319948 ], [ -79.303968000126702, 41.27645 ], [ -79.325258000131811, 41.23012 ], [ -79.352570000138002, 41.214678 ], [ -79.389473000146339, 41.225015 ], [ -79.383850000145117, 41.217813999999898 ], [ -79.390459000146791, 41.209333999999878 ], [ -79.396057000147948, 41.222522 ], [ -79.371421000141879, 41.244481 ], [ -79.356348000137842, 41.288488 ], [ -79.4394190001575, 41.289593 ], [ -79.438855000156934, 41.315062 ], [ -79.478287000167072, 41.315291 ], [ -79.478140000166675, 41.335708 ], [ -79.54143000018405, 41.335951 ], [ -79.541474000184337, 41.321008 ], [ -79.604161000203092, 41.321478 ], [ -79.603417000200693, 41.426632 ], [ -79.641503000212708, 41.427119 ], [ -79.64386500021331, 41.434898 ], [ -79.635945000210612, 41.440614 ], [ -79.638151000211295, 41.442619 ], [ -79.685035000227515, 41.414311 ], [ -79.702614000233538, 41.418326 ], [ -79.684896000228079, 41.38909 ], [ -79.669806000222962, 41.387316 ], [ -79.678002000226201, 41.366586 ], [ -79.657215000219239, 41.36531 ], [ -79.664433000222658, 41.321267 ], [ -79.65520100021962, 41.317356 ], [ -79.679794000228398, 41.300209 ], [ -79.708125000238212, 41.305389 ], [ -79.714010000239981, 41.319338 ], [ -79.754253000254749, 41.323438 ], [ -79.757756000255839, 41.333071 ], [ -79.879835000306301, 41.324846 ], [ -79.884899000307755, 41.350532 ], [ -79.904679000316392, 41.359688 ], [ -79.936332000331319, 41.353535 ], [ -79.999779000362068, 41.369631 ], [ -79.999779000366942, 41.238652999999843 ], [ -80.105274000425524, 41.236750999999828 ], [ -80.095203000415026, 41.344472 ], [ -80.103786000418935, 41.369077 ] ] ] } },
{ "type": "Feature", "properties": { "district_id": 1, "voting_age_pop": 564728, "lib_votes": 0, "grn_votes": 0, "con_votes": 0, "ref_votes": 0, "total_pop": 744938, "dem_votes_sum": 316626, "rep_votes_sum": 37453, "lib_votes_sum": 0, "grn_votes_sum": 0, "con_votes_sum": 0, "ref_votes_sum": 0, "minority_pop_sum": 347577, "dem_pct": 0.89422417031227497, "rep_pct": 0.10577582968772506, "lib_pct": 0.0, "grn_pct": 0.0, "con_pct": 0.0, "ref_pct": 0.0, "minority_pct": 0.4665851386289866, "compactness": 0.21408606156882276 }, "geometry": { "type": "Polygon", "coordinates": [ [ [ -75.251438, 39.989504 ], [ -75.262378, 40.012073 ], [ -75.30147, 40.04098 ], [ -75.27936, 40.044401 ], [ -75.274031, 40.059295 ], [ -75.26386, 40.054557 ], [ -75.23585, 40.088089 ], [ -75.237757, 40.100561 ], [ -75.25275, 40.101652 ], [ -75.229526, 40.124716 ], [ -75.201466, 40.13125 ], [ -75.158368, 40.117026 ], [ -75.161915, 40.093066 ], [ -75.1554, 40.098618 ], [ -75.142209, 40.083715 ], [ -75.14156, 40.053599 ], [ -75.13366, 40.071272 ], [ -75.117181, 40.065256 ], [ -75.097709, 40.083809 ], [ -75.102413, 40.051792 ], [ -75.089246, 40.042252 ], [ -75.105848, 40.041902 ], [ -75.08508, 40.031266 ], [ -75.092729, 40.023597 ], [ -75.062689, 40.025209 ], [ -75.041267, 40.012714 ], [ -75.071264, 39.980493 ], [ -75.119491, 39.965372 ], [ -75.13547, 39.949183 ], [ -75.180223, 39.954472 ], [ -75.17191, 39.959288 ], [ -75.204417, 39.983169 ], [ -75.194714, 40.012137 ], [ -75.213637, 40.016718 ], [ -75.237331, 39.996128 ], [ -75.249999, 40.007764 ], [ -75.251438, 39.989504 ] ] ] } },
{ "type": "Feature", "properties": { "district_id": 2, "voting_age_pop": 598970, "lib_votes": 0, "grn_votes": 0, "con_votes": 0, "ref_votes": 0, "total_pop": 774682, "dem_votes_sum": 199774, "rep_votes_sum": 143317, "lib_votes_sum": 0, "grn_votes_sum": 0, "con_votes_sum": 0, "ref_votes_sum": 0, "minority_pop_sum": 74149, "dem_pct": 0.58227700522601877, "rep_pct": 0.41772299477398123, "lib_pct": 0.0, "grn_pct": 0.0, "con_pct": 0.0, "ref_pct": 0.0, "minority_pct": 0.095715403223516224, "compactness": 0.24659296532785607 }, "geometry": { "type": "Polygon", "coordinates": [ [ [ -75.041267, 40.012714 ], [ -75.105848, 40.041902 ], [ -75.089246, 40.042252 ], [ -75.102413, 40.051792 ], [ -75.090317, 40.075115 ], [ -75.099919, 40.084288 ], [ -75.061927, 40.130376 ], [ -75.050854, 40.127605 ], [ -75.047165, 40.142585 ], [ -75.017805, 40.157909 ], [ -75.047109, 40.162808 ], [ -75.031836, 40.192591 ], [ -74.98398, 40.19937 ], [ -74.979317, 40.219292 ], [ -75.029178, 40.219579 ], [ -75.019645, 40.228287 ], [ -75.032785, 40.236314 ], [ -75.022747, 40.246154 ], [ -75.008898, 40.237296 ], [ -75.008754, 40.250997 ], [ -75.033499, 40.25585 ], [ -75.078164, 40.209965 ], [ -75.0992, 40.211421 ], [ -75.0949, 40.228288 ], [ -75.124386, 40.24607 ], [ -75.143801, 40.238252 ], [ -75.150352, 40.248514 ], [ -75.137381, 40.253971 ], [ -75.152016, 40.262868 ], [ -75.123587, 40.308642 ], [ -75.078035, 40.328108 ], [ -75.095758, 40.338732 ], [ -75.081711, 40.352577 ], [ -75.097341, 40.365593 ], [ -75.113486, 40.349282 ], [ -75.132823, 40.354538 ], [ -75.102157, 40.377538 ], [ -75.091114, 40.403349 ], [ -75.063922, 40.387628 ], [ -75.041216, 40.410451 ], [ -75.025713, 40.403479 ], [ -74.993869, 40.410132 ], [ -74.964431, 40.395948 ], [ -74.939711, 40.338006 ], [ -74.868208, 40.295206 ], [ -74.842308, 40.250508 ], [ -74.770706, 40.214908 ], [ -74.721576, 40.15404 ], [ -74.784168, 40.120477 ], [ -74.822531, 40.126844 ], [ -74.861756, 40.083462 ], [ -74.935042, 40.067836 ], [ -75.013237, 40.020303 ], [ -75.041267, 40.012714 ] ] ] } },
{ "type": "Feature", "properties": { "district_id": 3, "voting_age_pop": 605533, "lib_votes": 0, "grn_votes": 0, "con_votes": 0, "ref_votes": 0, "total_pop": 757842, "dem_votes_sum": 207311, "rep_votes_sum": 174685, "lib_votes_sum": 0, "grn_votes_sum": 0, "con_votes_sum": 0, "ref_votes_sum": 0, "minority_pop_sum": 103591, "dem_pct": 0.54270463565063509, "rep_pct": 0.45729536434936491, "lib_pct": 0.0, "grn_pct": 0.0, "con_pct": 0.0, "ref_pct": 0.0, "minority_pct": 0.13669208093507618, "compactness": 0.15646391355474129 }, "geometry": { "type": "Polygon", "coordinates": [ [ [ -79.967852000378684, 40.440912999998723 ], [ -79.96480500037741, 40.430428999998696 ], [ -80.016290000405561, 40.443206999998601 ], [ -80.002123000396963, 40.458132999998675 ], [ -80.018348000405041, 40.489508999998691 ], [ -80.004195000396095, 40.514037999998749 ], [ -80.035040000413375, 40.523885999998711 ], [ -80.037408000413791, 40.548885999998738 ], [ -80.048880000420908, 40.538599999998716 ], [ -80.054925000424205, 40.546557999998711 ], [ -80.059652000426155, 40.567943999998739 ], [ -80.040915000415481, 40.557671999998746 ], [ -80.037599000413152, 40.56850999999876 ], [ -80.049522000420154, 40.567970999998771 ], [ -80.044286000416591, 40.580039999998789 ], [ -80.067875000429467, 40.608461999998795 ], [ -80.054087000420608, 40.625009999998838 ], [ -80.069839000429184, 40.644723999998845 ], [ -80.097169000445973, 40.641733999998806 ], [ -80.098575000445493, 40.67409399999886 ], [ -80.129742000464901, 40.680646999998828 ], [ -80.125933000461714, 40.697492999998865 ], [ -80.104387000447829, 40.703933999998895 ], [ -80.075301000430031, 40.704730999998944 ], [ -80.057209000419746, 40.692897999998955 ], [ -80.060397000418789, 40.764074999999046 ], [ -80.044194000409263, 40.766870999999085 ], [ -80.060928000418656, 40.774549999999074 ], [ -80.068087000418416, 40.884988999999258 ], [ -80.025982000394379, 40.885763999999284 ], [ -80.024788000393158, 40.900122999999326 ], [ -80.032465000396869, 40.914919999999341 ], [ -80.068892000417719, 40.913406999999303 ], [ -80.070113000416754, 40.954900999999374 ], [ -80.035321000396848, 40.956418999999393 ], [ -80.010259000382433, 40.972763999999451 ], [ -79.97718700036495, 40.971893999999473 ], [ -79.972370000365515, 40.885917999999357 ], [ -79.91353700033666, 40.863846999999375 ], [ -79.908523000333801, 40.878319999999391 ], [ -79.894912000327452, 40.872673999999392 ], [ -79.910472000334437, 40.8867199999994 ], [ -79.875938000318129, 40.886705999999428 ], [ -79.874557000319683, 40.816106999999349 ], [ -79.78346800027974, 40.814703999999423 ], [ -79.784525000282116, 40.742522999999352 ], [ -79.68999400024498, 40.741361999999427 ], [ -79.692615000247173, 40.688783999999394 ], [ -79.673243000239921, 40.694329999999404 ], [ -79.681116000243165, 40.67809799999938 ], [ -79.656769000234007, 40.694119999999437 ], [ -79.621814000221889, 40.69358299999945 ], [ -79.611030000218719, 40.669058999999443 ], [ -79.621150000222343, 40.659297999999431 ], [ -79.585741000210845, 40.646107999999444 ], [ -79.576526000207636, 40.658145999999462 ], [ -79.571486000205994, 40.658543999999473 ], [ -79.565635000204409, 40.644753999999466 ], [ -79.598111000215837, 40.598639999999385 ], [ -79.584915000211694, 40.587719999999393 ], [ -79.567863000206074, 40.594548999999425 ], [ -79.567562000206294, 40.578039999999412 ], [ -79.503858000186455, 40.596304999999489 ], [ -79.500896000185918, 40.576999999999472 ], [ -79.518093000191215, 40.565193999999451 ], [ -79.528603000194252, 40.572361999999451 ], [ -79.53703000019722, 40.550713999999431 ], [ -79.497092000185688, 40.525337999999429 ], [ -79.482591000181358, 40.534074999999469 ], [ -79.487298000182918, 40.521366999999444 ], [ -79.459265000175037, 40.519819999999491 ], [ -79.455291000174299, 40.497252999999489 ], [ -79.486327000183351, 40.48032599999943 ], [ -79.467627000178027, 40.478611999999451 ], [ -79.469932000178872, 40.466511999999433 ], [ -79.45168200017379, 40.46445099999945 ], [ -79.456207000175269, 40.451496999999435 ], [ -79.436550000170044, 40.441058999999449 ], [ -79.45286600017468, 40.429796999999439 ], [ -79.444574000172622, 40.415677999999424 ], [ -79.484631000183469, 40.442422999999394 ], [ -79.515990000192986, 40.428611999999369 ], [ -79.558437000205444, 40.469008999999353 ], [ -79.596101000218269, 40.441364999999287 ], [ -79.615158000224298, 40.465394999999276 ], [ -79.639122000232717, 40.463532999999245 ], [ -79.627852000228998, 40.450432999999251 ], [ -79.635429000232307, 40.42032799999923 ], [ -79.656276000239828, 40.419031999999191 ], [ -79.61246000022534, 40.368949999999202 ], [ -79.572612000212175, 40.353981999999242 ], [ -79.597940000221129, 40.328818999999186 ], [ -79.569618000211804, 40.322493999999232 ], [ -79.581984000216238, 40.304815999999192 ], [ -79.60135600022258, 40.315845999999183 ], [ -79.619714000229038, 40.310665999999159 ], [ -79.636882000234777, 40.327855999999137 ], [ -79.654039000241283, 40.313423999999088 ], [ -79.725340000268176, 40.335939999999006 ], [ -79.755830000280952, 40.324929999998943 ], [ -79.773390000288089, 40.33624999999892 ], [ -79.789512000295375, 40.324028999998873 ], [ -79.810262000304149, 40.339126999998882 ], [ -79.801104000299944, 40.344139999998887 ], [ -79.81223900030443, 40.360789999998914 ], [ -79.829180000312093, 40.361183999998879 ], [ -79.830473000312665, 40.362199999998865 ], [ -79.822011000308308, 40.380220999998897 ], [ -79.849553000321578, 40.360725999998827 ], [ -79.872660000331919, 40.382699999998806 ], [ -79.891307000341229, 40.376351999998761 ], [ -79.894152000342231, 40.389217999998792 ], [ -79.907151000348719, 40.389996999998765 ], [ -79.905882000346878, 40.427721999998809 ], [ -79.967852000378684, 40.440912999998723 ] ] ] } },
{ "type": "Feature", "properties": { "district_id": 4, "voting_age_pop": 573989, "lib_votes": 0, "grn_votes": 0, "con_votes": 0, "ref_votes": 0, "total_pop": 716019, "dem_votes_sum": 189304, "rep_votes_sum": 164736, "lib_votes_sum": 0, "grn_votes_sum": 0, "con_votes_sum": 0, "ref_votes_sum": 0, "minority_pop_sum": 62405, "dem_pct": 0.53469664444695519, "rep_pct": 0.46530335555304486, "lib_pct": 0.0, "grn_pct": 0.0, "con_pct": 0.0, "ref_pct": 0.0, "minority_pct": 0.087155508443211696, "compactness": 0.1318533616813633 }, "geometry": { "type": "Polygon", "coordinates": [ [ [ -80.214565000544638, 40.223615999997676 ], [ -80.186099000522276, 40.257605999997836 ], [ -80.217051000543677, 40.281110999997793 ], [ -80.201916000531256, 40.308688999997905 ], [ -80.187568000520983, 40.30799799999793 ], [ -80.171147000508427, 40.328898999998032 ], [ -80.287991000590964, 40.418483999997903 ], [ -80.290872000594049, 40.403839999997849 ], [ -80.327657000624299, 40.39882999999773 ], [ -80.306919000608843, 40.370266999997718 ], [ -80.286499000591931, 40.378632999997812 ], [ -80.280069000587645, 40.36408899999779 ], [ -80.328327000627681, 40.34960999999759 ], [ -80.345718000643814, 40.324525999997455 ], [ -80.376865000669767, 40.343889999997408 ], [ -80.360940000653727, 40.378755999997566 ], [ -80.338648000634393, 40.383404999997644 ], [ -80.360613000653274, 40.382112999997567 ], [ -80.339274000633765, 40.403797999997714 ], [ -80.36629700065491, 40.436814999997701 ], [ -80.361865000648621, 40.477570999997823 ], [ -80.437119000716081, 40.4777719999976 ], [ -80.43594300071355, 40.499485999997674 ], [ -80.449255000725771, 40.503777999997638 ], [ -80.45059800072373, 40.553164999997783 ], [ -80.372565000652827, 40.559803999998032 ], [ -80.320899000607199, 40.600999999998258 ], [ -80.301643000593387, 40.572241999998241 ], [ -80.247349000550628, 40.590421999998405 ], [ -80.214259000526937, 40.580859999998474 ], [ -80.180133000501627, 40.609396999998594 ], [ -80.158851000487189, 40.609315999998628 ], [ -80.133763000471575, 40.588241999998644 ], [ -80.151647000483521, 40.583995999998599 ], [ -80.123374000465702, 40.567744999998617 ], [ -80.133484000473501, 40.539860999998538 ], [ -80.062292000429821, 40.515436999998656 ], [ -80.063345000429806, 40.531700999998669 ], [ -80.037408000413791, 40.548885999998738 ], [ -80.035040000413375, 40.523885999998711 ], [ -80.004195000396095, 40.514037999998749 ], [ -80.018348000405041, 40.489508999998691 ], [ -80.002123000396963, 40.458132999998675 ], [ -80.016290000405561, 40.443206999998601 ], [ -79.96480500037741, 40.430428999998696 ], [ -79.967946000378717, 40.441146999998722 ], [ -79.953545000370937, 40.443174999998746 ], [ -79.905882000346878, 40.427721999998809 ], [ -79.907151000348719, 40.389996999998765 ], [ -79.894152000342231, 40.389217999998792 ], [ -79.891307000341229, 40.376351999998761 ], [ -79.866401000328992, 40.379856999998822 ], [ -79.854275000323781, 40.361011999998823 ], [ -79.822011000308308, 40.380220999998897 ], [ -79.830473000312665, 40.362199999998865 ], [ -79.81223900030443, 40.360789999998914 ], [ -79.801104000299944, 40.344139999998887 ], [ -79.810262000304149, 40.339126999998882 ], [ -79.789512000295375, 40.324028999998873 ], [ -79.772810000287848, 40.336319999998942 ], [ -79.755830000280952, 40.324929999998943 ], [ -79.74515000027624, 40.335969999998973 ], [ -79.694835000256347, 40.327840999999054 ], [ -79.701530000259339, 40.310689999999035 ], [ -79.713850000263918, 40.321759999999024 ], [ -79.763955000285293, 40.289663999998901 ], [ -79.704618000261007, 40.291380999999006 ], [ -79.719068000267839, 40.244197999998924 ], [ -79.762313000285559, 40.250094999998851 ], [ -79.777821000292803, 40.228252999998809 ], [ -79.839080000321005, 40.208449999998663 ], [ -79.854334000327668, 40.228693999998647 ], [ -79.931947000367046, 40.21637099999846 ], [ -79.951856000376864, 40.24089599999845 ], [ -79.970652000387446, 40.231397999998379 ], [ -79.985693000395244, 40.248683999998384 ], [ -80.008788000408344, 40.250293999998313 ], [ -79.996658000400046, 40.288074999998429 ], [ -80.00846500040636, 40.299223999998404 ], [ -80.041058000425593, 40.296398999998324 ], [ -80.052369000431639, 40.316982999998324 ], [ -80.067024000440725, 40.313589999998264 ], [ -80.05353800043325, 40.293979999998285 ], [ -80.072297000444564, 40.29934799999824 ], [ -80.083603000452428, 40.279421999998185 ], [ -80.106737000466737, 40.291351999998142 ], [ -80.115143000472358, 40.28838999999811 ], [ -80.104149000465313, 40.285342999998129 ], [ -80.110437000470526, 40.258459999998053 ], [ -80.086669000455473, 40.252386999998116 ], [ -80.106065000469258, 40.221295999997999 ], [ -80.189761000527326, 40.206157999997707 ], [ -80.214565000544638, 40.223615999997676 ] ] ] } },
{ "type": "Feature", "properties": { "district_id": 5, "voting_age_pop": 557379, "lib_votes": 0, "grn_votes": 0, "con_votes": 0, "ref_votes": 0, "total_pop": 724901, "dem_votes_sum": 196456, "rep_votes_sum": 174417, "lib_votes_sum": 0, "grn_votes_sum": 0, "con_votes_sum": 0, "ref_votes_sum": 0, "minority_pop_sum": 47416, "dem_pct": 0.52971232740048479, "rep_pct": 0.47028767259951521, "lib_pct": 0.0, "grn_pct": 0.0, "con_pct": 0.0, "ref_pct": 0.0, "minority_pct": 0.065410311201115734, "compactness": 0.17580017784086405 }, "geometry": { "type": "Polygon", "coordinates": [ [ [ -75.386245, 40.11979 ], [ -75.36347, 40.15102 ], [ -75.403099, 40.171637 ], [ -75.428667, 40.157841 ], [ -75.41922, 40.153867 ], [ -75.427855, 40.14495 ], [ -75.4075, 40.143389 ], [ -75.401413, 40.130875 ], [ -75.46218, 40.113469 ], [ -75.463509, 40.126149 ], [ -75.492577, 40.126141 ], [ -75.510388, 40.138295 ], [ -75.500801, 40.156522 ], [ -75.514298, 40.161587 ], [ -75.485059, 40.17166 ], [ -75.51191, 40.202671 ], [ -75.489976, 40.224649 ], [ -75.528524, 40.241114 ], [ -75.550629, 40.266252 ], [ -75.535695, 40.280511 ], [ -75.549652, 40.28901 ], [ -75.44565, 40.396154 ], [ -75.484057, 40.418451 ], [ -75.464294, 40.436908 ], [ -75.417179, 40.416627 ], [ -75.411284, 40.403016 ], [ -75.392879, 40.437067 ], [ -75.359599, 40.445519 ], [ -75.345707, 40.42721 ], [ -75.333576, 40.451618 ], [ -75.302507, 40.456815 ], [ -75.298854, 40.439419 ], [ -75.275855, 40.455294 ], [ -75.255218, 40.429114 ], [ -75.229141, 40.462801 ], [ -75.184625, 40.473282 ], [ -75.205423, 40.501379 ], [ -75.137594, 40.546158 ], [ -75.150378, 40.57061 ], [ -75.101742, 40.568225 ], [ -75.067512, 40.539959 ], [ -75.070608, 40.456196 ], [ -75.060065, 40.420319 ], [ -75.041216, 40.410451 ], [ -75.063922, 40.387628 ], [ -75.091114, 40.403349 ], [ -75.102157, 40.377538 ], [ -75.132823, 40.354538 ], [ -75.113486, 40.349282 ], [ -75.097341, 40.365593 ], [ -75.081711, 40.352577 ], [ -75.095758, 40.338732 ], [ -75.078035, 40.328108 ], [ -75.123443, 40.308825 ], [ -75.152016, 40.262868 ], [ -75.137381, 40.253971 ], [ -75.150352, 40.248514 ], [ -75.137168, 40.234473 ], [ -75.124386, 40.24607 ], [ -75.0949, 40.228288 ], [ -75.0992, 40.211421 ], [ -75.078164, 40.209965 ], [ -75.035346, 40.254944 ], [ -75.008754, 40.250997 ], [ -75.008898, 40.237296 ], [ -75.022747, 40.246154 ], [ -75.032785, 40.236314 ], [ -75.019645, 40.228287 ], [ -75.029178, 40.219579 ], [ -74.979317, 40.219292 ], [ -74.98398, 40.19937 ], [ -75.026102, 40.198224 ], [ -75.047109, 40.162808 ], [ -75.017805, 40.157909 ], [ -75.047165, 40.142585 ], [ -75.050854, 40.127605 ], [ -75.061927, 40.130376 ], [ -75.117181, 40.065256 ], [ -75.13366, 40.071272 ], [ -75.136693, 40.052981 ], [ -75.142209, 40.083715 ], [ -75.1554, 40.098618 ], [ -75.161915, 40.093066 ], [ -75.15257, 40.101608 ], [ -75.161758, 40.120914 ], [ -75.182074, 40.118941 ], [ -75.201466, 40.13125 ], [ -75.229526, 40.124716 ], [ -75.25275, 40.101652 ], [ -75.237757, 40.100561 ], [ -75.23585, 40.088089 ], [ -75.282683, 40.04323 ], [ -75.306693, 40.06512 ], [ -75.323163, 40.061791 ], [ -75.340801, 40.099358 ], [ -75.356909, 40.104105 ], [ -75.347487, 40.109508 ], [ -75.386245, 40.11979 ] ] ] } },
{ "type": "Feature", "properties": { "district_id": 6, "voting_age_pop": 557148, "lib_votes": 0, "grn_votes": 0, "con_votes": 0, "ref_votes": 0, "total_pop": 721102, "dem_votes_sum": 157720, "rep_votes_sum": 131688, "lib_votes_sum": 0, "grn_votes_sum": 0, "con_votes_sum": 0, "ref_votes_sum": 0, "minority_pop_sum": 43726, "dem_pct": 0.54497456877487838, "rep_pct": 0.45502543122512162, "lib_pct": 0.0, "grn_pct": 0.0, "con_pct": 0.0, "ref_pct": 0.0, "minority_pct": 0.060637746116360795, "compactness": 0.25955206947696963 }, "geometry": { "type": "MultiPolygon", "coordinates": [ [ [ [ -75.694308, 40.551149 ], [ -75.644889, 40.597599 ], [ -75.714826, 40.662506 ], [ -75.757807, 40.735414 ], [ -75.825475, 40.707777 ], [ -75.905653, 40.751439 ], [ -75.947151, 40.759485 ], [ -75.969346, 40.797279 ], [ -75.891671, 40.821083 ], [ -75.926429, 40.851726 ], [ -75.798954, 40.904121 ], [ -75.830722, 40.929681 ], [ -75.789378, 40.940722 ], [ -75.806038, 40.952633 ], [ -75.841544, 40.948583 ], [ -75.779633, 40.970597 ], [ -75.785623, 40.988972 ], [ -75.73193, 41.00822 ], [ -75.738479, 41.017157 ], [ -75.738035, 41.024339 ], [ -75.738951, 41.028292 ], [ -75.739786, 41.029736 ], [ -75.74126, 41.031213 ], [ -75.756339, 41.031543 ], [ -75.770117, 41.050094 ], [ -75.788431, 41.046857 ], [ -75.790876, 41.065129 ], [ -75.770032, 41.06575 ], [ -75.770253, 41.054868 ], [ -75.723749, 41.055661 ], [ -75.628837, 41.082997 ], [ -75.585545, 41.073828 ], [ -75.390979, 41.081805 ], [ -75.36595, 41.137778 ], [ -75.394103, 41.1653 ], [ -75.358927, 41.17244 ], [ -75.356314, 41.182622 ], [ -75.399403, 41.205584 ], [ -75.366949, 41.225974 ], [ -75.366447, 41.238768 ], [ -75.129721, 41.252101 ], [ -75.156507, 41.150341 ], [ -75.184651, 41.152713 ], [ -75.187117, 41.145075 ], [ -75.179603, 41.063032 ], [ -75.043421, 41.03049 ], [ -75.127196, 40.993954 ], [ -75.13564, 40.975993 ], [ -75.050839, 40.868067 ], [ -75.064328, 40.848338 ], [ -75.095784, 40.847082 ], [ -75.083929, 40.824471 ], [ -75.108505, 40.791094 ], [ -75.1344, 40.77377 ], [ -75.171587, 40.777745 ], [ -75.196535, 40.751631 ], [ -75.182084, 40.731522 ], [ -75.203921, 40.691498 ], [ -75.176803, 40.675715 ], [ -75.200452, 40.649219 ], [ -75.188579, 40.624628 ], [ -75.201812, 40.617188 ], [ -75.195496, 40.578627 ], [ -75.17238, 40.564333 ], [ -75.150378, 40.57061 ], [ -75.137594, 40.546158 ], [ -75.205423, 40.501379 ], [ -75.184625, 40.473282 ], [ -75.229141, 40.462801 ], [ -75.255218, 40.429114 ], [ -75.275855, 40.455294 ], [ -75.298854, 40.439419 ], [ -75.300375, 40.493455 ], [ -75.240794, 40.513724 ], [ -75.278178, 40.544518 ], [ -75.314247, 40.548832 ], [ -75.333048, 40.536767 ], [ -75.441851, 40.599996 ], [ -75.454848, 40.598933 ], [ -75.453424, 40.584848 ], [ -75.47699, 40.581967 ], [ -75.482433, 40.591072 ], [ -75.52181, 40.581135 ], [ -75.522459, 40.594972 ], [ -75.53262, 40.609551 ], [ -75.624391, 40.579967 ], [ -75.618201, 40.572621 ], [ -75.634021, 40.562317 ], [ -75.682238, 40.543638 ], [ -75.694308, 40.551149 ] ] ], [ [ [ -75.544343, 40.601856 ], [ -75.529586, 40.6027 ], [ -75.524927, 40.589338 ], [ -75.546506, 40.589972 ], [ -75.544343, 40.601856 ] ] ] ] } },
{ "type": "Feature", "properties": { "district_id": 7, "voting_age_pop": 567350, "lib_votes": 0, "grn_votes": 0, "con_votes": 0, "ref_votes": 0, "total_pop": 716545, "dem_votes_sum": 101728, "rep_votes_sum": 166357, "lib_votes_sum": 0, "grn_votes_sum": 0, "con_votes_sum": 0, "ref_votes_sum": 0, "minority_pop_sum": 18246, "dem_pct": 0.379461737881642, "rep_pct": 0.62053826211835794, "lib_pct": 0.0, "grn_pct": 0.0, "con_pct": 0.0, "ref_pct": 0.0, "minority_pct": 0.025463857817722542, "compactness": 0.14007131764346056 }, "geometry": { "type": "Polygon", "coordinates": [ [ [ -77.940602000009406, 40.389424 ], [ -77.911564000008667, 40.510117 ], [ -77.882119000008075, 40.507109 ], [ -77.841827000007271, 40.550035 ], [ -77.816757000006874, 40.500555 ], [ -77.721281000005348, 40.567767 ], [ -77.787734000006338, 40.612082 ], [ -77.68708000000484, 40.67675 ], [ -77.682275000004793, 40.685122 ], [ -77.703787000005065, 40.679936 ], [ -77.708356000005139, 40.690488 ], [ -77.676611000004712, 40.716452 ], [ -77.681334000004753, 40.729758 ], [ -77.699645000005006, 40.721023 ], [ -77.724462000005317, 40.784941 ], [ -77.793194000006324, 40.778586 ], [ -77.78060300000611, 40.812338 ], [ -77.802580000006444, 40.808987 ], [ -77.80251000000645, 40.795109 ], [ -77.825208000006853, 40.800152 ], [ -77.843239000007145, 40.824424 ], [ -77.835521000006992, 40.837145 ], [ -77.851923000007289, 40.838332 ], [ -77.928986000008734, 40.895074 ], [ -77.961646000009452, 40.90008 ], [ -77.975732000009728, 40.915751 ], [ -77.964234000009469, 40.92371 ], [ -77.985906000009948, 40.940322 ], [ -77.928244000008618, 40.998752 ], [ -77.786022000006028, 41.06879 ], [ -77.86245700000724, 41.179325 ], [ -77.892724000007789, 41.178259 ], [ -77.897376000007824, 41.257402 ], [ -77.9346850000085, 41.32893 ], [ -77.878192000007417, 41.329139 ], [ -77.8777090000074, 41.343403 ], [ -77.83963800000673, 41.344257 ], [ -77.839767000006717, 41.35323 ], [ -77.768501000005614, 41.353809 ], [ -77.765138000005507, 41.477477 ], [ -77.598129000003567, 41.478576 ], [ -77.59728200000356, 41.441056 ], [ -77.584671000003439, 41.441301 ], [ -77.53743800000305, 41.364803 ], [ -77.475809000002556, 41.338119 ], [ -77.472700000002547, 41.317584 ], [ -77.38673000000199, 41.345399 ], [ -77.388926000001987, 41.412914 ], [ -77.345103000001728, 41.412505 ], [ -77.323033000001629, 41.399619 ], [ -77.292259000001494, 41.399775 ], [ -77.292453000001487, 41.385192 ], [ -77.260513000001339, 41.38497 ], [ -77.260037000001347, 41.356067 ], [ -77.236314000001244, 41.355752 ], [ -77.278617000001461, 41.277901 ], [ -77.426929000002247, 41.277342 ], [ -77.344036000001765, 41.220533 ], [ -77.396517000002078, 41.210455 ], [ -77.363464000001855, 41.167468 ], [ -77.348464000001783, 41.17487 ], [ -77.331295000001703, 41.16755 ], [ -77.342735000001738, 41.195374 ], [ -77.329046000001682, 41.207342 ], [ -77.338459000001748, 41.213929 ], [ -77.319742000001654, 41.217962 ], [ -77.251966000001332, 41.153003 ], [ -77.224065000001218, 41.166882 ], [ -77.07632100000076, 41.171238 ], [ -77.085793000000777, 41.193148 ], [ -77.074744000000749, 41.219044 ], [ -77.037245000000667, 41.22851 ], [ -77.043008000000683, 41.239034 ], [ -77.091571000000798, 41.230083 ], [ -77.123915000000878, 41.269065 ], [ -77.052270000000689, 41.294764 ], [ -77.092060000000785, 41.319341 ], [ -77.093554000000779, 41.349492 ], [ -77.021510000000603, 41.398074 ], [ -76.965440000000513, 41.430523 ], [ -76.897737000000376, 41.411711 ], [ -76.8271450000003, 41.411809 ], [ -76.828825000000307, 41.378074 ], [ -76.851052000000323, 41.3911 ], [ -76.855387000000334, 41.370115 ], [ -76.892703000000381, 41.352084 ], [ -76.912726000000404, 41.353815 ], [ -76.916660000000419, 41.334699 ], [ -76.737518000000193, 41.330807 ], [ -76.713147000000177, 41.286198 ], [ -76.625428000000142, 41.321542 ], [ -76.525751, 41.289372 ], [ -76.574374000000105, 41.215381 ], [ -76.556594, 41.186412 ], [ -76.460762, 41.264848 ], [ -76.448957, 41.234569 ], [ -76.479508, 41.191735 ], [ -76.411128, 41.178443 ], [ -76.417645, 41.119624 ], [ -76.361863, 41.092086 ], [ -76.274553, 41.124363 ], [ -76.285234, 41.114809 ], [ -76.268766, 41.102182 ], [ -76.266951, 41.068593 ], [ -76.246622, 41.071713 ], [ -76.228987, 41.051671 ], [ -76.201396, 41.059639 ], [ -76.195951, 41.049022 ], [ -76.231643, 41.050107 ], [ -76.207827, 40.94974 ], [ -76.02815, 40.901986 ], [ -75.997348, 40.912985 ], [ -75.891671, 40.821083 ], [ -75.969346, 40.797279 ], [ -75.954347, 40.764473 ], [ -75.90546, 40.751356 ], [ -75.866413, 40.721744 ], [ -75.82454, 40.707588 ], [ -75.757807, 40.735414 ], [ -75.714826, 40.662506 ], [ -75.779302, 40.6047 ], [ -75.76674, 40.597033 ], [ -75.937243, 40.591501 ], [ -75.996233, 40.629971 ], [ -76.017294, 40.57424 ], [ -76.065339, 40.579678 ], [ -76.07944, 40.566098 ], [ -76.203562, 40.530527 ], [ -76.200314, 40.481338 ], [ -76.259328, 40.475339 ], [ -76.282612, 40.459131 ], [ -76.26237, 40.412114 ], [ -76.320974, 40.421866 ], [ -76.305852, 40.334371 ], [ -76.34311, 40.327304 ], [ -76.348761, 40.364321 ], [ -76.411613, 40.34042 ], [ -76.402771, 40.352196 ], [ -76.433655, 40.3556 ], [ -76.433248, 40.382642 ], [ -76.493489, 40.376522 ], [ -76.48752, 40.340245 ], [ -76.523935, 40.337308 ], [ -76.525576, 40.327468 ], [ -76.55506200000012, 40.321215 ], [ -76.561222000000114, 40.342442 ], [ -76.578984000000119, 40.340026 ], [ -76.600319000000127, 40.358511 ], [ -76.615467000000137, 40.34843 ], [ -76.61506300000012, 40.365506 ], [ -76.578555, 40.36864 ], [ -76.560321000000101, 40.395884 ], [ -76.544805, 40.393494 ], [ -76.550976, 40.384865 ], [ -76.52379, 40.36674 ], [ -76.502603, 40.390188 ], [ -76.517379, 40.408092 ], [ -76.619707000000133, 40.44554 ], [ -76.628700000000151, 40.463843 ], [ -76.667771000000187, 40.447888 ], [ -76.640473000000142, 40.377374 ], [ -76.705076000000204, 40.341616 ], [ -76.718866000000205, 40.373599 ], [ -76.759247000000258, 40.360274 ], [ -76.764724000000257, 40.376859 ], [ -76.786163000000272, 40.368183 ], [ -76.801337000000274, 40.400681 ], [ -76.922780000000472, 40.368969 ], [ -76.948680000000508, 40.39826 ], [ -76.930398000000466, 40.41158 ], [ -77.027007000000694, 40.380892 ], [ -77.037058000000712, 40.392977 ], [ -77.013125000000656, 40.402349 ], [ -77.014545000000652, 40.429213 ], [ -77.041165000000703, 40.474904 ], [ -76.953046000000526, 40.490572 ], [ -76.984661000000571, 40.515053 ], [ -76.988372000000581, 40.55747 ], [ -77.00674100000063, 40.560756 ], [ -77.118500000000921, 40.504764 ], [ -77.131338000000966, 40.504527 ], [ -77.13427300000096, 40.520009 ], [ -77.169960000001097, 40.562726 ], [ -77.268812000001489, 40.525769 ], [ -77.269478000001499, 40.612868 ], [ -77.18027800000111, 40.64571 ], [ -77.198923000001187, 40.682511 ], [ -77.30350900000164, 40.695424 ], [ -77.283913000001547, 40.703286 ], [ -77.291644000001568, 40.723885 ], [ -77.354097000001929, 40.701667 ], [ -77.355327000001907, 40.759414 ], [ -77.512352000003034, 40.690273 ], [ -77.468999000002682, 40.624746 ], [ -77.497760000002927, 40.609484 ], [ -77.497506000002943, 40.58174 ], [ -77.516022000003076, 40.569305 ], [ -77.611315000004012, 40.515017 ], [ -77.647750000004436, 40.532728 ], [ -77.657595000004548, 40.514245 ], [ -77.703885000005158, 40.520712 ], [ -77.72543000000546, 40.510562 ], [ -77.738812000005652, 40.498094 ], [ -77.734873000005592, 40.461055 ], [ -77.75799600000596, 40.438778 ], [ -77.825866000007025, 40.492816 ], [ -77.912185000008762, 40.408748 ], [ -77.913844000008794, 40.398679 ], [ -77.88771700000828, 40.391358 ], [ -77.940602000009406, 40.389424 ] ] ] } },
{ "type": "Feature", "properties": { "district_id": 8, "voting_age_pop": 562324, "lib_votes": 0, "grn_votes": 0, "con_votes": 0, "ref_votes": 0, "total_pop": 712918, "dem_votes_sum": 284085, "rep_votes_sum": 64467, "lib_votes_sum": 0, "grn_votes_sum": 0, "con_votes_sum": 0, "ref_votes_sum": 0, "minority_pop_sum": 294309, "dem_pct": 0.8150433794670523, "rep_pct": 0.18495662053294773, "lib_pct": 0.0, "grn_pct": 0.0, "con_pct": 0.0, "ref_pct": 0.0, "minority_pct": 0.41282307362137022, "compactness": 0.16267602829056044 }, "geometry": { "type": "Polygon", "coordinates": [ [ [ -75.290838, 39.926294 ], [ -75.299758, 39.904814 ], [ -75.313843, 39.916911 ], [ -75.310571, 39.930622 ], [ -75.330791, 39.93484 ], [ -75.328712, 39.949316 ], [ -75.346168, 39.941619 ], [ -75.363894, 39.959292 ], [ -75.391702, 39.950884 ], [ -75.377333, 39.970978 ], [ -75.387295, 39.977499 ], [ -75.39796, 39.970031 ], [ -75.407629, 39.996506 ], [ -75.383213, 40.001179 ], [ -75.406419, 40.030224 ], [ -75.393257, 40.037639 ], [ -75.365978, 40.038835 ], [ -75.347919, 40.026422 ], [ -75.35431, 40.011834 ], [ -75.324068, 40.017203 ], [ -75.32585, 40.007422 ], [ -75.315164, 40.023068 ], [ -75.287997, 40.028309 ], [ -75.251438, 39.989504 ], [ -75.249999, 40.007764 ], [ -75.237331, 39.996128 ], [ -75.213637, 40.016718 ], [ -75.194714, 40.012137 ], [ -75.204417, 39.983169 ], [ -75.17191, 39.959288 ], [ -75.180223, 39.954472 ], [ -75.13547, 39.949183 ], [ -75.128253, 39.913164 ], [ -75.143746, 39.884998 ], [ -75.187214, 39.881267 ], [ -75.228634, 39.85856 ], [ -75.286907, 39.848843 ], [ -75.27072, 39.852867 ], [ -75.294616, 39.866702 ], [ -75.253192, 39.885558 ], [ -75.246787, 39.916448 ], [ -75.281732, 39.943355 ], [ -75.301711, 39.935364 ], [ -75.290838, 39.926294 ] ] ] } },
{ "type": "Feature", "properties": { "district_id": 9, "voting_age_pop": 581712, "lib_votes": 0, "grn_votes": 0, "con_votes": 0, "ref_votes": 0, "total_pop": 760822, "dem_votes_sum": 209980, "rep_votes_sum": 170281, "lib_votes_sum": 0, "grn_votes_sum": 0, "con_votes_sum": 0, "ref_votes_sum": 0, "minority_pop_sum": 91913, "dem_pct": 0.55219967338222953, "rep_pct": 0.44780032661777042, "lib_pct": 0.0, "grn_pct": 0.0, "con_pct": 0.0, "ref_pct": 0.0, "minority_pct": 0.12080749505140492, "compactness": 0.1295839874266837 }, "geometry": { "type": "Polygon", "coordinates": [ [ [ -75.773786, 39.7222 ], [ -75.998358, 39.721765 ], [ -76.002697, 39.747881 ], [ -76.047922, 39.768085 ], [ -75.999458, 39.78307 ], [ -75.982371, 39.774127 ], [ -75.962182, 39.790869 ], [ -75.905417, 39.796897 ], [ -75.897077, 39.815697 ], [ -75.919946, 39.884007 ], [ -75.910318, 39.88642 ], [ -75.953718, 39.943923 ], [ -75.927199, 39.949313 ], [ -75.937932, 40.008669 ], [ -75.951398, 40.016421 ], [ -75.936677, 40.036392 ], [ -76.003106, 40.051612 ], [ -76.002546, 40.089417 ], [ -75.986108, 40.097681 ], [ -76.00485, 40.169801 ], [ -75.944085, 40.174401 ], [ -75.930221, 40.194268 ], [ -75.903408, 40.167254 ], [ -75.872485, 40.155953 ], [ -75.873375, 40.137107 ], [ -75.942997, 40.109266 ], [ -75.934332, 40.047566 ], [ -75.841363, 40.056936 ], [ -75.839168, 40.04139 ], [ -75.826401, 40.041335 ], [ -75.84572, 40.018246 ], [ -75.823841, 40.004886 ], [ -75.790152, 40.008933 ], [ -75.786943, 39.98806 ], [ -75.768516, 39.985321 ], [ -75.77008, 39.949306 ], [ -75.735142, 39.95783 ], [ -75.743809, 39.973155 ], [ -75.715345, 39.995422 ], [ -75.724024, 39.999126 ], [ -75.675758, 40.005376 ], [ -75.68422, 40.01644 ], [ -75.707853, 40.007769 ], [ -75.70809, 40.039348 ], [ -75.686377, 40.041277 ], [ -75.694863, 40.054196 ], [ -75.64875, 40.047753 ], [ -75.624315, 40.058994 ], [ -75.61333, 40.050536 ], [ -75.456624, 40.093854 ], [ -75.470697, 40.114865 ], [ -75.398785, 40.133434 ], [ -75.427855, 40.14495 ], [ -75.41922, 40.153867 ], [ -75.428667, 40.157841 ], [ -75.403099, 40.171637 ], [ -75.36347, 40.15102 ], [ -75.387944, 40.117868 ], [ -75.347487, 40.109508 ], [ -75.356909, 40.104105 ], [ -75.340801, 40.099358 ], [ -75.323163, 40.061791 ], [ -75.306693, 40.06512 ], [ -75.282683, 40.04323 ], [ -75.30147, 40.04098 ], [ -75.286678, 40.027387 ], [ -75.315164, 40.023068 ], [ -75.32585, 40.007422 ], [ -75.324068, 40.017203 ], [ -75.35431, 40.011834 ], [ -75.347919, 40.026422 ], [ -75.365978, 40.038835 ], [ -75.391095, 40.038334 ], [ -75.406419, 40.030224 ], [ -75.383213, 40.001179 ], [ -75.407629, 39.996506 ], [ -75.39796, 39.970031 ], [ -75.387295, 39.977499 ], [ -75.377333, 39.970978 ], [ -75.391602, 39.950769 ], [ -75.363894, 39.959292 ], [ -75.346168, 39.941619 ], [ -75.328712, 39.949316 ], [ -75.330791, 39.93484 ], [ -75.310571, 39.930622 ], [ -75.302817, 39.905998 ], [ -75.290838, 39.926294 ], [ -75.301711, 39.935364 ], [ -75.281732, 39.943355 ], [ -75.261452, 39.936956 ], [ -75.267609, 39.925549 ], [ -75.245119, 39.908747 ], [ -75.253192, 39.885558 ], [ -75.294616, 39.866702 ], [ -75.270799, 39.852296 ], [ -75.341766, 39.846082 ], [ -75.415062, 39.801919 ], [ -75.515564, 39.836361 ], [ -75.626124, 39.832308 ], [ -75.717931, 39.791548 ], [ -75.773786, 39.7222 ] ] ] } },
{ "type": "Feature", "properties": { "district_id": 10, "voting_age_pop": 562873, "lib_votes": 0, "grn_votes": 0, "con_votes": 0, "ref_votes": 0, "total_pop": 729012, "dem_votes_sum": 146467, "rep_votes_sum": 176334, "lib_votes_sum": 0, "grn_votes_sum": 0, "con_votes_sum": 0, "ref_votes_sum": 0, "minority_pop_sum": 69160, "dem_pct": 0.45373775174178521, "rep_pct": 0.54626224825821479, "lib_pct": 0.0, "grn_pct": 0.0, "con_pct": 0.0, "ref_pct": 0.0, "minority_pct": 0.094868122884122622, "compactness": 0.16273278206855796 }, "geometry": { "type": "Polygon", "coordinates": [ [ [ -76.800478000000311, 39.720592 ], [ -77.043449000000749, 39.719918 ], [ -77.076072000000863, 39.750797 ], [ -77.097135000000918, 39.753458 ], [ -77.099837000000917, 39.775408 ], [ -77.11287300000096, 39.769424 ], [ -77.185228000001203, 39.811601 ], [ -77.169667000001155, 39.839736 ], [ -77.111716000000953, 39.863521 ], [ -77.203559000001292, 39.847004 ], [ -77.223017000001377, 39.856847 ], [ -77.228473000001401, 39.876369 ], [ -77.222017000001372, 39.902376 ], [ -77.153757000001093, 39.928953 ], [ -77.11611900000095, 39.901513 ], [ -77.093505000000903, 39.907959 ], [ -77.082139000000865, 39.948151 ], [ -77.099126000000922, 39.947843 ], [ -77.067733000000814, 39.978695 ], [ -77.040584000000734, 39.985125 ], [ -77.041429000000733, 39.995913 ], [ -77.010512000000674, 40.000423 ], [ -77.026238000000703, 40.018378 ], [ -77.054401000000766, 40.023207 ], [ -77.007624000000661, 40.081372 ], [ -76.960917000000563, 40.106488 ], [ -76.986553000000598, 40.117774 ], [ -76.998198000000642, 40.153314 ], [ -77.012601000000657, 40.148421 ], [ -77.015262000000661, 40.161563 ], [ -77.06936700000081, 40.175033 ], [ -77.094131000000871, 40.160369 ], [ -77.119259000000937, 40.17158 ], [ -77.104290000000901, 40.194864 ], [ -77.036126000000706, 40.205158 ], [ -77.059042000000773, 40.238257 ], [ -77.005031000000642, 40.24671 ], [ -77.010421000000647, 40.274009 ], [ -76.98278500000059, 40.280782 ], [ -76.976861000000582, 40.309857 ], [ -76.939783000000503, 40.320062 ], [ -76.947666000000524, 40.351744 ], [ -77.102039000000872, 40.339655 ], [ -77.084972000000832, 40.366031 ], [ -77.091591000000847, 40.388658 ], [ -77.015014000000662, 40.43141 ], [ -77.013125000000656, 40.402349 ], [ -77.037058000000712, 40.392977 ], [ -77.027007000000694, 40.380892 ], [ -76.930398000000466, 40.41158 ], [ -76.948680000000508, 40.39826 ], [ -76.922780000000472, 40.368969 ], [ -76.801337000000274, 40.400681 ], [ -76.786163000000272, 40.368183 ], [ -76.764724000000257, 40.376859 ], [ -76.759247000000258, 40.360274 ], [ -76.718866000000205, 40.373599 ], [ -76.705076000000204, 40.341616 ], [ -76.640473000000142, 40.377374 ], [ -76.667771000000187, 40.447888 ], [ -76.628700000000151, 40.463843 ], [ -76.619707000000133, 40.44554 ], [ -76.517379, 40.408092 ], [ -76.502603, 40.390188 ], [ -76.531198000000103, 40.366603 ], [ -76.551336, 40.385445 ], [ -76.544805, 40.393494 ], [ -76.562455000000114, 40.395774 ], [ -76.578555, 40.36864 ], [ -76.614309000000134, 40.366406 ], [ -76.625538000000148, 40.339273 ], [ -76.611126000000141, 40.304464 ], [ -76.60779400000014, 40.320806 ], [ -76.592203000000112, 40.322638 ], [ -76.585125000000104, 40.31416 ], [ -76.59545700000011, 40.309244 ], [ -76.575364000000107, 40.291797 ], [ -76.555624, 40.295165 ], [ -76.558605000000114, 40.265929 ], [ -76.514258, 40.251902 ], [ -76.585696000000112, 40.237672 ], [ -76.566332000000116, 40.196324 ], [ -76.589777000000126, 40.189729 ], [ -76.576509000000115, 40.166474 ], [ -76.592602000000113, 40.152392 ], [ -76.582037000000128, 40.138122 ], [ -76.600717000000131, 40.138431 ], [ -76.591356000000104, 40.108426 ], [ -76.633030000000147, 40.057369 ], [ -76.659592000000174, 40.050912 ], [ -76.668487000000184, 40.031264 ], [ -76.646919000000153, 40.005283 ], [ -76.6947100000002, 39.982821 ], [ -76.679540000000188, 39.972445 ], [ -76.682128000000176, 39.937267 ], [ -76.613026000000119, 39.905297 ], [ -76.63741700000017, 39.914293 ], [ -76.656217000000169, 39.893209 ], [ -76.670407000000182, 39.906212 ], [ -76.69612500000018, 39.887979 ], [ -76.720651000000217, 39.899241 ], [ -76.72405900000021, 39.88848 ], [ -76.743414000000257, 39.896123 ], [ -76.741938000000232, 39.887052 ], [ -76.760003000000253, 39.88666 ], [ -76.745620000000258, 39.869276 ], [ -76.773917000000267, 39.843349 ], [ -76.740507000000235, 39.802211 ], [ -76.811470000000327, 39.743282 ], [ -76.800478000000311, 39.720592 ] ], [ [ -76.589856000000125, 40.144276 ], [ -76.590634000000122, 40.148809 ], [ -76.592105000000117, 40.148148 ], [ -76.589856000000125, 40.144276 ] ] ] } },
{ "type": "Feature", "properties": { "district_id": 11, "voting_age_pop": 581411, "lib_votes": 0, "grn_votes": 0, "con_votes": 0, "ref_votes": 0, "total_pop": 768190, "dem_votes_sum": 168781, "rep_votes_sum": 175982, "lib_votes_sum": 0, "grn_votes_sum": 0, "con_votes_sum": 0, "ref_votes_sum": 0, "minority_pop_sum": 31611, "dem_pct": 0.48955659395004686, "rep_pct": 0.5104434060499532, "lib_pct": 0.0, "grn_pct": 0.0, "con_pct": 0.0, "ref_pct": 0.0, "minority_pct": 0.041149975917416266, "compactness": 0.17806449480708691 }, "geometry": { "type": "Polygon", "coordinates": [ [ [ -76.001525, 40.171599 ], [ -75.998735, 40.141417 ], [ -76.059834, 40.137622 ], [ -76.103589, 40.194642 ], [ -76.073257, 40.20997 ], [ -76.095421, 40.223638 ], [ -76.076298, 40.246545 ], [ -76.043993, 40.247196 ], [ -76.023614, 40.27157 ], [ -76.019761, 40.28027 ], [ -76.037722, 40.281308 ], [ -76.049264, 40.304813 ], [ -76.032985, 40.31449 ], [ -76.010624, 40.310701 ], [ -76.008816, 40.324498 ], [ -75.977984, 40.323362 ], [ -75.972388, 40.338232 ], [ -75.983671, 40.340892 ], [ -75.941372, 40.36437 ], [ -75.955922, 40.371345 ], [ -75.952086, 40.382668 ], [ -75.995569, 40.36596 ], [ -76.009965, 40.37361 ], [ -76.020136, 40.366968 ], [ -76.03546, 40.383792 ], [ -76.03825, 40.369606 ], [ -76.057354, 40.398179 ], [ -76.075743, 40.396378 ], [ -76.117967, 40.426815 ], [ -76.131566, 40.413401 ], [ -76.165372, 40.419612 ], [ -76.173964, 40.399392 ], [ -76.181265, 40.409708 ], [ -76.26237, 40.412114 ], [ -76.282629, 40.459065 ], [ -76.259328, 40.475339 ], [ -76.200314, 40.481338 ], [ -76.203562, 40.530527 ], [ -76.07944, 40.566098 ], [ -76.065339, 40.579678 ], [ -76.017294, 40.57424 ], [ -75.996233, 40.629971 ], [ -75.937243, 40.591501 ], [ -75.76674, 40.597033 ], [ -75.779302, 40.6047 ], [ -75.714826, 40.662506 ], [ -75.644889, 40.597599 ], [ -75.694308, 40.551149 ], [ -75.682238, 40.543638 ], [ -75.634021, 40.562317 ], [ -75.618201, 40.572621 ], [ -75.624391, 40.579967 ], [ -75.531741, 40.609732 ], [ -75.52181, 40.581135 ], [ -75.482433, 40.591072 ], [ -75.47699, 40.581967 ], [ -75.453424, 40.584848 ], [ -75.454848, 40.598933 ], [ -75.441851, 40.599996 ], [ -75.333048, 40.536767 ], [ -75.314247, 40.548832 ], [ -75.278178, 40.544518 ], [ -75.240794, 40.513724 ], [ -75.300375, 40.493455 ], [ -75.301196, 40.455306 ], [ -75.333576, 40.451618 ], [ -75.345707, 40.42721 ], [ -75.359599, 40.445519 ], [ -75.392879, 40.437067 ], [ -75.411284, 40.403016 ], [ -75.417179, 40.416627 ], [ -75.464294, 40.436908 ], [ -75.484057, 40.418451 ], [ -75.44565, 40.396154 ], [ -75.549652, 40.28901 ], [ -75.535695, 40.280511 ], [ -75.550629, 40.266252 ], [ -75.528524, 40.241114 ], [ -75.489976, 40.224649 ], [ -75.51191, 40.202671 ], [ -75.485059, 40.17166 ], [ -75.514298, 40.161587 ], [ -75.500801, 40.156522 ], [ -75.510388, 40.138295 ], [ -75.492833, 40.12621 ], [ -75.462093, 40.12527 ], [ -75.471603, 40.111853 ], [ -75.456624, 40.093854 ], [ -75.61333, 40.050536 ], [ -75.624315, 40.058994 ], [ -75.64875, 40.047753 ], [ -75.694863, 40.054196 ], [ -75.686377, 40.041277 ], [ -75.70809, 40.039348 ], [ -75.707853, 40.007769 ], [ -75.68422, 40.01644 ], [ -75.675758, 40.005376 ], [ -75.724024, 39.999126 ], [ -75.715345, 39.995422 ], [ -75.743809, 39.973155 ], [ -75.74008, 39.95506 ], [ -75.775765, 39.950368 ], [ -75.768516, 39.985321 ], [ -75.786943, 39.98806 ], [ -75.790152, 40.008933 ], [ -75.841571, 40.013216 ], [ -75.847894, 40.02206 ], [ -75.826401, 40.041335 ], [ -75.839168, 40.04139 ], [ -75.841363, 40.056936 ], [ -75.934332, 40.047566 ], [ -75.942997, 40.109266 ], [ -75.873375, 40.137107 ], [ -75.884218, 40.166506 ], [ -75.898952, 40.164334 ], [ -75.930221, 40.194268 ], [ -75.944085, 40.174401 ], [ -76.001525, 40.171599 ] ], [ [ -75.525453, 40.591271 ], [ -75.529586, 40.6027 ], [ -75.54713, 40.600534 ], [ -75.546506, 40.589972 ], [ -75.525453, 40.591271 ] ] ] } },
{ "type": "Feature", "properties": { "district_id": 12, "voting_age_pop": 616600, "lib_votes": 0, "grn_votes": 0, "con_votes": 0, "ref_votes": 0, "total_pop": 781268, "dem_votes_sum": 136090, "rep_votes_sum": 201267, "lib_votes_sum": 0, "grn_votes_sum": 0, "con_votes_sum": 0, "ref_votes_sum": 0, "minority_pop_sum": 26433, "dem_pct": 0.40340055193756169, "rep_pct": 0.59659944806243825, "lib_pct": 0.0, "grn_pct": 0.0, "con_pct": 0.0, "ref_pct": 0.0, "minority_pct": 0.033833460477070608, "compactness": 0.11280920476189657 }, "geometry": { "type": "Polygon", "coordinates": [ [ [ -80.436362000715391, 40.477763999997606 ], [ -80.361865000648621, 40.477570999997823 ], [ -80.366415000654925, 40.437504999997721 ], [ -80.354894000645402, 40.431398999997718 ], [ -80.411154000695774, 40.421007999997514 ], [ -80.433407000717395, 40.40567499999738 ], [ -80.453510000735434, 40.420696999997361 ], [ -80.476949000758708, 40.413380999997266 ], [ -80.517775000796817, 40.454157999997243 ], [ -80.519374000713796, 41.578470000000877 ], [ -80.409399000619004, 41.57622000000071 ], [ -80.387889000600509, 41.595542000000712 ], [ -80.374766000591492, 41.575159000000653 ], [ -80.27524000051821, 41.573180000000534 ], [ -80.278680000525583, 41.483528000000355 ], [ -80.325984000559856, 41.484262000000406 ], [ -80.323533000561042, 41.433242000000284 ], [ -80.263002000518227, 41.417000000000208 ], [ -80.261567000519904, 41.367439 ], [ -80.103786000418935, 41.369077 ], [ -80.094836000415825, 41.321104 ], [ -80.105274000425524, 41.236750999999828 ], [ -79.999779000366942, 41.238652999999843 ], [ -79.999779000362068, 41.369631 ], [ -79.936332000331319, 41.353535 ], [ -79.904679000316392, 41.359688 ], [ -79.884899000307755, 41.350532 ], [ -79.879835000306301, 41.324846 ], [ -79.757756000255839, 41.333071 ], [ -79.738196000248891, 41.317233 ], [ -79.735396000247633, 41.325247 ], [ -79.724949000244067, 41.313915 ], [ -79.713411000239773, 41.319115 ], [ -79.707968000238154, 41.305309 ], [ -79.674434000226483, 41.301977 ], [ -79.65520100021962, 41.317356 ], [ -79.664433000222658, 41.321267 ], [ -79.657215000219239, 41.36531 ], [ -79.678002000226201, 41.366586 ], [ -79.669806000222962, 41.387316 ], [ -79.684896000228079, 41.38909 ], [ -79.702614000233538, 41.418326 ], [ -79.685035000227515, 41.414311 ], [ -79.638151000211295, 41.442619 ], [ -79.641503000212708, 41.427119 ], [ -79.603417000200693, 41.426632 ], [ -79.604161000203092, 41.321478 ], [ -79.541474000184337, 41.321008 ], [ -79.54143000018405, 41.335951 ], [ -79.478140000166675, 41.335708 ], [ -79.478287000167072, 41.315291 ], [ -79.438855000156934, 41.315062 ], [ -79.4394190001575, 41.289593 ], [ -79.356348000137842, 41.288488 ], [ -79.371421000141879, 41.244481 ], [ -79.396057000147948, 41.222522 ], [ -79.389686000146625, 41.209023999999893 ], [ -79.389473000146339, 41.225015 ], [ -79.352570000138002, 41.214678 ], [ -79.325258000131811, 41.23012 ], [ -79.303968000126702, 41.27645 ], [ -79.228824000111416, 41.320006 ], [ -79.209050000107808, 41.317037 ], [ -79.209228000108055, 41.297372 ], [ -79.058261000083533, 41.2944 ], [ -79.059522000084584, 41.189042 ], [ -79.008760000077402, 41.189163 ], [ -78.96865500007226, 41.1664 ], [ -78.905490000064361, 41.197526 ], [ -78.888772000062261, 41.227999 ], [ -78.889704000061826, 41.31102 ], [ -78.862104000058764, 41.319301 ], [ -78.7352800000467, 41.262915 ], [ -78.738214000047108, 41.230672 ], [ -78.71005900004468, 41.230243 ], [ -78.710248000044785, 41.201859 ], [ -78.688409000042952, 41.207327 ], [ -78.699168000043969, 41.180497 ], [ -78.687881000043191, 41.139965 ], [ -78.74057200004782, 41.12465 ], [ -78.736772000047424, 41.135477 ], [ -78.757748000049318, 41.135607 ], [ -78.744385000047998, 41.157066 ], [ -78.781815000051409, 41.172508 ], [ -78.796809000053017, 41.146184 ], [ -78.814430000054756, 41.150486 ], [ -78.814053000054784, 41.132777 ], [ -78.804608000053904, 41.119643 ], [ -78.751099000048853, 41.104778 ], [ -78.749045000048753, 41.090484 ], [ -78.681449000042903, 41.086694 ], [ -78.681859000043289, 41.000193 ], [ -78.707441000045435, 41.000338 ], [ -78.709957000046145, 40.895783 ], [ -78.66137900004216, 40.864876 ], [ -78.687917000044436, 40.847703 ], [ -78.66885800004286, 40.841914 ], [ -78.664975000042617, 40.822731 ], [ -78.646325000041131, 40.815002 ], [ -78.627651000039634, 40.827569 ], [ -78.565913000035252, 40.785628 ], [ -78.589710000036973, 40.772905 ], [ -78.574362000035933, 40.760445 ], [ -78.595391000037495, 40.744934 ], [ -78.58962300003715, 40.725423 ], [ -78.691282000045234, 40.724205 ], [ -78.691006000045221, 40.71695599999989 ], [ -78.649590000042082, 40.639080999999891 ], [ -78.496427000031105, 40.638758 ], [ -78.510292000032095, 40.598875 ], [ -78.583483000037418, 40.513801999999899 ], [ -78.565190000036182, 40.488822999999897 ], [ -78.574223000036881, 40.474212999999885 ], [ -78.542303000034622, 40.468851 ], [ -78.537116000034146, 40.50992 ], [ -78.418580000026964, 40.464783 ], [ -78.419097000027023, 40.449288 ], [ -78.487402000031025, 40.470027 ], [ -78.492431000031402, 40.445834999999896 ], [ -78.439576000028254, 40.429177 ], [ -78.434543000027944, 40.43011 ], [ -78.433998000027913, 40.431287 ], [ -78.422329000027233, 40.434579 ], [ -78.437424000028116, 40.426162 ], [ -78.440620000028304, 40.428374 ], [ -78.434217000027942, 40.420484 ], [ -78.539083000034765, 40.345765999999877 ], [ -78.601852000039358, 40.353203999999877 ], [ -78.620288000040873, 40.327160999999862 ], [ -78.684753000046172, 40.361460999999849 ], [ -78.696973000047066, 40.407148999999855 ], [ -78.685925000045984, 40.42902699999987 ], [ -78.788250000055797, 40.424353999999823 ], [ -78.799678000056588, 40.504760999999839 ], [ -78.878963000065383, 40.521406999999819 ], [ -78.992041000079681, 40.575101999999795 ], [ -79.012091000083345, 40.467823999999744 ], [ -79.021599000084663, 40.479150999999739 ], [ -79.075736000092974, 40.487401999999726 ], [ -79.056892000090798, 40.388151999999693 ], [ -79.098540000097515, 40.398031999999695 ], [ -79.116652000100402, 40.418676999999676 ], [ -79.114094000099769, 40.440608999999675 ], [ -79.155706000107031, 40.446835999999671 ], [ -79.150033000105694, 40.479579999999686 ], [ -79.101541000096901, 40.524701999999714 ], [ -79.122491000100567, 40.510520999999692 ], [ -79.142731000103922, 40.530177999999694 ], [ -79.150790000105474, 40.520661999999696 ], [ -79.165615000108019, 40.532077999999686 ], [ -79.217690000118736, 40.457281999999637 ], [ -79.232166000121623, 40.459565999999604 ], [ -79.225082000120068, 40.470674999999638 ], [ -79.25964600012729, 40.460544999999598 ], [ -79.280468000131634, 40.471910999999601 ], [ -79.287362000133413, 40.450219999999597 ], [ -79.302450000136602, 40.461332999999577 ], [ -79.328630000142709, 40.452550999999545 ], [ -79.340280000145199, 40.470572999999547 ], [ -79.356060000149242, 40.451960999999528 ], [ -79.360677000149991, 40.478740999999538 ], [ -79.371175000152888, 40.455066999999502 ], [ -79.3911020001579, 40.4544119999995 ], [ -79.406631000161596, 40.474300999999492 ], [ -79.42357400016607, 40.473328999999474 ], [ -79.401949000160144, 40.492253999999491 ], [ -79.410200000162035, 40.508159999999506 ], [ -79.426646000166315, 40.509209999999499 ], [ -79.419321000164203, 40.521514999999503 ], [ -79.449135000172262, 40.518185999999488 ], [ -79.454203000173408, 40.533798999999476 ], [ -79.476634000179729, 40.529629999999472 ], [ -79.479337000180394, 40.537037999999477 ], [ -79.497092000185688, 40.525337999999429 ], [ -79.53703000019722, 40.550713999999431 ], [ -79.528603000194252, 40.572361999999451 ], [ -79.518093000191215, 40.565193999999451 ], [ -79.500896000185918, 40.576999999999472 ], [ -79.503858000186455, 40.596304999999489 ], [ -79.567562000206294, 40.578039999999412 ], [ -79.565932000205478, 40.593402999999427 ], [ -79.58308800021112, 40.587195999999416 ], [ -79.598025000215813, 40.598501999999407 ], [ -79.565635000204409, 40.644753999999466 ], [ -79.571486000205994, 40.658543999999473 ], [ -79.585741000210845, 40.646107999999444 ], [ -79.621150000222343, 40.659297999999431 ], [ -79.611030000218719, 40.669058999999443 ], [ -79.621814000221889, 40.69358299999945 ], [ -79.656769000234007, 40.694119999999437 ], [ -79.681116000243165, 40.67809799999938 ], [ -79.673243000239921, 40.694329999999404 ], [ -79.692615000247173, 40.688783999999394 ], [ -79.68999400024498, 40.741361999999427 ], [ -79.784525000282116, 40.742522999999352 ], [ -79.78346800027974, 40.814703999999423 ], [ -79.874557000319683, 40.816106999999349 ], [ -79.875938000318129, 40.886705999999428 ], [ -79.910472000334437, 40.8867199999994 ], [ -79.907547000333281, 40.878995999999411 ], [ -79.897489000328449, 40.879896999999403 ], [ -79.894912000327452, 40.872673999999392 ], [ -79.908523000333801, 40.878319999999391 ], [ -79.91353700033666, 40.863846999999375 ], [ -79.972370000365515, 40.885917999999357 ], [ -79.97718700036495, 40.971893999999473 ], [ -80.010259000382433, 40.972763999999451 ], [ -80.035321000396848, 40.956418999999393 ], [ -80.070113000416754, 40.954900999999374 ], [ -80.068892000417719, 40.913406999999303 ], [ -80.032465000396869, 40.914919999999341 ], [ -80.024788000393158, 40.900122999999326 ], [ -80.025982000394379, 40.885763999999284 ], [ -80.068087000418416, 40.884988999999258 ], [ -80.060928000418656, 40.774549999999074 ], [ -80.044194000409263, 40.766870999999085 ], [ -80.060397000418789, 40.764074999999046 ], [ -80.057209000419746, 40.692897999998955 ], [ -80.075301000430031, 40.704730999998944 ], [ -80.104387000447829, 40.703933999998895 ], [ -80.125933000461714, 40.697492999998865 ], [ -80.129798000464859, 40.681832999998811 ], [ -80.098575000445493, 40.67409399999886 ], [ -80.097169000445973, 40.641733999998806 ], [ -80.069839000429184, 40.644723999998845 ], [ -80.053951000420525, 40.624700999998851 ], [ -80.067875000429467, 40.608461999998795 ], [ -80.044286000416591, 40.580039999998789 ], [ -80.049522000420154, 40.567970999998771 ], [ -80.037599000413152, 40.56850999999876 ], [ -80.039646000414734, 40.557705999998767 ], [ -80.059840000426263, 40.567628999998732 ], [ -80.050201000421737, 40.537999999998711 ], [ -80.063345000429806, 40.531700999998669 ], [ -80.062292000429821, 40.515436999998656 ], [ -80.133484000473501, 40.539860999998538 ], [ -80.123374000465702, 40.567744999998617 ], [ -80.151647000483521, 40.583995999998599 ], [ -80.133763000471575, 40.588241999998644 ], [ -80.159149000487361, 40.609425999998628 ], [ -80.180133000501627, 40.609396999998594 ], [ -80.214259000526937, 40.580859999998474 ], [ -80.247349000550628, 40.590421999998405 ], [ -80.301643000593387, 40.572241999998241 ], [ -80.320899000607199, 40.600999999998258 ], [ -80.372565000652827, 40.559803999998032 ], [ -80.45059800072373, 40.553164999997783 ], [ -80.436362000715391, 40.477763999997606 ] ] ] } },
{ "type": "Feature", "properties": { "district_id": 13, "voting_age_pop": 583775, "lib_votes": 0, "grn_votes": 0, "con_votes": 0, "ref_votes": 0, "total_pop": 769962, "dem_votes_sum": 133103, "rep_votes_sum": 197016, "lib_votes_sum": 0, "grn_votes_sum": 0, "con_votes_sum": 0, "ref_votes_sum": 0, "minority_pop_sum": 26085, "dem_pct": 0.40319702895016646, "rep_pct": 0.5968029710498336, "lib_pct": 0.0, "grn_pct": 0.0, "con_pct": 0.0, "ref_pct": 0.0, "minority_pct": 0.033878295292494955, "compactness": 0.24062491567453148 }, "geometry": { "type": "MultiPolygon", "coordinates": [ [ [ [ -75.998358, 39.721765 ], [ -76.800478000000311, 39.720592 ], [ -76.811470000000327, 39.743282 ], [ -76.740507000000235, 39.802211 ], [ -76.773917000000267, 39.843349 ], [ -76.745620000000258, 39.869276 ], [ -76.760003000000253, 39.88666 ], [ -76.741938000000232, 39.887052 ], [ -76.743414000000257, 39.896123 ], [ -76.72405900000021, 39.88848 ], [ -76.720651000000217, 39.899241 ], [ -76.69612500000018, 39.887979 ], [ -76.670407000000182, 39.906212 ], [ -76.656217000000169, 39.893209 ], [ -76.63741700000017, 39.914293 ], [ -76.613026000000119, 39.905297 ], [ -76.682128000000176, 39.937267 ], [ -76.679540000000188, 39.972445 ], [ -76.6947100000002, 39.982821 ], [ -76.646919000000153, 40.005283 ], [ -76.668487000000184, 40.031264 ], [ -76.659592000000174, 40.050912 ], [ -76.633030000000147, 40.057369 ], [ -76.591356000000104, 40.108426 ], [ -76.600717000000131, 40.138431 ], [ -76.582037000000128, 40.138122 ], [ -76.592602000000113, 40.152392 ], [ -76.576509000000115, 40.166474 ], [ -76.589777000000126, 40.189729 ], [ -76.566332000000116, 40.196324 ], [ -76.585696000000112, 40.237672 ], [ -76.514256000000103, 40.251664 ], [ -76.558605000000114, 40.265929 ], [ -76.555624, 40.295165 ], [ -76.575364000000107, 40.291797 ], [ -76.59545700000011, 40.309244 ], [ -76.585125000000104, 40.31416 ], [ -76.592203000000112, 40.322638 ], [ -76.60779400000014, 40.320806 ], [ -76.611126000000141, 40.304464 ], [ -76.625538000000148, 40.339273 ], [ -76.60967400000014, 40.356696 ], [ -76.578207, 40.339773 ], [ -76.56047500000011, 40.342076 ], [ -76.55506200000012, 40.321215 ], [ -76.525576, 40.327468 ], [ -76.523935, 40.337308 ], [ -76.48752, 40.340245 ], [ -76.493489, 40.376522 ], [ -76.433248, 40.382642 ], [ -76.433655, 40.3556 ], [ -76.402771, 40.352196 ], [ -76.411613, 40.34042 ], [ -76.348761, 40.364321 ], [ -76.34311, 40.327304 ], [ -76.305852, 40.334371 ], [ -76.320974, 40.421866 ], [ -76.307108, 40.413438 ], [ -76.181265, 40.409708 ], [ -76.173964, 40.399392 ], [ -76.165372, 40.419612 ], [ -76.131566, 40.413401 ], [ -76.117967, 40.426815 ], [ -76.075743, 40.396378 ], [ -76.057354, 40.398179 ], [ -76.03825, 40.369606 ], [ -76.03546, 40.383792 ], [ -76.020136, 40.366968 ], [ -76.009965, 40.37361 ], [ -75.995569, 40.36596 ], [ -75.952086, 40.382668 ], [ -75.955922, 40.371345 ], [ -75.941372, 40.36437 ], [ -75.983671, 40.340892 ], [ -75.972388, 40.338232 ], [ -75.977984, 40.323362 ], [ -76.008816, 40.324498 ], [ -76.010624, 40.310701 ], [ -76.032985, 40.31449 ], [ -76.049264, 40.304813 ], [ -76.037722, 40.281308 ], [ -76.019761, 40.28027 ], [ -76.023614, 40.27157 ], [ -76.043993, 40.247196 ], [ -76.076298, 40.246545 ], [ -76.095421, 40.223638 ], [ -76.073257, 40.20997 ], [ -76.103589, 40.194642 ], [ -76.067052, 40.140736 ], [ -75.998735, 40.141417 ], [ -75.986108, 40.097681 ], [ -76.002546, 40.089417 ], [ -76.003106, 40.051612 ], [ -75.936677, 40.036392 ], [ -75.951398, 40.016421 ], [ -75.937932, 40.008669 ], [ -75.927199, 39.949313 ], [ -75.953718, 39.943923 ], [ -75.910318, 39.88642 ], [ -75.919946, 39.884007 ], [ -75.896566, 39.82126 ], [ -75.905417, 39.796897 ], [ -75.962182, 39.790869 ], [ -75.982371, 39.774127 ], [ -75.999458, 39.78307 ], [ -76.047864, 39.772227 ], [ -75.9986, 39.74394 ], [ -75.998358, 39.721765 ] ] ], [ [ [ -76.587852000000126, 40.145366 ], [ -76.592105000000117, 40.148148 ], [ -76.590634000000122, 40.148809 ], [ -76.587852000000126, 40.145366 ] ] ] ] } },
{ "type": "Feature", "properties": { "district_id": 14, "voting_age_pop": 620772, "lib_votes": 0, "grn_votes": 0, "con_votes": 0, "ref_votes": 0, "total_pop": 773111, "dem_votes_sum": 126433, "rep_votes_sum": 193363, "lib_votes_sum": 0, "grn_votes_sum": 0, "con_votes_sum": 0, "ref_votes_sum": 0, "minority_pop_sum": 23423, "dem_pct": 0.3953551639169971, "rep_pct": 0.6046448360830029, "lib_pct": 0.0, "grn_pct": 0.0, "con_pct": 0.0, "ref_pct": 0.0, "minority_pct": 0.03029707247730274, "compactness": 0.2153280097541718 }, "geometry": { "type": "Polygon", "coordinates": [ [ [ -78.742523000054376, 39.722987999999724 ], [ -80.519342000851694, 39.721402999994581 ], [ -80.517775000796817, 40.454157999997243 ], [ -80.476949000758708, 40.413380999997266 ], [ -80.453510000735434, 40.420696999997361 ], [ -80.433407000717395, 40.40567499999738 ], [ -80.411154000695774, 40.421007999997514 ], [ -80.356886000647208, 40.429583999997725 ], [ -80.339274000633765, 40.403797999997714 ], [ -80.360613000653274, 40.382112999997567 ], [ -80.338648000634393, 40.383404999997644 ], [ -80.360940000653727, 40.378755999997566 ], [ -80.376865000669767, 40.343889999997408 ], [ -80.345718000643814, 40.324525999997455 ], [ -80.328327000627681, 40.34960999999759 ], [ -80.280069000587645, 40.36408899999779 ], [ -80.286499000591931, 40.378632999997812 ], [ -80.306919000608843, 40.370266999997718 ], [ -80.327657000624299, 40.39882999999773 ], [ -80.290872000594049, 40.403839999997849 ], [ -80.286407000589762, 40.417539999997892 ], [ -80.171147000508427, 40.328898999998032 ], [ -80.187568000520983, 40.30799799999793 ], [ -80.201916000531256, 40.308688999997905 ], [ -80.217072000543709, 40.281026999997806 ], [ -80.186484000522512, 40.258845999997845 ], [ -80.214774000544153, 40.236928999997687 ], [ -80.214565000544638, 40.223615999997676 ], [ -80.189761000527326, 40.206157999997707 ], [ -80.105070000468572, 40.221935999998017 ], [ -80.086669000455473, 40.252386999998116 ], [ -80.110437000470526, 40.258459999998053 ], [ -80.104149000465313, 40.285342999998129 ], [ -80.115143000472358, 40.28838999999811 ], [ -80.106737000466737, 40.291351999998142 ], [ -80.083603000452428, 40.279421999998185 ], [ -80.072297000444564, 40.29934799999824 ], [ -80.05353800043325, 40.293979999998285 ], [ -80.067024000440725, 40.313589999998264 ], [ -80.052369000431639, 40.316982999998324 ], [ -80.041058000425593, 40.296398999998324 ], [ -80.00846500040636, 40.299223999998404 ], [ -79.996658000400046, 40.288074999998429 ], [ -80.008788000408344, 40.250293999998313 ], [ -79.985693000395244, 40.248683999998384 ], [ -79.970652000387446, 40.231397999998379 ], [ -79.951856000376864, 40.24089599999845 ], [ -79.931947000367046, 40.21637099999846 ], [ -79.854334000327668, 40.228693999998647 ], [ -79.839080000321005, 40.208449999998663 ], [ -79.777821000292803, 40.228252999998809 ], [ -79.762313000285559, 40.250094999998851 ], [ -79.719068000267839, 40.244197999998924 ], [ -79.704618000261007, 40.291380999999006 ], [ -79.763955000285293, 40.289663999998901 ], [ -79.713850000263918, 40.321759999999024 ], [ -79.709710000262632, 40.308199999999019 ], [ -79.688744000254019, 40.327701999999064 ], [ -79.654039000241283, 40.313423999999088 ], [ -79.636882000234777, 40.327855999999137 ], [ -79.619714000229038, 40.310665999999159 ], [ -79.60135600022258, 40.315845999999183 ], [ -79.590933000219238, 40.305129999999174 ], [ -79.566392000210911, 40.313046999999223 ], [ -79.597940000221129, 40.328818999999186 ], [ -79.572612000212175, 40.353981999999242 ], [ -79.61246000022534, 40.368949999999202 ], [ -79.656099000239792, 40.418563999999186 ], [ -79.635429000232307, 40.42032799999923 ], [ -79.627852000228998, 40.450432999999251 ], [ -79.639122000232717, 40.463532999999245 ], [ -79.615158000224298, 40.465394999999276 ], [ -79.596101000218269, 40.441364999999287 ], [ -79.558437000205444, 40.469008999999353 ], [ -79.515990000192986, 40.428611999999369 ], [ -79.484631000183469, 40.442422999999394 ], [ -79.444574000172622, 40.415677999999424 ], [ -79.440089000171255, 40.423985999999438 ], [ -79.453560000174917, 40.427579999999438 ], [ -79.43657800017003, 40.442084999999445 ], [ -79.456207000175269, 40.451496999999435 ], [ -79.448237000172895, 40.461390999999452 ], [ -79.486327000183351, 40.48032599999943 ], [ -79.453935000173786, 40.505528999999477 ], [ -79.459265000175037, 40.519819999999491 ], [ -79.487298000182918, 40.521366999999444 ], [ -79.481872000181113, 40.536936999999462 ], [ -79.454203000173408, 40.533798999999476 ], [ -79.449135000172262, 40.518185999999488 ], [ -79.419321000164203, 40.521514999999503 ], [ -79.426646000166315, 40.509209999999499 ], [ -79.410200000162035, 40.508159999999506 ], [ -79.401949000160144, 40.492253999999491 ], [ -79.42357400016607, 40.473328999999474 ], [ -79.406631000161596, 40.474300999999492 ], [ -79.392254000158161, 40.454796999999495 ], [ -79.371175000152888, 40.455066999999502 ], [ -79.360677000149991, 40.478740999999538 ], [ -79.357901000149681, 40.452342999999523 ], [ -79.340280000145199, 40.470572999999547 ], [ -79.328630000142709, 40.452550999999545 ], [ -79.302450000136602, 40.461332999999577 ], [ -79.29297900013465, 40.449657999999573 ], [ -79.280468000131634, 40.471910999999601 ], [ -79.25964600012729, 40.460544999999598 ], [ -79.225082000120068, 40.470674999999638 ], [ -79.232166000121623, 40.459565999999604 ], [ -79.216891000118565, 40.457607999999617 ], [ -79.165615000108019, 40.532077999999686 ], [ -79.150790000105474, 40.520661999999696 ], [ -79.146312000104558, 40.529285999999694 ], [ -79.142731000103922, 40.530177999999694 ], [ -79.122491000100567, 40.510520999999692 ], [ -79.101541000096901, 40.524701999999714 ], [ -79.150033000105694, 40.479579999999686 ], [ -79.155706000107031, 40.446835999999671 ], [ -79.114094000099769, 40.440608999999675 ], [ -79.116652000100402, 40.418676999999676 ], [ -79.098540000097515, 40.398031999999695 ], [ -79.057320000090868, 40.388084999999712 ], [ -79.075736000092974, 40.487401999999726 ], [ -79.021599000084663, 40.479150999999739 ], [ -79.012091000083345, 40.467823999999744 ], [ -78.992041000079681, 40.575101999999795 ], [ -78.878963000065383, 40.521406999999819 ], [ -78.799678000056588, 40.504760999999839 ], [ -78.788250000055797, 40.424353999999823 ], [ -78.685925000045984, 40.42902699999987 ], [ -78.696973000047066, 40.407148999999855 ], [ -78.680148000045776, 40.355151999999848 ], [ -78.620288000040873, 40.327160999999862 ], [ -78.601852000039358, 40.353203999999877 ], [ -78.544346000035134, 40.346387999999891 ], [ -78.556811000036163, 40.302877999999872 ], [ -78.620383000040903, 40.327024999999864 ], [ -78.647953000043358, 40.270620999999856 ], [ -78.466981000030444, 40.207199999999887 ], [ -78.48880400003199, 40.155441999999894 ], [ -78.457563000030021, 40.148903999999888 ], [ -78.432449000028612, 40.117060999999893 ], [ -78.399822000026788, 40.104272 ], [ -78.412946000027574, 40.073754999999892 ], [ -78.476845000031574, 40.017483999999868 ], [ -78.564592000037976, 39.909416999999827 ], [ -78.600706000040688, 39.938430999999817 ], [ -78.643492000044432, 39.876944999999793 ], [ -78.682080000047989, 39.845981999999779 ], [ -78.742523000054376, 39.722987999999724 ] ] ] } },
{ "type": "Feature", "properties": { "district_id": 15, "voting_age_pop": 578732, "lib_votes": 0, "grn_votes": 0, "con_votes": 0, "ref_votes": 0, "total_pop": 730837, "dem_votes_sum": 108070, "rep_votes_sum": 192652, "lib_votes_sum": 0, "grn_votes_sum": 0, "con_votes_sum": 0, "ref_votes_sum": 0, "minority_pop_sum": 18051, "dem_pct": 0.35936845325583094, "rep_pct": 0.640631546744169, "lib_pct": 0.0, "grn_pct": 0.0, "con_pct": 0.0, "ref_pct": 0.0, "minority_pct": 0.024699077906564663, "compactness": 0.17952263909453975 }, "geometry": { "type": "Polygon", "coordinates": [ [ [ -77.043449000000749, 39.719918 ], [ -78.742523000054376, 39.722987999999724 ], [ -78.682080000047989, 39.845981999999779 ], [ -78.643492000044432, 39.876944999999793 ], [ -78.600706000040688, 39.938430999999817 ], [ -78.564592000037976, 39.909416999999827 ], [ -78.399460000026735, 40.101839999999889 ], [ -78.432449000028612, 40.117060999999893 ], [ -78.457563000030021, 40.148903999999888 ], [ -78.48880400003199, 40.155441999999894 ], [ -78.466981000030444, 40.207199999999887 ], [ -78.647953000043358, 40.270620999999856 ], [ -78.620383000040903, 40.327024999999864 ], [ -78.556811000036163, 40.302877999999872 ], [ -78.544346000035134, 40.346387999999891 ], [ -78.422112000027226, 40.433735 ], [ -78.439576000028254, 40.429177 ], [ -78.492431000031402, 40.445834999999896 ], [ -78.487402000031025, 40.470027 ], [ -78.419097000027023, 40.449288 ], [ -78.418585000026951, 40.46659 ], [ -78.537116000034146, 40.50992 ], [ -78.542303000034622, 40.468851 ], [ -78.574223000036881, 40.474212999999885 ], [ -78.565190000036182, 40.488822999999897 ], [ -78.583483000037418, 40.513801999999899 ], [ -78.510292000032095, 40.598875 ], [ -78.496427000031105, 40.638758 ], [ -78.649590000042082, 40.639080999999891 ], [ -78.691282000045234, 40.724205 ], [ -78.58962300003715, 40.725423 ], [ -78.595391000037495, 40.744934 ], [ -78.574362000035933, 40.760445 ], [ -78.589710000036973, 40.772905 ], [ -78.434715000026841, 40.873416 ], [ -78.436984000026882, 40.912765 ], [ -78.269969000018932, 40.921341 ], [ -78.26876300001878, 40.969342 ], [ -78.283068000019355, 40.969287 ], [ -78.282810000019325, 40.9836 ], [ -78.268939000018761, 40.983564 ], [ -78.259616000018269, 41.050836 ], [ -78.235496000017321, 41.06249 ], [ -78.247016000017751, 41.067756 ], [ -78.236210000017337, 41.077166 ], [ -78.236831000017062, 41.230187 ], [ -78.093381000012442, 41.216931 ], [ -78.038203000011023, 41.153633 ], [ -78.070371000011917, 41.121966 ], [ -78.112239000013119, 41.114217 ], [ -78.090525000012562, 41.05975 ], [ -78.059866000011695, 41.051911 ], [ -78.057554000011649, 41.036894 ], [ -78.080356000012287, 41.030783 ], [ -78.069760000012025, 41.013902 ], [ -77.964234000009469, 40.92371 ], [ -77.975732000009728, 40.915751 ], [ -77.961646000009452, 40.90008 ], [ -77.928986000008734, 40.895074 ], [ -77.851923000007289, 40.838332 ], [ -77.835521000006992, 40.837145 ], [ -77.843239000007145, 40.824424 ], [ -77.825208000006853, 40.800152 ], [ -77.80251000000645, 40.795109 ], [ -77.802580000006444, 40.808987 ], [ -77.78060300000611, 40.812338 ], [ -77.793194000006324, 40.778586 ], [ -77.724462000005317, 40.784941 ], [ -77.699645000005006, 40.721023 ], [ -77.681334000004753, 40.729758 ], [ -77.676611000004712, 40.716452 ], [ -77.708356000005139, 40.690488 ], [ -77.703787000005065, 40.679936 ], [ -77.682275000004793, 40.685122 ], [ -77.68708000000484, 40.67675 ], [ -77.787734000006338, 40.612082 ], [ -77.721281000005348, 40.567767 ], [ -77.816757000006874, 40.500555 ], [ -77.841827000007271, 40.550035 ], [ -77.882119000008075, 40.507109 ], [ -77.911564000008667, 40.510117 ], [ -77.946865000009538, 40.392807 ], [ -77.88771700000828, 40.391358 ], [ -77.913844000008794, 40.398679 ], [ -77.912185000008762, 40.408748 ], [ -77.825866000007025, 40.492816 ], [ -77.75799600000596, 40.438778 ], [ -77.734873000005592, 40.461055 ], [ -77.738812000005652, 40.498094 ], [ -77.72543000000546, 40.510562 ], [ -77.703885000005158, 40.520712 ], [ -77.657595000004548, 40.514245 ], [ -77.647750000004436, 40.532728 ], [ -77.611315000004012, 40.515017 ], [ -77.516022000003076, 40.569305 ], [ -77.497506000002943, 40.58174 ], [ -77.497760000002927, 40.609484 ], [ -77.468999000002682, 40.624746 ], [ -77.512352000003034, 40.690273 ], [ -77.355327000001907, 40.759414 ], [ -77.354097000001929, 40.701667 ], [ -77.291644000001568, 40.723885 ], [ -77.283913000001547, 40.703286 ], [ -77.30350900000164, 40.695424 ], [ -77.198923000001187, 40.682511 ], [ -77.18027800000111, 40.64571 ], [ -77.269478000001499, 40.612868 ], [ -77.268812000001489, 40.525769 ], [ -77.169960000001097, 40.562726 ], [ -77.131338000000966, 40.504527 ], [ -77.118500000000921, 40.504764 ], [ -76.991939000000599, 40.561475 ], [ -76.98441000000058, 40.51459 ], [ -76.953046000000526, 40.490572 ], [ -77.041165000000703, 40.474904 ], [ -77.015014000000662, 40.43141 ], [ -77.091066000000865, 40.389446 ], [ -77.084972000000832, 40.366031 ], [ -77.10301100000089, 40.340839 ], [ -76.947666000000524, 40.351744 ], [ -76.939783000000503, 40.320062 ], [ -76.976861000000582, 40.309857 ], [ -76.98278500000059, 40.280782 ], [ -77.010421000000647, 40.274009 ], [ -77.005031000000642, 40.24671 ], [ -77.059042000000773, 40.238257 ], [ -77.036126000000706, 40.205158 ], [ -77.104290000000901, 40.194864 ], [ -77.119259000000937, 40.17158 ], [ -77.094131000000871, 40.160369 ], [ -77.06936700000081, 40.175033 ], [ -77.015262000000661, 40.161563 ], [ -77.012601000000657, 40.148421 ], [ -76.998198000000642, 40.153314 ], [ -76.986553000000598, 40.117774 ], [ -76.960917000000563, 40.106488 ], [ -77.007624000000661, 40.081372 ], [ -77.054401000000766, 40.023207 ], [ -77.026238000000703, 40.018378 ], [ -77.010512000000674, 40.000423 ], [ -77.041429000000733, 39.995913 ], [ -77.040584000000734, 39.985125 ], [ -77.067733000000814, 39.978695 ], [ -77.099126000000922, 39.947843 ], [ -77.082139000000865, 39.948151 ], [ -77.095278000000889, 39.90704 ], [ -77.11650500000097, 39.90165 ], [ -77.153757000001093, 39.928953 ], [ -77.208022000001293, 39.910877 ], [ -77.229396000001387, 39.891128 ], [ -77.223017000001377, 39.856847 ], [ -77.203559000001292, 39.847004 ], [ -77.111716000000953, 39.863521 ], [ -77.169667000001155, 39.839736 ], [ -77.185228000001203, 39.811601 ], [ -77.11287300000096, 39.769424 ], [ -77.099837000000917, 39.775408 ], [ -77.097135000000918, 39.753458 ], [ -77.076072000000863, 39.750797 ], [ -77.043449000000749, 39.719918 ] ] ] } },
{ "type": "Feature", "properties": { "district_id": 16, "voting_age_pop": 604575, "lib_votes": 0, "grn_votes": 0, "con_votes": 0, "ref_votes": 0, "total_pop": 762425, "dem_votes_sum": 162065, "rep_votes_sum": 142216, "lib_votes_sum": 0, "grn_votes_sum": 0, "con_votes_sum": 0, "ref_votes_sum": 0, "minority_pop_sum": 23753, "dem_pct": 0.53261623302145056, "rep_pct": 0.46738376697854944, "lib_pct": 0.0, "grn_pct": 0.0, "con_pct": 0.0, "ref_pct": 0.0, "minority_pct": 0.031154539790799095, "compactness": 0.3045647404452822 }, "geometry": { "type": "Polygon", "coordinates": [ [ [ -75.997348, 40.912985 ], [ -76.02815, 40.901986 ], [ -76.207827, 40.94974 ], [ -76.231627, 41.050291 ], [ -76.195951, 41.049022 ], [ -76.201396, 41.059639 ], [ -76.228987, 41.051671 ], [ -76.246622, 41.071713 ], [ -76.266951, 41.068593 ], [ -76.268766, 41.102182 ], [ -76.285234, 41.114809 ], [ -76.274553, 41.124363 ], [ -76.361863, 41.092086 ], [ -76.417645, 41.119624 ], [ -76.406745, 41.295789 ], [ -76.425818, 41.293552 ], [ -76.407934, 41.308418 ], [ -76.310133, 41.310199 ], [ -76.302745, 41.335883 ], [ -76.329793, 41.362996 ], [ -76.362478, 41.441108 ], [ -76.3334, 41.489945 ], [ -76.390974, 41.50171 ], [ -76.393823, 41.443219 ], [ -76.497106, 41.482294 ], [ -76.483539, 41.562633 ], [ -76.358907, 41.552722 ], [ -76.363604, 41.567919 ], [ -76.262063, 41.654205 ], [ -76.23433, 41.646236 ], [ -76.203963, 41.673079 ], [ -76.207859, 41.746146 ], [ -76.123, 41.749367 ], [ -76.137602, 41.91429 ], [ -76.035266, 41.912438 ], [ -76.045608, 41.82667 ], [ -76.023186, 41.826754 ], [ -76.024624, 41.837364 ], [ -75.927779, 41.842784 ], [ -75.932124, 41.888522 ], [ -75.884963, 41.891844 ], [ -75.890619, 41.998606 ], [ -75.346568, 41.995324 ], [ -75.342204, 41.972872 ], [ -75.279094, 41.938917 ], [ -75.260527, 41.8638 ], [ -75.223734, 41.857456 ], [ -75.204002, 41.869867 ], [ -75.185254, 41.85993 ], [ -75.172532, 41.872239 ], [ -75.162854, 41.850582 ], [ -75.117103, 41.845463 ], [ -75.113334, 41.822782 ], [ -75.072172, 41.813732 ], [ -75.10464, 41.774203 ], [ -75.064901, 41.766686 ], [ -75.053227, 41.751662 ], [ -75.049862, 41.713309 ], [ -75.06883, 41.708161 ], [ -75.052736, 41.688393 ], [ -75.044224, 41.617978 ], [ -75.074613, 41.605711 ], [ -75.018524, 41.551802 ], [ -75.024757, 41.535099 ], [ -75.00385, 41.524052 ], [ -75.003151, 41.508101 ], [ -74.984372, 41.506611 ], [ -74.983341, 41.480894 ], [ -74.912991, 41.475901 ], [ -74.890358, 41.455324 ], [ -74.892625, 41.438617 ], [ -74.858578, 41.444427 ], [ -74.830671, 41.430503 ], [ -74.807582, 41.442847 ], [ -74.790417, 41.42166 ], [ -74.738456, 41.430642 ], [ -74.738554, 41.401191 ], [ -74.689756, 41.361559 ], [ -74.753931, 41.346135 ], [ -74.771588, 41.325079 ], [ -74.79504, 41.320407 ], [ -74.792558, 41.310628 ], [ -74.830057, 41.2872 ], [ -74.857152, 41.248975 ], [ -74.882139, 41.180836 ], [ -74.923169, 41.138146 ], [ -74.981287, 41.109315 ], [ -74.991815, 41.089132 ], [ -74.969434, 41.096074 ], [ -74.969123, 41.086803 ], [ -75.011632, 41.067512 ], [ -75.043106, 41.030559 ], [ -75.179603, 41.063032 ], [ -75.187117, 41.145075 ], [ -75.184651, 41.152713 ], [ -75.156507, 41.150341 ], [ -75.129721, 41.252101 ], [ -75.363697, 41.239416 ], [ -75.399403, 41.205584 ], [ -75.356314, 41.182622 ], [ -75.358927, 41.17244 ], [ -75.394103, 41.1653 ], [ -75.36595, 41.137778 ], [ -75.390979, 41.081805 ], [ -75.585545, 41.073828 ], [ -75.628837, 41.082997 ], [ -75.723749, 41.055661 ], [ -75.770253, 41.054868 ], [ -75.770032, 41.06575 ], [ -75.790876, 41.065129 ], [ -75.788431, 41.046857 ], [ -75.770117, 41.050094 ], [ -75.756339, 41.031543 ], [ -75.74126, 41.031213 ], [ -75.73193, 41.00822 ], [ -75.785623, 40.988972 ], [ -75.779633, 40.970597 ], [ -75.841544, 40.948583 ], [ -75.806038, 40.952633 ], [ -75.789378, 40.940722 ], [ -75.830722, 40.929681 ], [ -75.798954, 40.904121 ], [ -75.926429, 40.851726 ], [ -75.997348, 40.912985 ] ] ] } }
]
}
