{
"type": "FeatureCollection",
"name": "pennsylvania_optimized_districts_age",
"crs": { "type": "name", "properties": { "name": "urn:ogc:def:crs:OGC:1.3:CRS84" } },
"features": [
{ "type": "Feature", "properties": { "district_id": 0, "voting_age_pop": 609681, "lib_votes": 0, "grn_votes": 0, "con_votes": 0, "ref_votes": 0, "total_pop": 780263, "dem_votes_sum": 154664, "rep_votes_sum": 219317, "lib_votes_sum": 0, "grn_votes_sum": 0, "con_votes_sum": 0, "ref_votes_sum": 0, "minority_pop_sum": 25365, "dem_pct": 0.41356111674122481, "rep_pct": 0.58643888325877513, "lib_pct": 0.0, "grn_pct": 0.0, "con_pct": 0.0, "ref_pct": 0.0, "minority_pct": 0.032508269647541915, "compactness": 0.1553938258461813 }, "geometry": { "type": "Polygon", "coordinates": [ [ [ -80.408940000669475, 40.799466999998621 ], [ -80.519047000773199, 40.789443999998376 ], [ -80.519374000713796, 41.578470000000877 ], [ -80.409399000619004, 41.57622000000071 ], [ -80.387889000600509, 41.595542000000712 ], [ -80.374766000591492, 41.575159000000653 ], [ -80.27524000051821, 41.573180000000534 ], [ -80.278680000525583, 41.483528000000355 ], [ -80.265144000516102, 41.483450000000346 ], [ -80.26335300051781, 41.428878000000218 ], [ -80.101415000414917, 41.430077000000139 ], [ -80.101296000412376, 41.486988000000231 ], [ -79.998522000356942, 41.490100000000183 ], [ -79.981536000347603, 41.512887000000212 ], [ -79.958384000336324, 41.513507000000203 ], [ -79.959179000336277, 41.525353000000202 ], [ -79.908812000313219, 41.513531000000178 ], [ -79.906101000313072, 41.480994000000123 ], [ -79.882588000303045, 41.466950000000111 ], [ -79.730043000242006, 41.470311 ], [ -79.72864700024256, 41.428654 ], [ -79.707979000235269, 41.42461 ], [ -79.722375000240802, 41.409301 ], [ -79.710344000236788, 41.396046 ], [ -79.669806000222962, 41.387316 ], [ -79.678002000226201, 41.366586 ], [ -79.657254000219254, 41.36542 ], [ -79.654475000218952, 41.337202 ], [ -79.66239800022224, 41.308928 ], [ -79.688046000231239, 41.300502 ], [ -79.674501000226996, 41.28115 ], [ -79.693944000233856, 41.277684999999892 ], [ -79.69432100023451, 41.255492999999881 ], [ -79.707983000239381, 41.255773999999874 ], [ -79.71722500024444, 41.185310999999807 ], [ -79.679980000231666, 41.160861999999803 ], [ -79.679288000232461, 41.116241999999765 ], [ -79.650379000222202, 41.129758999999787 ], [ -79.648888000221419, 41.142292999999789 ], [ -79.66715100022752, 41.146455999999816 ], [ -79.63216400021561, 41.153736999999822 ], [ -79.61967100021198, 41.131021999999803 ], [ -79.600577000205377, 41.155482999999805 ], [ -79.598332000204934, 41.142168999999818 ], [ -79.582784000200078, 41.142511999999812 ], [ -79.596510000204574, 41.132616999999811 ], [ -79.571227000197467, 41.094895999999785 ], [ -79.579165000200334, 41.073486999999766 ], [ -79.627887000216703, 41.03592299999972 ], [ -79.665762000229265, 41.049122999999724 ], [ -79.655527000225305, 41.068428999999718 ], [ -79.674244000231468, 41.082751999999736 ], [ -79.690206000237183, 41.079107999999735 ], [ -79.690140000238316, 41.030658999999687 ], [ -79.784597000274445, 41.028969999999632 ], [ -79.78331800027776, 40.886283999999506 ], [ -79.691495000242199, 40.884892999999565 ], [ -79.68999400024498, 40.741361999999427 ], [ -79.784525000282116, 40.742522999999352 ], [ -79.78346800027974, 40.814703999999423 ], [ -79.860819000313342, 40.815956999999344 ], [ -79.836592000303625, 40.775715999999342 ], [ -79.815310000294318, 40.775174999999365 ], [ -79.81452200029446, 40.757291999999339 ], [ -79.825614000299169, 40.762114999999326 ], [ -79.820346000297391, 40.742938999999325 ], [ -79.876243000322702, 40.743551999999262 ], [ -79.87713000032528, 40.672308999999167 ], [ -79.816997000297931, 40.671752999999235 ], [ -79.816564000298328, 40.650987999999224 ], [ -79.849775000313244, 40.649364999999172 ], [ -79.854087000315744, 40.631949999999144 ], [ -79.834915000307532, 40.613697999999161 ], [ -79.81459000029821, 40.624157999999191 ], [ -79.811297000298481, 40.561931999999118 ], [ -79.771870000281538, 40.56296699999919 ], [ -79.770371000280321, 40.586365999999195 ], [ -79.75059300027236, 40.58031099999922 ], [ -79.766605000279, 40.577282999999198 ], [ -79.754500000274007, 40.577879999999205 ], [ -79.739693000267835, 40.585437999999229 ], [ -79.735600000266416, 40.577119999999233 ], [ -79.711222000256768, 40.580032999999261 ], [ -79.698742000252381, 40.56352299999925 ], [ -79.708829000256458, 40.554345999999249 ], [ -79.683044000246682, 40.554819999999268 ], [ -79.688864000249112, 40.543442999999257 ], [ -79.673198000243175, 40.549265999999271 ], [ -79.672333000243043, 40.539733999999271 ], [ -79.644481000233156, 40.532655999999314 ], [ -79.679615000246486, 40.507161999999234 ], [ -79.61450400022386, 40.47569099999928 ], [ -79.615158000224298, 40.465394999999276 ], [ -79.639122000232717, 40.463532999999245 ], [ -79.627852000228998, 40.450432999999251 ], [ -79.635429000232307, 40.42032799999923 ], [ -79.656276000239828, 40.419031999999191 ], [ -79.644879000235974, 40.406556999999189 ], [ -79.666910000243888, 40.411776999999162 ], [ -79.666503000243438, 40.425034999999184 ], [ -79.704730000257868, 40.427561999999128 ], [ -79.736410000269686, 40.456528999999122 ], [ -79.759719000279148, 40.460405999999089 ], [ -79.765830000281085, 40.483647999999093 ], [ -79.751517000274859, 40.496372999999146 ], [ -79.763449000279564, 40.504741999999126 ], [ -79.786502000289559, 40.494634999999072 ], [ -79.793911000292283, 40.511629999999094 ], [ -79.834808000310161, 40.520788999999048 ], [ -79.835272000310013, 40.532633999999057 ], [ -79.849341000317224, 40.506894999998998 ], [ -79.871867000327498, 40.517057999998976 ], [ -79.889832000336952, 40.491526999998911 ], [ -79.907835000345713, 40.495376999998882 ], [ -79.908795000344014, 40.563667999998991 ], [ -79.918509000349161, 40.554787999998958 ], [ -79.946878000363128, 40.571053999998938 ], [ -79.959278000369963, 40.561518999998903 ], [ -79.946796000363747, 40.550767999998911 ], [ -79.963873000373255, 40.536364999998874 ], [ -79.979064000381157, 40.543874999998849 ], [ -79.989391000388139, 40.50669699999878 ], [ -80.0101180003998, 40.503922999998736 ], [ -80.017176000404987, 40.472310999998669 ], [ -80.029064000411935, 40.470008999998633 ], [ -80.026562000409498, 40.496687999998692 ], [ -80.039781000417008, 40.500956999998671 ], [ -80.030367000411019, 40.513993999998704 ], [ -80.052541000424, 40.515032999998652 ], [ -80.056433000427148, 40.493945999998623 ], [ -80.096522000452467, 40.476969999998509 ], [ -80.108765000461318, 40.451198999998432 ], [ -80.122144000469561, 40.460308999998411 ], [ -80.145991000486021, 40.444332999998331 ], [ -80.172020000503665, 40.446200999998254 ], [ -80.167533000501933, 40.416001999998223 ], [ -80.184573000512998, 40.432697999998211 ], [ -80.258865000569457, 40.395240999997938 ], [ -80.296579000597433, 40.425445999997891 ], [ -80.282117000585032, 40.442840999997991 ], [ -80.224038000540105, 40.458293999998162 ], [ -80.201858000522819, 40.483778999998279 ], [ -80.220089000534358, 40.516113999998318 ], [ -80.240907000550351, 40.502484999998231 ], [ -80.259685000564033, 40.511106999998191 ], [ -80.275156000573261, 40.561053999998272 ], [ -80.255745000557567, 40.577688999998365 ], [ -80.267869000567146, 40.570432999998324 ], [ -80.284080000578996, 40.582799999998301 ], [ -80.239554000544871, 40.590286999998426 ], [ -80.228579000537678, 40.573071999998412 ], [ -80.184418000505161, 40.597020999998556 ], [ -80.183117000502605, 40.631922999998629 ], [ -80.166646000490971, 40.64077199999867 ], [ -80.18647100050346, 40.662622999998703 ], [ -80.180371000498738, 40.673699999998725 ], [ -80.20948300051856, 40.681967999998676 ], [ -80.204393000513207, 40.718515999998779 ], [ -80.248511000543971, 40.735856999998724 ], [ -80.238762000536724, 40.737917999998764 ], [ -80.239435000535593, 40.769647999998824 ], [ -80.274948000562375, 40.760220999998744 ], [ -80.29886500058187, 40.73996999999865 ], [ -80.290451000576184, 40.724802999998644 ], [ -80.30063600058439, 40.719891999998616 ], [ -80.315925000595655, 40.733477999998613 ], [ -80.324728000603272, 40.723658999998555 ], [ -80.338496000613418, 40.740601999998589 ], [ -80.409662000675297, 40.718812999998391 ], [ -80.408940000669475, 40.799466999998621 ] ] ] } },
{ "type": "Feature", "properties": { "district_id": 1, "voting_age_pop": 584613, "lib_votes": 0, "grn_votes": 0, "con_votes": 0, "ref_votes": 0, "total_pop": 757653, "dem_votes_sum": 153427, "rep_votes_sum": 191288, "lib_votes_sum": 0, "grn_votes_sum": 0, "con_votes_sum": 0, "ref_votes_sum": 0, "minority_pop_sum": 61691, "dem_pct": 0.44508361980186528, "rep_pct": 0.55491638019813472, "lib_pct": 0.0, "grn_pct": 0.0, "con_pct": 0.0, "ref_pct": 0.0, "minority_pct": 0.081423818027513917, "compactness": 0.1441742587600946 }, "geometry": { "type": "Polygon", "coordinates": [ [ [ -76.926955000000476, 40.117063 ], [ -77.013341000000665, 40.075375 ], [ -77.076724000000823, 40.113615 ], [ -77.114161000000948, 40.122338 ], [ -77.119432000000955, 40.170889 ], [ -77.164780000001102, 40.162996 ], [ -77.186224000001189, 40.191286 ], [ -77.171095000001131, 40.200042 ], [ -77.212531000001306, 40.200093 ], [ -77.242584000001415, 40.185399 ], [ -77.246640000001435, 40.200379 ], [ -77.208951000001278, 40.202928 ], [ -77.225755000001328, 40.210534 ], [ -77.179681000001182, 40.22599 ], [ -77.204687000001243, 40.287047 ], [ -77.185461000001169, 40.287664 ], [ -77.1643530000011, 40.199521 ], [ -77.064131000000799, 40.197308 ], [ -76.917350000000468, 40.233041 ], [ -76.910345000000433, 40.240988 ], [ -76.95635200000055, 40.305834 ], [ -76.923366000000485, 40.308948 ], [ -76.914970000000451, 40.328484 ], [ -76.939783000000503, 40.320062 ], [ -76.947666000000524, 40.351744 ], [ -77.102039000000872, 40.339655 ], [ -77.084972000000832, 40.366031 ], [ -77.090941000000853, 40.389557 ], [ -77.024751000000691, 40.43105 ], [ -77.003235000000629, 40.4268 ], [ -76.979108000000565, 40.4395 ], [ -76.963379000000529, 40.434022 ], [ -76.953253000000501, 40.404753 ], [ -76.780570000000282, 40.459573 ], [ -76.768540000000257, 40.436698 ], [ -76.683086000000188, 40.4718 ], [ -76.535414, 40.555157 ], [ -76.500227, 40.532944 ], [ -76.535361000000108, 40.50464 ], [ -76.628700000000151, 40.463843 ], [ -76.619707000000133, 40.44554 ], [ -76.517379, 40.408092 ], [ -76.495588, 40.390464 ], [ -76.488738, 40.345812 ], [ -76.42704, 40.345552 ], [ -76.448217, 40.325606 ], [ -76.418652, 40.324596 ], [ -76.410824, 40.305757 ], [ -76.381502, 40.311244 ], [ -76.383385, 40.325464 ], [ -76.291201, 40.337172 ], [ -76.272276, 40.325689 ], [ -76.285149, 40.309434 ], [ -76.267992, 40.309196 ], [ -76.271411, 40.27085 ], [ -76.28395, 40.264369 ], [ -76.275942, 40.227077 ], [ -76.252908, 40.217226 ], [ -76.202293, 40.236151 ], [ -76.183607, 40.207416 ], [ -76.166134, 40.211504 ], [ -76.094008, 40.166343 ], [ -76.11661, 40.152545 ], [ -76.150337, 40.162968 ], [ -76.188156, 40.153112 ], [ -76.172322, 40.100716 ], [ -76.129548, 40.091551 ], [ -76.106748, 40.070502 ], [ -76.154254, 40.065338 ], [ -76.169017, 40.04548 ], [ -76.19358, 40.049613 ], [ -76.196483, 40.035025 ], [ -76.250456, 40.016671 ], [ -76.258543, 40.022593 ], [ -76.266441, 40.009509 ], [ -76.283952, 40.019453 ], [ -76.277757, 40.008557 ], [ -76.282475, 40.006751 ], [ -76.302698, 40.031235 ], [ -76.297703, 40.042011 ], [ -76.321372, 40.051714 ], [ -76.325399, 40.041593 ], [ -76.343427, 40.048303 ], [ -76.34289, 40.038056 ], [ -76.383359, 40.03576 ], [ -76.374646, 40.011625 ], [ -76.387789, 40.009134 ], [ -76.383965, 39.991934 ], [ -76.370688, 39.993761 ], [ -76.357343, 39.977341 ], [ -76.366941, 39.980138 ], [ -76.368177, 39.945151 ], [ -76.387497, 39.940925 ], [ -76.392115, 39.912749 ], [ -76.468598, 39.943559 ], [ -76.490802, 39.968093 ], [ -76.574297000000129, 39.953346 ], [ -76.538141, 39.999934 ], [ -76.594022000000109, 39.984731 ], [ -76.614743000000132, 40.050066 ], [ -76.664600000000192, 40.063709 ], [ -76.715097000000213, 40.11598 ], [ -76.723904000000218, 40.109729 ], [ -76.704994000000212, 40.100974 ], [ -76.70907000000021, 40.08268 ], [ -76.724228000000224, 40.083101 ], [ -76.738984000000229, 40.106526 ], [ -76.74972100000025, 40.097691 ], [ -76.784863000000286, 40.099458 ], [ -76.796912000000304, 40.110565 ], [ -76.813247000000302, 40.093891 ], [ -76.832799000000321, 40.096763 ], [ -76.834623000000335, 40.081995 ], [ -76.842317000000349, 40.099068 ], [ -76.856643000000361, 40.096962 ], [ -76.853795000000375, 40.114638 ], [ -76.926955000000476, 40.117063 ] ] ] } },
{ "type": "Feature", "properties": { "district_id": 2, "voting_age_pop": 611860, "lib_votes": 0, "grn_votes": 0, "con_votes": 0, "ref_votes": 0, "total_pop": 781298, "dem_votes_sum": 310117, "rep_votes_sum": 56374, "lib_votes_sum": 0, "grn_votes_sum": 0, "con_votes_sum": 0, "ref_votes_sum": 0, "minority_pop_sum": 314082, "dem_pct": 0.84617903304583197, "rep_pct": 0.15382096695416805, "lib_pct": 0.0, "grn_pct": 0.0, "con_pct": 0.0, "ref_pct": 0.0, "minority_pct": 0.40200026110395776, "compactness": 0.18936241490815656 }, "geometry": { "type": "MultiPolygon", "coordinates": [ [ [ [ -75.137296, 39.889966 ], [ -75.316531, 39.850012 ], [ -75.317422, 39.888588 ], [ -75.336788, 39.878603 ], [ -75.350289, 39.890771 ], [ -75.354831, 39.883781 ], [ -75.364817, 39.930576 ], [ -75.320205, 39.952915 ], [ -75.306445, 39.949246 ], [ -75.322059, 39.944309 ], [ -75.295844, 39.922993 ], [ -75.281732, 39.943355 ], [ -75.27326, 39.931534 ], [ -75.240266, 39.945866 ], [ -75.196871, 39.94273 ], [ -75.201542, 39.965289 ], [ -75.183323, 39.964374 ], [ -75.204056, 39.972701 ], [ -75.191492, 40.00214 ], [ -75.207784, 40.006302 ], [ -75.178229, 40.014435 ], [ -75.180291, 40.030411 ], [ -75.134757, 40.041759 ], [ -75.128126, 40.025222 ], [ -75.110195, 40.022291 ], [ -75.125737, 39.996451 ], [ -75.107557, 39.970533 ], [ -75.135239, 39.950677 ], [ -75.137296, 39.889966 ] ] ], [ [ [ -75.319998, 39.873832 ], [ -75.317372, 39.876772 ], [ -75.31771, 39.873794 ], [ -75.319998, 39.873832 ] ] ] ] } },
{ "type": "Feature", "properties": { "district_id": 3, "voting_age_pop": 570510, "lib_votes": 0, "grn_votes": 0, "con_votes": 0, "ref_votes": 0, "total_pop": 719004, "dem_votes_sum": 100427, "rep_votes_sum": 159995, "lib_votes_sum": 0, "grn_votes_sum": 0, "con_votes_sum": 0, "ref_votes_sum": 0, "minority_pop_sum": 17823, "dem_pct": 0.38563178226109929, "rep_pct": 0.61436821773890071, "lib_pct": 0.0, "grn_pct": 0.0, "con_pct": 0.0, "ref_pct": 0.0, "minority_pct": 0.024788457366023, "compactness": 0.17293494386347424 }, "geometry": { "type": "Polygon", "coordinates": [ [ [ -77.790333000006186, 40.899788 ], [ -77.893855000007932, 41.012324 ], [ -77.928244000008618, 40.998752 ], [ -77.985906000009948, 40.940322 ], [ -78.062833000011835, 41.004589 ], [ -78.061762000011825, 40.995067 ], [ -78.086338000012503, 40.994271 ], [ -78.09655400001283, 40.97317 ], [ -78.080039000012377, 40.955371 ], [ -78.120844000013591, 40.941747 ], [ -78.134083000013987, 40.946629 ], [ -78.133406000013949, 40.96685 ], [ -78.143720000014298, 40.948743 ], [ -78.162759000014887, 40.961317 ], [ -78.170884000015192, 40.955704 ], [ -78.171651000015046, 41.056254 ], [ -78.22255700001682, 41.063335 ], [ -78.236300000017337, 41.077429 ], [ -78.234675000016836, 41.323413 ], [ -78.254382000017586, 41.323584 ], [ -78.253959000017417, 41.404721 ], [ -78.450486000026345, 41.397895 ], [ -78.475074000027618, 41.418631 ], [ -78.531806000030997, 41.413188 ], [ -78.55941900003269, 41.427473 ], [ -78.441567000025742, 41.450984 ], [ -78.419608000024553, 41.468165 ], [ -78.419299000024168, 41.616853 ], [ -78.445435000025512, 41.616654 ], [ -78.445226000025102, 41.763264 ], [ -78.515291000028924, 41.762876 ], [ -78.515472000029163, 41.688773 ], [ -78.649178000037907, 41.688366 ], [ -78.667720000039139, 41.73264 ], [ -78.62230200003583, 41.732726 ], [ -78.589195000033513, 41.751493 ], [ -78.588946000033459, 41.762399 ], [ -78.550662000031068, 41.762703 ], [ -78.519816000029152, 41.778545 ], [ -78.551040000030952, 41.79382 ], [ -78.537882000030066, 41.820351 ], [ -78.547072000030568, 41.843392 ], [ -78.572612000032137, 41.848343 ], [ -78.551599000030777, 41.860626 ], [ -78.560480000031276, 41.880135 ], [ -78.779754000047632, 41.875815 ], [ -78.780546000047082, 41.998049 ], [ -76.638104000000112, 42.000738 ], [ -76.633706000000117, 41.906947 ], [ -76.554843, 41.909077 ], [ -76.548672, 41.794537 ], [ -76.520606, 41.795542 ], [ -76.524515, 41.723178 ], [ -76.416636, 41.725115 ], [ -76.403404, 41.680819 ], [ -76.493557, 41.604361 ], [ -76.469545, 41.561501 ], [ -76.683117000000166, 41.572071 ], [ -76.704409000000183, 41.539964 ], [ -76.69206500000017, 41.526427 ], [ -76.710351000000188, 41.492271 ], [ -76.670055000000161, 41.463558 ], [ -76.639976000000118, 41.472901 ], [ -76.693550000000187, 41.370176 ], [ -76.737518000000193, 41.330807 ], [ -76.816709000000287, 41.33539 ], [ -76.849948000000339, 41.229436 ], [ -76.819252000000304, 41.227647 ], [ -76.803637000000265, 41.19538 ], [ -76.880963000000364, 41.158044 ], [ -76.871643000000361, 41.160046 ], [ -76.880457000000376, 41.109733 ], [ -76.860510000000346, 41.114422 ], [ -76.858106000000348, 41.10573 ], [ -76.806261000000276, 41.098696 ], [ -76.808664000000263, 41.056256 ], [ -76.857757000000348, 41.055625 ], [ -76.86143000000034, 41.033176 ], [ -76.839840000000308, 41.031031 ], [ -76.862928000000366, 41.02417 ], [ -76.864767000000356, 41.020051 ], [ -76.834759000000318, 41.01944 ], [ -76.842657000000315, 41.006117 ], [ -76.772343000000248, 41.016295 ], [ -76.735157000000214, 41.090742 ], [ -76.734085000000192, 41.124267 ], [ -76.699437000000188, 41.076251 ], [ -76.621311000000119, 41.091624 ], [ -76.61897100000013, 41.063759 ], [ -76.569915000000108, 41.053761 ], [ -76.563013, 41.036261 ], [ -76.5283060000001, 41.046873 ], [ -76.495197, 41.065123 ], [ -76.5201, 41.083468 ], [ -76.530967, 41.117768 ], [ -76.601171000000107, 41.157395 ], [ -76.607707000000119, 41.193406 ], [ -76.635400000000132, 41.227732 ], [ -76.625548000000137, 41.252303 ], [ -76.591732, 41.264852 ], [ -76.565024, 41.29905 ], [ -76.447597, 41.275629 ], [ -76.407934, 41.308418 ], [ -76.310133, 41.310199 ], [ -76.319236, 41.208092 ], [ -76.307154, 41.18525 ], [ -76.27784, 41.188977 ], [ -76.267226, 41.170376 ], [ -76.288843, 41.152036 ], [ -76.277639, 41.131804 ], [ -76.228975, 41.138466 ], [ -76.284922, 41.115869 ], [ -76.268766, 41.102182 ], [ -76.266951, 41.068593 ], [ -76.228552, 41.07251 ], [ -76.228478, 41.053632 ], [ -76.135981, 41.073818 ], [ -76.119158, 41.067148 ], [ -76.109153, 41.030626 ], [ -76.060954, 41.044154 ], [ -76.058801, 41.057264 ], [ -76.03994, 41.050482 ], [ -75.984159, 41.069634 ], [ -76.013491, 41.045925 ], [ -76.009803, 41.021867 ], [ -75.953346, 41.037423 ], [ -75.963631, 41.021931 ], [ -75.927808, 41.017909 ], [ -75.91143, 41.031718 ], [ -75.888499, 40.952035 ], [ -75.863924, 40.960976 ], [ -75.847466, 40.945264 ], [ -75.830173, 40.948947 ], [ -75.830722, 40.929681 ], [ -75.798954, 40.904121 ], [ -75.926429, 40.851726 ], [ -75.908336, 40.835554 ], [ -76.082606, 40.771404 ], [ -76.219678, 40.768637 ], [ -76.12859, 40.692753 ], [ -76.151469, 40.685863 ], [ -76.143772, 40.669005 ], [ -76.153654, 40.66579 ], [ -76.132326, 40.648556 ], [ -76.209708, 40.628738 ], [ -76.178845, 40.616207 ], [ -76.200602, 40.606986 ], [ -76.233218, 40.652433 ], [ -76.282132, 40.628931 ], [ -76.329522, 40.692748 ], [ -76.300362, 40.715319 ], [ -76.353382, 40.730839 ], [ -76.375614, 40.753327 ], [ -76.382267, 40.744763 ], [ -76.400295, 40.751926 ], [ -76.391923, 40.741877 ], [ -76.430776, 40.736247 ], [ -76.469642, 40.693821 ], [ -76.432513, 40.669906 ], [ -76.420023, 40.679111 ], [ -76.394106, 40.665072 ], [ -76.457822, 40.635808 ], [ -76.452334, 40.610563 ], [ -76.54514, 40.561118 ], [ -76.562649000000121, 40.571883 ], [ -76.587589000000108, 40.560631 ], [ -76.719185000000209, 40.482891 ], [ -76.953253000000501, 40.404753 ], [ -76.975668000000567, 40.438295 ], [ -76.923467000000471, 40.47054 ], [ -76.884588000000406, 40.466178 ], [ -76.892539000000411, 40.527862 ], [ -76.870068000000387, 40.529851 ], [ -76.886411000000408, 40.617758 ], [ -76.919272000000447, 40.603544 ], [ -76.956077000000519, 40.627938 ], [ -77.063584000000745, 40.5996 ], [ -77.063834000000753, 40.654023 ], [ -77.031674000000663, 40.657092 ], [ -77.035479000000677, 40.676822 ], [ -77.060084000000742, 40.748021 ], [ -77.112335000000897, 40.727897 ], [ -77.127591000000933, 40.803732 ], [ -77.202186000001191, 40.771754 ], [ -77.243358000001351, 40.832087 ], [ -77.356628000001905, 40.807334 ], [ -77.356770000001887, 40.815392 ], [ -77.525516000003122, 40.746518 ], [ -77.584795000003695, 40.691015 ], [ -77.667819000004599, 40.735335 ], [ -77.552767000003371, 40.777493 ], [ -77.572810000003528, 40.79936 ], [ -77.688764000004753, 40.903477 ], [ -77.752349000005665, 40.863909 ], [ -77.765956000005858, 40.878804 ], [ -77.734281000005382, 40.88772 ], [ -77.741168000005473, 40.909631 ], [ -77.790333000006186, 40.899788 ] ] ] } },
{ "type": "Feature", "properties": { "district_id": 4, "voting_age_pop": 563625, "lib_votes": 0, "grn_votes": 0, "con_votes": 0, "ref_votes": 0, "total_pop": 742860, "dem_votes_sum": 197339, "rep_votes_sum": 178204, "lib_votes_sum": 0, "grn_votes_sum": 0, "con_votes_sum": 0, "ref_votes_sum": 0, "minority_pop_sum": 72762, "dem_pct": 0.52547644344322753, "rep_pct": 0.47452355655677247, "lib_pct": 0.0, "grn_pct": 0.0, "con_pct": 0.0, "ref_pct": 0.0, "minority_pct": 0.097948469428963736, "compactness": 0.16436455120660873 }, "geometry": { "type": "Polygon", "coordinates": [ [ [ -75.690828, 39.858475 ], [ -75.758745, 39.851376 ], [ -75.770416, 39.912129 ], [ -75.78764, 39.916068 ], [ -75.777465, 39.945091 ], [ -75.796488, 39.933545 ], [ -75.835431, 39.961186 ], [ -75.825705, 39.975153 ], [ -75.988137, 39.939604 ], [ -75.994143, 39.953703 ], [ -75.936677, 40.036392 ], [ -76.003106, 40.051612 ], [ -76.005134, 40.079252 ], [ -75.9964, 40.095197 ], [ -75.94244, 40.106515 ], [ -75.82098, 40.169716 ], [ -75.810559, 40.154835 ], [ -75.738987, 40.148148 ], [ -75.760436, 40.206307 ], [ -75.697498, 40.241482 ], [ -75.677767, 40.215403 ], [ -75.687429, 40.208967 ], [ -75.67345, 40.202537 ], [ -75.660309, 40.21132 ], [ -75.659409, 40.242344 ], [ -75.690171, 40.236451 ], [ -75.698552, 40.242768 ], [ -75.720458, 40.24846 ], [ -75.716004, 40.263168 ], [ -75.699322, 40.299009 ], [ -75.686189, 40.303542 ], [ -75.664319, 40.281367 ], [ -75.604515, 40.354992 ], [ -75.596206, 40.330036 ], [ -75.53375, 40.30645 ], [ -75.550629, 40.266252 ], [ -75.528524, 40.241114 ], [ -75.489976, 40.224649 ], [ -75.46338, 40.230785 ], [ -75.450313, 40.218547 ], [ -75.450125, 40.200403 ], [ -75.490078, 40.224544 ], [ -75.51191, 40.202671 ], [ -75.485059, 40.17166 ], [ -75.454434, 40.164177 ], [ -75.441876, 40.137142 ], [ -75.4484, 40.121431 ], [ -75.471361, 40.113231 ], [ -75.456624, 40.093854 ], [ -75.496405, 40.083588 ], [ -75.480846, 40.035314 ], [ -75.507018, 40.025671 ], [ -75.482656, 39.996981 ], [ -75.474892, 40.004652 ], [ -75.448808, 39.996886 ], [ -75.475751, 40.031508 ], [ -75.451978, 40.02089 ], [ -75.447016, 40.045199 ], [ -75.474625, 40.038147 ], [ -75.476122, 40.051581 ], [ -75.457449, 40.064794 ], [ -75.44777, 40.048658 ], [ -75.427282, 40.058393 ], [ -75.456675, 40.081487 ], [ -75.440721, 40.094322 ], [ -75.427487, 40.074201 ], [ -75.41253, 40.07958 ], [ -75.407226, 40.069809 ], [ -75.421851, 40.065295 ], [ -75.405082, 40.045966 ], [ -75.378485, 40.050845 ], [ -75.349344, 40.035939 ], [ -75.35431, 40.011834 ], [ -75.321689, 40.015786 ], [ -75.36323, 39.997874 ], [ -75.336006, 39.980559 ], [ -75.359458, 39.973807 ], [ -75.344456, 39.966257 ], [ -75.348307, 39.945123 ], [ -75.331544, 39.959198 ], [ -75.322878, 39.955925 ], [ -75.366822, 39.926054 ], [ -75.349231, 39.879058 ], [ -75.350289, 39.890771 ], [ -75.336788, 39.878603 ], [ -75.321871, 39.888509 ], [ -75.310197, 39.880338 ], [ -75.316531, 39.850012 ], [ -75.346315, 39.844159 ], [ -75.415062, 39.801919 ], [ -75.472445, 39.826884 ], [ -75.539716, 39.838925 ], [ -75.610729, 39.835299 ], [ -75.684757, 39.814415 ], [ -75.690828, 39.858475 ] ], [ [ -75.317979, 39.877682 ], [ -75.319733, 39.873658 ], [ -75.31771, 39.873794 ], [ -75.317979, 39.877682 ] ] ] } },
{ "type": "Feature", "properties": { "district_id": 5, "voting_age_pop": 568699, "lib_votes": 0, "grn_votes": 0, "con_votes": 0, "ref_votes": 0, "total_pop": 695639, "dem_votes_sum": 223967, "rep_votes_sum": 111267, "lib_votes_sum": 0, "grn_votes_sum": 0, "con_votes_sum": 0, "ref_votes_sum": 0, "minority_pop_sum": 140744, "dem_pct": 0.66809154202735999, "rep_pct": 0.33190845797264001, "lib_pct": 0.0, "grn_pct": 0.0, "con_pct": 0.0, "ref_pct": 0.0, "minority_pct": 0.20232333149809026, "compactness": 0.12258927178054549 }, "geometry": { "type": "MultiPolygon", "coordinates": [ [ [ [ -80.024670000412954, 40.375218999998495 ], [ -80.056021000430448, 40.404200999998473 ], [ -80.066222000437008, 40.394548999998428 ], [ -80.070329000438875, 40.410826999998449 ], [ -80.050665000426861, 40.412949999998503 ], [ -80.035323000416369, 40.449342999998585 ], [ -80.083464000444664, 40.467645999998503 ], [ -80.075679000439095, 40.487393999998567 ], [ -80.056433000427148, 40.493945999998623 ], [ -80.056177000426231, 40.51289099999866 ], [ -80.032720000412283, 40.516700999998719 ], [ -80.030394000412642, 40.471962999998631 ], [ -80.017176000404987, 40.472310999998669 ], [ -80.0101180003998, 40.503922999998736 ], [ -79.989811000388386, 40.506370999998772 ], [ -79.981475000383327, 40.519724999998814 ], [ -79.979064000381157, 40.543874999998849 ], [ -79.963873000373255, 40.536364999998874 ], [ -79.946796000363747, 40.550767999998911 ], [ -79.958231000369665, 40.554263999998902 ], [ -79.954114000366957, 40.569584999998924 ], [ -79.918509000349161, 40.554787999998958 ], [ -79.908795000344014, 40.563667999998991 ], [ -79.907835000345713, 40.495376999998882 ], [ -79.889832000336952, 40.491526999998911 ], [ -79.871867000327498, 40.517057999998976 ], [ -79.849341000317224, 40.506894999998998 ], [ -79.849434000316791, 40.523552999999033 ], [ -79.835272000310013, 40.532633999999057 ], [ -79.834808000310161, 40.520788999999048 ], [ -79.793911000292283, 40.511629999999094 ], [ -79.786502000289559, 40.494634999999072 ], [ -79.76337100027952, 40.504735999999141 ], [ -79.749207000274069, 40.489775999999132 ], [ -79.765830000281085, 40.483647999999093 ], [ -79.759719000279148, 40.460405999999089 ], [ -79.736410000269686, 40.456528999999122 ], [ -79.704595000257768, 40.42965599999912 ], [ -79.732483000269511, 40.400053999999066 ], [ -79.757038000279124, 40.416953999999045 ], [ -79.771082000286086, 40.375418999998971 ], [ -79.724578000267684, 40.343947999999017 ], [ -79.742688000274995, 40.346084999998993 ], [ -79.745330000276496, 40.328319999998975 ], [ -79.771350000287612, 40.321159999998905 ], [ -79.748750000278392, 40.30989999999894 ], [ -79.753660000280817, 40.294429999998925 ], [ -79.712960000263593, 40.321039999999016 ], [ -79.692477000256133, 40.297053999999015 ], [ -79.700135000259678, 40.272975999998998 ], [ -79.661407000245759, 40.233171999999009 ], [ -79.657432000244768, 40.210672999999005 ], [ -79.672665000250547, 40.207519999998958 ], [ -79.684207000254617, 40.223457999998985 ], [ -79.70902500026439, 40.221385999998923 ], [ -79.724190000270852, 40.205207999998883 ], [ -79.741372000277821, 40.207878999998847 ], [ -79.735083000274869, 40.223148999998884 ], [ -79.752840000282035, 40.231873999998854 ], [ -79.757659000283567, 40.250867999998874 ], [ -79.777821000292803, 40.228252999998809 ], [ -79.839080000321005, 40.208449999998663 ], [ -79.860140000330091, 40.240927999998654 ], [ -79.839503000320278, 40.241476999998696 ], [ -79.84439500032218, 40.255025999998715 ], [ -79.884249000341015, 40.268893999998646 ], [ -79.927749000363946, 40.244009999998497 ], [ -79.940484000370134, 40.260415999998507 ], [ -79.969083000385297, 40.26866199999845 ], [ -79.927834000362623, 40.28557199999856 ], [ -79.932343000363645, 40.327090999998617 ], [ -79.94255400036937, 40.316449999998582 ], [ -79.95681700037683, 40.321134999998556 ], [ -79.967622000382548, 40.32599299999854 ], [ -79.961590000378877, 40.337032999998563 ], [ -79.97096800038419, 40.330919999998542 ], [ -79.966266000381225, 40.342014999998575 ], [ -79.985968000391949, 40.345950999998529 ], [ -79.977990000386313, 40.380268999998613 ], [ -80.024670000412954, 40.375218999998495 ] ] ], [ [ [ -79.762068000281843, 40.392767999999016 ], [ -79.75451900027879, 40.389915999999026 ], [ -79.75097900027734, 40.388537999999016 ], [ -79.762068000281843, 40.392767999999016 ] ] ] ] } },
{ "type": "Feature", "properties": { "district_id": 6, "voting_age_pop": 574345, "lib_votes": 0, "grn_votes": 0, "con_votes": 0, "ref_votes": 0, "total_pop": 723652, "dem_votes_sum": 156504, "rep_votes_sum": 178218, "lib_votes_sum": 0, "grn_votes_sum": 0, "con_votes_sum": 0, "ref_votes_sum": 0, "minority_pop_sum": 33286, "dem_pct": 0.4675641278434044, "rep_pct": 0.5324358721565956, "lib_pct": 0.0, "grn_pct": 0.0, "con_pct": 0.0, "ref_pct": 0.0, "minority_pct": 0.045997247295661452, "compactness": 0.21387972842622205 }, "geometry": { "type": "Polygon", "coordinates": [ [ [ -79.392459000168571, 39.721577999999099 ], [ -80.519342000851694, 39.721402999994581 ], [ -80.519047000773199, 40.789443999998376 ], [ -80.459059000715172, 40.793746999998504 ], [ -80.432684000690045, 40.807637999998605 ], [ -80.408940000669475, 40.799466999998621 ], [ -80.409662000675297, 40.718812999998391 ], [ -80.338496000613418, 40.740601999998589 ], [ -80.324728000603272, 40.723658999998555 ], [ -80.315925000595655, 40.733477999998613 ], [ -80.30063600058439, 40.719891999998616 ], [ -80.290451000576184, 40.724802999998644 ], [ -80.29886500058187, 40.73996999999865 ], [ -80.274948000562375, 40.760220999998744 ], [ -80.239435000535593, 40.769647999998824 ], [ -80.238762000536724, 40.737917999998764 ], [ -80.248511000543971, 40.735856999998724 ], [ -80.204393000513207, 40.718515999998779 ], [ -80.20948300051856, 40.681967999998676 ], [ -80.180371000498738, 40.673699999998725 ], [ -80.18647100050346, 40.662622999998703 ], [ -80.166646000490971, 40.64077199999867 ], [ -80.183117000502605, 40.631922999998629 ], [ -80.184418000505161, 40.597020999998556 ], [ -80.228579000537678, 40.573071999998412 ], [ -80.239554000544871, 40.590286999998426 ], [ -80.284080000578996, 40.582799999998301 ], [ -80.267869000567146, 40.570432999998324 ], [ -80.255745000557567, 40.577688999998365 ], [ -80.275156000573261, 40.561053999998272 ], [ -80.259685000564033, 40.511106999998191 ], [ -80.240907000550351, 40.502484999998231 ], [ -80.219666000534033, 40.515911999998309 ], [ -80.201544000522745, 40.480240999998287 ], [ -80.235268000548672, 40.452549999998126 ], [ -80.282117000585032, 40.442840999997991 ], [ -80.296375000597294, 40.425267999997878 ], [ -80.258865000569457, 40.395240999997938 ], [ -80.184573000512998, 40.432697999998211 ], [ -80.167533000501933, 40.416001999998223 ], [ -80.172020000503665, 40.446200999998254 ], [ -80.145991000486021, 40.444332999998331 ], [ -80.122144000469561, 40.460308999998411 ], [ -80.108765000461318, 40.451198999998432 ], [ -80.096550000452481, 40.476946999998503 ], [ -80.075182000438957, 40.483143999998568 ], [ -80.083464000444664, 40.467645999998503 ], [ -80.035323000416369, 40.449342999998585 ], [ -80.050665000426861, 40.412949999998503 ], [ -80.070329000438875, 40.410826999998449 ], [ -80.066222000437008, 40.394548999998428 ], [ -80.056021000430448, 40.404200999998473 ], [ -80.044882000423954, 40.399059999998492 ], [ -80.024670000412954, 40.375218999998495 ], [ -79.977990000386313, 40.380268999998613 ], [ -79.985968000391949, 40.345950999998529 ], [ -79.966266000381225, 40.342014999998575 ], [ -79.97096800038419, 40.330919999998542 ], [ -79.961590000378877, 40.337032999998563 ], [ -79.967622000382548, 40.32599299999854 ], [ -79.95681700037683, 40.321134999998556 ], [ -79.94255400036937, 40.316449999998582 ], [ -79.932343000363645, 40.327090999998617 ], [ -79.927834000362623, 40.28557199999856 ], [ -79.969083000385297, 40.26866199999845 ], [ -79.940484000370134, 40.260415999998507 ], [ -79.927749000363946, 40.244009999998497 ], [ -79.89631300034705, 40.267920999998623 ], [ -79.845500000322701, 40.255774999998707 ], [ -79.839503000320278, 40.241476999998696 ], [ -79.860140000330091, 40.240927999998654 ], [ -79.839080000321005, 40.208449999998663 ], [ -79.778041000292902, 40.228143999998807 ], [ -79.776230000291761, 40.241106999998813 ], [ -79.753379000281797, 40.24987899999887 ], [ -79.752840000282035, 40.231873999998854 ], [ -79.735083000274869, 40.223148999998884 ], [ -79.742633000278332, 40.208695999998838 ], [ -79.701280000261775, 40.201727999998901 ], [ -79.71282500026696, 40.175148999998868 ], [ -79.694098000259913, 40.158956999998914 ], [ -79.723174000272607, 40.113508999998785 ], [ -79.685624000257633, 40.113822999998845 ], [ -79.642371000241866, 40.08362799999891 ], [ -79.62593300023579, 40.088152999998947 ], [ -79.621756000235123, 40.046817999998929 ], [ -79.652105000246536, 40.033758999998852 ], [ -79.621510000235673, 40.01579999999889 ], [ -79.655433000248053, 40.02159299999883 ], [ -79.668580000253613, 39.995319999998777 ], [ -79.661238000250989, 39.988448999998795 ], [ -79.636489000241554, 39.995599999998845 ], [ -79.630940000239704, 39.986399999998845 ], [ -79.652273000248329, 39.953679999998784 ], [ -79.623350000238204, 39.923049999998796 ], [ -79.633695000242454, 39.90030499999876 ], [ -79.595738000228735, 39.900683999998833 ], [ -79.585019000225259, 39.887373999998857 ], [ -79.487038000192655, 39.927885999999063 ], [ -79.472159000188327, 39.917909999999075 ], [ -79.382676000163187, 39.9224169999992 ], [ -79.363739000157921, 39.947777999999246 ], [ -79.342497000152548, 39.94804899999928 ], [ -79.337949000151866, 39.914475999999276 ], [ -79.322515000148243, 39.900973999999273 ], [ -79.331696000150856, 39.872647999999252 ], [ -79.304845000144567, 39.855327999999282 ], [ -79.29293900014207, 39.829507999999286 ], [ -79.300009000144058, 39.803063999999274 ], [ -79.325668000150216, 39.804915999999231 ], [ -79.326071000150449, 39.792969999999208 ], [ -79.36610700016044, 39.803906999999157 ], [ -79.354457000157737, 39.782476999999169 ], [ -79.379557000164141, 39.790076999999137 ], [ -79.394958000168387, 39.783376999999113 ], [ -79.378658000164208, 39.768876999999115 ], [ -79.409959000173174, 39.734977999999046 ], [ -79.39265900016845, 39.732677999999083 ], [ -79.392459000168571, 39.721577999999099 ] ] ] } },
{ "type": "Feature", "properties": { "district_id": 7, "voting_age_pop": 563844, "lib_votes": 0, "grn_votes": 0, "con_votes": 0, "ref_votes": 0, "total_pop": 703834, "dem_votes_sum": 105363, "rep_votes_sum": 186224, "lib_votes_sum": 0, "grn_votes_sum": 0, "con_votes_sum": 0, "ref_votes_sum": 0, "minority_pop_sum": 15847, "dem_pct": 0.36134326976168346, "rep_pct": 0.63865673023831648, "lib_pct": 0.0, "grn_pct": 0.0, "con_pct": 0.0, "ref_pct": 0.0, "minority_pct": 0.022515252175939214, "compactness": 0.1330691400145782 }, "geometry": { "type": "Polygon", "coordinates": [ [ [ -79.630940000239747, 39.983869999998831 ], [ -79.636489000241554, 39.995599999998845 ], [ -79.661238000250989, 39.988448999998795 ], [ -79.668580000253613, 39.995319999998777 ], [ -79.655433000248053, 40.02159299999883 ], [ -79.621510000235673, 40.01579999999889 ], [ -79.652105000246536, 40.033758999998852 ], [ -79.621756000235123, 40.046817999998929 ], [ -79.626245000235897, 40.089193999998955 ], [ -79.640788000241315, 40.08320299999891 ], [ -79.685624000257633, 40.113822999998845 ], [ -79.723235000272638, 40.11366199999879 ], [ -79.693689000259681, 40.161794999998882 ], [ -79.71282500026696, 40.175148999998868 ], [ -79.696705000260152, 40.19359899999894 ], [ -79.71741500026792, 40.212887999998898 ], [ -79.684207000254617, 40.223457999998985 ], [ -79.671353000250051, 40.207535999998981 ], [ -79.65373300024325, 40.218239999999014 ], [ -79.700135000259678, 40.272975999998998 ], [ -79.692477000256133, 40.297053999999015 ], [ -79.712960000263593, 40.321039999999016 ], [ -79.753660000280817, 40.294429999998925 ], [ -79.748750000278392, 40.30989999999894 ], [ -79.771360000287629, 40.321249999998926 ], [ -79.745330000276496, 40.328319999998975 ], [ -79.742688000274995, 40.346084999998993 ], [ -79.724578000267684, 40.343947999999017 ], [ -79.771082000286086, 40.375418999998971 ], [ -79.757038000279124, 40.416953999999045 ], [ -79.732483000269511, 40.400053999999066 ], [ -79.70319600025725, 40.428385999999136 ], [ -79.672884000245773, 40.427188999999174 ], [ -79.651203000238326, 40.402266999999171 ], [ -79.656276000239828, 40.419031999999191 ], [ -79.635429000232307, 40.42032799999923 ], [ -79.627852000228998, 40.450432999999251 ], [ -79.639122000232717, 40.463532999999245 ], [ -79.613296000223571, 40.469254999999286 ], [ -79.679334000246399, 40.506156999999234 ], [ -79.644481000233156, 40.532655999999314 ], [ -79.672333000243043, 40.539733999999271 ], [ -79.673198000243175, 40.549265999999271 ], [ -79.688864000249112, 40.543442999999257 ], [ -79.683044000246682, 40.554819999999268 ], [ -79.708829000256458, 40.554345999999249 ], [ -79.671155000241527, 40.588540999999317 ], [ -79.62156100022473, 40.55126199999934 ], [ -79.495029000183052, 40.645829999999513 ], [ -79.443651000169112, 40.624005999999561 ], [ -79.41635000016133, 40.660275999999577 ], [ -79.424676000163117, 40.684509999999605 ], [ -79.40458700015796, 40.685589999999607 ], [ -79.337576000142249, 40.646695999999629 ], [ -79.251517000122433, 40.737757999999729 ], [ -79.277857000127796, 40.746634999999714 ], [ -79.297488000131949, 40.75059199999972 ], [ -79.29768800013197, 40.751275999999706 ], [ -79.278527000127696, 40.765886999999715 ], [ -79.275958000127218, 40.762404999999731 ], [ -79.268850000125639, 40.767854999999734 ], [ -79.248278000121431, 40.767063999999742 ], [ -79.242057000120155, 40.769072999999743 ], [ -79.255379000122858, 40.76882199999973 ], [ -79.255177000122544, 40.793518999999733 ], [ -79.21494100011445, 40.805399999999764 ], [ -79.215024000114113, 40.838300999999788 ], [ -79.101106000094035, 40.839043999999809 ], [ -79.100417000094609, 40.761297999999783 ], [ -79.130531000099595, 40.765121999999785 ], [ -79.182229000109686, 40.672358999999723 ], [ -79.113342000097589, 40.667571999999758 ], [ -79.144186000103204, 40.631337999999737 ], [ -79.138388000102282, 40.622674999999738 ], [ -79.173983000108606, 40.628051999999698 ], [ -79.157332000105725, 40.613475999999721 ], [ -79.161034000106795, 40.574375999999702 ], [ -79.20196500011447, 40.570670999999678 ], [ -79.173711000109449, 40.538843999999685 ], [ -79.173120000109549, 40.51950599999968 ], [ -79.165615000108019, 40.532077999999686 ], [ -79.150790000105474, 40.520661999999696 ], [ -79.144487000104235, 40.530840999999697 ], [ -79.122491000100567, 40.510520999999692 ], [ -79.101541000096901, 40.524701999999714 ], [ -79.150033000105694, 40.479579999999686 ], [ -79.155706000107031, 40.446835999999671 ], [ -79.114094000099769, 40.440608999999675 ], [ -79.116652000100402, 40.418676999999676 ], [ -79.098540000097515, 40.398031999999695 ], [ -79.056892000090798, 40.388151999999693 ], [ -79.075736000092974, 40.487401999999726 ], [ -79.021599000084663, 40.479150999999739 ], [ -79.012091000083345, 40.467823999999744 ], [ -78.992041000079681, 40.575101999999795 ], [ -79.040832000086795, 40.578061999999754 ], [ -79.078596000092503, 40.596404999999748 ], [ -79.088618000094186, 40.590915999999758 ], [ -79.089130000093803, 40.646837999999761 ], [ -79.053977000088224, 40.650423999999788 ], [ -79.018803000082499, 40.70951499999979 ], [ -78.989849000078536, 40.692138999999813 ], [ -78.972436000075945, 40.716709999999814 ], [ -78.984578000077505, 40.731303999999824 ], [ -78.976506000076299, 40.745883999999819 ], [ -78.902869000066929, 40.736714999999862 ], [ -78.903653000065944, 40.907294999999877 ], [ -78.805167000055093, 40.905979999999893 ], [ -78.806363000055541, 40.845034999999889 ], [ -78.69565400004511, 40.844521999999898 ], [ -78.683693000044016, 40.859068 ], [ -78.687917000044436, 40.847703 ], [ -78.66885800004286, 40.841914 ], [ -78.675346000043433, 40.831061 ], [ -78.646325000041131, 40.815002 ], [ -78.62211800003918, 40.830879 ], [ -78.634713000040122, 40.842629 ], [ -78.609503000038174, 40.850068 ], [ -78.61578800003862, 40.855604 ], [ -78.592267000036841, 40.870658 ], [ -78.551301000033959, 40.876014 ], [ -78.564155000034788, 40.88842 ], [ -78.556579000034262, 40.896322 ], [ -78.515235000031538, 40.896709 ], [ -78.504273000030793, 40.916243 ], [ -78.484239000029604, 40.915733 ], [ -78.503241000030641, 40.947596 ], [ -78.48867800002968, 40.969358 ], [ -78.497436000030035, 41.035137 ], [ -78.414230000025384, 41.025732 ], [ -78.389160000024063, 41.038307 ], [ -78.379534000023625, 41.022489 ], [ -78.397076000024526, 41.014121 ], [ -78.395262000024502, 40.985218 ], [ -78.340985000021874, 40.98475 ], [ -78.340209000021858, 40.968985 ], [ -78.325336000021196, 40.96906 ], [ -78.325675000021135, 40.993335 ], [ -78.347099000022141, 40.995785 ], [ -78.340767000021756, 41.028393 ], [ -78.361240000022633, 41.068911 ], [ -78.339692000021671, 41.05254 ], [ -78.340990000021677, 41.077096 ], [ -78.311671000020397, 41.056332 ], [ -78.304748000020084, 41.068709 ], [ -78.282258000019141, 41.070932 ], [ -78.252996000018015, 41.048484 ], [ -78.233564000017225, 41.078386 ], [ -78.22255700001682, 41.063335 ], [ -78.171651000015046, 41.056254 ], [ -78.180305000015508, 40.949234 ], [ -78.238260000017661, 40.914685 ], [ -78.225084000017176, 40.905276 ], [ -78.232223000017484, 40.878753 ], [ -78.298469000020177, 40.884151 ], [ -78.331151000021549, 40.916666 ], [ -78.438817000026987, 40.910583 ], [ -78.428168000026446, 40.899677 ], [ -78.440033000027114, 40.877289 ], [ -78.384209000024228, 40.849268 ], [ -78.384644000024323, 40.824039 ], [ -78.347035000022487, 40.818992 ], [ -78.328808000021624, 40.831804 ], [ -78.301510000020428, 40.822937 ], [ -78.376990000024094, 40.752332 ], [ -78.348389000022763, 40.72343 ], [ -78.358656000023302, 40.709735 ], [ -78.260446000019016, 40.637755 ], [ -78.29704500002066, 40.598293 ], [ -78.311069000021391, 40.536797 ], [ -78.35152800002335, 40.508122 ], [ -78.354435000023543, 40.485571 ], [ -78.38930200002541, 40.45611 ], [ -78.418585000026951, 40.46659 ], [ -78.419097000027023, 40.449288 ], [ -78.487402000031025, 40.470027 ], [ -78.492431000031402, 40.445834999999896 ], [ -78.439576000028254, 40.429177 ], [ -78.434543000027944, 40.43011 ], [ -78.433998000027913, 40.431287 ], [ -78.422329000027233, 40.434579 ], [ -78.455676000029243, 40.405762 ], [ -78.41027900002679, 40.355178 ], [ -78.420119000027356, 40.336147 ], [ -78.544346000035134, 40.346387999999891 ], [ -78.556811000036163, 40.302877999999872 ], [ -78.620383000040903, 40.327024999999864 ], [ -78.651868000043635, 40.28167799999985 ], [ -78.647953000043358, 40.270620999999856 ], [ -78.547930000035763, 40.234339999999875 ], [ -78.571573000037603, 40.19300799999985 ], [ -78.482764000031608, 40.151857999999883 ], [ -78.556792000036936, 40.059632999999849 ], [ -78.552843000036845, 39.995926999999838 ], [ -78.643492000044432, 39.876944999999793 ], [ -78.682080000047989, 39.845981999999779 ], [ -78.742523000054376, 39.722987999999724 ], [ -79.392459000168571, 39.721577999999099 ], [ -79.39265900016845, 39.732677999999083 ], [ -79.409959000173174, 39.734977999999046 ], [ -79.378658000164208, 39.768876999999115 ], [ -79.394958000168387, 39.783376999999113 ], [ -79.379557000164141, 39.790076999999137 ], [ -79.354457000157737, 39.782476999999169 ], [ -79.366357000160676, 39.791876999999147 ], [ -79.36610700016044, 39.803906999999157 ], [ -79.325683000150377, 39.792990999999226 ], [ -79.326370000150405, 39.804574999999232 ], [ -79.292791000142287, 39.809343999999264 ], [ -79.304845000144567, 39.855327999999282 ], [ -79.331696000150856, 39.872647999999252 ], [ -79.322515000148243, 39.900973999999273 ], [ -79.337949000151866, 39.914475999999276 ], [ -79.341395000152289, 39.947426999999273 ], [ -79.363739000157921, 39.947777999999246 ], [ -79.382676000163187, 39.9224169999992 ], [ -79.472159000188327, 39.917909999999075 ], [ -79.487038000192655, 39.927885999999063 ], [ -79.585019000225259, 39.887373999998857 ], [ -79.595738000228735, 39.900683999998833 ], [ -79.635250000243019, 39.902009999998768 ], [ -79.623350000238204, 39.923049999998796 ], [ -79.652273000248329, 39.953679999998784 ], [ -79.630940000239747, 39.983869999998831 ] ], [ [ -79.762068000281843, 40.392767999999016 ], [ -79.754625000278821, 40.388828999999014 ], [ -79.75097900027734, 40.388537999999016 ], [ -79.759285000280656, 40.393587999999014 ], [ -79.762068000281843, 40.392767999999016 ] ] ] } },
{ "type": "Feature", "properties": { "district_id": 8, "voting_age_pop": 562056, "lib_votes": 0, "grn_votes": 0, "con_votes": 0, "ref_votes": 0, "total_pop": 710466, "dem_votes_sum": 107221, "rep_votes_sum": 195788, "lib_votes_sum": 0, "grn_votes_sum": 0, "con_votes_sum": 0, "ref_votes_sum": 0, "minority_pop_sum": 15375, "dem_pct": 0.35385417594856916, "rep_pct": 0.64614582405143084, "lib_pct": 0.0, "grn_pct": 0.0, "con_pct": 0.0, "ref_pct": 0.0, "minority_pct": 0.021640725946069198, "compactness": 0.25925833087003525 }, "geometry": { "type": "Polygon", "coordinates": [ [ [ -77.243115000001495, 39.719883 ], [ -78.742523000054376, 39.722987999999724 ], [ -78.682080000047989, 39.845981999999779 ], [ -78.643492000044432, 39.876944999999793 ], [ -78.552843000036845, 39.995926999999838 ], [ -78.556792000036936, 40.059632999999849 ], [ -78.482764000031608, 40.151857999999883 ], [ -78.571573000037603, 40.19300799999985 ], [ -78.547930000035763, 40.234339999999875 ], [ -78.647953000043358, 40.270620999999856 ], [ -78.651868000043635, 40.28167799999985 ], [ -78.620383000040903, 40.327024999999864 ], [ -78.556811000036163, 40.302877999999872 ], [ -78.544346000035134, 40.346387999999891 ], [ -78.420119000027356, 40.336147 ], [ -78.41027900002679, 40.355178 ], [ -78.455676000029243, 40.405762 ], [ -78.422329000027233, 40.434579 ], [ -78.439576000028254, 40.429177 ], [ -78.492431000031402, 40.445834999999896 ], [ -78.487402000031025, 40.470027 ], [ -78.419097000027023, 40.449288 ], [ -78.418585000026951, 40.46659 ], [ -78.38930200002541, 40.45611 ], [ -78.354435000023543, 40.485571 ], [ -78.35152800002335, 40.508122 ], [ -78.311069000021391, 40.536797 ], [ -78.29704500002066, 40.598293 ], [ -78.260446000019016, 40.637755 ], [ -78.358656000023302, 40.709735 ], [ -78.348389000022763, 40.72343 ], [ -78.376990000024094, 40.752332 ], [ -78.301510000020428, 40.822937 ], [ -78.328808000021624, 40.831804 ], [ -78.347035000022487, 40.818992 ], [ -78.384644000024323, 40.824039 ], [ -78.384209000024228, 40.849268 ], [ -78.440033000027114, 40.877289 ], [ -78.428189000026435, 40.899415 ], [ -78.436984000026882, 40.912765 ], [ -78.331151000021549, 40.916666 ], [ -78.298469000020177, 40.884151 ], [ -78.232938000017512, 40.878392 ], [ -78.225084000017176, 40.905276 ], [ -78.238260000017661, 40.914685 ], [ -78.185739000015701, 40.941293 ], [ -78.176406000015334, 40.973011 ], [ -78.170884000015192, 40.955704 ], [ -78.155185000014654, 40.95922 ], [ -78.146607000014384, 40.948684 ], [ -78.133406000013949, 40.96685 ], [ -78.134083000013987, 40.946629 ], [ -78.116608000013457, 40.94268 ], [ -78.0781050000123, 40.956447 ], [ -78.09655400001283, 40.97317 ], [ -78.086338000012503, 40.994271 ], [ -78.061762000011825, 40.995067 ], [ -78.062833000011835, 41.004589 ], [ -77.985906000009948, 40.940322 ], [ -77.928244000008618, 40.998752 ], [ -77.893855000007932, 41.012324 ], [ -77.790333000006186, 40.899788 ], [ -77.741168000005473, 40.909631 ], [ -77.734281000005382, 40.88772 ], [ -77.765956000005858, 40.878804 ], [ -77.752349000005665, 40.863909 ], [ -77.688764000004753, 40.903477 ], [ -77.572810000003528, 40.79936 ], [ -77.552767000003371, 40.777493 ], [ -77.667819000004599, 40.735335 ], [ -77.584795000003695, 40.691015 ], [ -77.525516000003122, 40.746518 ], [ -77.356770000001887, 40.815392 ], [ -77.356628000001905, 40.807334 ], [ -77.243358000001351, 40.832087 ], [ -77.202186000001191, 40.771754 ], [ -77.127591000000933, 40.803732 ], [ -77.112335000000897, 40.727897 ], [ -77.060084000000742, 40.748021 ], [ -77.035479000000677, 40.676822 ], [ -77.031674000000663, 40.657092 ], [ -77.063834000000753, 40.654023 ], [ -77.063584000000745, 40.5996 ], [ -76.956077000000519, 40.627938 ], [ -76.919272000000447, 40.603544 ], [ -76.886411000000408, 40.617758 ], [ -76.870068000000387, 40.529851 ], [ -76.892539000000411, 40.527862 ], [ -76.884588000000406, 40.466178 ], [ -76.923467000000471, 40.47054 ], [ -76.93510900000048, 40.455476 ], [ -77.003235000000629, 40.4268 ], [ -77.034310000000687, 40.426461 ], [ -77.091181000000844, 40.389325 ], [ -77.084972000000832, 40.366031 ], [ -77.10291000000089, 40.341531 ], [ -76.947666000000524, 40.351744 ], [ -76.939783000000503, 40.320062 ], [ -76.91256700000045, 40.325163 ], [ -76.923366000000485, 40.308948 ], [ -76.95635200000055, 40.305834 ], [ -76.910345000000433, 40.240988 ], [ -76.917350000000468, 40.233041 ], [ -77.064131000000799, 40.197308 ], [ -77.1643530000011, 40.199521 ], [ -77.185461000001169, 40.287664 ], [ -77.204496000001257, 40.28708 ], [ -77.179765000001183, 40.225814 ], [ -77.225755000001328, 40.210534 ], [ -77.208951000001278, 40.202928 ], [ -77.246640000001435, 40.200379 ], [ -77.242584000001415, 40.185399 ], [ -77.212531000001306, 40.200093 ], [ -77.171095000001131, 40.200042 ], [ -77.186224000001189, 40.191286 ], [ -77.165357000001109, 40.171379 ], [ -77.15601200000107, 40.113966 ], [ -77.177596000001159, 40.110565 ], [ -77.181390000001173, 40.096199 ], [ -77.204767000001254, 40.101676 ], [ -77.178163000001177, 40.036901 ], [ -77.253345000001488, 40.021068 ], [ -77.208561000001296, 39.998025 ], [ -77.184616000001185, 39.933189 ], [ -77.153757000001093, 39.928953 ], [ -77.208022000001293, 39.910877 ], [ -77.229396000001387, 39.891128 ], [ -77.221501000001368, 39.836949 ], [ -77.24406900000146, 39.829615 ], [ -77.236990000001455, 39.815928 ], [ -77.28148400000164, 39.74637 ], [ -77.243115000001495, 39.719883 ] ] ] } },
{ "type": "Feature", "properties": { "district_id": 9, "voting_age_pop": 591197, "lib_votes": 0, "grn_votes": 0, "con_votes": 0, "ref_votes": 0, "total_pop": 745556, "dem_votes_sum": 160694, "rep_votes_sum": 143242, "lib_votes_sum": 0, "grn_votes_sum": 0, "con_votes_sum": 0, "ref_votes_sum": 0, "minority_pop_sum": 23650, "dem_pct": 0.52870999157717413, "rep_pct": 0.47129000842282587, "lib_pct": 0.0, "grn_pct": 0.0, "con_pct": 0.0, "ref_pct": 0.0, "minority_pct": 0.031721292565548398, "compactness": 0.22443032928269338 }, "geometry": { "type": "Polygon", "coordinates": [ [ [ -76.861391000000353, 41.024022 ], [ -76.839840000000308, 41.031031 ], [ -76.86143000000034, 41.033176 ], [ -76.857757000000348, 41.055625 ], [ -76.808664000000263, 41.056256 ], [ -76.806261000000276, 41.098696 ], [ -76.858106000000348, 41.10573 ], [ -76.860510000000346, 41.114422 ], [ -76.880457000000376, 41.109733 ], [ -76.871643000000361, 41.160046 ], [ -76.880963000000364, 41.158044 ], [ -76.803637000000265, 41.19538 ], [ -76.819252000000304, 41.227647 ], [ -76.849948000000339, 41.229436 ], [ -76.816709000000287, 41.33539 ], [ -76.737518000000193, 41.330807 ], [ -76.693550000000187, 41.370176 ], [ -76.639976000000118, 41.472901 ], [ -76.670055000000161, 41.463558 ], [ -76.710351000000188, 41.492271 ], [ -76.69206500000017, 41.526427 ], [ -76.704409000000183, 41.539964 ], [ -76.683117000000166, 41.572071 ], [ -76.469545, 41.561501 ], [ -76.493557, 41.604361 ], [ -76.403404, 41.680819 ], [ -76.416636, 41.725115 ], [ -76.524515, 41.723178 ], [ -76.520606, 41.795542 ], [ -76.548672, 41.794537 ], [ -76.554843, 41.909077 ], [ -76.633706000000117, 41.906947 ], [ -76.638104000000112, 42.000738 ], [ -75.346568, 41.995324 ], [ -75.342204, 41.972872 ], [ -75.279094, 41.938917 ], [ -75.260527, 41.8638 ], [ -75.223734, 41.857456 ], [ -75.204002, 41.869867 ], [ -75.185254, 41.85993 ], [ -75.172532, 41.872239 ], [ -75.162854, 41.850582 ], [ -75.117103, 41.845463 ], [ -75.113334, 41.822782 ], [ -75.072172, 41.813732 ], [ -75.10464, 41.774203 ], [ -75.064901, 41.766686 ], [ -75.053227, 41.751662 ], [ -75.049862, 41.713309 ], [ -75.06883, 41.708161 ], [ -75.052736, 41.688393 ], [ -75.044224, 41.617978 ], [ -75.074613, 41.605711 ], [ -75.018524, 41.551802 ], [ -75.024757, 41.535099 ], [ -75.00385, 41.524052 ], [ -75.003151, 41.508101 ], [ -74.984372, 41.506611 ], [ -74.983341, 41.480894 ], [ -74.912991, 41.475901 ], [ -74.890358, 41.455324 ], [ -74.892625, 41.438617 ], [ -74.858578, 41.444427 ], [ -74.830671, 41.430503 ], [ -74.807582, 41.442847 ], [ -74.790417, 41.42166 ], [ -74.738456, 41.430642 ], [ -74.738554, 41.401191 ], [ -74.689502, 41.363851 ], [ -74.720923, 41.347384 ], [ -74.753931, 41.346135 ], [ -74.771588, 41.325079 ], [ -74.794141, 41.321187 ], [ -74.792558, 41.310628 ], [ -74.830057, 41.2872 ], [ -74.857152, 41.248975 ], [ -74.859396, 41.220071 ], [ -74.925222, 41.246216 ], [ -74.992549, 41.258286 ], [ -74.973195, 41.285723 ], [ -74.93316, 41.282992 ], [ -74.962336, 41.298085 ], [ -74.917523, 41.303765 ], [ -74.904456, 41.341777 ], [ -75.008259, 41.349211 ], [ -75.045038, 41.289912 ], [ -75.1157, 41.293661 ], [ -75.13843, 41.218635 ], [ -75.249491, 41.143936 ], [ -75.223483, 41.073358 ], [ -75.284486, 40.999475 ], [ -75.326777, 41.028887 ], [ -75.29544, 41.063042 ], [ -75.317083, 41.06262 ], [ -75.317705, 41.054674 ], [ -75.343828, 41.065756 ], [ -75.326737, 41.072852 ], [ -75.34783, 41.091798 ], [ -75.334122, 41.100288 ], [ -75.538002, 41.149008 ], [ -75.540216, 41.075681 ], [ -75.627255, 41.08312 ], [ -75.721515, 41.05589 ], [ -75.748657, 41.060429 ], [ -75.748317, 41.069828 ], [ -75.770024, 41.068749 ], [ -75.768119, 41.105323 ], [ -75.780325, 41.112916 ], [ -75.785094, 41.109924 ], [ -75.787354, 41.111859 ], [ -75.79426, 41.112247 ], [ -75.79541, 41.112736 ], [ -75.795923, 41.113358 ], [ -75.768432, 41.125466 ], [ -75.769879, 41.155077 ], [ -75.815842, 41.153765 ], [ -75.81502, 41.143065 ], [ -75.838271, 41.14287 ], [ -75.837592, 41.127329 ], [ -75.855521, 41.127294 ], [ -75.855079, 41.117486 ], [ -76.03994, 41.050482 ], [ -76.058801, 41.057264 ], [ -76.060954, 41.044154 ], [ -76.102873, 41.031033 ], [ -76.119158, 41.067148 ], [ -76.135981, 41.073818 ], [ -76.228478, 41.053632 ], [ -76.228552, 41.07251 ], [ -76.266951, 41.068593 ], [ -76.268766, 41.102182 ], [ -76.285247, 41.114945 ], [ -76.228975, 41.138466 ], [ -76.277639, 41.131804 ], [ -76.288843, 41.152036 ], [ -76.267226, 41.170376 ], [ -76.27784, 41.188977 ], [ -76.307154, 41.18525 ], [ -76.319236, 41.208092 ], [ -76.310133, 41.310199 ], [ -76.407934, 41.308418 ], [ -76.447597, 41.275629 ], [ -76.565024, 41.29905 ], [ -76.591732, 41.264852 ], [ -76.625548000000137, 41.252303 ], [ -76.635400000000132, 41.227732 ], [ -76.607707000000119, 41.193406 ], [ -76.601171000000107, 41.157395 ], [ -76.530967, 41.117768 ], [ -76.5201, 41.083468 ], [ -76.495197, 41.065123 ], [ -76.5283060000001, 41.046873 ], [ -76.563013, 41.036261 ], [ -76.569915000000108, 41.053761 ], [ -76.61897100000013, 41.063759 ], [ -76.621311000000119, 41.091624 ], [ -76.699437000000188, 41.076251 ], [ -76.734085000000192, 41.124267 ], [ -76.735157000000214, 41.090742 ], [ -76.772343000000248, 41.016295 ], [ -76.842657000000315, 41.006117 ], [ -76.834759000000318, 41.01944 ], [ -76.861391000000353, 41.024022 ] ] ] } },
{ "type": "Feature", "properties": { "district_id": 10, "voting_age_pop": 603857, "lib_votes": 0, "grn_votes": 0, "con_votes": 0, "ref_votes": 0, "total_pop": 768299, "dem_votes_sum": 139602, "rep_votes_sum": 170942, "lib_votes_sum": 0, "grn_votes_sum": 0, "con_votes_sum": 0, "ref_votes_sum": 0, "minority_pop_sum": 27676, "dem_pct": 0.44954016178061723, "rep_pct": 0.55045983821938271, "lib_pct": 0.0, "grn_pct": 0.0, "con_pct": 0.0, "ref_pct": 0.0, "minority_pct": 0.036022433974273037, "compactness": 0.15521625296499594 }, "geometry": { "type": "Polygon", "coordinates": [ [ [ -80.101415000414917, 41.430077000000139 ], [ -80.26335300051781, 41.428878000000218 ], [ -80.265144000516102, 41.483450000000346 ], [ -80.278680000525583, 41.483528000000355 ], [ -80.27524000051821, 41.573180000000534 ], [ -80.374766000591492, 41.575159000000653 ], [ -80.387889000600509, 41.595542000000712 ], [ -80.409399000619004, 41.57622000000071 ], [ -80.519374000713796, 41.578470000000877 ], [ -80.519421000683181, 41.977523000002066 ], [ -80.328142000528587, 42.03669300000162 ], [ -80.188093000434918, 42.093991000001353 ], [ -80.15579700041522, 42.112771000001324 ], [ -80.13481800040168, 42.150735000001333 ], [ -80.115392000390329, 42.166711000001314 ], [ -80.07441300036848, 42.172452000001222 ], [ -80.084592000373846, 42.170632000001248 ], [ -80.072047000368002, 42.155472000001183 ], [ -80.128782000398445, 42.148736000001307 ], [ -80.151525000412789, 42.112702000001299 ], [ -80.099151000383216, 42.13070100000121 ], [ -80.078762000371626, 42.151536000001215 ], [ -80.058839000361658, 42.145813000001155 ], [ -79.874132000275338, 42.231618000000914 ], [ -79.761949000232548, 42.26931200000076 ], [ -79.761313000239568, 41.998808000000551 ], [ -78.780546000047082, 41.998049 ], [ -78.779754000047632, 41.875815 ], [ -78.560480000031276, 41.880135 ], [ -78.551584000030772, 41.860418 ], [ -78.572612000032137, 41.848343 ], [ -78.547072000030568, 41.843392 ], [ -78.537882000030066, 41.820351 ], [ -78.551040000030952, 41.79382 ], [ -78.519816000029152, 41.778545 ], [ -78.550662000031068, 41.762703 ], [ -78.588946000033459, 41.762399 ], [ -78.589195000033513, 41.751493 ], [ -78.62230200003583, 41.732726 ], [ -78.667720000039139, 41.73264 ], [ -78.667116000039144, 41.718134 ], [ -78.654339000038206, 41.718224 ], [ -78.649178000037907, 41.688366 ], [ -78.515472000029163, 41.688773 ], [ -78.515291000028924, 41.762876 ], [ -78.445226000025102, 41.763264 ], [ -78.445435000025512, 41.616654 ], [ -78.419299000024168, 41.616853 ], [ -78.418368000024287, 41.554694 ], [ -78.419608000024553, 41.468165 ], [ -78.431276000025193, 41.456897 ], [ -78.55941900003269, 41.427473 ], [ -78.531806000030997, 41.413188 ], [ -78.475074000027618, 41.418631 ], [ -78.450486000026345, 41.397895 ], [ -78.253959000017417, 41.404721 ], [ -78.254382000017586, 41.323584 ], [ -78.234675000016836, 41.323413 ], [ -78.236210000017337, 41.077166 ], [ -78.247016000017751, 41.067756 ], [ -78.235496000017321, 41.06249 ], [ -78.253645000018011, 41.059983 ], [ -78.255277000018097, 41.048429 ], [ -78.293970000019627, 41.07153 ], [ -78.313138000020459, 41.056497 ], [ -78.338974000021565, 41.077427 ], [ -78.341457000021734, 41.052567 ], [ -78.361240000022633, 41.068911 ], [ -78.340767000021756, 41.028393 ], [ -78.347099000022141, 40.995785 ], [ -78.325675000021135, 40.993335 ], [ -78.325336000021196, 40.96906 ], [ -78.340209000021858, 40.968985 ], [ -78.340985000021874, 40.98475 ], [ -78.395262000024502, 40.985218 ], [ -78.397076000024526, 41.014121 ], [ -78.379534000023625, 41.022489 ], [ -78.389160000024063, 41.038307 ], [ -78.414230000025384, 41.025732 ], [ -78.497436000030035, 41.035137 ], [ -78.48867800002968, 40.969358 ], [ -78.503241000030641, 40.947596 ], [ -78.484239000029604, 40.915733 ], [ -78.504273000030793, 40.916243 ], [ -78.515235000031538, 40.896709 ], [ -78.556579000034262, 40.896322 ], [ -78.564155000034788, 40.88842 ], [ -78.551301000033959, 40.876014 ], [ -78.592267000036841, 40.870658 ], [ -78.61578800003862, 40.855604 ], [ -78.609503000038174, 40.850068 ], [ -78.634713000040122, 40.842629 ], [ -78.62211800003918, 40.830879 ], [ -78.646325000041131, 40.815002 ], [ -78.675346000043433, 40.831061 ], [ -78.66885800004286, 40.841914 ], [ -78.687917000044436, 40.847703 ], [ -78.677189000043512, 40.854297 ], [ -78.683693000044016, 40.859068 ], [ -78.69565400004511, 40.844521999999898 ], [ -78.806363000055541, 40.845034999999889 ], [ -78.805167000055093, 40.905979999999893 ], [ -78.903653000065944, 40.907294999999877 ], [ -78.902869000066929, 40.736714999999862 ], [ -78.976506000076299, 40.745883999999819 ], [ -78.984578000077505, 40.731303999999824 ], [ -78.972436000075945, 40.716709999999814 ], [ -78.989849000078536, 40.692138999999813 ], [ -79.018803000082499, 40.70951499999979 ], [ -79.053977000088224, 40.650423999999788 ], [ -79.089130000093803, 40.646837999999761 ], [ -79.088618000094186, 40.590915999999758 ], [ -79.078596000092503, 40.596404999999748 ], [ -79.040832000086795, 40.578061999999754 ], [ -78.992041000079681, 40.575101999999795 ], [ -79.012091000083345, 40.467823999999744 ], [ -79.021599000084663, 40.479150999999739 ], [ -79.075736000092974, 40.487401999999726 ], [ -79.049773000089615, 40.394600999999696 ], [ -79.073568000093445, 40.389781999999684 ], [ -79.115337000100197, 40.415917999999678 ], [ -79.114094000099769, 40.440608999999675 ], [ -79.155706000107031, 40.446835999999671 ], [ -79.150033000105694, 40.479579999999686 ], [ -79.101541000096901, 40.524701999999714 ], [ -79.122491000100567, 40.510520999999692 ], [ -79.144487000104235, 40.530840999999697 ], [ -79.150790000105474, 40.520661999999696 ], [ -79.165615000108019, 40.532077999999686 ], [ -79.173120000109549, 40.51950599999968 ], [ -79.173711000109449, 40.538843999999685 ], [ -79.20196500011447, 40.570670999999678 ], [ -79.161034000106795, 40.574375999999702 ], [ -79.157332000105725, 40.613475999999721 ], [ -79.173983000108606, 40.628051999999698 ], [ -79.138388000102282, 40.622674999999738 ], [ -79.144186000103204, 40.631337999999737 ], [ -79.113342000097589, 40.667571999999758 ], [ -79.182229000109686, 40.672358999999723 ], [ -79.130531000099595, 40.765121999999785 ], [ -79.100417000094609, 40.761297999999783 ], [ -79.101106000094035, 40.839043999999809 ], [ -79.215024000114113, 40.838300999999788 ], [ -79.21494100011445, 40.805399999999764 ], [ -79.255177000122544, 40.793518999999733 ], [ -79.255379000122858, 40.76882199999973 ], [ -79.250154000121825, 40.767438999999726 ], [ -79.241978000120156, 40.77042599999973 ], [ -79.242057000120155, 40.769072999999743 ], [ -79.248278000121431, 40.767063999999742 ], [ -79.268850000125639, 40.767854999999734 ], [ -79.275958000127218, 40.762404999999731 ], [ -79.278527000127696, 40.765886999999715 ], [ -79.29768800013197, 40.751275999999706 ], [ -79.251517000122433, 40.737757999999729 ], [ -79.337576000142249, 40.646695999999629 ], [ -79.40458700015796, 40.685589999999607 ], [ -79.424676000163117, 40.684509999999605 ], [ -79.41635000016133, 40.660275999999577 ], [ -79.443651000169112, 40.624005999999561 ], [ -79.495029000183052, 40.645829999999513 ], [ -79.62156100022473, 40.55126199999934 ], [ -79.671155000241527, 40.588540999999317 ], [ -79.698742000252381, 40.56352299999925 ], [ -79.711820000257006, 40.580229999999268 ], [ -79.766605000279, 40.577282999999198 ], [ -79.75059300027236, 40.58031099999922 ], [ -79.770371000280321, 40.586365999999195 ], [ -79.771870000281538, 40.56296699999919 ], [ -79.811297000298481, 40.561931999999118 ], [ -79.81459000029821, 40.624157999999191 ], [ -79.834915000307532, 40.613697999999161 ], [ -79.853960000315709, 40.631626999999156 ], [ -79.850069000313383, 40.649214999999181 ], [ -79.816564000298328, 40.650987999999224 ], [ -79.816997000297931, 40.671752999999235 ], [ -79.87713000032528, 40.672308999999167 ], [ -79.876243000322702, 40.743551999999262 ], [ -79.820346000297391, 40.742938999999325 ], [ -79.825614000299169, 40.762114999999326 ], [ -79.81452200029446, 40.757291999999339 ], [ -79.815310000294318, 40.775174999999365 ], [ -79.836592000303625, 40.775715999999342 ], [ -79.860819000313342, 40.815956999999344 ], [ -79.78346800027974, 40.814703999999423 ], [ -79.784525000282116, 40.742522999999352 ], [ -79.68999400024498, 40.741361999999427 ], [ -79.691495000242199, 40.884892999999565 ], [ -79.78331800027776, 40.886283999999506 ], [ -79.784597000274445, 41.028969999999632 ], [ -79.690140000238316, 41.030658999999687 ], [ -79.690206000237183, 41.079107999999735 ], [ -79.674244000231468, 41.082751999999736 ], [ -79.655527000225305, 41.068428999999718 ], [ -79.665762000229265, 41.049122999999724 ], [ -79.627887000216703, 41.03592299999972 ], [ -79.579165000200334, 41.073486999999766 ], [ -79.571227000197467, 41.094895999999785 ], [ -79.596510000204574, 41.132616999999811 ], [ -79.582784000200078, 41.142511999999812 ], [ -79.598332000204934, 41.142168999999818 ], [ -79.600577000205377, 41.155482999999805 ], [ -79.61967100021198, 41.131021999999803 ], [ -79.63216400021561, 41.153736999999822 ], [ -79.66715100022752, 41.146455999999816 ], [ -79.648888000221419, 41.142292999999789 ], [ -79.650379000222202, 41.129758999999787 ], [ -79.679288000232461, 41.116241999999765 ], [ -79.679980000231666, 41.160861999999803 ], [ -79.71722500024444, 41.185310999999807 ], [ -79.707983000239381, 41.255773999999874 ], [ -79.69432100023451, 41.255492999999881 ], [ -79.693944000233856, 41.277684999999892 ], [ -79.674501000226996, 41.28115 ], [ -79.688046000231239, 41.300502 ], [ -79.66239800022224, 41.308928 ], [ -79.654475000218952, 41.337202 ], [ -79.657254000219254, 41.36542 ], [ -79.678002000226201, 41.366586 ], [ -79.669806000222962, 41.387316 ], [ -79.710344000236788, 41.396046 ], [ -79.722375000240802, 41.409301 ], [ -79.707979000235269, 41.42461 ], [ -79.72864700024256, 41.428654 ], [ -79.730043000242006, 41.470311 ], [ -79.882588000303045, 41.466950000000111 ], [ -79.906101000313072, 41.480994000000123 ], [ -79.908812000313219, 41.513531000000178 ], [ -79.959179000336277, 41.525353000000202 ], [ -79.958384000336324, 41.513507000000203 ], [ -79.981536000347603, 41.512887000000212 ], [ -79.998522000356942, 41.490100000000183 ], [ -80.101296000412376, 41.486988000000231 ], [ -80.101415000414917, 41.430077000000139 ] ] ] } },
{ "type": "Feature", "properties": { "district_id": 11, "voting_age_pop": 596538, "lib_votes": 0, "grn_votes": 0, "con_votes": 0, "ref_votes": 0, "total_pop": 766534, "dem_votes_sum": 285144, "rep_votes_sum": 109840, "lib_votes_sum": 0, "grn_votes_sum": 0, "con_votes_sum": 0, "ref_votes_sum": 0, "minority_pop_sum": 240333, "dem_pct": 0.72191278634071254, "rep_pct": 0.27808721365928746, "lib_pct": 0.0, "grn_pct": 0.0, "con_pct": 0.0, "ref_pct": 0.0, "minority_pct": 0.3135320807687591, "compactness": 0.095269800043202374 }, "geometry": { "type": "Polygon", "coordinates": [ [ [ -75.348307, 39.945123 ], [ -75.344456, 39.966257 ], [ -75.359404, 39.973899 ], [ -75.336006, 39.980559 ], [ -75.36323, 39.997874 ], [ -75.316155, 40.011041 ], [ -75.35431, 40.011834 ], [ -75.349344, 40.035939 ], [ -75.378485, 40.050845 ], [ -75.405082, 40.045966 ], [ -75.421851, 40.065295 ], [ -75.407226, 40.069809 ], [ -75.412397, 40.079389 ], [ -75.427487, 40.074201 ], [ -75.433493, 40.091351 ], [ -75.457823, 40.084954 ], [ -75.427282, 40.058393 ], [ -75.44777, 40.048658 ], [ -75.457449, 40.064794 ], [ -75.476087, 40.051802 ], [ -75.474625, 40.038147 ], [ -75.447016, 40.045199 ], [ -75.451978, 40.02089 ], [ -75.475751, 40.031508 ], [ -75.448808, 39.996886 ], [ -75.474892, 40.004652 ], [ -75.482656, 39.996981 ], [ -75.507018, 40.025671 ], [ -75.480846, 40.035314 ], [ -75.496405, 40.083588 ], [ -75.456624, 40.093854 ], [ -75.471361, 40.113231 ], [ -75.4484, 40.121431 ], [ -75.441876, 40.137142 ], [ -75.454434, 40.164177 ], [ -75.485059, 40.17166 ], [ -75.51191, 40.202671 ], [ -75.490078, 40.224544 ], [ -75.450125, 40.200403 ], [ -75.452751, 40.224825 ], [ -75.489976, 40.224649 ], [ -75.528524, 40.241114 ], [ -75.550629, 40.266252 ], [ -75.535695, 40.280511 ], [ -75.549652, 40.28901 ], [ -75.490467, 40.350785 ], [ -75.45662, 40.301497 ], [ -75.462512, 40.262595 ], [ -75.445656, 40.257301 ], [ -75.418413, 40.282435 ], [ -75.397417, 40.2706 ], [ -75.390274, 40.281617 ], [ -75.382913, 40.255545 ], [ -75.40447, 40.2373 ], [ -75.369466, 40.216865 ], [ -75.355792, 40.229202 ], [ -75.345169, 40.222826 ], [ -75.335928, 40.207591 ], [ -75.3465, 40.201226 ], [ -75.318372, 40.183836 ], [ -75.303568, 40.198913 ], [ -75.295502, 40.183945 ], [ -75.221546, 40.154666 ], [ -75.202004, 40.162301 ], [ -75.196325, 40.110693 ], [ -75.176756, 40.115259 ], [ -75.189111, 40.106579 ], [ -75.161279, 40.092801 ], [ -75.1554, 40.098618 ], [ -75.136795, 40.079859 ], [ -75.16983, 40.06354 ], [ -75.172108, 40.047327 ], [ -75.187825, 40.059609 ], [ -75.211613, 40.046883 ], [ -75.200034, 40.033955 ], [ -75.235298, 39.99707 ], [ -75.183323, 39.964374 ], [ -75.201542, 39.965289 ], [ -75.196871, 39.94273 ], [ -75.240266, 39.945866 ], [ -75.27326, 39.931534 ], [ -75.281732, 39.943355 ], [ -75.295844, 39.922993 ], [ -75.322059, 39.944309 ], [ -75.306445, 39.949246 ], [ -75.327696, 39.944949 ], [ -75.331544, 39.959198 ], [ -75.348307, 39.945123 ] ] ] } },
{ "type": "Feature", "properties": { "district_id": 12, "voting_age_pop": 577849, "lib_votes": 0, "grn_votes": 0, "con_votes": 0, "ref_votes": 0, "total_pop": 749892, "dem_votes_sum": 203942, "rep_votes_sum": 184632, "lib_votes_sum": 0, "grn_votes_sum": 0, "con_votes_sum": 0, "ref_votes_sum": 0, "minority_pop_sum": 33478, "dem_pct": 0.52484726204017762, "rep_pct": 0.47515273795982232, "lib_pct": 0.0, "grn_pct": 0.0, "con_pct": 0.0, "ref_pct": 0.0, "minority_pct": 0.044643762035066384, "compactness": 0.25249940539940013 }, "geometry": { "type": "Polygon", "coordinates": [ [ [ -75.221546, 40.154666 ], [ -75.303568, 40.198913 ], [ -75.318372, 40.183836 ], [ -75.3465, 40.201226 ], [ -75.335928, 40.207591 ], [ -75.345169, 40.222826 ], [ -75.355792, 40.229202 ], [ -75.369466, 40.216865 ], [ -75.40447, 40.2373 ], [ -75.382913, 40.255545 ], [ -75.379163, 40.273291 ], [ -75.392105, 40.282562 ], [ -75.382872, 40.290966 ], [ -75.395142, 40.295846 ], [ -75.379535, 40.317903 ], [ -75.353645, 40.327021 ], [ -75.333856, 40.315327 ], [ -75.339341, 40.331689 ], [ -75.317177, 40.318489 ], [ -75.296674, 40.350751 ], [ -75.264773, 40.318662 ], [ -75.243143, 40.307347 ], [ -75.227842, 40.31565 ], [ -75.200846, 40.292269 ], [ -75.151084, 40.341221 ], [ -75.131929, 40.329665 ], [ -75.112712, 40.34884 ], [ -75.132823, 40.354538 ], [ -75.102157, 40.377538 ], [ -75.091769, 40.402573 ], [ -75.113529, 40.384853 ], [ -75.145243, 40.403397 ], [ -75.116552, 40.433727 ], [ -75.084121, 40.442019 ], [ -75.031778, 40.404813 ], [ -74.99586, 40.410384 ], [ -74.966552, 40.398154 ], [ -74.939711, 40.338006 ], [ -74.868208, 40.295206 ], [ -74.842308, 40.250508 ], [ -74.770706, 40.214908 ], [ -74.721576, 40.15404 ], [ -74.784168, 40.120477 ], [ -74.822531, 40.126844 ], [ -74.861756, 40.083462 ], [ -74.914224, 40.070354 ], [ -74.935266, 40.084161 ], [ -74.924884, 40.0905 ], [ -74.939119, 40.105054 ], [ -74.912299, 40.14176 ], [ -74.928175, 40.152884 ], [ -75.018005, 40.118909 ], [ -75.047165, 40.142585 ], [ -75.045548, 40.131187 ], [ -75.061927, 40.130376 ], [ -75.072068, 40.11411 ], [ -75.110221, 40.13059 ], [ -75.145987, 40.099749 ], [ -75.163357, 40.107918 ], [ -75.171282, 40.096673 ], [ -75.189111, 40.106579 ], [ -75.176756, 40.115259 ], [ -75.196325, 40.110693 ], [ -75.189864, 40.118582 ], [ -75.20676, 40.134657 ], [ -75.19244, 40.156425 ], [ -75.202731, 40.162726 ], [ -75.221546, 40.154666 ] ] ] } },
{ "type": "Feature", "properties": { "district_id": 13, "voting_age_pop": 562145, "lib_votes": 0, "grn_votes": 0, "con_votes": 0, "ref_votes": 0, "total_pop": 738475, "dem_votes_sum": 231509, "rep_votes_sum": 73821, "lib_votes_sum": 0, "grn_votes_sum": 0, "con_votes_sum": 0, "ref_votes_sum": 0, "minority_pop_sum": 203825, "dem_pct": 0.75822552647954677, "rep_pct": 0.24177447352045328, "lib_pct": 0.0, "grn_pct": 0.0, "con_pct": 0.0, "ref_pct": 0.0, "minority_pct": 0.27600798943769256, "compactness": 0.18053093872271397 }, "geometry": { "type": "Polygon", "coordinates": [ [ [ -75.204417, 39.983169 ], [ -75.193724, 39.975285 ], [ -75.235298, 39.99707 ], [ -75.200034, 40.033955 ], [ -75.211613, 40.046883 ], [ -75.187825, 40.059609 ], [ -75.172108, 40.047327 ], [ -75.16983, 40.06354 ], [ -75.136478, 40.075855 ], [ -75.151963, 40.096694 ], [ -75.171282, 40.096673 ], [ -75.163357, 40.107918 ], [ -75.145987, 40.099749 ], [ -75.101587, 40.132226 ], [ -75.072068, 40.11411 ], [ -75.061927, 40.130376 ], [ -75.045548, 40.131187 ], [ -75.047165, 40.142585 ], [ -75.018005, 40.118909 ], [ -74.93428, 40.153338 ], [ -74.912299, 40.14176 ], [ -74.939119, 40.105054 ], [ -74.924899, 40.071095 ], [ -75.04709, 40.009941 ], [ -75.075605, 39.978041 ], [ -75.109289, 39.971749 ], [ -75.125737, 39.996451 ], [ -75.110195, 40.022291 ], [ -75.149796, 40.043673 ], [ -75.183544, 40.027265 ], [ -75.182239, 40.011676 ], [ -75.207784, 40.006302 ], [ -75.191492, 40.00214 ], [ -75.204417, 39.983169 ] ] ] } },
{ "type": "Feature", "properties": { "district_id": 14, "voting_age_pop": 597587, "lib_votes": 0, "grn_votes": 0, "con_votes": 0, "ref_votes": 0, "total_pop": 792934, "dem_votes_sum": 131990, "rep_votes_sum": 194789, "lib_votes_sum": 0, "grn_votes_sum": 0, "con_votes_sum": 0, "ref_votes_sum": 0, "minority_pop_sum": 35179, "dem_pct": 0.40391212409610167, "rep_pct": 0.59608787590389833, "lib_pct": 0.0, "grn_pct": 0.0, "con_pct": 0.0, "ref_pct": 0.0, "minority_pct": 0.044365609243644487, "compactness": 0.14166285534289377 }, "geometry": { "type": "Polygon", "coordinates": [ [ [ -75.773786, 39.7222 ], [ -77.242966000001474, 39.719861 ], [ -77.281371000001656, 39.74333 ], [ -77.236990000001455, 39.815928 ], [ -77.24406900000146, 39.829615 ], [ -77.221501000001368, 39.836949 ], [ -77.227251000001388, 39.895109 ], [ -77.153757000001093, 39.928953 ], [ -77.184616000001185, 39.933189 ], [ -77.208561000001296, 39.998025 ], [ -77.253345000001488, 40.021068 ], [ -77.178163000001177, 40.036901 ], [ -77.204767000001254, 40.101676 ], [ -77.181390000001173, 40.096199 ], [ -77.177596000001159, 40.110565 ], [ -77.15601200000107, 40.113966 ], [ -77.164780000001102, 40.162996 ], [ -77.151885000001059, 40.168828 ], [ -77.119432000000955, 40.170889 ], [ -77.114161000000948, 40.122338 ], [ -77.076724000000823, 40.113615 ], [ -77.013341000000665, 40.075375 ], [ -76.953102000000527, 40.110883 ], [ -76.909451000000445, 40.120868 ], [ -76.903039000000447, 40.113004 ], [ -76.853795000000375, 40.114638 ], [ -76.856643000000361, 40.096962 ], [ -76.842317000000349, 40.099068 ], [ -76.836030000000349, 40.082171 ], [ -76.832623000000339, 40.096891 ], [ -76.813247000000302, 40.093891 ], [ -76.796599000000313, 40.110565 ], [ -76.784863000000286, 40.099458 ], [ -76.74972100000025, 40.097691 ], [ -76.738984000000229, 40.106526 ], [ -76.717507000000211, 40.081446 ], [ -76.704994000000212, 40.100974 ], [ -76.723904000000218, 40.109729 ], [ -76.715097000000213, 40.11598 ], [ -76.664600000000192, 40.063709 ], [ -76.614743000000132, 40.050066 ], [ -76.594022000000109, 39.984731 ], [ -76.538141, 39.999934 ], [ -76.574297000000129, 39.953346 ], [ -76.490802, 39.968093 ], [ -76.468598, 39.943559 ], [ -76.392115, 39.912749 ], [ -76.387497, 39.940925 ], [ -76.368177, 39.945151 ], [ -76.366941, 39.980138 ], [ -76.357343, 39.977341 ], [ -76.388776, 40.003014 ], [ -76.374675, 40.011433 ], [ -76.375621, 40.040106 ], [ -76.34289, 40.038056 ], [ -76.343427, 40.048303 ], [ -76.325399, 40.041593 ], [ -76.321372, 40.051714 ], [ -76.297703, 40.042011 ], [ -76.302698, 40.031235 ], [ -76.282475, 40.006751 ], [ -76.283952, 40.019453 ], [ -76.266441, 40.009509 ], [ -76.258543, 40.022593 ], [ -76.250456, 40.016671 ], [ -76.196483, 40.035025 ], [ -76.19358, 40.049613 ], [ -76.169017, 40.04548 ], [ -76.154254, 40.065338 ], [ -76.104477, 40.072039 ], [ -76.129548, 40.091551 ], [ -76.172322, 40.100716 ], [ -76.188156, 40.153112 ], [ -76.150337, 40.162968 ], [ -76.11661, 40.152545 ], [ -76.094008, 40.166343 ], [ -76.166134, 40.211504 ], [ -76.183607, 40.207416 ], [ -76.202293, 40.236151 ], [ -76.252908, 40.217226 ], [ -76.277633, 40.228879 ], [ -76.28395, 40.264369 ], [ -76.271411, 40.27085 ], [ -76.267992, 40.309196 ], [ -76.285149, 40.309434 ], [ -76.272276, 40.325689 ], [ -76.311528, 40.344813 ], [ -76.295056, 40.376672 ], [ -76.308562, 40.380277 ], [ -76.320974, 40.421866 ], [ -76.19849, 40.354787 ], [ -76.203168, 40.368974 ], [ -76.181245, 40.373123 ], [ -76.17333, 40.388958 ], [ -76.062678, 40.36343 ], [ -76.070084, 40.347398 ], [ -76.042514, 40.32673 ], [ -76.025579, 40.334845 ], [ -76.011387, 40.328665 ], [ -76.049264, 40.304813 ], [ -76.037722, 40.281308 ], [ -76.019761, 40.28027 ], [ -76.043993, 40.247196 ], [ -75.991271, 40.213183 ], [ -75.960237, 40.246334 ], [ -75.934331, 40.244722 ], [ -75.919768, 40.202838 ], [ -75.930221, 40.194268 ], [ -75.903408, 40.167254 ], [ -75.872485, 40.155953 ], [ -75.882075, 40.142599 ], [ -75.941804, 40.181588 ], [ -76.00741, 40.167558 ], [ -75.986108, 40.097681 ], [ -76.002546, 40.089417 ], [ -76.003106, 40.051612 ], [ -75.936677, 40.036392 ], [ -75.99222, 39.945639 ], [ -75.981307, 39.938364 ], [ -75.825705, 39.975153 ], [ -75.835431, 39.961186 ], [ -75.796488, 39.933545 ], [ -75.777465, 39.945091 ], [ -75.78764, 39.916068 ], [ -75.770416, 39.912129 ], [ -75.758745, 39.851376 ], [ -75.689452, 39.858591 ], [ -75.693591, 39.824133 ], [ -75.680946, 39.813885 ], [ -75.73838, 39.773982 ], [ -75.773786, 39.7222 ] ] ] } },
{ "type": "Feature", "properties": { "district_id": 15, "voting_age_pop": 593233, "lib_votes": 0, "grn_votes": 0, "con_votes": 0, "ref_votes": 0, "total_pop": 778508, "dem_votes_sum": 166785, "rep_votes_sum": 170808, "lib_votes_sum": 0, "grn_votes_sum": 0, "con_votes_sum": 0, "ref_votes_sum": 0, "minority_pop_sum": 28405, "dem_pct": 0.49404164185868782, "rep_pct": 0.50595835814131218, "lib_pct": 0.0, "grn_pct": 0.0, "con_pct": 0.0, "ref_pct": 0.0, "minority_pct": 0.036486458713333711, "compactness": 0.10344379866055073 }, "geometry": { "type": "Polygon", "coordinates": [ [ [ -76.043993, 40.247196 ], [ -76.019761, 40.28027 ], [ -76.037722, 40.281308 ], [ -76.049264, 40.304813 ], [ -76.007789, 40.323028 ], [ -76.025579, 40.334845 ], [ -76.042514, 40.32673 ], [ -76.070084, 40.347398 ], [ -76.057307, 40.360998 ], [ -76.173543, 40.388958 ], [ -76.181245, 40.373123 ], [ -76.203168, 40.368974 ], [ -76.19849, 40.354787 ], [ -76.307108, 40.413438 ], [ -76.181265, 40.409708 ], [ -76.209663, 40.456197 ], [ -76.197153, 40.468286 ], [ -76.117532, 40.469191 ], [ -76.001273, 40.514794 ], [ -75.980009, 40.537514 ], [ -76.012226, 40.577713 ], [ -75.996233, 40.629971 ], [ -75.937243, 40.591501 ], [ -75.76674, 40.597033 ], [ -75.824415, 40.639597 ], [ -75.795725, 40.653687 ], [ -75.715874, 40.664284 ], [ -75.757807, 40.735414 ], [ -75.787049, 40.753559 ], [ -75.676216, 40.799658 ], [ -75.670666, 40.812041 ], [ -75.687588, 40.819487 ], [ -75.691041, 40.849609 ], [ -75.630701, 40.883263 ], [ -75.633005, 40.894565 ], [ -75.556438, 40.928693 ], [ -75.526764, 40.890318 ], [ -75.593854, 40.873583 ], [ -75.62485, 40.857367 ], [ -75.622404, 40.847149 ], [ -75.540875, 40.851961 ], [ -75.512274, 40.864198 ], [ -75.502267, 40.857143 ], [ -75.517953, 40.878192 ], [ -75.42713, 40.897121 ], [ -75.378852, 40.832527 ], [ -75.443267, 40.818276 ], [ -75.4352, 40.792062 ], [ -75.414502, 40.78726 ], [ -75.402442, 40.736571 ], [ -75.383432, 40.737978 ], [ -75.376568, 40.693765 ], [ -75.407702, 40.682257 ], [ -75.393306, 40.673156 ], [ -75.409343, 40.681671 ], [ -75.459489, 40.663726 ], [ -75.45183, 40.655541 ], [ -75.470444, 40.647058 ], [ -75.462924, 40.628848 ], [ -75.420896, 40.626142 ], [ -75.427852, 40.60725 ], [ -75.448329, 40.5975 ], [ -75.455348, 40.612743 ], [ -75.475029, 40.6092 ], [ -75.468124, 40.597177 ], [ -75.497941, 40.590845 ], [ -75.484473, 40.584359 ], [ -75.530304, 40.565393 ], [ -75.501721, 40.550176 ], [ -75.511464, 40.563559 ], [ -75.498894, 40.567795 ], [ -75.488983, 40.556785 ], [ -75.499469, 40.546323 ], [ -75.478985, 40.5549 ], [ -75.481745, 40.534224 ], [ -75.409733, 40.487984 ], [ -75.442264, 40.457626 ], [ -75.39148, 40.432156 ], [ -75.408828, 40.418634 ], [ -75.408743, 40.397131 ], [ -75.432762, 40.388512 ], [ -75.403662, 40.374803 ], [ -75.3796, 40.396539 ], [ -75.294062, 40.410955 ], [ -75.298854, 40.439419 ], [ -75.288132, 40.450249 ], [ -75.275264, 40.455115 ], [ -75.255218, 40.429114 ], [ -75.229141, 40.462801 ], [ -75.19197, 40.475153 ], [ -75.161273, 40.461165 ], [ -75.162172, 40.44301 ], [ -75.116552, 40.433727 ], [ -75.145243, 40.403397 ], [ -75.136744, 40.396058 ], [ -75.113529, 40.384853 ], [ -75.091769, 40.402573 ], [ -75.102157, 40.377538 ], [ -75.132823, 40.354538 ], [ -75.112712, 40.34884 ], [ -75.131929, 40.329665 ], [ -75.151084, 40.341221 ], [ -75.200846, 40.292269 ], [ -75.227842, 40.31565 ], [ -75.243143, 40.307347 ], [ -75.264773, 40.318662 ], [ -75.296674, 40.350751 ], [ -75.317177, 40.318489 ], [ -75.339341, 40.331689 ], [ -75.333856, 40.315327 ], [ -75.353645, 40.327021 ], [ -75.375, 40.320494 ], [ -75.394127, 40.299053 ], [ -75.382872, 40.290966 ], [ -75.396887, 40.271072 ], [ -75.418413, 40.282435 ], [ -75.445656, 40.257301 ], [ -75.465031, 40.266449 ], [ -75.45662, 40.301497 ], [ -75.489781, 40.350449 ], [ -75.53375, 40.30645 ], [ -75.596206, 40.330036 ], [ -75.604515, 40.354992 ], [ -75.664319, 40.281367 ], [ -75.686189, 40.303542 ], [ -75.699322, 40.299009 ], [ -75.716004, 40.263168 ], [ -75.720458, 40.24846 ], [ -75.698552, 40.242768 ], [ -75.690171, 40.236451 ], [ -75.659409, 40.242344 ], [ -75.660309, 40.21132 ], [ -75.67345, 40.202537 ], [ -75.687429, 40.208967 ], [ -75.677767, 40.215403 ], [ -75.697498, 40.241482 ], [ -75.760436, 40.206307 ], [ -75.738987, 40.148148 ], [ -75.810559, 40.154835 ], [ -75.82098, 40.169716 ], [ -75.966592, 40.098932 ], [ -75.986108, 40.097681 ], [ -76.00485, 40.169801 ], [ -75.976665, 40.167432 ], [ -75.941804, 40.181588 ], [ -75.882075, 40.142599 ], [ -75.872485, 40.155953 ], [ -75.903408, 40.167254 ], [ -75.930221, 40.194268 ], [ -75.919768, 40.202838 ], [ -75.934331, 40.244722 ], [ -75.960237, 40.246334 ], [ -75.991271, 40.213183 ], [ -76.043993, 40.247196 ] ] ] } },
{ "type": "Feature", "properties": { "district_id": 16, "voting_age_pop": 578585, "lib_votes": 0, "grn_votes": 0, "con_votes": 0, "ref_votes": 0, "total_pop": 747512, "dem_votes_sum": 150680, "rep_votes_sum": 147725, "lib_votes_sum": 0, "grn_votes_sum": 0, "con_votes_sum": 0, "ref_votes_sum": 0, "minority_pop_sum": 37570, "dem_pct": 0.50495132454214908, "rep_pct": 0.49504867545785092, "lib_pct": 0.0, "grn_pct": 0.0, "con_pct": 0.0, "ref_pct": 0.0, "minority_pct": 0.05026006271471227, "compactness": 0.068692459799146774 }, "geometry": { "type": "Polygon", "coordinates": [ [ [ -76.386436, 40.323599 ], [ -76.381502, 40.311244 ], [ -76.410824, 40.305757 ], [ -76.418652, 40.324596 ], [ -76.448217, 40.325606 ], [ -76.42704, 40.345552 ], [ -76.488738, 40.345812 ], [ -76.495588, 40.390464 ], [ -76.517379, 40.408092 ], [ -76.620566000000139, 40.446714 ], [ -76.628700000000151, 40.463843 ], [ -76.535361000000108, 40.50464 ], [ -76.500227, 40.532944 ], [ -76.535414, 40.555157 ], [ -76.720189000000204, 40.454871 ], [ -76.768540000000257, 40.436698 ], [ -76.780570000000282, 40.459573 ], [ -76.689031000000185, 40.497033 ], [ -76.585790000000131, 40.561472 ], [ -76.562649000000121, 40.571883 ], [ -76.54514, 40.561118 ], [ -76.452334, 40.610563 ], [ -76.457822, 40.635808 ], [ -76.394106, 40.665072 ], [ -76.420023, 40.679111 ], [ -76.432513, 40.669906 ], [ -76.469642, 40.693821 ], [ -76.430776, 40.736247 ], [ -76.391923, 40.741877 ], [ -76.400295, 40.751926 ], [ -76.382267, 40.744763 ], [ -76.375614, 40.753327 ], [ -76.353382, 40.730839 ], [ -76.300362, 40.715319 ], [ -76.329522, 40.692748 ], [ -76.282132, 40.628931 ], [ -76.233218, 40.652433 ], [ -76.200602, 40.606986 ], [ -76.178845, 40.616207 ], [ -76.182554, 40.625242 ], [ -76.208249, 40.625473 ], [ -76.199302, 40.637526 ], [ -76.18892, 40.640527 ], [ -76.183565, 40.628562 ], [ -76.178583, 40.643238 ], [ -76.132326, 40.648556 ], [ -76.153654, 40.66579 ], [ -76.143772, 40.669005 ], [ -76.151469, 40.685863 ], [ -76.130047, 40.695847 ], [ -76.219678, 40.768637 ], [ -76.082606, 40.771404 ], [ -75.908336, 40.835554 ], [ -75.926429, 40.851726 ], [ -75.798954, 40.904121 ], [ -75.830722, 40.929681 ], [ -75.830173, 40.948947 ], [ -75.847466, 40.945264 ], [ -75.863924, 40.960976 ], [ -75.888499, 40.952035 ], [ -75.91143, 41.031718 ], [ -75.927808, 41.017909 ], [ -75.963631, 41.021931 ], [ -75.964256, 41.02711 ], [ -75.953775, 41.032062 ], [ -75.953346, 41.037423 ], [ -76.009803, 41.021867 ], [ -76.013491, 41.045925 ], [ -75.984159, 41.069634 ], [ -75.855079, 41.117486 ], [ -75.855521, 41.127294 ], [ -75.837592, 41.127329 ], [ -75.838271, 41.14287 ], [ -75.81502, 41.143065 ], [ -75.815842, 41.153765 ], [ -75.769879, 41.155077 ], [ -75.768432, 41.125466 ], [ -75.795923, 41.113358 ], [ -75.768119, 41.105323 ], [ -75.770024, 41.068749 ], [ -75.748317, 41.069828 ], [ -75.748657, 41.060429 ], [ -75.721515, 41.05589 ], [ -75.627255, 41.08312 ], [ -75.540216, 41.075681 ], [ -75.538002, 41.149008 ], [ -75.334122, 41.100288 ], [ -75.34783, 41.091798 ], [ -75.326737, 41.072852 ], [ -75.343828, 41.065756 ], [ -75.317705, 41.054674 ], [ -75.317083, 41.06262 ], [ -75.29544, 41.063042 ], [ -75.326777, 41.028887 ], [ -75.284486, 40.999475 ], [ -75.223483, 41.073358 ], [ -75.249491, 41.143936 ], [ -75.13843, 41.218635 ], [ -75.1157, 41.293661 ], [ -75.045038, 41.289912 ], [ -75.008259, 41.349211 ], [ -74.904456, 41.341777 ], [ -74.917523, 41.303765 ], [ -74.962336, 41.298085 ], [ -74.93316, 41.282992 ], [ -74.973195, 41.285723 ], [ -74.992549, 41.258286 ], [ -74.885054, 41.234145 ], [ -74.860398, 41.217454 ], [ -74.923169, 41.138146 ], [ -74.982212, 41.108245 ], [ -74.991815, 41.089132 ], [ -74.969434, 41.096074 ], [ -74.970094, 41.085886 ], [ -75.012873, 41.066516 ], [ -75.025777, 41.039806 ], [ -75.131096, 40.990464 ], [ -75.134701, 40.972038 ], [ -75.120435, 40.968302 ], [ -75.051029, 40.865662 ], [ -75.066008, 40.847594 ], [ -75.095784, 40.847082 ], [ -75.083929, 40.824471 ], [ -75.108505, 40.791094 ], [ -75.1344, 40.77377 ], [ -75.171587, 40.777745 ], [ -75.196861, 40.750097 ], [ -75.182084, 40.731522 ], [ -75.203921, 40.691498 ], [ -75.176803, 40.675715 ], [ -75.200452, 40.649219 ], [ -75.188579, 40.624628 ], [ -75.201812, 40.617188 ], [ -75.195066, 40.577449 ], [ -75.171623, 40.564222 ], [ -75.115536, 40.57286 ], [ -75.068581, 40.542185 ], [ -75.060694, 40.421333 ], [ -75.083486, 40.441919 ], [ -75.109545, 40.432104 ], [ -75.161641, 40.442786 ], [ -75.161273, 40.461165 ], [ -75.193999, 40.475253 ], [ -75.229141, 40.462801 ], [ -75.255218, 40.429114 ], [ -75.275264, 40.455115 ], [ -75.288132, 40.450249 ], [ -75.298854, 40.439419 ], [ -75.294062, 40.410955 ], [ -75.3796, 40.396539 ], [ -75.403662, 40.374803 ], [ -75.432762, 40.388512 ], [ -75.408743, 40.397131 ], [ -75.408828, 40.418634 ], [ -75.39148, 40.432156 ], [ -75.442264, 40.457626 ], [ -75.409733, 40.487984 ], [ -75.481745, 40.534224 ], [ -75.478985, 40.5549 ], [ -75.499469, 40.546323 ], [ -75.488983, 40.556785 ], [ -75.498894, 40.567795 ], [ -75.511464, 40.563559 ], [ -75.498296, 40.553847 ], [ -75.501721, 40.550176 ], [ -75.530304, 40.565393 ], [ -75.484473, 40.584359 ], [ -75.497941, 40.590845 ], [ -75.468124, 40.597177 ], [ -75.475029, 40.6092 ], [ -75.455348, 40.612743 ], [ -75.448329, 40.5975 ], [ -75.419638, 40.616097 ], [ -75.436177, 40.633471 ], [ -75.462924, 40.628848 ], [ -75.470444, 40.647058 ], [ -75.45183, 40.655541 ], [ -75.459489, 40.663726 ], [ -75.409343, 40.681671 ], [ -75.393306, 40.673156 ], [ -75.407702, 40.682257 ], [ -75.376568, 40.693765 ], [ -75.383432, 40.737978 ], [ -75.402442, 40.736571 ], [ -75.414502, 40.78726 ], [ -75.4352, 40.792062 ], [ -75.443267, 40.818276 ], [ -75.378852, 40.832527 ], [ -75.42713, 40.897121 ], [ -75.517953, 40.878192 ], [ -75.502267, 40.857143 ], [ -75.512274, 40.864198 ], [ -75.540875, 40.851961 ], [ -75.622404, 40.847149 ], [ -75.62485, 40.857367 ], [ -75.593854, 40.873583 ], [ -75.526764, 40.890318 ], [ -75.556438, 40.928693 ], [ -75.633005, 40.894565 ], [ -75.630701, 40.883263 ], [ -75.691041, 40.849609 ], [ -75.687588, 40.819487 ], [ -75.670666, 40.812041 ], [ -75.679168, 40.796947 ], [ -75.701781, 40.7967 ], [ -75.697379, 40.788278 ], [ -75.787049, 40.753559 ], [ -75.757807, 40.735414 ], [ -75.715874, 40.664284 ], [ -75.795725, 40.653687 ], [ -75.824415, 40.639597 ], [ -75.76674, 40.597033 ], [ -75.937243, 40.591501 ], [ -75.996233, 40.629971 ], [ -76.012226, 40.577713 ], [ -75.980009, 40.537514 ], [ -76.001273, 40.514794 ], [ -76.117532, 40.469191 ], [ -76.197153, 40.468286 ], [ -76.209663, 40.456197 ], [ -76.181265, 40.409708 ], [ -76.307108, 40.413438 ], [ -76.320974, 40.421866 ], [ -76.308562, 40.380277 ], [ -76.295056, 40.376672 ], [ -76.309373, 40.359313 ], [ -76.305852, 40.334371 ], [ -76.386436, 40.323599 ] ] ] } }
]
}
