{
"type": "FeatureCollection",
"name": "rhode_island_enacted_districts",
"crs": { "type": "name", "properties": { "name": "urn:ogc:def:crs:OGC:1.3:CRS84" } },
"features": [
{ "type": "Feature", "properties": { "enacted_district": 1, "population": 548026.0, "voting_age_pop": 440765.0, "dem_votes": 130153.0, "rep_votes": 64395.0, "minority_pop": 141673.0, "dem_pct": 0.66900199402255378, "rep_pct": 0.33099800546343422 }, "geometry": { "type": "Polygon", "coordinates": [ [ [ -71.495545000001073, 41.868983000002856 ], [ -71.508042000001481, 41.867342000003411 ], [ -71.531464000001094, 41.864269000002714 ], [ -71.5736080000014, 41.858807000003331 ], [ -71.574642000001418, 41.858748000002954 ], [ -71.579908000000557, 41.884720000003171 ], [ -71.590312000000793, 41.933665000003018 ], [ -71.597141000001201, 41.96722300000323 ], [ -71.600443000001334, 41.9830270000027 ], [ -71.606731000001588, 42.013280000003043 ], [ -71.586861000001306, 42.013743000003025 ], [ -71.529125000000988, 42.01506300000284 ], [ -71.511633000001183, 42.016280000003434 ], [ -71.502054000001067, 42.016991000003415 ], [ -71.489389000000799, 42.017401000003346 ], [ -71.48378400000135, 42.017481000003201 ], [ -71.458104000000731, 42.017798000002891 ], [ -71.424407000000585, 42.018280000002612 ], [ -71.381401000001432, 42.018798000003279 ], [ -71.381398000000715, 41.952862000002746 ], [ -71.381425000001173, 41.929828000002658 ], [ -71.381440000000879, 41.914745000003123 ], [ -71.381463000001261, 41.893546000002821 ], [ -71.366239000000817, 41.895348000002883 ], [ -71.354558000000665, 41.896728000002952 ], [ -71.339850000000766, 41.890130000003211 ], [ -71.337818000001221, 41.87317100000336 ], [ -71.337400000001608, 41.872019000003348 ], [ -71.334653000001296, 41.861314000003283 ], [ -71.340803000000818, 41.842450000003289 ], [ -71.347496000001314, 41.823158000002806 ], [ -71.33946600000165, 41.806648000003356 ], [ -71.340543000000935, 41.802078000002858 ], [ -71.317873000001242, 41.776199000003174 ], [ -71.284404000000592, 41.762005000003029 ], [ -71.261067000000736, 41.75208200000317 ], [ -71.208371000001463, 41.690598000003227 ], [ -71.184328000001301, 41.673063000002806 ], [ -71.162120000001451, 41.665735000003437 ], [ -71.132557000001086, 41.660363000003443 ], [ -71.134672000001231, 41.638888000003519 ], [ -71.135302000000664, 41.628565000002908 ], [ -71.140308000000701, 41.604850000003417 ], [ -71.131620000000552, 41.593716000003191 ], [ -71.127837000001421, 41.563203000002645 ], [ -71.121116000001521, 41.492787000003517 ], [ -71.116404000001623, 41.484568000002703 ], [ -71.08857100000111, 41.431315000002797 ], [ -71.124594000000812, 41.411474000003039 ], [ -71.249960000001408, 41.377713000002842 ], [ -71.37449500000163, 41.339011000003183 ], [ -71.479876000000687, 41.312599000003303 ], [ -71.509442000000647, 41.30773200000305 ], [ -71.482019000001245, 41.348537000002942 ], [ -71.459999000000735, 41.375102000003416 ], [ -71.440854000001593, 41.414205000002667 ], [ -71.432026000001059, 41.432236000002838 ], [ -71.429139000001697, 41.437998000003361 ], [ -71.421899000001048, 41.449002000003354 ], [ -71.412784000000642, 41.462674000003346 ], [ -71.408399000000614, 41.484501000002787 ], [ -71.411599000001715, 41.504501000003188 ], [ -71.402514000001204, 41.514086000003338 ], [ -71.399506000000713, 41.548040000003134 ], [ -71.398699000001272, 41.556801000002771 ], [ -71.387442000001471, 41.603673000002885 ], [ -71.381749000001051, 41.640561000002748 ], [ -71.380542000000816, 41.650326000002629 ], [ -71.374783000000576, 41.662765000002935 ], [ -71.352354000001398, 41.678885000003234 ], [ -71.33097000000069, 41.686962000003078 ], [ -71.333869000000988, 41.705776000003034 ], [ -71.342585000000625, 41.71557700000276 ], [ -71.355080000000811, 41.72696200000334 ], [ -71.365207000000666, 41.735649000003257 ], [ -71.368512000001388, 41.739421000002885 ], [ -71.37827300000076, 41.755297000003424 ], [ -71.378193000001573, 41.756983000003153 ], [ -71.377613000001389, 41.766836000003273 ], [ -71.376998000001009, 41.777900000003363 ], [ -71.377798000000638, 41.782000000002682 ], [ -71.378198000001063, 41.784400000003011 ], [ -71.395042000000572, 41.786148000003251 ], [ -71.401657000000739, 41.785889000003138 ], [ -71.404259000001105, 41.785849000002699 ], [ -71.413948000000801, 41.7887380000031 ], [ -71.419556000001521, 41.786110000003411 ], [ -71.420063000000852, 41.787033000002708 ], [ -71.420610000001432, 41.786184000002777 ], [ -71.431603000000706, 41.786254000003069 ], [ -71.434046000001231, 41.786307000003234 ], [ -71.436482000000737, 41.78841200000295 ], [ -71.438541000001521, 41.794229000002915 ], [ -71.440541000001346, 41.803946000002803 ], [ -71.440600000001481, 41.804236000002632 ], [ -71.440809000000826, 41.808641000003185 ], [ -71.439835000001693, 41.808876000002797 ], [ -71.435463000000894, 41.81106900000308 ], [ -71.435684000000592, 41.81177100000339 ], [ -71.426552000001706, 41.813450000003122 ], [ -71.425895000000779, 41.812831000003158 ], [ -71.422173000000768, 41.81276700000334 ], [ -71.421005000001358, 41.809772000003413 ], [ -71.415802000000966, 41.809299000003222 ], [ -71.406960000000566, 41.812813000002954 ], [ -71.415329000001705, 41.816929000003313 ], [ -71.410127000001125, 41.827065000003053 ], [ -71.41091500000168, 41.828435000003246 ], [ -71.411507000001137, 41.831394000003506 ], [ -71.412290000000738, 41.831468000002957 ], [ -71.415291000001417, 41.829174000003505 ], [ -71.421974000001356, 41.833767000003157 ], [ -71.415021000001218, 41.836616000002905 ], [ -71.413812000001514, 41.83748100000318 ], [ -71.41795300000085, 41.840633000002946 ], [ -71.427261000000598, 41.840919000003126 ], [ -71.428993000001086, 41.8460540000031 ], [ -71.429565000000693, 41.846516000003241 ], [ -71.437920000000631, 41.853271000002792 ], [ -71.441116000001145, 41.855377000003259 ], [ -71.434677000001273, 41.854721000002762 ], [ -71.428055000000711, 41.853474000003203 ], [ -71.434998000000689, 41.861824000003331 ], [ -71.442986000000815, 41.856556000002954 ], [ -71.446686000001634, 41.854050000003497 ], [ -71.448324000001634, 41.852981000003055 ], [ -71.455905000000641, 41.847903000002646 ], [ -71.472459000001521, 41.836981000002893 ], [ -71.478123000000622, 41.841804000003172 ], [ -71.478888000001334, 41.842846000003249 ], [ -71.480602000001156, 41.84660500000345 ], [ -71.480974000001694, 41.850821000003258 ], [ -71.487421000001049, 41.859073000002674 ], [ -71.495545000001073, 41.868983000002856 ] ] ] } },
{ "type": "Feature", "properties": { "enacted_district": 2, "population": 549353.0, "voting_age_pop": 446829.0, "dem_votes": 132684.0, "rep_votes": 93774.0, "minority_pop": 103486.0, "dem_pct": 0.58590996980194565, "rep_pct": 0.41409002975647136 }, "geometry": { "type": "MultiPolygon", "coordinates": [ [ [ [ -71.72922800000147, 41.277891000002647 ], [ -71.778430000000654, 41.275111000003193 ], [ -71.79148000000167, 41.272165000003255 ], [ -71.790972000001688, 41.184101000002869 ], [ -71.907258000001249, 41.304483000002769 ], [ -71.892067000001745, 41.330075000003205 ], [ -71.857458000001245, 41.320789000003352 ], [ -71.829479000001314, 41.342326000003389 ], [ -71.837633000001631, 41.365499000003275 ], [ -71.831356000001605, 41.377752000003362 ], [ -71.831796000001177, 41.379866000003254 ], [ -71.842209000001475, 41.395380000002909 ], [ -71.842029000000849, 41.410706000003429 ], [ -71.820330000001022, 41.419382000003147 ], [ -71.797744000000563, 41.416910000002829 ], [ -71.795647000001679, 41.459984000003082 ], [ -71.792206000001514, 41.526783000003412 ], [ -71.791402000000858, 41.546092000002851 ], [ -71.789247000001382, 41.596847000003166 ], [ -71.787846000000968, 41.634450000003042 ], [ -71.787239000001492, 41.656111000003399 ], [ -71.789704000001024, 41.725198000002635 ], [ -71.791066000001507, 41.770180000003286 ], [ -71.79468000000098, 41.854409000002967 ], [ -71.797262000001723, 41.916247000003281 ], [ -71.797778000001273, 41.928645000002938 ], [ -71.799188000000811, 42.008053000003216 ], [ -71.734064000001155, 42.010334000003162 ], [ -71.678019000001598, 42.011598000003239 ], [ -71.645330000001422, 42.012372000002649 ], [ -71.606731000001588, 42.013280000003043 ], [ -71.600443000001334, 41.9830270000027 ], [ -71.597141000001201, 41.96722300000323 ], [ -71.590312000000793, 41.933665000003018 ], [ -71.579908000000557, 41.884720000003171 ], [ -71.574642000001418, 41.858748000002954 ], [ -71.5736080000014, 41.858807000003331 ], [ -71.531464000001094, 41.864269000002714 ], [ -71.508042000001481, 41.867342000003411 ], [ -71.495545000001073, 41.868983000002856 ], [ -71.487421000001049, 41.859073000002674 ], [ -71.480974000001694, 41.850821000003258 ], [ -71.480602000001156, 41.84660500000345 ], [ -71.478888000001334, 41.842846000003249 ], [ -71.478123000000622, 41.841804000003172 ], [ -71.472459000001521, 41.836981000002893 ], [ -71.455905000000641, 41.847903000002646 ], [ -71.448324000001634, 41.852981000003055 ], [ -71.446686000001634, 41.854050000003497 ], [ -71.442986000000815, 41.856556000002954 ], [ -71.434998000000689, 41.861824000003331 ], [ -71.428055000000711, 41.853474000003203 ], [ -71.434677000001273, 41.854721000002762 ], [ -71.441116000001145, 41.855377000003259 ], [ -71.437920000000631, 41.853271000002792 ], [ -71.429565000000693, 41.846516000003241 ], [ -71.428993000001086, 41.8460540000031 ], [ -71.427261000000598, 41.840919000003126 ], [ -71.41795300000085, 41.840633000002946 ], [ -71.413812000001514, 41.83748100000318 ], [ -71.415021000001218, 41.836616000002905 ], [ -71.421974000001356, 41.833767000003157 ], [ -71.415291000001417, 41.829174000003505 ], [ -71.412290000000738, 41.831468000002957 ], [ -71.411507000001137, 41.831394000003506 ], [ -71.41091500000168, 41.828435000003246 ], [ -71.410127000001125, 41.827065000003053 ], [ -71.415329000001705, 41.816929000003313 ], [ -71.406960000000566, 41.812813000002954 ], [ -71.415802000000966, 41.809299000003222 ], [ -71.421005000001358, 41.809772000003413 ], [ -71.422173000000768, 41.81276700000334 ], [ -71.425895000000779, 41.812831000003158 ], [ -71.426552000001706, 41.813450000003122 ], [ -71.435684000000592, 41.81177100000339 ], [ -71.435463000000894, 41.81106900000308 ], [ -71.439835000001693, 41.808876000002797 ], [ -71.440809000000826, 41.808641000003185 ], [ -71.440600000001481, 41.804236000002632 ], [ -71.440541000001346, 41.803946000002803 ], [ -71.438541000001521, 41.794229000002915 ], [ -71.436482000000737, 41.78841200000295 ], [ -71.434046000001231, 41.786307000003234 ], [ -71.431603000000706, 41.786254000003069 ], [ -71.420610000001432, 41.786184000002777 ], [ -71.420063000000852, 41.787033000002708 ], [ -71.419556000001521, 41.786110000003411 ], [ -71.413948000000801, 41.7887380000031 ], [ -71.404259000001105, 41.785849000002699 ], [ -71.401657000000739, 41.785889000003138 ], [ -71.395042000000572, 41.786148000003251 ], [ -71.378198000001063, 41.784400000003011 ], [ -71.377798000000638, 41.782000000002682 ], [ -71.376998000001009, 41.777900000003363 ], [ -71.377613000001389, 41.766836000003273 ], [ -71.378193000001573, 41.756983000003153 ], [ -71.37827300000076, 41.755297000003424 ], [ -71.368512000001388, 41.739421000002885 ], [ -71.365207000000666, 41.735649000003257 ], [ -71.355080000000811, 41.72696200000334 ], [ -71.342585000000625, 41.71557700000276 ], [ -71.333869000000988, 41.705776000003034 ], [ -71.33097000000069, 41.686962000003078 ], [ -71.352354000001398, 41.678885000003234 ], [ -71.374783000000576, 41.662765000002935 ], [ -71.380542000000816, 41.650326000002629 ], [ -71.381749000001051, 41.640561000002748 ], [ -71.387442000001471, 41.603673000002885 ], [ -71.398699000001272, 41.556801000002771 ], [ -71.399506000000713, 41.548040000003134 ], [ -71.402514000001204, 41.514086000003338 ], [ -71.411599000001715, 41.504501000003188 ], [ -71.408399000000614, 41.484501000002787 ], [ -71.412784000000642, 41.462674000003346 ], [ -71.421899000001048, 41.449002000003354 ], [ -71.429139000001697, 41.437998000003361 ], [ -71.432026000001059, 41.432236000002838 ], [ -71.440854000001593, 41.414205000002667 ], [ -71.459999000000735, 41.375102000003416 ], [ -71.482019000001245, 41.348537000002942 ], [ -71.509442000000647, 41.30773200000305 ], [ -71.575199000000708, 41.320941000003309 ], [ -71.58445200000132, 41.317037000003289 ], [ -71.651523000000822, 41.298362000002903 ], [ -71.672595000000754, 41.289079000003376 ], [ -71.72922800000147, 41.277891000002647 ] ] ], [ [ [ -71.516350000001012, 41.271549000002828 ], [ -71.492196000000817, 41.240876000002658 ], [ -71.484583000000825, 41.217486000002843 ], [ -71.48984400000154, 41.194698000003541 ], [ -71.476925000000875, 41.168157000003163 ], [ -71.479562000000968, 41.148055000002955 ], [ -71.491432000001211, 41.125104000002949 ], [ -71.528168000001315, 41.103114000002975 ], [ -71.569300000001192, 41.097182000002718 ], [ -71.61167300000065, 41.097413000003066 ], [ -71.630301000001651, 41.103455000003258 ], [ -71.668345000001509, 41.128250000002659 ], [ -71.678807000001072, 41.158912000002779 ], [ -71.670491000000894, 41.19450300000274 ], [ -71.643014000001074, 41.231323000003357 ], [ -71.640844000000712, 41.250101000003148 ], [ -71.624504000000556, 41.274129000003057 ], [ -71.591591000001344, 41.289317000002796 ], [ -71.557569000001422, 41.294018000003298 ], [ -71.535979000000751, 41.286180000002872 ], [ -71.516350000001012, 41.271549000002828 ] ] ] ] } }
]
}
