{
"type": "FeatureCollection",
"name": "rhode_island_optimized_districts_all",
"crs": { "type": "name", "properties": { "name": "urn:ogc:def:crs:OGC:1.3:CRS84" } },
"features": [
{ "type": "Feature", "properties": { "opt_all": 1, "population": 546847.0, "voting_age_pop": 436419.0, "dem_votes": 118722.0, "rep_votes": 59865.0, "minority_pop": 169286.0, "dem_pct": 0.66478523035563319, "rep_pct": 0.33521476908441555 }, "geometry": { "type": "Polygon", "coordinates": [ [ [ -71.569627000000736, 41.835079000003226 ], [ -71.574642000001418, 41.858748000002954 ], [ -71.604992000001076, 41.857999000002835 ], [ -71.676808000001628, 41.856650000002915 ], [ -71.691010000000645, 41.856457000002749 ], [ -71.79468000000098, 41.854409000002967 ], [ -71.797262000001723, 41.916247000003281 ], [ -71.797778000001273, 41.928645000002938 ], [ -71.799188000000811, 42.008053000003216 ], [ -71.734064000001155, 42.010334000003162 ], [ -71.678019000001598, 42.011598000003239 ], [ -71.645330000001422, 42.012372000002649 ], [ -71.606731000001588, 42.013280000003043 ], [ -71.586861000001306, 42.013743000003025 ], [ -71.529125000000988, 42.01506300000284 ], [ -71.511633000001183, 42.016280000003434 ], [ -71.502054000001067, 42.016991000003415 ], [ -71.489389000000799, 42.017401000003346 ], [ -71.48378400000135, 42.017481000003201 ], [ -71.458104000000731, 42.017798000002891 ], [ -71.424407000000585, 42.018280000002612 ], [ -71.381401000001432, 42.018798000003279 ], [ -71.381398000000715, 41.952862000002746 ], [ -71.381425000001173, 41.929828000002658 ], [ -71.381440000000879, 41.914745000003123 ], [ -71.381463000001261, 41.893546000002821 ], [ -71.366239000000817, 41.895348000002883 ], [ -71.354558000000665, 41.896728000002952 ], [ -71.339850000000766, 41.890130000003211 ], [ -71.337818000001221, 41.87317100000336 ], [ -71.337400000001608, 41.872019000003348 ], [ -71.334653000001296, 41.861314000003283 ], [ -71.340803000000818, 41.842450000003289 ], [ -71.347496000001314, 41.823158000002806 ], [ -71.33946600000165, 41.806648000003356 ], [ -71.340543000000935, 41.802078000002858 ], [ -71.317873000001242, 41.776199000003174 ], [ -71.322678000000977, 41.772592000003506 ], [ -71.316300000001121, 41.746222000003414 ], [ -71.341354000001203, 41.74697400000268 ], [ -71.34653000000057, 41.756106000002958 ], [ -71.342395000001432, 41.758965000003016 ], [ -71.332659000001328, 41.765715000003247 ], [ -71.324717000001428, 41.77120100000279 ], [ -71.350479000001457, 41.770374000002782 ], [ -71.347252000001419, 41.768429000003209 ], [ -71.345785000001285, 41.759280000002768 ], [ -71.353602000001672, 41.758842000003149 ], [ -71.378193000001573, 41.756983000003153 ], [ -71.37827300000076, 41.755297000003424 ], [ -71.384733000001162, 41.757602000003388 ], [ -71.405203000001578, 41.767610000003117 ], [ -71.417586000001705, 41.762254000003431 ], [ -71.419078000001576, 41.761885000002863 ], [ -71.429890000000569, 41.760761000002894 ], [ -71.427771000001471, 41.766596000002664 ], [ -71.425975000001088, 41.771525000003365 ], [ -71.437333000001146, 41.774577000003092 ], [ -71.437393000000796, 41.77477600000325 ], [ -71.434046000001231, 41.786307000003234 ], [ -71.436482000000737, 41.78841200000295 ], [ -71.438541000001521, 41.794229000002915 ], [ -71.440541000001346, 41.803946000002803 ], [ -71.441318000001303, 41.804750000003501 ], [ -71.447533000000959, 41.806614000002888 ], [ -71.447845000000896, 41.807457000003104 ], [ -71.449982000000603, 41.815132000002819 ], [ -71.45264400000093, 41.815559000003397 ], [ -71.455315000000695, 41.81794700000345 ], [ -71.448555000001591, 41.817135000002949 ], [ -71.446163000001548, 41.815260000003107 ], [ -71.440010000000825, 41.813816000003357 ], [ -71.439534000001586, 41.815962000002727 ], [ -71.433640000001674, 41.824219000003048 ], [ -71.443398000001409, 41.824780000003251 ], [ -71.443718000000757, 41.824802000002748 ], [ -71.44863100000147, 41.825066000002877 ], [ -71.456131000000852, 41.828663000002734 ], [ -71.456497000000553, 41.832108000002791 ], [ -71.449135000000837, 41.844410000002725 ], [ -71.455905000000641, 41.847903000002646 ], [ -71.472459000001521, 41.836981000002893 ], [ -71.470444000001734, 41.832912000002878 ], [ -71.462423000000953, 41.824687000002733 ], [ -71.471306000001718, 41.82413900000283 ], [ -71.470877000001309, 41.821944000002631 ], [ -71.478607000000537, 41.820343000002673 ], [ -71.479416000000668, 41.805180000003347 ], [ -71.467072000000726, 41.804470000002638 ], [ -71.464920000001229, 41.80587400000347 ], [ -71.463665000000589, 41.805046000003323 ], [ -71.466167000000766, 41.802652000002965 ], [ -71.479736000001665, 41.796852000003334 ], [ -71.496758000001648, 41.791031000002782 ], [ -71.506058000001474, 41.788879000002879 ], [ -71.516174000001456, 41.788582000002862 ], [ -71.535255000001001, 41.793297000002852 ], [ -71.559290000000544, 41.789344000002629 ], [ -71.565630000000667, 41.814987000003384 ], [ -71.569627000000736, 41.835079000003226 ] ] ] } },
{ "type": "Feature", "properties": { "opt_all": 2, "population": 550532.0, "voting_age_pop": 451175.0, "dem_votes": 144115.0, "rep_votes": 98304.0, "minority_pop": 75873.0, "dem_pct": 0.5944872305411345, "rep_pct": 0.40551276904635658 }, "geometry": { "type": "MultiPolygon", "coordinates": [ [ [ [ -71.535979000000751, 41.286180000002872 ], [ -71.516350000001012, 41.271549000002828 ], [ -71.492196000000817, 41.240876000002658 ], [ -71.484583000000825, 41.217486000002843 ], [ -71.48984400000154, 41.194698000003541 ], [ -71.476925000000875, 41.168157000003163 ], [ -71.479562000000968, 41.148055000002955 ], [ -71.491432000001211, 41.125104000002949 ], [ -71.528168000001315, 41.103114000002975 ], [ -71.569300000001192, 41.097182000002718 ], [ -71.61167300000065, 41.097413000003066 ], [ -71.630301000001651, 41.103455000003258 ], [ -71.668345000001509, 41.128250000002659 ], [ -71.678807000001072, 41.158912000002779 ], [ -71.670491000000894, 41.19450300000274 ], [ -71.643014000001074, 41.231323000003357 ], [ -71.640844000000712, 41.250101000003148 ], [ -71.624504000000556, 41.274129000003057 ], [ -71.591591000001344, 41.289317000002796 ], [ -71.557569000001422, 41.294018000003298 ], [ -71.535979000000751, 41.286180000002872 ] ] ], [ [ [ -71.72922800000147, 41.277891000002647 ], [ -71.778430000000654, 41.275111000003193 ], [ -71.79148000000167, 41.272165000003255 ], [ -71.790972000001688, 41.184101000002869 ], [ -71.907258000001249, 41.304483000002769 ], [ -71.892067000001745, 41.330075000003205 ], [ -71.857458000001245, 41.320789000003352 ], [ -71.829479000001314, 41.342326000003389 ], [ -71.837633000001631, 41.365499000003275 ], [ -71.831356000001605, 41.377752000003362 ], [ -71.831796000001177, 41.379866000003254 ], [ -71.842209000001475, 41.395380000002909 ], [ -71.842029000000849, 41.410706000003429 ], [ -71.820330000001022, 41.419382000003147 ], [ -71.797744000000563, 41.416910000002829 ], [ -71.795647000001679, 41.459984000003082 ], [ -71.792206000001514, 41.526783000003412 ], [ -71.791402000000858, 41.546092000002851 ], [ -71.789247000001382, 41.596847000003166 ], [ -71.787846000000968, 41.634450000003042 ], [ -71.787239000001492, 41.656111000003399 ], [ -71.789704000001024, 41.725198000002635 ], [ -71.791066000001507, 41.770180000003286 ], [ -71.79468000000098, 41.854409000002967 ], [ -71.691010000000645, 41.856457000002749 ], [ -71.676808000001628, 41.856650000002915 ], [ -71.604992000001076, 41.857999000002835 ], [ -71.574642000001418, 41.858748000002954 ], [ -71.569627000000736, 41.835079000003226 ], [ -71.565630000000667, 41.814987000003384 ], [ -71.559290000000544, 41.789344000002629 ], [ -71.535255000001001, 41.793297000002852 ], [ -71.516174000001456, 41.788582000002862 ], [ -71.506058000001474, 41.788879000002879 ], [ -71.496758000001648, 41.791031000002782 ], [ -71.479736000001665, 41.796852000003334 ], [ -71.466167000000766, 41.802652000002965 ], [ -71.463665000000589, 41.805046000003323 ], [ -71.464920000001229, 41.80587400000347 ], [ -71.467072000000726, 41.804470000002638 ], [ -71.479416000000668, 41.805180000003347 ], [ -71.478607000000537, 41.820343000002673 ], [ -71.470877000001309, 41.821944000002631 ], [ -71.471306000001718, 41.82413900000283 ], [ -71.462423000000953, 41.824687000002733 ], [ -71.470444000001734, 41.832912000002878 ], [ -71.472459000001521, 41.836981000002893 ], [ -71.455905000000641, 41.847903000002646 ], [ -71.449135000000837, 41.844410000002725 ], [ -71.456497000000553, 41.832108000002791 ], [ -71.456131000000852, 41.828663000002734 ], [ -71.44863100000147, 41.825066000002877 ], [ -71.443718000000757, 41.824802000002748 ], [ -71.443398000001409, 41.824780000003251 ], [ -71.433640000001674, 41.824219000003048 ], [ -71.439534000001586, 41.815962000002727 ], [ -71.440010000000825, 41.813816000003357 ], [ -71.446163000001548, 41.815260000003107 ], [ -71.448555000001591, 41.817135000002949 ], [ -71.455315000000695, 41.81794700000345 ], [ -71.45264400000093, 41.815559000003397 ], [ -71.449982000000603, 41.815132000002819 ], [ -71.447845000000896, 41.807457000003104 ], [ -71.447533000000959, 41.806614000002888 ], [ -71.441318000001303, 41.804750000003501 ], [ -71.440541000001346, 41.803946000002803 ], [ -71.438541000001521, 41.794229000002915 ], [ -71.436482000000737, 41.78841200000295 ], [ -71.434046000001231, 41.786307000003234 ], [ -71.437393000000796, 41.77477600000325 ], [ -71.437333000001146, 41.774577000003092 ], [ -71.425975000001088, 41.771525000003365 ], [ -71.427771000001471, 41.766596000002664 ], [ -71.429890000000569, 41.760761000002894 ], [ -71.419078000001576, 41.761885000002863 ], [ -71.417586000001705, 41.762254000003431 ], [ -71.405203000001578, 41.767610000003117 ], [ -71.384733000001162, 41.757602000003388 ], [ -71.37827300000076, 41.755297000003424 ], [ -71.378193000001573, 41.756983000003153 ], [ -71.353602000001672, 41.758842000003149 ], [ -71.345785000001285, 41.759280000002768 ], [ -71.347252000001419, 41.768429000003209 ], [ -71.350479000001457, 41.770374000002782 ], [ -71.324717000001428, 41.77120100000279 ], [ -71.332659000001328, 41.765715000003247 ], [ -71.342395000001432, 41.758965000003016 ], [ -71.34653000000057, 41.756106000002958 ], [ -71.341354000001203, 41.74697400000268 ], [ -71.316300000001121, 41.746222000003414 ], [ -71.322678000000977, 41.772592000003506 ], [ -71.317873000001242, 41.776199000003174 ], [ -71.284404000000592, 41.762005000003029 ], [ -71.261067000000736, 41.75208200000317 ], [ -71.208371000001463, 41.690598000003227 ], [ -71.184328000001301, 41.673063000002806 ], [ -71.162120000001451, 41.665735000003437 ], [ -71.132557000001086, 41.660363000003443 ], [ -71.134672000001231, 41.638888000003519 ], [ -71.135302000000664, 41.628565000002908 ], [ -71.140308000000701, 41.604850000003417 ], [ -71.131620000000552, 41.593716000003191 ], [ -71.127837000001421, 41.563203000002645 ], [ -71.121116000001521, 41.492787000003517 ], [ -71.116404000001623, 41.484568000002703 ], [ -71.08857100000111, 41.431315000002797 ], [ -71.124594000000812, 41.411474000003039 ], [ -71.249960000001408, 41.377713000002842 ], [ -71.37449500000163, 41.339011000003183 ], [ -71.479876000000687, 41.312599000003303 ], [ -71.509442000000647, 41.30773200000305 ], [ -71.575199000000708, 41.320941000003309 ], [ -71.58445200000132, 41.317037000003289 ], [ -71.651523000000822, 41.298362000002903 ], [ -71.672595000000754, 41.289079000003376 ], [ -71.72922800000147, 41.277891000002647 ] ] ] ] } }
]
}
