{
"type": "FeatureCollection",
"name": "south_carolina_enacted_districts",
"crs": { "type": "name", "properties": { "name": "urn:ogc:def:crs:OGC:1.3:CRS84" } },
"features": [
{ "type": "Feature", "properties": { "enacted_district": 1, "population": 727062.0, "voting_age_pop": 567504.0, "dem_votes": 127711.0, "rep_votes": 167451.0, "minority_pop": 164027.0, "dem_pct": 0.43268103603015257, "rep_pct": 0.56731896363105039 }, "geometry": { "type": "Polygon", "coordinates": [ [ [ -80.991016000001764, 32.189926000003503 ], [ -81.013009000001318, 32.225045000003526 ], [ -81.012452000002227, 32.23622600000278 ], [ -80.99167700000207, 32.267546000002973 ], [ -80.992462000001638, 32.272724000003464 ], [ -80.996681000001615, 32.277184000003032 ], [ -80.994820000001269, 32.288601000002764 ], [ -80.997400000001775, 32.296171000003419 ], [ -81.006369000001172, 32.306521000002654 ], [ -80.996625000001686, 32.32546500000268 ], [ -81.018146000002233, 32.38398500000325 ], [ -80.982526000001286, 32.379349000003053 ], [ -80.94789700000139, 32.363117000003065 ], [ -80.949266000001856, 32.342723000003389 ], [ -80.928775000001252, 32.331302000003134 ], [ -80.899455000001737, 32.3539480000032 ], [ -80.841458000002035, 32.385064000003133 ], [ -80.850102000001826, 32.419790000002813 ], [ -80.818690000001652, 32.463935000002785 ], [ -80.817429000001525, 32.472589000003289 ], [ -80.819179000001739, 32.485942000003476 ], [ -80.838739000001553, 32.520930000003055 ], [ -80.847733000001881, 32.53005700000292 ], [ -80.831543000002014, 32.593388000002903 ], [ -80.869705000001559, 32.660935000002766 ], [ -80.847346000001593, 32.687617000002987 ], [ -80.82630900000153, 32.704321000003439 ], [ -80.771232000002229, 32.67692700000341 ], [ -80.739243000001892, 32.682304000003512 ], [ -80.674385000001422, 32.67240900000332 ], [ -80.68313500000194, 32.652383000003098 ], [ -80.636369000001892, 32.682400000003049 ], [ -80.691795000002244, 32.717532000002777 ], [ -80.695003000002089, 32.75175600000275 ], [ -80.671091000002008, 32.758697000003494 ], [ -80.594577000001877, 32.761328000003189 ], [ -80.556207000001947, 32.743770000003032 ], [ -80.483496000001864, 32.659645000003415 ], [ -80.418653000002138, 32.677647000003532 ], [ -80.389401000001826, 32.65282000000316 ], [ -80.34733100000193, 32.64655400000337 ], [ -80.285789000001159, 32.622312000002928 ], [ -80.271212000001597, 32.625076000002743 ], [ -80.265807000001516, 32.644773000002679 ], [ -80.240614000002125, 32.657588000002789 ], [ -80.239639000001517, 32.679944000002692 ], [ -80.190581000001472, 32.709232000002977 ], [ -80.17159100000211, 32.707913000002669 ], [ -80.162936000001892, 32.747904000003317 ], [ -80.13592000000132, 32.754275000003389 ], [ -80.120200000001347, 32.780272000002896 ], [ -80.107344000002087, 32.785591000003478 ], [ -80.068926000001198, 32.770752000002759 ], [ -80.053814000001694, 32.778676000002889 ], [ -80.037619000001186, 32.773117000003396 ], [ -80.006676000001278, 32.767507000003476 ], [ -80.003957000001236, 32.765807000002887 ], [ -79.983127000002057, 32.766389000003407 ], [ -79.974046000001536, 32.76638200000307 ], [ -79.949475000001698, 32.773664000002917 ], [ -79.940915000001993, 32.764512000002789 ], [ -79.926707000001812, 32.763017000003373 ], [ -79.916785000002065, 32.763274000003527 ], [ -79.917163000001523, 32.770522000003034 ], [ -79.917291000001512, 32.779490000003292 ], [ -79.917163000002105, 32.782515000002888 ], [ -79.916870000001168, 32.791073000003493 ], [ -79.916440000001828, 32.796170000002796 ], [ -79.915731000001529, 32.80291400000273 ], [ -79.915654000001709, 32.803658000002756 ], [ -79.914307000001187, 32.81889200000326 ], [ -79.919202000001235, 32.818991000002704 ], [ -79.931552000002185, 32.849711000002941 ], [ -79.95185000000204, 32.857117000003555 ], [ -79.964513000001929, 32.877950000002848 ], [ -79.962675000001397, 32.891146000003175 ], [ -79.948848000001547, 32.90811000000307 ], [ -79.950448000001458, 32.910174000003472 ], [ -79.984229000001278, 32.904448000003413 ], [ -79.994217000001868, 32.902769000003509 ], [ -80.003236000002076, 32.901224000003452 ], [ -80.011774000001168, 32.899881000003496 ], [ -80.017205000001169, 32.910037000003449 ], [ -80.023180000001602, 32.921101000002814 ], [ -80.033787000002022, 32.94095300000285 ], [ -80.036557000001579, 32.946057000003336 ], [ -80.041993000002094, 32.965029000002851 ], [ -80.039904000001215, 32.982582000003148 ], [ -80.03974500000119, 32.983879000003441 ], [ -80.056007000001486, 32.999336000003346 ], [ -80.067164000001938, 32.996669000002775 ], [ -80.086941000001474, 32.992181000003058 ], [ -80.098222000001456, 32.98810600000332 ], [ -80.128551000002091, 33.008105000003532 ], [ -80.134020000001797, 33.011731000003401 ], [ -80.149246000001227, 33.021601000003301 ], [ -80.163501000001148, 33.014181000003411 ], [ -80.176286000001838, 33.010042000003359 ], [ -80.17255200000136, 33.006742000002703 ], [ -80.155422000002147, 32.992493000003229 ], [ -80.146936000001773, 32.985372000002904 ], [ -80.145488000001407, 32.98494700000348 ], [ -80.110543000002153, 32.985492000002921 ], [ -80.138246000002056, 32.981537000002881 ], [ -80.140880000002184, 32.979567000002696 ], [ -80.135371000001854, 32.975683000003215 ], [ -80.12849700000119, 32.970037000003487 ], [ -80.125380000001556, 32.967418000003377 ], [ -80.113967000001324, 32.957687000003489 ], [ -80.100675000001445, 32.946033000002764 ], [ -80.096755000001494, 32.942628000003097 ], [ -80.110429000001417, 32.932966000003553 ], [ -80.116381000001297, 32.925137000003168 ], [ -80.118469000001724, 32.920630000002781 ], [ -80.11665400000129, 32.919482000003391 ], [ -80.126468000002163, 32.90123700000342 ], [ -80.137373000002043, 32.912955000003549 ], [ -80.159676000001767, 32.945081000002745 ], [ -80.184785000002123, 32.950436000002782 ], [ -80.201011000002083, 32.958388000003453 ], [ -80.205441000001869, 32.948216000003356 ], [ -80.226857000001729, 32.948733000003557 ], [ -80.265170000001575, 32.944871000002742 ], [ -80.260807000002075, 32.952691000002758 ], [ -80.278502000002106, 32.964687000003401 ], [ -80.284080000001651, 32.964250000002963 ], [ -80.310250000001957, 32.993429000003189 ], [ -80.356110000001323, 33.020853000002802 ], [ -80.392604000001327, 33.027560000003014 ], [ -80.391671000001779, 33.044983000002944 ], [ -80.355279000001318, 33.063322000002962 ], [ -80.329470000001692, 33.061698000003425 ], [ -80.295832000002079, 33.057448000003447 ], [ -80.251354000001555, 33.089698000002947 ], [ -80.290077000002043, 33.115226000002977 ], [ -80.302070000001805, 33.123134000003354 ], [ -80.334717000001532, 33.146095000002937 ], [ -80.297577000001567, 33.181838000003019 ], [ -80.330818000001784, 33.198424000002888 ], [ -80.334884000001409, 33.222982000003199 ], [ -80.361851000001806, 33.257443000002688 ], [ -80.344645000001222, 33.277848000003523 ], [ -80.317203000001584, 33.26411800000276 ], [ -80.289268000001243, 33.279113000002681 ], [ -80.278546000001299, 33.282593000003359 ], [ -80.255642000001416, 33.300002000003317 ], [ -80.239878000001852, 33.351377000003076 ], [ -80.241557000001649, 33.383084000002889 ], [ -80.222568000001672, 33.391288000003314 ], [ -80.222267000001665, 33.443716000003285 ], [ -80.208955000001907, 33.442662000003281 ], [ -80.191574000001239, 33.447507000003021 ], [ -80.148306000002137, 33.449867000003216 ], [ -80.152045000001564, 33.478572000002984 ], [ -80.101697000001622, 33.496891000002812 ], [ -80.069438000001483, 33.506442000003084 ], [ -79.960892000002033, 33.494446000002853 ], [ -79.867503000002131, 33.433651000003401 ], [ -79.854764000001964, 33.403904000002875 ], [ -79.794013000001812, 33.377679000003489 ], [ -79.741153000001361, 33.322308000002721 ], [ -79.709576000002002, 33.321246000003249 ], [ -79.677014000001648, 33.304944000002983 ], [ -79.5622500000011, 33.272523000003154 ], [ -79.546563000002109, 33.255990000003329 ], [ -79.493993000002064, 33.236030000002842 ], [ -79.459952000002104, 33.235091000002676 ], [ -79.446699000001516, 33.213458000003335 ], [ -79.350816000001828, 33.153528000003391 ], [ -79.27804000000161, 33.142559000002926 ], [ -79.268411000002089, 33.130308000003104 ], [ -79.293344000001781, 33.102874000002721 ], [ -79.261830000001581, 33.049793000003106 ], [ -79.299505000001318, 33.000169000003275 ], [ -79.322257000001969, 32.956078000002826 ], [ -79.371297000001391, 32.945717000002723 ], [ -79.440369000002022, 32.958652000002701 ], [ -79.459374000001148, 32.940504000003266 ], [ -79.495945000001726, 32.93157200000271 ], [ -79.534689000001208, 32.870012000002774 ], [ -79.585390000001325, 32.850856000003475 ], [ -79.61635900000114, 32.821559000003141 ], [ -79.637821000002091, 32.816377000003101 ], [ -79.658956000001211, 32.788078000002812 ], [ -79.691893000001116, 32.759240000002855 ], [ -79.755460000001563, 32.7401350000031 ], [ -79.765316000001718, 32.715829000002842 ], [ -79.780150000002024, 32.691052000003566 ], [ -79.82805800000186, 32.664778000003018 ], [ -79.855063000001451, 32.636389000003398 ], [ -79.900546000001469, 32.614529000002882 ], [ -79.940168000001805, 32.588749000003048 ], [ -79.979002000001429, 32.55807400000279 ], [ -80.03077000000124, 32.559961000002751 ], [ -80.088877000001958, 32.549029000002768 ], [ -80.094998000001524, 32.523866000003302 ], [ -80.121459000001522, 32.499192000002722 ], [ -80.147853000001803, 32.494170000002882 ], [ -80.185434000001692, 32.492444000003466 ], [ -80.223590000001209, 32.482565000003198 ], [ -80.243074000001386, 32.472449000002747 ], [ -80.263645000001617, 32.429579000002953 ], [ -80.294078000001605, 32.418521000003558 ], [ -80.305711000001395, 32.39758900000308 ], [ -80.336717000001158, 32.380753000002969 ], [ -80.374825000001934, 32.342453000002983 ], [ -80.372830000001287, 32.313408000002944 ], [ -80.392327000001259, 32.280317000003443 ], [ -80.431544000001438, 32.261384000002678 ], [ -80.459332000001766, 32.262221000003393 ], [ -80.523824000001184, 32.234592000003225 ], [ -80.548933000001512, 32.192053000003135 ], [ -80.587387000002067, 32.162287000003353 ], [ -80.616311000001957, 32.153675000003155 ], [ -80.672648000001672, 32.131962000002709 ], [ -80.688717000001446, 32.118749000003433 ], [ -80.745536000001863, 32.078667000002824 ], [ -80.75058100000156, 32.078589000002687 ], [ -80.841505000001376, 32.078494000003538 ], [ -80.908111000001341, 32.078172000003072 ], [ -80.908363000001856, 32.130404000003217 ], [ -80.95413600000154, 32.148365000002997 ], [ -80.951237000001768, 32.170806000002713 ], [ -80.991016000001764, 32.189926000003503 ] ] ] } },
{ "type": "Feature", "properties": { "enacted_district": 2, "population": 733001.0, "voting_age_pop": 564519.0, "dem_votes": 126928.0, "rep_votes": 171126.0, "minority_pop": 203112.0, "dem_pct": 0.42585571727745453, "rep_pct": 0.57414428238703585 }, "geometry": { "type": "Polygon", "coordinates": [ [ [ -81.918337000001898, 33.332842000002813 ], [ -81.946440000001729, 33.370399000003324 ], [ -81.924690000002116, 33.459931000003408 ], [ -81.955341000001653, 33.475755000003076 ], [ -81.973641000002146, 33.482656000003523 ], [ -81.99093300000149, 33.494294000003052 ], [ -82.012470000001528, 33.532116000002823 ], [ -81.996872000002085, 33.544322000003348 ], [ -81.958433000001676, 33.574266000002645 ], [ -81.943227000001912, 33.586130000003408 ], [ -81.940518000001887, 33.588243000002919 ], [ -81.933503000002105, 33.593723000002875 ], [ -81.891614000001397, 33.626488000003441 ], [ -81.860342000001879, 33.651007000002664 ], [ -81.83046600000209, 33.6744280000026 ], [ -81.818793000001861, 33.683578000003465 ], [ -81.778367000001438, 33.715269000002969 ], [ -81.715534000002208, 33.764527000003483 ], [ -81.703786000002154, 33.773737000002782 ], [ -81.65175900000159, 33.814510000003473 ], [ -81.584249000001705, 33.867343000003103 ], [ -81.57148700000208, 33.877318000002873 ], [ -81.565705000001586, 33.892263000002963 ], [ -81.534863000001479, 33.953376000003125 ], [ -81.521630000001863, 33.97960700000317 ], [ -81.492397000001489, 34.034257000003421 ], [ -81.471972000001387, 34.076552000003133 ], [ -81.467665000002029, 34.086036000002871 ], [ -81.394083000002269, 34.071545000002835 ], [ -81.403254000001638, 34.097900000003413 ], [ -81.435193000001689, 34.128358000003054 ], [ -81.410226000002126, 34.168672000002793 ], [ -81.402981000002015, 34.177891000003399 ], [ -81.374766000001998, 34.179009000003262 ], [ -81.33896100000166, 34.197587000002649 ], [ -81.341364000002088, 34.210286000002895 ], [ -81.316911000001184, 34.239458000003317 ], [ -81.278240000001915, 34.229632000002738 ], [ -81.251273000001859, 34.202946000002683 ], [ -81.223247000002132, 34.204114000002932 ], [ -81.178293000001304, 34.174552000003402 ], [ -81.168431000001931, 34.197653000002731 ], [ -81.181196000001378, 34.220285000002654 ], [ -81.095863000001984, 34.213872000002702 ], [ -81.071160000001484, 34.230478000003416 ], [ -80.999319000002046, 34.242545000002835 ], [ -80.914911000002078, 34.257848000003072 ], [ -80.903640000001161, 34.25924900000296 ], [ -80.825921000001458, 34.268760000003041 ], [ -80.840951000001724, 34.238921000002676 ], [ -80.869130000001746, 34.182866000003443 ], [ -80.868509000001268, 34.181705000002793 ], [ -80.841295000002233, 34.166049000003433 ], [ -80.820096000001541, 34.149169000003063 ], [ -80.793658000001301, 34.128134000003001 ], [ -80.787160000001904, 34.122956000003128 ], [ -80.719318000001792, 34.068972000003285 ], [ -80.616186000001235, 34.099605000003088 ], [ -80.632427000001499, 34.089368000003041 ], [ -80.613869000001458, 34.057324000003113 ], [ -80.704056000001842, 34.049970000002901 ], [ -80.704478000001828, 34.009967000002717 ], [ -80.743657000002116, 34.00660600000267 ], [ -80.866837000001638, 33.991882000003059 ], [ -80.891856000001397, 33.985285000003209 ], [ -80.90306100000214, 33.982815000003484 ], [ -80.915471000001986, 33.980262000003478 ], [ -80.92938200000205, 33.978343000002731 ], [ -80.932387000001796, 33.956791000003477 ], [ -80.944436000001915, 33.951028000003397 ], [ -80.957873000001754, 33.955041000002701 ], [ -80.963765000001587, 33.956756000003466 ], [ -80.980116000001559, 33.962836000003207 ], [ -80.983421000001456, 33.964606000002981 ], [ -80.984993000001353, 33.967054000002719 ], [ -80.991058000001985, 33.978635000003003 ], [ -80.988702000002164, 33.987819000002865 ], [ -80.982367000002128, 33.98848300000293 ], [ -80.98233200000152, 33.988509000002779 ], [ -80.987464000001253, 33.996830000002646 ], [ -80.993009000001436, 33.997431000003502 ], [ -80.995346000001675, 34.007694000003191 ], [ -80.994962000001408, 34.009773000003413 ], [ -80.995202000001683, 34.0170930000033 ], [ -80.992606000001771, 34.025393000003227 ], [ -80.980200000001219, 34.035904000003249 ], [ -80.979719000002248, 34.03658300000351 ], [ -80.973997000002186, 34.040913000003513 ], [ -80.967557000001875, 34.044167000003505 ], [ -80.972470000001479, 34.056680000003205 ], [ -80.957026000001463, 34.064896000002811 ], [ -80.956658000001411, 34.065213000003176 ], [ -80.947291000002139, 34.073858000003412 ], [ -80.9273320000014, 34.089921000002718 ], [ -80.931300000001769, 34.094376000003031 ], [ -80.915105000001759, 34.120336000003071 ], [ -80.931203000001744, 34.124199000003216 ], [ -80.929612000001882, 34.128704000002998 ], [ -80.91400700000213, 34.139899000002742 ], [ -80.924814000001234, 34.137073000003383 ], [ -80.937400000001205, 34.140821000003314 ], [ -80.929012000001691, 34.161397000002808 ], [ -80.928074000002127, 34.166265000003214 ], [ -80.949773000002196, 34.177291000003265 ], [ -80.959028000002135, 34.179967000003415 ], [ -80.959615000001961, 34.181361000003264 ], [ -81.002269000001235, 34.144633000003076 ], [ -81.042423000001534, 34.153260000002895 ], [ -81.028327000002122, 34.122468000003295 ], [ -81.052991000001811, 34.114217000003265 ], [ -81.066991000001494, 34.080645000002754 ], [ -81.088380000002033, 34.079549000002693 ], [ -81.105695000001788, 34.090995000002771 ], [ -81.120270000001369, 34.070790000003171 ], [ -81.136879000002153, 34.06867600000335 ], [ -81.139282000002126, 34.068341000003279 ], [ -81.125257000002108, 34.055740000003361 ], [ -81.121490000002069, 34.051593000003479 ], [ -81.11630700000147, 34.04521100000305 ], [ -81.110560000001399, 34.036900000003421 ], [ -81.103823000001384, 34.023316000002886 ], [ -81.103689000001623, 34.023349000002725 ], [ -81.089612000001708, 34.013412000003022 ], [ -81.059715000001859, 34.005253000002675 ], [ -81.052586000001625, 33.998003000002861 ], [ -81.050859000001353, 33.995775000003043 ], [ -81.047704000002014, 33.990505000002848 ], [ -81.04593200000167, 33.977339000002686 ], [ -81.045862000001478, 33.976877000002744 ], [ -81.017014000001396, 33.93085500000273 ], [ -81.029214000002227, 33.916454000003043 ], [ -81.014267000001226, 33.908148000003408 ], [ -81.012330000001285, 33.880080000002714 ], [ -81.037903000001435, 33.870868000003306 ], [ -81.038779000001355, 33.848355000003103 ], [ -81.054124000001508, 33.778538000002953 ], [ -81.060494000001427, 33.762545000003534 ], [ -81.014003000001694, 33.781241000003533 ], [ -80.966995000001873, 33.777181000002734 ], [ -80.924603000001582, 33.756945000003519 ], [ -80.957993000001181, 33.737139000002756 ], [ -80.991997000001959, 33.732172000002912 ], [ -81.042854000001952, 33.707131000003407 ], [ -80.984210000001553, 33.644797000003287 ], [ -80.939790000001395, 33.608798000003446 ], [ -80.885414000001816, 33.618208000002873 ], [ -80.86830100000121, 33.582380000002814 ], [ -80.873106000001513, 33.556678000003089 ], [ -80.884372000001349, 33.522552000003174 ], [ -80.904544000001223, 33.537802000002657 ], [ -80.917002000001375, 33.511352000003093 ], [ -80.947316000001933, 33.525595000003172 ], [ -80.956351000002158, 33.506178000003345 ], [ -80.975555000001947, 33.478573000002768 ], [ -80.947589000001429, 33.485794000003203 ], [ -80.932640000001342, 33.464755000003521 ], [ -80.906093000001547, 33.446485000003413 ], [ -80.872703000001479, 33.454562000002745 ], [ -80.861455000001328, 33.413609000002992 ], [ -80.86812700000182, 33.404429000002878 ], [ -80.886000000001715, 33.349952000003519 ], [ -80.872692000001365, 33.318055000002772 ], [ -80.885011000001626, 33.292418000002812 ], [ -80.887109000001445, 33.26418300000266 ], [ -80.948756000001254, 33.308047000003072 ], [ -80.983569000001182, 33.324788000002769 ], [ -81.059543000001355, 33.358868000003348 ], [ -81.082410000001843, 33.375464000002943 ], [ -81.134289000001203, 33.39396400000264 ], [ -81.189531000002205, 33.411683000002654 ], [ -81.220110000001355, 33.439493000002706 ], [ -81.222673000001294, 33.44000000000316 ], [ -81.215167000002083, 33.366255000003541 ], [ -81.217727000001631, 33.318573000003035 ], [ -81.219081000001964, 33.295402000003122 ], [ -81.220820000001595, 33.259258000003086 ], [ -81.218219000001596, 33.208274000003151 ], [ -81.220711000001941, 33.20301700000293 ], [ -81.227804000001399, 33.160697000003296 ], [ -81.193099000001737, 33.11866800000282 ], [ -81.24022800000192, 33.118747000003395 ], [ -81.283665000001832, 33.108555000003335 ], [ -81.337806000001279, 33.1082210000027 ], [ -81.364857000001223, 33.108061000003183 ], [ -81.420772000001264, 33.124912000003071 ], [ -81.454024000001937, 33.135253000003267 ], [ -81.523392000001934, 33.153408000003431 ], [ -81.566857000002273, 33.136550000003119 ], [ -81.613558000001333, 33.095667000003154 ], [ -81.614033000002209, 33.095251000002847 ], [ -81.645433000001589, 33.094051000003148 ], [ -81.704634000001803, 33.116450000002949 ], [ -81.743835000001582, 33.141450000003502 ], [ -81.768235000002193, 33.16794900000351 ], [ -81.75703500000229, 33.198148000003279 ], [ -81.831540000001667, 33.233350000002638 ], [ -81.846536000001961, 33.241746000003509 ], [ -81.847736000001404, 33.307243000003233 ], [ -81.866225000001592, 33.313536000002664 ], [ -81.918337000001898, 33.332842000002813 ] ] ] } },
{ "type": "Feature", "properties": { "enacted_district": 3, "population": 731546.0, "voting_age_pop": 577575.0, "dem_votes": 85739.0, "rep_votes": 192993.0, "minority_pop": 149894.0, "dem_pct": 0.30760371959172117, "rep_pct": 0.69239628004951126 }, "geometry": { "type": "Polygon", "coordinates": [ [ [ -82.855486000001306, 34.441791000003199 ], [ -82.901551000002144, 34.486764000003056 ], [ -82.992232000001309, 34.479258000002794 ], [ -83.034565000002075, 34.483571000003074 ], [ -83.05798600000135, 34.503670000003034 ], [ -83.092873000001831, 34.532891000003282 ], [ -83.168278000001933, 34.590998000002656 ], [ -83.170836000001955, 34.607749000002826 ], [ -83.232580000001775, 34.611597000002689 ], [ -83.279457000002111, 34.647808000003387 ], [ -83.304641000001467, 34.669561000003235 ], [ -83.338900000001772, 34.680039000002559 ], [ -83.35269200000144, 34.716904000003289 ], [ -83.326309000001771, 34.750839000003296 ], [ -83.324150000001666, 34.787479000003366 ], [ -83.246923000002326, 34.859463000002954 ], [ -83.209572000001828, 34.879856000003365 ], [ -83.158966000002138, 34.929138000002652 ], [ -83.127357000001439, 34.950195000002608 ], [ -83.098831000002022, 34.991955000002733 ], [ -83.056386000002263, 35.014949000002638 ], [ -83.019133000001617, 35.024640000002897 ], [ -82.897495000002337, 35.056182000003076 ], [ -82.783749000001706, 35.085545000003144 ], [ -82.775027000001685, 35.06476600000282 ], [ -82.764157000002072, 35.06838800000277 ], [ -82.729239000001826, 35.055048000002728 ], [ -82.659389000001312, 35.067003000003353 ], [ -82.571975000001757, 35.067449000002867 ], [ -82.592384000001502, 35.062805000003358 ], [ -82.593937000001532, 35.007887000003315 ], [ -82.556352000001453, 35.015034000003162 ], [ -82.534138000001406, 34.983761000002673 ], [ -82.525761000002205, 34.952346000002741 ], [ -82.525930000001608, 34.943315000003345 ], [ -82.515853000001385, 34.926008000003172 ], [ -82.496295000001908, 34.888992000002929 ], [ -82.489028000001838, 34.861408000002982 ], [ -82.4841120000019, 34.856190000003394 ], [ -82.487079000002126, 34.832139000003146 ], [ -82.487193000001383, 34.83198300000285 ], [ -82.487034000002282, 34.819004000003147 ], [ -82.469349000001827, 34.798126000002867 ], [ -82.458397000001611, 34.779177000002647 ], [ -82.458249000001771, 34.779078000003274 ], [ -82.455144000001837, 34.750683000003427 ], [ -82.421228000002117, 34.740008000003002 ], [ -82.419282000001274, 34.730774000003457 ], [ -82.357194000001456, 34.718107000003421 ], [ -82.341313000002302, 34.725063000003345 ], [ -82.340273000001559, 34.722998000002946 ], [ -82.318013000001443, 34.703036000002996 ], [ -82.306604000001954, 34.710062000002637 ], [ -82.285000000001574, 34.719329000003214 ], [ -82.282553000002295, 34.717342000003264 ], [ -82.281772000002263, 34.714340000003361 ], [ -82.27896500000162, 34.699356000003057 ], [ -82.239315000001369, 34.704479000002777 ], [ -82.227203000001722, 34.693725000003418 ], [ -82.227233000002059, 34.704727000003075 ], [ -82.200501000001594, 34.730132000003238 ], [ -82.234075000002278, 34.727467000002967 ], [ -82.235939000002119, 34.740669000002875 ], [ -82.237875000001267, 34.748763000002896 ], [ -82.230791000001901, 34.758443000003197 ], [ -82.217076000001327, 34.767267000003365 ], [ -82.208062000001576, 34.772530000003037 ], [ -82.214556000002119, 34.781464000002764 ], [ -82.185262000001742, 34.801410000003052 ], [ -82.165175000002279, 34.796537000002751 ], [ -82.145587000001441, 34.785208000003102 ], [ -82.108125000001436, 34.753067000002972 ], [ -82.066635000001781, 34.715248000002759 ], [ -82.066735000002211, 34.701033000002809 ], [ -82.012297000002192, 34.668587000003484 ], [ -81.943891000001997, 34.643467000003298 ], [ -81.910519000001585, 34.603478000003406 ], [ -81.890959000002013, 34.592493000002641 ], [ -81.851865000001865, 34.594775000003118 ], [ -81.788749000001928, 34.574171000003034 ], [ -81.714358000001255, 34.554045000002681 ], [ -81.65940300000203, 34.548279000003433 ], [ -81.643552000002003, 34.533652000003045 ], [ -81.618790000001681, 34.525278000003375 ], [ -81.553204000002125, 34.477114000002878 ], [ -81.540430000001805, 34.445027000003279 ], [ -81.484647000001615, 34.490003000002964 ], [ -81.423241000001511, 34.49437900000278 ], [ -81.411211000001799, 34.433252000003144 ], [ -81.409991000002051, 34.430023000002763 ], [ -81.382693000001936, 34.367183000003529 ], [ -81.366471000001866, 34.325822000002766 ], [ -81.345804000001294, 34.299575000002783 ], [ -81.345031000001555, 34.280749000002984 ], [ -81.32581100000192, 34.251205000002933 ], [ -81.316911000001184, 34.239458000003317 ], [ -81.341364000002088, 34.210286000002895 ], [ -81.33896100000166, 34.197587000002649 ], [ -81.374766000001998, 34.179009000003262 ], [ -81.402981000002015, 34.177891000003399 ], [ -81.410226000002126, 34.168672000002793 ], [ -81.435193000001689, 34.128358000003054 ], [ -81.403254000001638, 34.097900000003413 ], [ -81.394083000002269, 34.071545000002835 ], [ -81.467665000002029, 34.086036000002871 ], [ -81.471972000001387, 34.076552000003133 ], [ -81.492397000001489, 34.034257000003421 ], [ -81.521630000001863, 33.97960700000317 ], [ -81.534863000001479, 33.953376000003125 ], [ -81.565705000001586, 33.892263000002963 ], [ -81.57148700000208, 33.877318000002873 ], [ -81.584249000001705, 33.867343000003103 ], [ -81.65175900000159, 33.814510000003473 ], [ -81.703786000002154, 33.773737000002782 ], [ -81.715534000002208, 33.764527000003483 ], [ -81.778367000001438, 33.715269000002969 ], [ -81.818793000001861, 33.683578000003465 ], [ -81.83046600000209, 33.6744280000026 ], [ -81.860342000001879, 33.651007000002664 ], [ -81.891614000001397, 33.626488000003441 ], [ -81.933503000002105, 33.593723000002875 ], [ -81.940518000001887, 33.588243000002919 ], [ -81.943227000001912, 33.586130000003408 ], [ -81.958433000001676, 33.574266000002645 ], [ -81.996872000002085, 33.544322000003348 ], [ -82.012470000001528, 33.532116000002823 ], [ -82.046335000001463, 33.5638300000032 ], [ -82.115329000002248, 33.596613000002996 ], [ -82.133523000001517, 33.590535000003001 ], [ -82.196584000001479, 33.630583000002616 ], [ -82.20016400000199, 33.662012000002917 ], [ -82.226429000001829, 33.692164000003181 ], [ -82.241699000001404, 33.736891000003297 ], [ -82.278279000002243, 33.772509000002749 ], [ -82.300213000001392, 33.800627000002585 ], [ -82.340177000002114, 33.829021000003429 ], [ -82.356326000001332, 33.837934000002996 ], [ -82.408353000002307, 33.8663200000031 ], [ -82.455105000001907, 33.881650000003326 ], [ -82.499037000002161, 33.918847000003325 ], [ -82.535727000001259, 33.943147000002668 ], [ -82.556765000001647, 33.945324000003154 ], [ -82.594631000001669, 34.013796000003069 ], [ -82.593887000001828, 34.028109000002829 ], [ -82.667690000002011, 34.116641000003369 ], [ -82.717459000002023, 34.150546000003288 ], [ -82.742075000002259, 34.211715000002798 ], [ -82.75424200000144, 34.275787000003128 ], [ -82.782128000002075, 34.298278000003435 ], [ -82.794796000002322, 34.34064100000316 ], [ -82.833571000001996, 34.364092000003403 ], [ -82.84655900000169, 34.410154000003175 ], [ -82.855486000001306, 34.441791000003199 ] ] ] } },
{ "type": "Feature", "properties": { "enacted_district": 4, "population": 731377.0, "voting_age_pop": 565554.0, "dem_votes": 106492.0, "rep_votes": 169403.0, "minority_pop": 186308.0, "dem_pct": 0.38598742261150532, "rep_pct": 0.61401257702603795 }, "geometry": { "type": "Polygon", "coordinates": [ [ [ -82.421228000002117, 34.740008000003002 ], [ -82.455144000001837, 34.750683000003427 ], [ -82.458249000001771, 34.779078000003274 ], [ -82.458397000001611, 34.779177000002647 ], [ -82.469349000001827, 34.798126000002867 ], [ -82.487034000002282, 34.819004000003147 ], [ -82.487193000001383, 34.83198300000285 ], [ -82.487079000002126, 34.832139000003146 ], [ -82.4841120000019, 34.856190000003394 ], [ -82.489028000001838, 34.861408000002982 ], [ -82.496295000001908, 34.888992000002929 ], [ -82.515853000001385, 34.926008000003172 ], [ -82.525930000001608, 34.943315000003345 ], [ -82.525761000002205, 34.952346000002741 ], [ -82.534138000001406, 34.983761000002673 ], [ -82.556352000001453, 35.015034000003162 ], [ -82.593937000001532, 35.007887000003315 ], [ -82.592384000001502, 35.062805000003358 ], [ -82.571975000001757, 35.067449000002867 ], [ -82.659389000001312, 35.067003000003353 ], [ -82.729239000001826, 35.055048000002728 ], [ -82.764157000002072, 35.06838800000277 ], [ -82.723849000002147, 35.09448200000341 ], [ -82.611714000002195, 35.139997000003092 ], [ -82.498113000001709, 35.162558000003415 ], [ -82.459939000001512, 35.178005000003004 ], [ -82.440388000001462, 35.165592000003379 ], [ -82.419160000001256, 35.199414000002648 ], [ -82.38078400000208, 35.200734000002726 ], [ -82.323102000002081, 35.185173000002621 ], [ -82.278547000001879, 35.199444000002593 ], [ -82.215947000002174, 35.19622200000304 ], [ -82.106095000001687, 35.191299000002964 ], [ -82.127540000001687, 35.162562000002893 ], [ -82.08185900000224, 35.10780600000281 ], [ -82.070320000001644, 35.090305000003383 ], [ -82.045966000002039, 35.049641000003191 ], [ -82.018267000001984, 35.060924000003254 ], [ -82.009585000002119, 35.037884000003473 ], [ -81.987722000001611, 35.046645000003238 ], [ -81.960969000001896, 35.016683000002878 ], [ -81.950014000001602, 35.025875000002728 ], [ -81.928056000002215, 35.01160500000276 ], [ -81.92813400000189, 34.983717000002784 ], [ -81.928170000001998, 34.983547000003377 ], [ -81.910649000001911, 34.9989640000029 ], [ -81.889464000002263, 34.983346000003451 ], [ -81.880042000002163, 34.990078000002867 ], [ -81.868732000001586, 35.009976000002922 ], [ -81.838061000002128, 35.01282500000287 ], [ -81.833405000001434, 34.993738000002779 ], [ -81.820684000002302, 34.998671000003007 ], [ -81.814461000001771, 34.980215000003291 ], [ -81.775422000001754, 34.989501000003294 ], [ -81.755195000002274, 34.930609000003315 ], [ -81.714094000001481, 34.912865000003364 ], [ -81.743062000001814, 34.882074000002767 ], [ -81.768576000001332, 34.85583500000277 ], [ -81.782791000001808, 34.837211000003443 ], [ -81.798402000001872, 34.781365000003404 ], [ -81.802736000001417, 34.759976000003121 ], [ -81.820355000001967, 34.686540000002786 ], [ -81.851749000001988, 34.595186000002734 ], [ -81.851865000001865, 34.594775000003118 ], [ -81.890959000002013, 34.592493000002641 ], [ -81.910519000001585, 34.603478000003406 ], [ -81.943891000001997, 34.643467000003298 ], [ -82.012297000002192, 34.668587000003484 ], [ -82.066735000002211, 34.701033000002809 ], [ -82.066635000001781, 34.715248000002759 ], [ -82.108125000001436, 34.753067000002972 ], [ -82.145587000001441, 34.785208000003102 ], [ -82.165175000002279, 34.796537000002751 ], [ -82.185262000001742, 34.801410000003052 ], [ -82.214556000002119, 34.781464000002764 ], [ -82.208062000001576, 34.772530000003037 ], [ -82.217076000001327, 34.767267000003365 ], [ -82.230791000001901, 34.758443000003197 ], [ -82.237875000001267, 34.748763000002896 ], [ -82.235939000002119, 34.740669000002875 ], [ -82.234075000002278, 34.727467000002967 ], [ -82.200501000001594, 34.730132000003238 ], [ -82.227233000002059, 34.704727000003075 ], [ -82.227203000001722, 34.693725000003418 ], [ -82.239315000001369, 34.704479000002777 ], [ -82.27896500000162, 34.699356000003057 ], [ -82.281772000002263, 34.714340000003361 ], [ -82.282553000002295, 34.717342000003264 ], [ -82.285000000001574, 34.719329000003214 ], [ -82.306604000001954, 34.710062000002637 ], [ -82.318013000001443, 34.703036000002996 ], [ -82.340273000001559, 34.722998000002946 ], [ -82.341313000002302, 34.725063000003345 ], [ -82.357194000001456, 34.718107000003421 ], [ -82.419282000001274, 34.730774000003457 ], [ -82.421228000002117, 34.740008000003002 ] ] ] } },
{ "type": "Feature", "properties": { "enacted_district": 5, "population": 731365.0, "voting_age_pop": 562827.0, "dem_votes": 117357.0, "rep_votes": 171976.0, "minority_pop": 189002.0, "dem_pct": 0.40561221830706756, "rep_pct": 0.59438778134730996 }, "geometry": { "type": "Polygon", "coordinates": [ [ [ -81.65940300000203, 34.548279000003433 ], [ -81.714358000001255, 34.554045000002681 ], [ -81.788749000001928, 34.574171000003034 ], [ -81.851865000001865, 34.594775000003118 ], [ -81.851749000001988, 34.595186000002734 ], [ -81.820355000001967, 34.686540000002786 ], [ -81.802736000001417, 34.759976000003121 ], [ -81.798402000001872, 34.781365000003404 ], [ -81.782791000001808, 34.837211000003443 ], [ -81.768576000001332, 34.85583500000277 ], [ -81.743062000001814, 34.882074000002767 ], [ -81.714094000001481, 34.912865000003364 ], [ -81.755195000002274, 34.930609000003315 ], [ -81.775422000001754, 34.989501000003294 ], [ -81.814461000001771, 34.980215000003291 ], [ -81.820684000002302, 34.998671000003007 ], [ -81.833405000001434, 34.993738000002779 ], [ -81.838061000002128, 35.01282500000287 ], [ -81.868732000001586, 35.009976000002922 ], [ -81.880042000002163, 34.990078000002867 ], [ -81.889464000002263, 34.983346000003451 ], [ -81.910649000001911, 34.9989640000029 ], [ -81.928170000001998, 34.983547000003377 ], [ -81.92813400000189, 34.983717000002784 ], [ -81.928056000002215, 35.01160500000276 ], [ -81.950014000001602, 35.025875000002728 ], [ -81.960969000001896, 35.016683000002878 ], [ -81.987722000001611, 35.046645000003238 ], [ -82.009585000002119, 35.037884000003473 ], [ -82.018267000001984, 35.060924000003254 ], [ -82.045966000002039, 35.049641000003191 ], [ -82.070320000001644, 35.090305000003383 ], [ -82.08185900000224, 35.10780600000281 ], [ -82.127540000001687, 35.162562000002893 ], [ -82.106095000001687, 35.191299000002964 ], [ -82.0484140000016, 35.189687000003161 ], [ -81.918715000001797, 35.185341000002872 ], [ -81.874689000002292, 35.184036000003239 ], [ -81.774945000001779, 35.180790000003235 ], [ -81.724180000001681, 35.178996000003359 ], [ -81.675511000002231, 35.177079000002948 ], [ -81.609544000001918, 35.174374000003006 ], [ -81.442742000002085, 35.167928000002881 ], [ -81.366600000002137, 35.164883000003393 ], [ -81.265016000001637, 35.161090000003149 ], [ -81.130035000001556, 35.154855000003153 ], [ -81.093062000001851, 35.152536000002634 ], [ -81.058707000001263, 35.150646000002958 ], [ -81.052070000002175, 35.133413000003145 ], [ -81.04012500000124, 35.10173700000346 ], [ -81.056652000001506, 35.087104000003265 ], [ -81.058204000001567, 35.064393000002859 ], [ -81.041496000001644, 35.044713000003476 ], [ -80.978720000001857, 35.080880000003241 ], [ -80.931067000001519, 35.103892000003114 ], [ -80.906892000002188, 35.07681900000312 ], [ -80.906385000001379, 35.076277000003259 ], [ -80.854477000001509, 35.018524000003062 ], [ -80.851245000001612, 35.014690000003114 ], [ -80.813608000001906, 34.970755000002768 ], [ -80.7882700000022, 34.942720000003234 ], [ -80.781921000001944, 34.935848000003354 ], [ -80.791180000001773, 34.867638000003197 ], [ -80.797484000001418, 34.819803000003333 ], [ -80.726947000001473, 34.819206000003405 ], [ -80.626290000002115, 34.818221000002858 ], [ -80.561710000001213, 34.817429000003465 ], [ -80.544479000001317, 34.783956000002682 ], [ -80.508607000001319, 34.75025000000312 ], [ -80.489760000002065, 34.720216000002985 ], [ -80.473065000001682, 34.692357000002737 ], [ -80.431671000001941, 34.659902000003399 ], [ -80.435036000001617, 34.642075000003267 ], [ -80.408373000001873, 34.614765000002933 ], [ -80.404356000001968, 34.608380000003145 ], [ -80.383375000001195, 34.592193000003391 ], [ -80.372336000001752, 34.546769000003017 ], [ -80.342813000001541, 34.512790000003434 ], [ -80.342173000001509, 34.515493000002863 ], [ -80.327590000001749, 34.497760000003218 ], [ -80.326334000001864, 34.436884000002806 ], [ -80.285967000002003, 34.39229000000266 ], [ -80.288596000002102, 34.366207000003392 ], [ -80.288692000001319, 34.364139000003107 ], [ -80.24322600000184, 34.324455000003148 ], [ -80.206302000001472, 34.339055000002652 ], [ -80.191004000001342, 34.366655000003036 ], [ -80.175195000001182, 34.329286000003279 ], [ -80.135803000001459, 34.272437000003194 ], [ -80.134541000001121, 34.270307000003434 ], [ -80.11772100000131, 34.238319000003301 ], [ -80.111733000001138, 34.22861300000271 ], [ -80.112727000001897, 34.197018000002728 ], [ -80.13181400000208, 34.182380000003164 ], [ -80.158582000001616, 34.16162300000309 ], [ -80.13144100000126, 34.128666000002816 ], [ -80.069878000001964, 34.086191000003481 ], [ -80.045120000001688, 34.076749000002863 ], [ -80.000594000001954, 34.047877000003552 ], [ -80.02676000000173, 34.008543000002895 ], [ -80.070364000001149, 34.007920000003125 ], [ -80.120475000001463, 33.980429000003305 ], [ -80.18037100000177, 33.952002000002778 ], [ -80.186692000001713, 33.998164000003428 ], [ -80.188288000001904, 34.004924000003243 ], [ -80.228344000001229, 33.995178000003193 ], [ -80.220317000001828, 33.970793000003354 ], [ -80.240671000001399, 33.94029700000268 ], [ -80.237342000001306, 33.933266000002909 ], [ -80.254130000001282, 33.940187000003426 ], [ -80.291878000001319, 33.915887000003437 ], [ -80.311449000001844, 33.931522000003426 ], [ -80.319557000001851, 33.937106000003155 ], [ -80.325079000001509, 33.941136000002786 ], [ -80.342580000001817, 33.945827000002744 ], [ -80.342741000001979, 33.944491000003119 ], [ -80.35790600000162, 33.936043000002655 ], [ -80.360789000001887, 33.937859000003222 ], [ -80.36956500000133, 33.920029000002835 ], [ -80.371293000001472, 33.915164000002704 ], [ -80.370149000002073, 33.914467000003121 ], [ -80.342012000001972, 33.917215000002926 ], [ -80.341885000001497, 33.914490000002836 ], [ -80.351097000001857, 33.908667000002751 ], [ -80.352961000001699, 33.8976370000033 ], [ -80.352310000002205, 33.875880000003349 ], [ -80.352067000002179, 33.875800000003508 ], [ -80.373894000001812, 33.829391000002914 ], [ -80.374530000002082, 33.818050000002764 ], [ -80.391611000001618, 33.791284000003031 ], [ -80.405397000001386, 33.773004000003262 ], [ -80.396993000001757, 33.746864000003256 ], [ -80.39234600000168, 33.723726000002721 ], [ -80.434426000001622, 33.711890000003216 ], [ -80.478709000001288, 33.714265000003223 ], [ -80.497595000001681, 33.674320000003469 ], [ -80.534085000002179, 33.643911000002952 ], [ -80.565209000002127, 33.679712000002688 ], [ -80.596593000002073, 33.695137000003434 ], [ -80.627554000001567, 33.730996000003032 ], [ -80.62010700000161, 33.743237000003255 ], [ -80.597715000002196, 33.777512000002893 ], [ -80.613071000001838, 33.81354800000301 ], [ -80.632803000001431, 33.85031300000302 ], [ -80.625332000001606, 33.866811000003359 ], [ -80.615534000002114, 33.890741000003104 ], [ -80.634093000001187, 33.917333000002806 ], [ -80.628010000002035, 33.946970000003382 ], [ -80.628137000001345, 33.947588000003215 ], [ -80.640986000001448, 33.99943300000308 ], [ -80.600952000001882, 34.039386000003518 ], [ -80.613869000001458, 34.057324000003113 ], [ -80.632427000001499, 34.089368000003041 ], [ -80.616186000001235, 34.099605000003088 ], [ -80.719318000001792, 34.068972000003285 ], [ -80.787160000001904, 34.122956000003128 ], [ -80.793658000001301, 34.128134000003001 ], [ -80.820096000001541, 34.149169000003063 ], [ -80.841295000002233, 34.166049000003433 ], [ -80.868509000001268, 34.181705000002793 ], [ -80.869130000001746, 34.182866000003443 ], [ -80.840951000001724, 34.238921000002676 ], [ -80.825921000001458, 34.268760000003041 ], [ -80.903640000001161, 34.25924900000296 ], [ -80.914911000002078, 34.257848000003072 ], [ -80.999319000002046, 34.242545000002835 ], [ -81.071160000001484, 34.230478000003416 ], [ -81.095863000001984, 34.213872000002702 ], [ -81.181196000001378, 34.220285000002654 ], [ -81.168431000001931, 34.197653000002731 ], [ -81.178293000001304, 34.174552000003402 ], [ -81.223247000002132, 34.204114000002932 ], [ -81.251273000001859, 34.202946000002683 ], [ -81.278240000001915, 34.229632000002738 ], [ -81.316911000001184, 34.239458000003317 ], [ -81.32581100000192, 34.251205000002933 ], [ -81.345031000001555, 34.280749000002984 ], [ -81.345804000001294, 34.299575000002783 ], [ -81.366471000001866, 34.325822000002766 ], [ -81.382693000001936, 34.367183000003529 ], [ -81.409991000002051, 34.430023000002763 ], [ -81.411211000001799, 34.433252000003144 ], [ -81.423241000001511, 34.49437900000278 ], [ -81.484647000001615, 34.490003000002964 ], [ -81.540430000001805, 34.445027000003279 ], [ -81.553204000002125, 34.477114000002878 ], [ -81.618790000001681, 34.525278000003375 ], [ -81.643552000002003, 34.533652000003045 ], [ -81.65940300000203, 34.548279000003433 ] ] ] } },
{ "type": "Feature", "properties": { "enacted_district": 6, "population": 732585.0, "voting_age_pop": 587511.0, "dem_votes": 183787.0, "rep_votes": 96179.0, "minority_pop": 324513.0, "dem_pct": 0.65646185584804517, "rep_pct": 0.3435381437947686 }, "geometry": { "type": "Polygon", "coordinates": [ [ [ -81.132057000001382, 32.341206000003154 ], [ -81.167124000002161, 32.358718000003385 ], [ -81.178283000001741, 32.392986000002956 ], [ -81.205572000001794, 32.423893000002721 ], [ -81.200408000002128, 32.46831400000319 ], [ -81.262831000001981, 32.524791000003361 ], [ -81.281270000001498, 32.55647100000332 ], [ -81.315881000001994, 32.56019800000329 ], [ -81.355926000001773, 32.571606000003271 ], [ -81.389205000001823, 32.595416000002999 ], [ -81.418660000001282, 32.62939200000325 ], [ -81.393033000001907, 32.651542000003502 ], [ -81.405711000001546, 32.688727000003496 ], [ -81.427505000001588, 32.70224200000299 ], [ -81.405054000001243, 32.744957000002692 ], [ -81.423331000001625, 32.778512000003396 ], [ -81.426475000002071, 32.840773000003068 ], [ -81.457061000002142, 32.850389000002878 ], [ -81.465051000002163, 32.880896000002757 ], [ -81.491911000001963, 32.927774000003069 ], [ -81.502716000002152, 32.93868800000282 ], [ -81.491200000001598, 32.997678000003205 ], [ -81.510586000001808, 33.025805000002649 ], [ -81.565501000001248, 33.047888000002985 ], [ -81.614033000002209, 33.095251000002847 ], [ -81.613558000001333, 33.095667000003154 ], [ -81.566857000002273, 33.136550000003119 ], [ -81.523392000001934, 33.153408000003431 ], [ -81.454024000001937, 33.135253000003267 ], [ -81.420772000001264, 33.124912000003071 ], [ -81.364857000001223, 33.108061000003183 ], [ -81.337806000001279, 33.1082210000027 ], [ -81.283665000001832, 33.108555000003335 ], [ -81.24022800000192, 33.118747000003395 ], [ -81.193099000001737, 33.11866800000282 ], [ -81.227804000001399, 33.160697000003296 ], [ -81.220711000001941, 33.20301700000293 ], [ -81.218219000001596, 33.208274000003151 ], [ -81.220820000001595, 33.259258000003086 ], [ -81.219081000001964, 33.295402000003122 ], [ -81.217727000001631, 33.318573000003035 ], [ -81.215167000002083, 33.366255000003541 ], [ -81.222673000001294, 33.44000000000316 ], [ -81.220110000001355, 33.439493000002706 ], [ -81.189531000002205, 33.411683000002654 ], [ -81.134289000001203, 33.39396400000264 ], [ -81.082410000001843, 33.375464000002943 ], [ -81.059543000001355, 33.358868000003348 ], [ -80.983569000001182, 33.324788000002769 ], [ -80.948756000001254, 33.308047000003072 ], [ -80.887109000001445, 33.26418300000266 ], [ -80.885011000001626, 33.292418000002812 ], [ -80.872692000001365, 33.318055000002772 ], [ -80.886000000001715, 33.349952000003519 ], [ -80.86812700000182, 33.404429000002878 ], [ -80.861455000001328, 33.413609000002992 ], [ -80.872703000001479, 33.454562000002745 ], [ -80.906093000001547, 33.446485000003413 ], [ -80.932640000001342, 33.464755000003521 ], [ -80.947589000001429, 33.485794000003203 ], [ -80.975555000001947, 33.478573000002768 ], [ -80.956351000002158, 33.506178000003345 ], [ -80.947316000001933, 33.525595000003172 ], [ -80.917002000001375, 33.511352000003093 ], [ -80.904544000001223, 33.537802000002657 ], [ -80.884372000001349, 33.522552000003174 ], [ -80.873106000001513, 33.556678000003089 ], [ -80.86830100000121, 33.582380000002814 ], [ -80.885414000001816, 33.618208000002873 ], [ -80.939790000001395, 33.608798000003446 ], [ -80.984210000001553, 33.644797000003287 ], [ -81.042854000001952, 33.707131000003407 ], [ -80.991997000001959, 33.732172000002912 ], [ -80.957993000001181, 33.737139000002756 ], [ -80.924603000001582, 33.756945000003519 ], [ -80.966995000001873, 33.777181000002734 ], [ -81.014003000001694, 33.781241000003533 ], [ -81.060494000001427, 33.762545000003534 ], [ -81.054124000001508, 33.778538000002953 ], [ -81.038779000001355, 33.848355000003103 ], [ -81.037903000001435, 33.870868000003306 ], [ -81.012330000001285, 33.880080000002714 ], [ -81.014267000001226, 33.908148000003408 ], [ -81.029214000002227, 33.916454000003043 ], [ -81.017014000001396, 33.93085500000273 ], [ -81.045862000001478, 33.976877000002744 ], [ -81.04593200000167, 33.977339000002686 ], [ -81.047704000002014, 33.990505000002848 ], [ -81.050859000001353, 33.995775000003043 ], [ -81.052586000001625, 33.998003000002861 ], [ -81.059715000001859, 34.005253000002675 ], [ -81.089612000001708, 34.013412000003022 ], [ -81.103689000001623, 34.023349000002725 ], [ -81.103823000001384, 34.023316000002886 ], [ -81.110560000001399, 34.036900000003421 ], [ -81.11630700000147, 34.04521100000305 ], [ -81.121490000002069, 34.051593000003479 ], [ -81.125257000002108, 34.055740000003361 ], [ -81.139282000002126, 34.068341000003279 ], [ -81.136879000002153, 34.06867600000335 ], [ -81.120270000001369, 34.070790000003171 ], [ -81.105695000001788, 34.090995000002771 ], [ -81.088380000002033, 34.079549000002693 ], [ -81.066991000001494, 34.080645000002754 ], [ -81.052991000001811, 34.114217000003265 ], [ -81.028327000002122, 34.122468000003295 ], [ -81.042423000001534, 34.153260000002895 ], [ -81.002269000001235, 34.144633000003076 ], [ -80.959615000001961, 34.181361000003264 ], [ -80.959028000002135, 34.179967000003415 ], [ -80.949773000002196, 34.177291000003265 ], [ -80.928074000002127, 34.166265000003214 ], [ -80.929012000001691, 34.161397000002808 ], [ -80.937400000001205, 34.140821000003314 ], [ -80.924814000001234, 34.137073000003383 ], [ -80.91400700000213, 34.139899000002742 ], [ -80.929612000001882, 34.128704000002998 ], [ -80.931203000001744, 34.124199000003216 ], [ -80.915105000001759, 34.120336000003071 ], [ -80.931300000001769, 34.094376000003031 ], [ -80.9273320000014, 34.089921000002718 ], [ -80.947291000002139, 34.073858000003412 ], [ -80.956658000001411, 34.065213000003176 ], [ -80.957026000001463, 34.064896000002811 ], [ -80.972470000001479, 34.056680000003205 ], [ -80.967557000001875, 34.044167000003505 ], [ -80.973997000002186, 34.040913000003513 ], [ -80.979719000002248, 34.03658300000351 ], [ -80.980200000001219, 34.035904000003249 ], [ -80.992606000001771, 34.025393000003227 ], [ -80.995202000001683, 34.0170930000033 ], [ -80.994962000001408, 34.009773000003413 ], [ -80.995346000001675, 34.007694000003191 ], [ -80.993009000001436, 33.997431000003502 ], [ -80.987464000001253, 33.996830000002646 ], [ -80.98233200000152, 33.988509000002779 ], [ -80.982367000002128, 33.98848300000293 ], [ -80.988702000002164, 33.987819000002865 ], [ -80.991058000001985, 33.978635000003003 ], [ -80.984993000001353, 33.967054000002719 ], [ -80.983421000001456, 33.964606000002981 ], [ -80.980116000001559, 33.962836000003207 ], [ -80.963765000001587, 33.956756000003466 ], [ -80.957873000001754, 33.955041000002701 ], [ -80.944436000001915, 33.951028000003397 ], [ -80.932387000001796, 33.956791000003477 ], [ -80.92938200000205, 33.978343000002731 ], [ -80.915471000001986, 33.980262000003478 ], [ -80.90306100000214, 33.982815000003484 ], [ -80.891856000001397, 33.985285000003209 ], [ -80.866837000001638, 33.991882000003059 ], [ -80.743657000002116, 34.00660600000267 ], [ -80.704478000001828, 34.009967000002717 ], [ -80.704056000001842, 34.049970000002901 ], [ -80.613869000001458, 34.057324000003113 ], [ -80.600952000001882, 34.039386000003518 ], [ -80.640986000001448, 33.99943300000308 ], [ -80.628137000001345, 33.947588000003215 ], [ -80.628010000002035, 33.946970000003382 ], [ -80.634093000001187, 33.917333000002806 ], [ -80.615534000002114, 33.890741000003104 ], [ -80.625332000001606, 33.866811000003359 ], [ -80.632803000001431, 33.85031300000302 ], [ -80.613071000001838, 33.81354800000301 ], [ -80.597715000002196, 33.777512000002893 ], [ -80.62010700000161, 33.743237000003255 ], [ -80.627554000001567, 33.730996000003032 ], [ -80.596593000002073, 33.695137000003434 ], [ -80.565209000002127, 33.679712000002688 ], [ -80.534085000002179, 33.643911000002952 ], [ -80.497595000001681, 33.674320000003469 ], [ -80.478709000001288, 33.714265000003223 ], [ -80.434426000001622, 33.711890000003216 ], [ -80.39234600000168, 33.723726000002721 ], [ -80.396993000001757, 33.746864000003256 ], [ -80.405397000001386, 33.773004000003262 ], [ -80.391611000001618, 33.791284000003031 ], [ -80.374530000002082, 33.818050000002764 ], [ -80.373894000001812, 33.829391000002914 ], [ -80.352067000002179, 33.875800000003508 ], [ -80.352310000002205, 33.875880000003349 ], [ -80.352961000001699, 33.8976370000033 ], [ -80.351097000001857, 33.908667000002751 ], [ -80.341885000001497, 33.914490000002836 ], [ -80.342012000001972, 33.917215000002926 ], [ -80.370149000002073, 33.914467000003121 ], [ -80.371293000001472, 33.915164000002704 ], [ -80.36956500000133, 33.920029000002835 ], [ -80.360789000001887, 33.937859000003222 ], [ -80.35790600000162, 33.936043000002655 ], [ -80.342741000001979, 33.944491000003119 ], [ -80.342580000001817, 33.945827000002744 ], [ -80.325079000001509, 33.941136000002786 ], [ -80.319557000001851, 33.937106000003155 ], [ -80.311449000001844, 33.931522000003426 ], [ -80.291878000001319, 33.915887000003437 ], [ -80.254130000001282, 33.940187000003426 ], [ -80.237342000001306, 33.933266000002909 ], [ -80.240671000001399, 33.94029700000268 ], [ -80.220317000001828, 33.970793000003354 ], [ -80.228344000001229, 33.995178000003193 ], [ -80.188288000001904, 34.004924000003243 ], [ -80.186692000001713, 33.998164000003428 ], [ -80.18037100000177, 33.952002000002778 ], [ -80.120475000001463, 33.980429000003305 ], [ -80.070364000001149, 34.007920000003125 ], [ -80.02676000000173, 34.008543000002895 ], [ -80.000594000001954, 34.047877000003552 ], [ -79.985370000001765, 34.037911000002751 ], [ -79.931406000001701, 34.015260000003011 ], [ -79.893517000001395, 33.988017000002955 ], [ -79.974601000001229, 33.946527000002888 ], [ -79.962331000001797, 33.917621000003543 ], [ -79.952317000001926, 33.894250000003275 ], [ -79.945584000002057, 33.88571700000346 ], [ -79.875620000001348, 33.885245000003479 ], [ -79.854891000001416, 33.891738000002718 ], [ -79.834881000001332, 33.882601000003461 ], [ -79.759933000001141, 33.893381000003068 ], [ -79.747574000001407, 33.893572000002891 ], [ -79.717357000001343, 33.902905000002988 ], [ -79.696320000001677, 33.915324000002705 ], [ -79.714620000001602, 33.938338000003156 ], [ -79.683873000002052, 33.946649000003397 ], [ -79.656954000001477, 33.921575000002932 ], [ -79.615790000001525, 33.877209000003468 ], [ -79.578918000001224, 33.857411000003367 ], [ -79.603366000001515, 33.828226000002772 ], [ -79.63580800000193, 33.818038000003327 ], [ -79.602470000001659, 33.800782000003359 ], [ -79.496486000001525, 33.775357000002913 ], [ -79.496466000001519, 33.775372000002662 ], [ -79.494462000002017, 33.777173000002833 ], [ -79.468115000001944, 33.781748000003226 ], [ -79.399255000001133, 33.800628000003393 ], [ -79.38264500000173, 33.818577000002705 ], [ -79.324317000001599, 33.799123000002993 ], [ -79.317041000001183, 33.779878000003393 ], [ -79.338486000001865, 33.773975000002707 ], [ -79.372574000001407, 33.726832000002801 ], [ -79.390079000002146, 33.713859000003126 ], [ -79.409332000001754, 33.688890000003319 ], [ -79.433288000001141, 33.621552000002758 ], [ -79.441221000001917, 33.592838000003134 ], [ -79.447121000001786, 33.564597000003403 ], [ -79.49934100000111, 33.515804000003513 ], [ -79.544986000001501, 33.487217000003355 ], [ -79.559076000002094, 33.473806000003272 ], [ -79.574228000001753, 33.459234000002965 ], [ -79.583817000001616, 33.449770000002871 ], [ -79.593459000001843, 33.432099000002651 ], [ -79.634419000001117, 33.372146000003035 ], [ -79.650832000001884, 33.362268000003034 ], [ -79.677385000001919, 33.336413000003041 ], [ -79.677014000001648, 33.304944000002983 ], [ -79.709576000002002, 33.321246000003249 ], [ -79.741153000001361, 33.322308000002721 ], [ -79.794013000001812, 33.377679000003489 ], [ -79.854764000001964, 33.403904000002875 ], [ -79.867503000002131, 33.433651000003401 ], [ -79.960892000002033, 33.494446000002853 ], [ -80.069438000001483, 33.506442000003084 ], [ -80.101697000001622, 33.496891000002812 ], [ -80.152045000001564, 33.478572000002984 ], [ -80.148306000002137, 33.449867000003216 ], [ -80.191574000001239, 33.447507000003021 ], [ -80.208955000001907, 33.442662000003281 ], [ -80.222267000001665, 33.443716000003285 ], [ -80.222568000001672, 33.391288000003314 ], [ -80.241557000001649, 33.383084000002889 ], [ -80.239878000001852, 33.351377000003076 ], [ -80.255642000001416, 33.300002000003317 ], [ -80.278546000001299, 33.282593000003359 ], [ -80.289268000001243, 33.279113000002681 ], [ -80.317203000001584, 33.26411800000276 ], [ -80.344645000001222, 33.277848000003523 ], [ -80.361851000001806, 33.257443000002688 ], [ -80.334884000001409, 33.222982000003199 ], [ -80.330818000001784, 33.198424000002888 ], [ -80.297577000001567, 33.181838000003019 ], [ -80.334717000001532, 33.146095000002937 ], [ -80.302070000001805, 33.123134000003354 ], [ -80.290077000002043, 33.115226000002977 ], [ -80.251354000001555, 33.089698000002947 ], [ -80.295832000002079, 33.057448000003447 ], [ -80.329470000001692, 33.061698000003425 ], [ -80.355279000001318, 33.063322000002962 ], [ -80.391671000001779, 33.044983000002944 ], [ -80.392604000001327, 33.027560000003014 ], [ -80.356110000001323, 33.020853000002802 ], [ -80.310250000001957, 32.993429000003189 ], [ -80.284080000001651, 32.964250000002963 ], [ -80.278502000002106, 32.964687000003401 ], [ -80.260807000002075, 32.952691000002758 ], [ -80.265170000001575, 32.944871000002742 ], [ -80.226857000001729, 32.948733000003557 ], [ -80.205441000001869, 32.948216000003356 ], [ -80.201011000002083, 32.958388000003453 ], [ -80.184785000002123, 32.950436000002782 ], [ -80.159676000001767, 32.945081000002745 ], [ -80.137373000002043, 32.912955000003549 ], [ -80.126468000002163, 32.90123700000342 ], [ -80.11665400000129, 32.919482000003391 ], [ -80.118469000001724, 32.920630000002781 ], [ -80.116381000001297, 32.925137000003168 ], [ -80.110429000001417, 32.932966000003553 ], [ -80.096755000001494, 32.942628000003097 ], [ -80.100675000001445, 32.946033000002764 ], [ -80.113967000001324, 32.957687000003489 ], [ -80.125380000001556, 32.967418000003377 ], [ -80.12849700000119, 32.970037000003487 ], [ -80.135371000001854, 32.975683000003215 ], [ -80.140880000002184, 32.979567000002696 ], [ -80.138246000002056, 32.981537000002881 ], [ -80.110543000002153, 32.985492000002921 ], [ -80.145488000001407, 32.98494700000348 ], [ -80.146936000001773, 32.985372000002904 ], [ -80.155422000002147, 32.992493000003229 ], [ -80.17255200000136, 33.006742000002703 ], [ -80.176286000001838, 33.010042000003359 ], [ -80.163501000001148, 33.014181000003411 ], [ -80.149246000001227, 33.021601000003301 ], [ -80.134020000001797, 33.011731000003401 ], [ -80.128551000002091, 33.008105000003532 ], [ -80.098222000001456, 32.98810600000332 ], [ -80.086941000001474, 32.992181000003058 ], [ -80.067164000001938, 32.996669000002775 ], [ -80.056007000001486, 32.999336000003346 ], [ -80.03974500000119, 32.983879000003441 ], [ -80.039904000001215, 32.982582000003148 ], [ -80.041993000002094, 32.965029000002851 ], [ -80.036557000001579, 32.946057000003336 ], [ -80.033787000002022, 32.94095300000285 ], [ -80.023180000001602, 32.921101000002814 ], [ -80.017205000001169, 32.910037000003449 ], [ -80.011774000001168, 32.899881000003496 ], [ -80.003236000002076, 32.901224000003452 ], [ -79.994217000001868, 32.902769000003509 ], [ -79.984229000001278, 32.904448000003413 ], [ -79.950448000001458, 32.910174000003472 ], [ -79.948848000001547, 32.90811000000307 ], [ -79.962675000001397, 32.891146000003175 ], [ -79.964513000001929, 32.877950000002848 ], [ -79.95185000000204, 32.857117000003555 ], [ -79.931552000002185, 32.849711000002941 ], [ -79.919202000001235, 32.818991000002704 ], [ -79.914307000001187, 32.81889200000326 ], [ -79.915654000001709, 32.803658000002756 ], [ -79.915731000001529, 32.80291400000273 ], [ -79.916440000001828, 32.796170000002796 ], [ -79.916870000001168, 32.791073000003493 ], [ -79.917163000002105, 32.782515000002888 ], [ -79.917291000001512, 32.779490000003292 ], [ -79.917163000001523, 32.770522000003034 ], [ -79.916785000002065, 32.763274000003527 ], [ -79.926707000001812, 32.763017000003373 ], [ -79.940915000001993, 32.764512000002789 ], [ -79.949475000001698, 32.773664000002917 ], [ -79.974046000001536, 32.76638200000307 ], [ -79.983127000002057, 32.766389000003407 ], [ -80.003957000001236, 32.765807000002887 ], [ -80.006676000001278, 32.767507000003476 ], [ -80.037619000001186, 32.773117000003396 ], [ -80.053814000001694, 32.778676000002889 ], [ -80.068926000001198, 32.770752000002759 ], [ -80.107344000002087, 32.785591000003478 ], [ -80.120200000001347, 32.780272000002896 ], [ -80.13592000000132, 32.754275000003389 ], [ -80.162936000001892, 32.747904000003317 ], [ -80.17159100000211, 32.707913000002669 ], [ -80.190581000001472, 32.709232000002977 ], [ -80.239639000001517, 32.679944000002692 ], [ -80.240614000002125, 32.657588000002789 ], [ -80.265807000001516, 32.644773000002679 ], [ -80.271212000001597, 32.625076000002743 ], [ -80.285789000001159, 32.622312000002928 ], [ -80.34733100000193, 32.64655400000337 ], [ -80.389401000001826, 32.65282000000316 ], [ -80.418653000002138, 32.677647000003532 ], [ -80.483496000001864, 32.659645000003415 ], [ -80.556207000001947, 32.743770000003032 ], [ -80.594577000001877, 32.761328000003189 ], [ -80.671091000002008, 32.758697000003494 ], [ -80.695003000002089, 32.75175600000275 ], [ -80.691795000002244, 32.717532000002777 ], [ -80.636369000001892, 32.682400000003049 ], [ -80.68313500000194, 32.652383000003098 ], [ -80.674385000001422, 32.67240900000332 ], [ -80.739243000001892, 32.682304000003512 ], [ -80.771232000002229, 32.67692700000341 ], [ -80.82630900000153, 32.704321000003439 ], [ -80.847346000001593, 32.687617000002987 ], [ -80.869705000001559, 32.660935000002766 ], [ -80.831543000002014, 32.593388000002903 ], [ -80.847733000001881, 32.53005700000292 ], [ -80.838739000001553, 32.520930000003055 ], [ -80.819179000001739, 32.485942000003476 ], [ -80.817429000001525, 32.472589000003289 ], [ -80.818690000001652, 32.463935000002785 ], [ -80.850102000001826, 32.419790000002813 ], [ -80.841458000002035, 32.385064000003133 ], [ -80.899455000001737, 32.3539480000032 ], [ -80.928775000001252, 32.331302000003134 ], [ -80.949266000001856, 32.342723000003389 ], [ -80.94789700000139, 32.363117000003065 ], [ -80.982526000001286, 32.379349000003053 ], [ -81.018146000002233, 32.38398500000325 ], [ -80.996625000001686, 32.32546500000268 ], [ -81.006369000001172, 32.306521000002654 ], [ -80.997400000001775, 32.296171000003419 ], [ -80.994820000001269, 32.288601000002764 ], [ -80.996681000001615, 32.277184000003032 ], [ -80.992462000001638, 32.272724000003464 ], [ -80.99167700000207, 32.267546000002973 ], [ -81.012452000002227, 32.23622600000278 ], [ -81.013009000001318, 32.225045000003526 ], [ -80.991016000001764, 32.189926000003503 ], [ -80.951237000001768, 32.170806000002713 ], [ -80.95413600000154, 32.148365000002997 ], [ -80.908363000001856, 32.130404000003217 ], [ -80.908111000001341, 32.078172000003072 ], [ -80.841505000001376, 32.078494000003538 ], [ -80.75058100000156, 32.078589000002687 ], [ -80.745536000001863, 32.078667000002824 ], [ -80.742958000002147, 32.049535000003253 ], [ -80.787093000001832, 31.998888000002921 ], [ -80.815577000001994, 32.029918000002681 ], [ -80.850238000001198, 32.041420000002752 ], [ -80.890277000001703, 32.035555000002731 ], [ -80.925085000001772, 32.041939000003374 ], [ -80.954031000002203, 32.070290000003048 ], [ -80.98350900000186, 32.079549000003233 ], [ -81.004305000002134, 32.102367000003454 ], [ -81.038125000001799, 32.083734000003091 ], [ -81.117225000001596, 32.117604000003233 ], [ -81.128142000001247, 32.169097000002914 ], [ -81.123149000001874, 32.201320000002951 ], [ -81.151474000001556, 32.235705000003442 ], [ -81.141414000001433, 32.272039000002984 ], [ -81.123276000002235, 32.276975000003226 ], [ -81.132057000001382, 32.341206000003154 ] ] ] } },
{ "type": "Feature", "properties": { "enacted_district": 7, "population": 731489.0, "voting_age_pop": 588970.0, "dem_votes": 117189.0, "rep_votes": 171033.0, "minority_pop": 193629.0, "dem_pct": 0.4065928345488572, "rep_pct": 0.59340716510418801 }, "geometry": { "type": "Polygon", "coordinates": [ [ [ -80.158582000001616, 34.16162300000309 ], [ -80.13181400000208, 34.182380000003164 ], [ -80.112727000001897, 34.197018000002728 ], [ -80.111733000001138, 34.22861300000271 ], [ -80.11772100000131, 34.238319000003301 ], [ -80.134541000001121, 34.270307000003434 ], [ -80.135803000001459, 34.272437000003194 ], [ -80.175195000001182, 34.329286000003279 ], [ -80.191004000001342, 34.366655000003036 ], [ -80.206302000001472, 34.339055000002652 ], [ -80.24322600000184, 34.324455000003148 ], [ -80.288692000001319, 34.364139000003107 ], [ -80.288596000002102, 34.366207000003392 ], [ -80.285967000002003, 34.39229000000266 ], [ -80.326334000001864, 34.436884000002806 ], [ -80.327590000001749, 34.497760000003218 ], [ -80.342173000001509, 34.515493000002863 ], [ -80.342813000001541, 34.512790000003434 ], [ -80.372336000001752, 34.546769000003017 ], [ -80.383375000001195, 34.592193000003391 ], [ -80.404356000001968, 34.608380000003145 ], [ -80.408373000001873, 34.614765000002933 ], [ -80.435036000001617, 34.642075000003267 ], [ -80.431671000001941, 34.659902000003399 ], [ -80.473065000001682, 34.692357000002737 ], [ -80.489760000002065, 34.720216000002985 ], [ -80.508607000001319, 34.75025000000312 ], [ -80.544479000001317, 34.783956000002682 ], [ -80.561710000001213, 34.817429000003465 ], [ -80.41715300000125, 34.815523000003431 ], [ -80.340580000001879, 34.81435200000351 ], [ -80.27834800000177, 34.813416000003251 ], [ -80.158005000002163, 34.811268000003381 ], [ -80.125120000001559, 34.810621000003408 ], [ -80.013274000001473, 34.808403000003125 ], [ -79.927412000001254, 34.806734000003459 ], [ -79.763111000001516, 34.80560900000269 ], [ -79.724098000001888, 34.805336000003123 ], [ -79.669266000001357, 34.799184000002789 ], [ -79.554873000001436, 34.706395000003049 ], [ -79.479172000001242, 34.644704000002761 ], [ -79.450024000001889, 34.621053000002831 ], [ -79.365407000001994, 34.551650000003278 ], [ -79.316552000001195, 34.508991000003384 ], [ -79.275187000001281, 34.472282000003354 ], [ -79.201428000001215, 34.4088020000029 ], [ -79.071211000001512, 34.2993420000032 ], [ -78.953066000001797, 34.200103000002755 ], [ -78.882437000002085, 34.140694000003066 ], [ -78.827393000002104, 34.094250000003214 ], [ -78.794289000001427, 34.066234000002858 ], [ -78.711396000001528, 33.996145000003324 ], [ -78.650342000001288, 33.944365000003131 ], [ -78.616039000001081, 33.915229000003279 ], [ -78.574059000001711, 33.87953700000309 ], [ -78.55835300000183, 33.866054000003331 ], [ -78.49973000000152, 33.813275000002733 ], [ -78.621068000001742, 33.780605000003042 ], [ -78.634026000001327, 33.777176000002896 ], [ -78.639667000001978, 33.775209000002775 ], [ -78.664662000001371, 33.766221000002716 ], [ -78.683843000001872, 33.758576000003451 ], [ -78.687778000001998, 33.756858000003135 ], [ -78.707637000001156, 33.745748000002706 ], [ -78.713354000001559, 33.742584000003419 ], [ -78.760419000001079, 33.715689000003096 ], [ -78.779149000001112, 33.702087000003374 ], [ -78.810656000001572, 33.679188000003521 ], [ -78.814025000001777, 33.676544000003297 ], [ -78.826319000001263, 33.666266000003091 ], [ -78.834637000001081, 33.65847100000331 ], [ -78.845627000001585, 33.648479000003128 ], [ -78.873092000002003, 33.624931000002782 ], [ -78.886381000001464, 33.612910000003339 ], [ -78.9170490000011, 33.582359000002754 ], [ -78.925682000001942, 33.573083000003081 ], [ -78.926075000001418, 33.572658000003116 ], [ -78.996113000001088, 33.487612000003011 ], [ -79.030057000001293, 33.460765000003526 ], [ -79.036986000001477, 33.453440000002985 ], [ -79.084438000001612, 33.375397000003034 ], [ -79.093312000001674, 33.304952000002977 ], [ -79.120217000001787, 33.246932000003234 ], [ -79.081634000001372, 33.207329000002908 ], [ -79.077735000001425, 33.189746000002749 ], [ -79.091614000001584, 33.159056000003524 ], [ -79.140519000001333, 33.139620000003184 ], [ -79.180871000001986, 33.10752800000347 ], [ -79.21553800000143, 33.064248000002912 ], [ -79.261830000001581, 33.049793000003106 ], [ -79.293344000001781, 33.102874000002721 ], [ -79.268411000002089, 33.130308000003104 ], [ -79.27804000000161, 33.142559000002926 ], [ -79.350816000001828, 33.153528000003391 ], [ -79.446699000001516, 33.213458000003335 ], [ -79.459952000002104, 33.235091000002676 ], [ -79.493993000002064, 33.236030000002842 ], [ -79.546563000002109, 33.255990000003329 ], [ -79.5622500000011, 33.272523000003154 ], [ -79.677014000001648, 33.304944000002983 ], [ -79.677385000001919, 33.336413000003041 ], [ -79.650832000001884, 33.362268000003034 ], [ -79.634419000001117, 33.372146000003035 ], [ -79.593459000001843, 33.432099000002651 ], [ -79.583817000001616, 33.449770000002871 ], [ -79.574228000001753, 33.459234000002965 ], [ -79.559076000002094, 33.473806000003272 ], [ -79.544986000001501, 33.487217000003355 ], [ -79.49934100000111, 33.515804000003513 ], [ -79.447121000001786, 33.564597000003403 ], [ -79.441221000001917, 33.592838000003134 ], [ -79.433288000001141, 33.621552000002758 ], [ -79.409332000001754, 33.688890000003319 ], [ -79.390079000002146, 33.713859000003126 ], [ -79.372574000001407, 33.726832000002801 ], [ -79.338486000001865, 33.773975000002707 ], [ -79.317041000001183, 33.779878000003393 ], [ -79.324317000001599, 33.799123000002993 ], [ -79.38264500000173, 33.818577000002705 ], [ -79.399255000001133, 33.800628000003393 ], [ -79.468115000001944, 33.781748000003226 ], [ -79.494462000002017, 33.777173000002833 ], [ -79.496466000001519, 33.775372000002662 ], [ -79.496486000001525, 33.775357000002913 ], [ -79.602470000001659, 33.800782000003359 ], [ -79.63580800000193, 33.818038000003327 ], [ -79.603366000001515, 33.828226000002772 ], [ -79.578918000001224, 33.857411000003367 ], [ -79.615790000001525, 33.877209000003468 ], [ -79.656954000001477, 33.921575000002932 ], [ -79.683873000002052, 33.946649000003397 ], [ -79.714620000001602, 33.938338000003156 ], [ -79.696320000001677, 33.915324000002705 ], [ -79.717357000001343, 33.902905000002988 ], [ -79.747574000001407, 33.893572000002891 ], [ -79.759933000001141, 33.893381000003068 ], [ -79.834881000001332, 33.882601000003461 ], [ -79.854891000001416, 33.891738000002718 ], [ -79.875620000001348, 33.885245000003479 ], [ -79.945584000002057, 33.88571700000346 ], [ -79.952317000001926, 33.894250000003275 ], [ -79.962331000001797, 33.917621000003543 ], [ -79.974601000001229, 33.946527000002888 ], [ -79.893517000001395, 33.988017000002955 ], [ -79.931406000001701, 34.015260000003011 ], [ -79.985370000001765, 34.037911000002751 ], [ -80.000594000001954, 34.047877000003552 ], [ -80.045120000001688, 34.076749000002863 ], [ -80.069878000001964, 34.086191000003481 ], [ -80.13144100000126, 34.128666000002816 ], [ -80.158582000001616, 34.16162300000309 ] ] ] } }
]
}
