{
"type": "FeatureCollection",
"name": "south_carolina_optimized_districts_all",
"crs": { "type": "name", "properties": { "name": "urn:ogc:def:crs:OGC:1.3:CRS84" } },
"features": [
{ "type": "Feature", "properties": { "opt_all": 1, "population": 734764.0, "voting_age_pop": 575548.0, "dem_votes": 144324.0, "rep_votes": 143600.0, "minority_pop": 205330.0, "dem_pct": 0.50125727605157699, "rep_pct": 0.49874272360110905 }, "geometry": { "type": "Polygon", "coordinates": [ [ [ -80.284708000001274, 32.53039200000299 ], [ -80.336327000002171, 32.493565000002754 ], [ -80.352823000001294, 32.500187000003024 ], [ -80.379032000002155, 32.530932000002998 ], [ -80.416586000002169, 32.546318000002977 ], [ -80.388737000001882, 32.574470000003075 ], [ -80.418172000002045, 32.60447400000335 ], [ -80.389401000001826, 32.65282000000316 ], [ -80.418653000002138, 32.677647000003532 ], [ -80.422952000001402, 32.714757000002678 ], [ -80.453630000001439, 32.739900000002827 ], [ -80.447405000001851, 32.762319000003515 ], [ -80.435692000001197, 32.787407000002965 ], [ -80.407479000001786, 32.811106000002901 ], [ -80.401340000001724, 32.858466000003077 ], [ -80.292076000001856, 32.848860000003533 ], [ -80.256730000001156, 32.902247000003172 ], [ -80.205441000001869, 32.948216000003356 ], [ -80.201011000002083, 32.958388000003453 ], [ -80.201151000001559, 32.967826000003448 ], [ -80.198202000001686, 32.973694000003398 ], [ -80.192388000001273, 32.975965000003143 ], [ -80.183570000001922, 32.973261000002772 ], [ -80.180194000002089, 32.969055000003301 ], [ -80.179978000002123, 32.968782000002889 ], [ -80.17856300000156, 32.967114000003399 ], [ -80.169281000002186, 32.970236000002977 ], [ -80.170003000001373, 32.97169100000351 ], [ -80.166454000001877, 32.971981000003282 ], [ -80.165807000001578, 32.982209000002726 ], [ -80.159425000001306, 32.98811800000346 ], [ -80.146936000001773, 32.985372000002904 ], [ -80.155422000002147, 32.992493000003229 ], [ -80.17255200000136, 33.006742000002703 ], [ -80.176286000001838, 33.010042000003359 ], [ -80.163501000001148, 33.014181000003411 ], [ -80.149246000001227, 33.021601000003301 ], [ -80.164252000001298, 33.032294000002878 ], [ -80.17781800000202, 33.041216000003487 ], [ -80.183200000002117, 33.044765000003366 ], [ -80.235710000001234, 33.079388000002815 ], [ -80.251354000001555, 33.089698000002947 ], [ -80.290077000002043, 33.115226000002977 ], [ -80.302070000001805, 33.123134000003354 ], [ -80.334717000001532, 33.146095000002937 ], [ -80.297577000001567, 33.181838000003019 ], [ -80.330818000001784, 33.198424000002888 ], [ -80.334884000001409, 33.222982000003199 ], [ -80.361851000001806, 33.257443000002688 ], [ -80.344645000001222, 33.277848000003523 ], [ -80.317203000001584, 33.26411800000276 ], [ -80.289268000001243, 33.279113000002681 ], [ -80.278546000001299, 33.282593000003359 ], [ -80.255642000001416, 33.300002000003317 ], [ -80.239878000001852, 33.351377000003076 ], [ -80.241557000001649, 33.383084000002889 ], [ -80.222568000001672, 33.391288000003314 ], [ -80.222267000001665, 33.443716000003285 ], [ -80.254230000001499, 33.449195000002852 ], [ -80.322568000002107, 33.431371000003303 ], [ -80.36442800000134, 33.432898000003043 ], [ -80.433515000001634, 33.475037000003439 ], [ -80.457265000001627, 33.501875000003466 ], [ -80.447463000001591, 33.540472000002936 ], [ -80.496273000001651, 33.558481000003326 ], [ -80.520390000001683, 33.598178000003351 ], [ -80.534085000002179, 33.643911000002952 ], [ -80.497595000001681, 33.674320000003469 ], [ -80.478709000001288, 33.714265000003223 ], [ -80.434426000001622, 33.711890000003216 ], [ -80.39234600000168, 33.723726000002721 ], [ -80.396993000001757, 33.746864000003256 ], [ -80.397131000001579, 33.767821000003103 ], [ -80.346292000002094, 33.775306000002999 ], [ -80.296627000001735, 33.782650000003201 ], [ -80.274059000001799, 33.785868000003433 ], [ -80.270785000001354, 33.786760000003078 ], [ -80.255904000002062, 33.803708000003432 ], [ -80.14390700000142, 33.864615000003361 ], [ -80.104475000002182, 33.879869000002934 ], [ -80.077556000001806, 33.895166000003499 ], [ -80.056328000001372, 33.906848000003073 ], [ -79.974601000001229, 33.946527000002888 ], [ -79.962331000001797, 33.917621000003543 ], [ -79.952317000001926, 33.894250000003275 ], [ -79.945584000002057, 33.88571700000346 ], [ -79.875620000001348, 33.885245000003479 ], [ -79.876030000001563, 33.884496000003523 ], [ -79.915305000001183, 33.818648000003058 ], [ -79.94450500000201, 33.810214000003256 ], [ -79.952330000001936, 33.803537000003189 ], [ -79.965195000001927, 33.792695000003178 ], [ -79.968322000001578, 33.790058000002801 ], [ -79.995638000001705, 33.767906000002775 ], [ -79.974382000001313, 33.721590000003452 ], [ -79.993233000001169, 33.704458000002802 ], [ -80.019349000001739, 33.648936000003182 ], [ -80.088885000001312, 33.520497000003246 ], [ -80.093570000001861, 33.511816000002959 ], [ -80.101697000001622, 33.496891000002812 ], [ -80.069438000001483, 33.506442000003084 ], [ -79.960892000002033, 33.494446000002853 ], [ -79.867503000002131, 33.433651000003401 ], [ -79.854764000001964, 33.403904000002875 ], [ -79.794013000001812, 33.377679000003489 ], [ -79.741153000001361, 33.322308000002721 ], [ -79.709576000002002, 33.321246000003249 ], [ -79.677014000001648, 33.304944000002983 ], [ -79.5622500000011, 33.272523000003154 ], [ -79.546563000002109, 33.255990000003329 ], [ -79.493993000002064, 33.236030000002842 ], [ -79.459952000002104, 33.235091000002676 ], [ -79.446699000001516, 33.213458000003335 ], [ -79.350816000001828, 33.153528000003391 ], [ -79.27804000000161, 33.142559000002926 ], [ -79.268411000002089, 33.130308000003104 ], [ -79.293344000001781, 33.102874000002721 ], [ -79.261830000001581, 33.049793000003106 ], [ -79.299505000001318, 33.000169000003275 ], [ -79.322257000001969, 32.956078000002826 ], [ -79.371297000001391, 32.945717000002723 ], [ -79.440369000002022, 32.958652000002701 ], [ -79.459374000001148, 32.940504000003266 ], [ -79.495945000001726, 32.93157200000271 ], [ -79.534689000001208, 32.870012000002774 ], [ -79.585390000001325, 32.850856000003475 ], [ -79.61635900000114, 32.821559000003141 ], [ -79.637821000002091, 32.816377000003101 ], [ -79.658956000001211, 32.788078000002812 ], [ -79.691893000001116, 32.759240000002855 ], [ -79.755460000001563, 32.7401350000031 ], [ -79.765316000001718, 32.715829000002842 ], [ -79.780150000002024, 32.691052000003566 ], [ -79.82805800000186, 32.664778000003018 ], [ -79.855063000001451, 32.636389000003398 ], [ -79.900546000001469, 32.614529000002882 ], [ -79.940168000001805, 32.588749000003048 ], [ -79.979002000001429, 32.55807400000279 ], [ -80.03077000000124, 32.559961000002751 ], [ -80.088877000001958, 32.549029000002768 ], [ -80.094998000001524, 32.523866000003302 ], [ -80.121459000001522, 32.499192000002722 ], [ -80.147853000001803, 32.494170000002882 ], [ -80.185434000001692, 32.492444000003466 ], [ -80.223590000001209, 32.482565000003198 ], [ -80.249820000002146, 32.530043000002955 ], [ -80.284708000001274, 32.53039200000299 ] ] ] } },
{ "type": "Feature", "properties": { "opt_all": 2, "population": 732171.0, "voting_age_pop": 573615.0, "dem_votes": 165396.0, "rep_votes": 125809.0, "minority_pop": 279608.0, "dem_pct": 0.56797101678612283, "rep_pct": 0.43202898287047647 }, "geometry": { "type": "Polygon", "coordinates": [ [ [ -81.533618000002235, 33.951416000003071 ], [ -81.534863000001479, 33.953376000003125 ], [ -81.521630000001863, 33.97960700000317 ], [ -81.492397000001489, 34.034257000003421 ], [ -81.471972000001387, 34.076552000003133 ], [ -81.467665000002029, 34.086036000002871 ], [ -81.394083000002269, 34.071545000002835 ], [ -81.403254000001638, 34.097900000003413 ], [ -81.435193000001689, 34.128358000003054 ], [ -81.410226000002126, 34.168672000002793 ], [ -81.402981000002015, 34.177891000003399 ], [ -81.374766000001998, 34.179009000003262 ], [ -81.33896100000166, 34.197587000002649 ], [ -81.341364000002088, 34.210286000002895 ], [ -81.316911000001184, 34.239458000003317 ], [ -81.278240000001915, 34.229632000002738 ], [ -81.251273000001859, 34.202946000002683 ], [ -81.223247000002132, 34.204114000002932 ], [ -81.178293000001304, 34.174552000003402 ], [ -81.168431000001931, 34.197653000002731 ], [ -81.181196000001378, 34.220285000002654 ], [ -81.18972300000172, 34.234177000002944 ], [ -81.225578000002145, 34.238222000003425 ], [ -81.243258000001703, 34.272881000002734 ], [ -81.248760000002136, 34.31132900000312 ], [ -81.229130000001831, 34.330189000002747 ], [ -81.176588000001914, 34.342560000003211 ], [ -81.178429000001486, 34.302878000003339 ], [ -81.147646000001615, 34.31474100000343 ], [ -81.115787000001347, 34.308662000003068 ], [ -81.084462000002134, 34.336257000002647 ], [ -81.10040500000197, 34.366856000003025 ], [ -81.101804000001607, 34.382164000003158 ], [ -81.101664000002032, 34.403526000002849 ], [ -81.082647000001359, 34.369773000003022 ], [ -81.081998000001178, 34.369376000002759 ], [ -81.061156000001986, 34.388336000002766 ], [ -81.009315000001919, 34.392250000003209 ], [ -81.02157000000166, 34.366350000003379 ], [ -80.996676000001514, 34.362347000003531 ], [ -80.994319000001596, 34.405079000003411 ], [ -80.951253000002197, 34.407237000002631 ], [ -80.932279000001998, 34.503084000002964 ], [ -80.894400000001284, 34.494346000003098 ], [ -80.879227000001592, 34.45777600000298 ], [ -80.743345000001142, 34.53991600000284 ], [ -80.742408000001788, 34.496799000002824 ], [ -80.713329000002048, 34.487334000003472 ], [ -80.698162000002029, 34.515967000003421 ], [ -80.673778000001818, 34.492176000003525 ], [ -80.646825000001442, 34.482470000002621 ], [ -80.595766000001788, 34.502134000002961 ], [ -80.548559000002172, 34.493570000003203 ], [ -80.524226000002145, 34.512328000003308 ], [ -80.546606000001177, 34.551358000002779 ], [ -80.550552000002199, 34.560116000003084 ], [ -80.408373000001873, 34.614765000002933 ], [ -80.435036000001617, 34.642075000003267 ], [ -80.431671000001941, 34.659902000003399 ], [ -80.473065000001682, 34.692357000002737 ], [ -80.489760000002065, 34.720216000002985 ], [ -80.508607000001319, 34.75025000000312 ], [ -80.544479000001317, 34.783956000002682 ], [ -80.561710000001213, 34.817429000003465 ], [ -80.41715300000125, 34.815523000003431 ], [ -80.340580000001879, 34.81435200000351 ], [ -80.27834800000177, 34.813416000003251 ], [ -80.158005000002163, 34.811268000003381 ], [ -80.125120000001559, 34.810621000003408 ], [ -80.013274000001473, 34.808403000003125 ], [ -79.927412000001254, 34.806734000003459 ], [ -79.925240000002134, 34.765296000003509 ], [ -79.909735000002158, 34.75460000000303 ], [ -79.875685000001241, 34.708235000002979 ], [ -79.86121500000182, 34.680286000003385 ], [ -79.855007000001606, 34.673351000003024 ], [ -79.800592000002069, 34.637668000003217 ], [ -79.777815000001709, 34.614293000003435 ], [ -79.803877000001123, 34.609053000003506 ], [ -79.829981000001794, 34.531925000002929 ], [ -79.843676000002148, 34.533085000003489 ], [ -79.88454200000163, 34.491218000003443 ], [ -79.940832000002089, 34.488020000003139 ], [ -79.956698000001467, 34.4866990000031 ], [ -79.981038000002187, 34.501511000003234 ], [ -80.076511000001403, 34.476339000002689 ], [ -80.097261000001424, 34.464831000002867 ], [ -80.15424400000181, 34.43605100000304 ], [ -80.288596000002102, 34.366207000003392 ], [ -80.288692000001319, 34.364139000003107 ], [ -80.24322600000184, 34.324455000003148 ], [ -80.206302000001472, 34.339055000002652 ], [ -80.191004000001342, 34.366655000003036 ], [ -80.175195000001182, 34.329286000003279 ], [ -80.135803000001459, 34.272437000003194 ], [ -80.134541000001121, 34.270307000003434 ], [ -80.11772100000131, 34.238319000003301 ], [ -80.111733000001138, 34.22861300000271 ], [ -80.112727000001897, 34.197018000002728 ], [ -80.13181400000208, 34.182380000003164 ], [ -80.158582000001616, 34.16162300000309 ], [ -80.13144100000126, 34.128666000002816 ], [ -80.069878000001964, 34.086191000003481 ], [ -80.045120000001688, 34.076749000002863 ], [ -80.000594000001954, 34.047877000003552 ], [ -80.02676000000173, 34.008543000002895 ], [ -80.070364000001149, 34.007920000003125 ], [ -80.120475000001463, 33.980429000003305 ], [ -80.102497000001733, 33.94743600000313 ], [ -80.057824000001872, 33.932633000003555 ], [ -80.056328000001372, 33.906848000003073 ], [ -80.077556000001806, 33.895166000003499 ], [ -80.104475000002182, 33.879869000002934 ], [ -80.14390700000142, 33.864615000003361 ], [ -80.255904000002062, 33.803708000003432 ], [ -80.270785000001354, 33.786760000003078 ], [ -80.274059000001799, 33.785868000003433 ], [ -80.296627000001735, 33.782650000003201 ], [ -80.346292000002094, 33.775306000002999 ], [ -80.397131000001579, 33.767821000003103 ], [ -80.396993000001757, 33.746864000003256 ], [ -80.39234600000168, 33.723726000002721 ], [ -80.434426000001622, 33.711890000003216 ], [ -80.478709000001288, 33.714265000003223 ], [ -80.497595000001681, 33.674320000003469 ], [ -80.534085000002179, 33.643911000002952 ], [ -80.565209000002127, 33.679712000002688 ], [ -80.596593000002073, 33.695137000003434 ], [ -80.627554000001567, 33.730996000003032 ], [ -80.62010700000161, 33.743237000003255 ], [ -80.645083000002202, 33.752965000003265 ], [ -80.65905100000181, 33.772986000003243 ], [ -80.686592000002065, 33.755993000002974 ], [ -80.747337000001579, 33.761742000003196 ], [ -80.793354000001386, 33.769525000003362 ], [ -80.834817000002033, 33.78738800000275 ], [ -80.86765900000195, 33.81005600000266 ], [ -80.898535000001758, 33.808767000003243 ], [ -80.965945000001881, 33.847848000003516 ], [ -80.985706000001969, 33.848730000002689 ], [ -81.012330000001285, 33.880080000002714 ], [ -81.014267000001226, 33.908148000003408 ], [ -81.029214000002227, 33.916454000003043 ], [ -81.017014000001396, 33.93085500000273 ], [ -81.045862000001478, 33.976877000002744 ], [ -81.04593200000167, 33.977339000002686 ], [ -81.047704000002014, 33.990505000002848 ], [ -81.050859000001353, 33.995775000003043 ], [ -81.052586000001625, 33.998003000002861 ], [ -81.059715000001859, 34.005253000002675 ], [ -81.089612000001708, 34.013412000003022 ], [ -81.103689000001623, 34.023349000002725 ], [ -81.103823000001384, 34.023316000002886 ], [ -81.110560000001399, 34.036900000003421 ], [ -81.11630700000147, 34.04521100000305 ], [ -81.121490000002069, 34.051593000003479 ], [ -81.125257000002108, 34.055740000003361 ], [ -81.146278000001246, 34.045681000003199 ], [ -81.146917000001665, 34.032250000003216 ], [ -81.166844000001561, 34.045068000003468 ], [ -81.182224000001327, 34.047213000002678 ], [ -81.186286000002085, 34.053643000003085 ], [ -81.18646700000167, 34.054161000002779 ], [ -81.203963000001977, 34.077891000003248 ], [ -81.22112400000124, 34.065162000003532 ], [ -81.218721000001906, 34.053009000002767 ], [ -81.231841000001538, 34.051925000003415 ], [ -81.236798000002096, 34.027164000003019 ], [ -81.25950200000122, 34.009825000003083 ], [ -81.284391000001634, 34.00420900000293 ], [ -81.291766000001857, 34.003047000002709 ], [ -81.28780200000206, 33.992100000002758 ], [ -81.290099000002172, 33.986059000003003 ], [ -81.303562000001335, 33.979744000002839 ], [ -81.331692000001567, 33.978394000002879 ], [ -81.342770000001892, 33.977081000003132 ], [ -81.376339000001863, 33.973989000002689 ], [ -81.420034000002246, 33.952482000002966 ], [ -81.410440000001444, 33.899938000002628 ], [ -81.408013000001532, 33.894855000003467 ], [ -81.418972000001688, 33.880685000002771 ], [ -81.467310000002229, 33.864152000002953 ], [ -81.506911000001921, 33.905278000002816 ], [ -81.527497000001958, 33.91105900000337 ], [ -81.533618000002235, 33.951416000003071 ] ] ] } },
{ "type": "Feature", "properties": { "opt_all": 3, "population": 728477.0, "voting_age_pop": 577682.0, "dem_votes": 88521.0, "rep_votes": 194684.0, "minority_pop": 151657.0, "dem_pct": 0.31256863391798567, "rep_pct": 0.68743136572891317 }, "geometry": { "type": "Polygon", "coordinates": [ [ [ -82.855486000001306, 34.441791000003199 ], [ -82.901551000002144, 34.486764000003056 ], [ -82.992232000001309, 34.479258000002794 ], [ -83.034565000002075, 34.483571000003074 ], [ -83.05798600000135, 34.503670000003034 ], [ -83.092873000001831, 34.532891000003282 ], [ -83.168278000001933, 34.590998000002656 ], [ -83.170836000001955, 34.607749000002826 ], [ -83.232580000001775, 34.611597000002689 ], [ -83.279457000002111, 34.647808000003387 ], [ -83.304641000001467, 34.669561000003235 ], [ -83.338900000001772, 34.680039000002559 ], [ -83.35269200000144, 34.716904000003289 ], [ -83.326309000001771, 34.750839000003296 ], [ -83.324150000001666, 34.787479000003366 ], [ -83.246923000002326, 34.859463000002954 ], [ -83.209572000001828, 34.879856000003365 ], [ -83.158966000002138, 34.929138000002652 ], [ -83.127357000001439, 34.950195000002608 ], [ -83.098831000002022, 34.991955000002733 ], [ -83.056386000002263, 35.014949000002638 ], [ -83.019133000001617, 35.024640000002897 ], [ -82.897495000002337, 35.056182000003076 ], [ -82.783749000001706, 35.085545000003144 ], [ -82.775027000001685, 35.06476600000282 ], [ -82.764157000002072, 35.06838800000277 ], [ -82.729239000001826, 35.055048000002728 ], [ -82.659389000001312, 35.067003000003353 ], [ -82.571975000001757, 35.067449000002867 ], [ -82.592384000001502, 35.062805000003358 ], [ -82.593937000001532, 35.007887000003315 ], [ -82.556352000001453, 35.015034000003162 ], [ -82.534138000001406, 34.983761000002673 ], [ -82.525761000002205, 34.952346000002741 ], [ -82.525930000001608, 34.943315000003345 ], [ -82.515853000001385, 34.926008000003172 ], [ -82.496295000001908, 34.888992000002929 ], [ -82.489028000001838, 34.861408000002982 ], [ -82.4841120000019, 34.856190000003394 ], [ -82.487079000002126, 34.832139000003146 ], [ -82.487193000001383, 34.83198300000285 ], [ -82.487034000002282, 34.819004000003147 ], [ -82.469349000001827, 34.798126000002867 ], [ -82.458397000001611, 34.779177000002647 ], [ -82.458249000001771, 34.779078000003274 ], [ -82.455144000001837, 34.750683000003427 ], [ -82.462974000002305, 34.704039000002808 ], [ -82.4567010000018, 34.680259000002756 ], [ -82.46464500000171, 34.67237000000307 ], [ -82.461877000001635, 34.655463000002783 ], [ -82.454324000001975, 34.643306000003385 ], [ -82.452149000001342, 34.630771000003016 ], [ -82.428386000001467, 34.597192000003446 ], [ -82.419381000001323, 34.556692000002649 ], [ -82.376300000001493, 34.527135000002723 ], [ -82.313871000001541, 34.484335000003334 ], [ -82.376845000002064, 34.443387000003142 ], [ -82.382684000001703, 34.439602000003433 ], [ -82.387485000002016, 34.436491000002704 ], [ -82.366620000002015, 34.399435000002875 ], [ -82.337954000001844, 34.426568000003229 ], [ -82.312191000002073, 34.414289000003052 ], [ -82.286684000001785, 34.378894000002987 ], [ -82.246337000002256, 34.40967600000301 ], [ -82.241086000002127, 34.403258000002616 ], [ -82.212986000002246, 34.378528000003087 ], [ -82.173154000002, 34.350834000003289 ], [ -82.16932500000172, 34.331190000002756 ], [ -82.168731000001344, 34.330102000003386 ], [ -82.134027000001808, 34.323794000003311 ], [ -82.120008000002272, 34.303818000003105 ], [ -82.089719000001651, 34.301579000002754 ], [ -82.072992000001406, 34.288877000002991 ], [ -82.05101900000183, 34.269525000003398 ], [ -82.025562000002139, 34.258446000002706 ], [ -82.02032700000133, 34.251927000002972 ], [ -81.978375000001833, 34.238109000003242 ], [ -81.945019000001409, 34.203148000002876 ], [ -81.907646000001904, 34.167330000002714 ], [ -81.870084000001825, 34.135357000002791 ], [ -81.876356000001536, 34.167834000003246 ], [ -81.853377000001316, 34.180082000002876 ], [ -81.785992000002054, 34.167127000002935 ], [ -81.73794400000196, 34.185663000003423 ], [ -81.716236000001274, 34.17553500000308 ], [ -81.682493000002054, 34.165967000003235 ], [ -81.636963000002112, 34.146181000002855 ], [ -81.596516000001373, 34.117493000003428 ], [ -81.568511000002005, 34.099687000002987 ], [ -81.544355000002142, 34.087492000002655 ], [ -81.540507000001512, 34.083304000002883 ], [ -81.471972000001387, 34.076552000003133 ], [ -81.492397000001489, 34.034257000003421 ], [ -81.521630000001863, 33.97960700000317 ], [ -81.534863000001479, 33.953376000003125 ], [ -81.565705000001586, 33.892263000002963 ], [ -81.57148700000208, 33.877318000002873 ], [ -81.522124000001497, 33.825522000003446 ], [ -81.469600000001265, 33.79843600000315 ], [ -81.431748000002017, 33.769014000003317 ], [ -81.410840000002139, 33.731044000002768 ], [ -81.389853000002191, 33.727166000003294 ], [ -81.366406000001263, 33.728517000003357 ], [ -81.282836000001495, 33.694333000003482 ], [ -81.269666000001592, 33.693142000003256 ], [ -81.187271000001843, 33.652937000003313 ], [ -81.252490000002155, 33.595195000003216 ], [ -81.373494000001855, 33.490510000003496 ], [ -81.372931000001472, 33.490417000002701 ], [ -81.463042000002005, 33.422083000002786 ], [ -81.516319000001474, 33.382311000003398 ], [ -81.75703500000229, 33.198148000003279 ], [ -81.831540000001667, 33.233350000002638 ], [ -81.846536000001961, 33.241746000003509 ], [ -81.847736000001404, 33.307243000003233 ], [ -81.866225000001592, 33.313536000002664 ], [ -81.918337000001898, 33.332842000002813 ], [ -81.946440000001729, 33.370399000003324 ], [ -81.924690000002116, 33.459931000003408 ], [ -81.955341000001653, 33.475755000003076 ], [ -81.973641000002146, 33.482656000003523 ], [ -81.99093300000149, 33.494294000003052 ], [ -82.012470000001528, 33.532116000002823 ], [ -82.046335000001463, 33.5638300000032 ], [ -82.115329000002248, 33.596613000002996 ], [ -82.133523000001517, 33.590535000003001 ], [ -82.196584000001479, 33.630583000002616 ], [ -82.20016400000199, 33.662012000002917 ], [ -82.226429000001829, 33.692164000003181 ], [ -82.241699000001404, 33.736891000003297 ], [ -82.278279000002243, 33.772509000002749 ], [ -82.300213000001392, 33.800627000002585 ], [ -82.340177000002114, 33.829021000003429 ], [ -82.356326000001332, 33.837934000002996 ], [ -82.408353000002307, 33.8663200000031 ], [ -82.455105000001907, 33.881650000003326 ], [ -82.499037000002161, 33.918847000003325 ], [ -82.535727000001259, 33.943147000002668 ], [ -82.556765000001647, 33.945324000003154 ], [ -82.594631000001669, 34.013796000003069 ], [ -82.593887000001828, 34.028109000002829 ], [ -82.667690000002011, 34.116641000003369 ], [ -82.717459000002023, 34.150546000003288 ], [ -82.742075000002259, 34.211715000002798 ], [ -82.75424200000144, 34.275787000003128 ], [ -82.782128000002075, 34.298278000003435 ], [ -82.794796000002322, 34.34064100000316 ], [ -82.833571000001996, 34.364092000003403 ], [ -82.84655900000169, 34.410154000003175 ], [ -82.855486000001306, 34.441791000003199 ] ] ] } },
{ "type": "Feature", "properties": { "opt_all": 4, "population": 730132.0, "voting_age_pop": 563987.0, "dem_votes": 103587.0, "rep_votes": 169833.0, "minority_pop": 183665.0, "dem_pct": 0.37885670383334918, "rep_pct": 0.6211432958009131 }, "geometry": { "type": "Polygon", "coordinates": [ [ [ -82.461877000001635, 34.655463000002783 ], [ -82.46464500000171, 34.67237000000307 ], [ -82.4567010000018, 34.680259000002756 ], [ -82.462974000002305, 34.704039000002808 ], [ -82.455144000001837, 34.750683000003427 ], [ -82.458249000001771, 34.779078000003274 ], [ -82.458397000001611, 34.779177000002647 ], [ -82.469349000001827, 34.798126000002867 ], [ -82.487034000002282, 34.819004000003147 ], [ -82.487193000001383, 34.83198300000285 ], [ -82.487079000002126, 34.832139000003146 ], [ -82.4841120000019, 34.856190000003394 ], [ -82.489028000001838, 34.861408000002982 ], [ -82.496295000001908, 34.888992000002929 ], [ -82.515853000001385, 34.926008000003172 ], [ -82.525930000001608, 34.943315000003345 ], [ -82.525761000002205, 34.952346000002741 ], [ -82.534138000001406, 34.983761000002673 ], [ -82.556352000001453, 35.015034000003162 ], [ -82.593937000001532, 35.007887000003315 ], [ -82.592384000001502, 35.062805000003358 ], [ -82.571975000001757, 35.067449000002867 ], [ -82.659389000001312, 35.067003000003353 ], [ -82.729239000001826, 35.055048000002728 ], [ -82.764157000002072, 35.06838800000277 ], [ -82.723849000002147, 35.09448200000341 ], [ -82.611714000002195, 35.139997000003092 ], [ -82.498113000001709, 35.162558000003415 ], [ -82.459939000001512, 35.178005000003004 ], [ -82.440388000001462, 35.165592000003379 ], [ -82.419160000001256, 35.199414000002648 ], [ -82.38078400000208, 35.200734000002726 ], [ -82.323102000002081, 35.185173000002621 ], [ -82.278547000001879, 35.199444000002593 ], [ -82.215947000002174, 35.19622200000304 ], [ -82.106095000001687, 35.191299000002964 ], [ -82.127540000001687, 35.162562000002893 ], [ -82.08185900000224, 35.10780600000281 ], [ -82.070320000001644, 35.090305000003383 ], [ -82.045966000002039, 35.049641000003191 ], [ -82.018267000001984, 35.060924000003254 ], [ -82.009585000002119, 35.037884000003473 ], [ -82.026576000001398, 35.022136000003222 ], [ -82.016131000001593, 35.011289000002897 ], [ -81.996030000001355, 34.993877000002797 ], [ -81.970882000001652, 35.012698000002999 ], [ -81.950730000002068, 34.99417600000293 ], [ -81.946409000001267, 34.99544000000305 ], [ -81.92813400000189, 34.983717000002784 ], [ -81.928056000002215, 35.01160500000276 ], [ -81.950014000001602, 35.025875000002728 ], [ -81.945554000001266, 35.038852000003125 ], [ -81.896313000001953, 35.028571000003069 ], [ -81.910649000001911, 34.9989640000029 ], [ -81.889464000002263, 34.983346000003451 ], [ -81.890184000001696, 34.97466200000278 ], [ -81.873808000001219, 34.959562000003118 ], [ -81.901725000001321, 34.959323000003202 ], [ -81.911579000001382, 34.959911000003501 ], [ -81.906195000001475, 34.967516000002611 ], [ -81.91713900000201, 34.975432000002854 ], [ -81.936644000001323, 34.97086800000325 ], [ -81.9241570000016, 34.959129000002989 ], [ -81.934498000001398, 34.954164000003047 ], [ -81.929381000002266, 34.936324000003239 ], [ -81.935891000001973, 34.930951000002899 ], [ -81.943245000001312, 34.941161000002722 ], [ -81.958078000002104, 34.941610000002612 ], [ -81.961301000002052, 34.939454000003231 ], [ -81.980852000001505, 34.937376000002608 ], [ -81.995912000001539, 34.936111000002676 ], [ -82.003223000001981, 34.935500000003309 ], [ -82.042961000001696, 34.928906000002925 ], [ -82.042125000001874, 34.939426000003337 ], [ -82.075181000001464, 34.939254000002748 ], [ -82.107392000001809, 34.913886000003224 ], [ -82.067246000001816, 34.886582000003145 ], [ -82.066908000001931, 34.848741000002867 ], [ -82.078223000001501, 34.870923000003295 ], [ -82.137530000001263, 34.899455000003279 ], [ -82.143427000001566, 34.861568000002841 ], [ -82.185025000001644, 34.827212000003122 ], [ -82.187840000001771, 34.825684000003456 ], [ -82.165175000002279, 34.796537000002751 ], [ -82.145587000001441, 34.785208000003102 ], [ -82.108125000001436, 34.753067000002972 ], [ -82.066635000001781, 34.715248000002759 ], [ -82.066735000002211, 34.701033000002809 ], [ -82.012297000002192, 34.668587000003484 ], [ -81.943891000001997, 34.643467000003298 ], [ -81.910519000001585, 34.603478000003406 ], [ -81.890959000002013, 34.592493000002641 ], [ -81.851865000001865, 34.594775000003118 ], [ -81.788749000001928, 34.574171000003034 ], [ -81.714358000001255, 34.554045000002681 ], [ -81.65940300000203, 34.548279000003433 ], [ -81.643552000002003, 34.533652000003045 ], [ -81.674077000001674, 34.493119000003361 ], [ -81.702221000001927, 34.456012000002879 ], [ -81.73710300000198, 34.430544000003259 ], [ -81.785754000001717, 34.363272000003427 ], [ -81.83744300000167, 34.342377000003431 ], [ -81.867573000001428, 34.316390000003501 ], [ -81.869722000002142, 34.314110000003232 ], [ -81.895770000001576, 34.295849000003301 ], [ -81.903453000001775, 34.262864000003134 ], [ -81.945019000001409, 34.203148000002876 ], [ -81.978375000001833, 34.238109000003242 ], [ -82.02032700000133, 34.251927000002972 ], [ -82.025562000002139, 34.258446000002706 ], [ -82.05101900000183, 34.269525000003398 ], [ -82.072992000001406, 34.288877000002991 ], [ -82.089719000001651, 34.301579000002754 ], [ -82.120008000002272, 34.303818000003105 ], [ -82.134027000001808, 34.323794000003311 ], [ -82.168731000001344, 34.330102000003386 ], [ -82.16932500000172, 34.331190000002756 ], [ -82.173154000002, 34.350834000003289 ], [ -82.212986000002246, 34.378528000003087 ], [ -82.241086000002127, 34.403258000002616 ], [ -82.246337000002256, 34.40967600000301 ], [ -82.286684000001785, 34.378894000002987 ], [ -82.312191000002073, 34.414289000003052 ], [ -82.337954000001844, 34.426568000003229 ], [ -82.366620000002015, 34.399435000002875 ], [ -82.387485000002016, 34.436491000002704 ], [ -82.382684000001703, 34.439602000003433 ], [ -82.376845000002064, 34.443387000003142 ], [ -82.313871000001541, 34.484335000003334 ], [ -82.376300000001493, 34.527135000002723 ], [ -82.419381000001323, 34.556692000002649 ], [ -82.428386000001467, 34.597192000003446 ], [ -82.452149000001342, 34.630771000003016 ], [ -82.454324000001975, 34.643306000003385 ], [ -82.461877000001635, 34.655463000002783 ] ] ] } },
{ "type": "Feature", "properties": { "opt_all": 5, "population": 731777.0, "voting_age_pop": 562256.0, "dem_votes": 109265.0, "rep_votes": 177657.0, "minority_pop": 173643.0, "dem_pct": 0.38081778309756037, "rep_pct": 0.61918221655391281 }, "geometry": { "type": "Polygon", "coordinates": [ [ [ -82.012297000002192, 34.668587000003484 ], [ -82.066735000002211, 34.701033000002809 ], [ -82.066635000001781, 34.715248000002759 ], [ -82.108125000001436, 34.753067000002972 ], [ -82.145587000001441, 34.785208000003102 ], [ -82.165175000002279, 34.796537000002751 ], [ -82.187840000001771, 34.825684000003456 ], [ -82.185025000001644, 34.827212000003122 ], [ -82.143427000001566, 34.861568000002841 ], [ -82.137530000001263, 34.899455000003279 ], [ -82.078223000001501, 34.870923000003295 ], [ -82.066908000001931, 34.848741000002867 ], [ -82.067246000001816, 34.886582000003145 ], [ -82.107392000001809, 34.913886000003224 ], [ -82.075181000001464, 34.939254000002748 ], [ -82.042125000001874, 34.939426000003337 ], [ -82.042961000001696, 34.928906000002925 ], [ -82.003223000001981, 34.935500000003309 ], [ -81.995912000001539, 34.936111000002676 ], [ -81.980852000001505, 34.937376000002608 ], [ -81.961301000002052, 34.939454000003231 ], [ -81.958078000002104, 34.941610000002612 ], [ -81.943245000001312, 34.941161000002722 ], [ -81.935891000001973, 34.930951000002899 ], [ -81.929381000002266, 34.936324000003239 ], [ -81.934498000001398, 34.954164000003047 ], [ -81.9241570000016, 34.959129000002989 ], [ -81.936644000001323, 34.97086800000325 ], [ -81.91713900000201, 34.975432000002854 ], [ -81.906195000001475, 34.967516000002611 ], [ -81.911579000001382, 34.959911000003501 ], [ -81.901725000001321, 34.959323000003202 ], [ -81.873808000001219, 34.959562000003118 ], [ -81.890184000001696, 34.97466200000278 ], [ -81.889464000002263, 34.983346000003451 ], [ -81.910649000001911, 34.9989640000029 ], [ -81.896313000001953, 35.028571000003069 ], [ -81.945554000001266, 35.038852000003125 ], [ -81.950014000001602, 35.025875000002728 ], [ -81.928056000002215, 35.01160500000276 ], [ -81.92813400000189, 34.983717000002784 ], [ -81.946409000001267, 34.99544000000305 ], [ -81.950730000002068, 34.99417600000293 ], [ -81.970882000001652, 35.012698000002999 ], [ -81.996030000001355, 34.993877000002797 ], [ -82.016131000001593, 35.011289000002897 ], [ -82.026576000001398, 35.022136000003222 ], [ -82.009585000002119, 35.037884000003473 ], [ -82.018267000001984, 35.060924000003254 ], [ -82.045966000002039, 35.049641000003191 ], [ -82.070320000001644, 35.090305000003383 ], [ -82.08185900000224, 35.10780600000281 ], [ -82.127540000001687, 35.162562000002893 ], [ -82.106095000001687, 35.191299000002964 ], [ -82.0484140000016, 35.189687000003161 ], [ -81.918715000001797, 35.185341000002872 ], [ -81.874689000002292, 35.184036000003239 ], [ -81.774945000001779, 35.180790000003235 ], [ -81.724180000001681, 35.178996000003359 ], [ -81.675511000002231, 35.177079000002948 ], [ -81.609544000001918, 35.174374000003006 ], [ -81.442742000002085, 35.167928000002881 ], [ -81.366600000002137, 35.164883000003393 ], [ -81.265016000001637, 35.161090000003149 ], [ -81.130035000001556, 35.154855000003153 ], [ -81.093062000001851, 35.152536000002634 ], [ -81.058707000001263, 35.150646000002958 ], [ -81.052070000002175, 35.133413000003145 ], [ -81.04012500000124, 35.10173700000346 ], [ -81.056652000001506, 35.087104000003265 ], [ -81.058204000001567, 35.064393000002859 ], [ -81.041496000001644, 35.044713000003476 ], [ -80.978720000001857, 35.080880000003241 ], [ -80.931067000001519, 35.103892000003114 ], [ -80.906892000002188, 35.07681900000312 ], [ -80.906385000001379, 35.076277000003259 ], [ -80.854477000001509, 35.018524000003062 ], [ -80.851245000001612, 35.014690000003114 ], [ -80.813608000001906, 34.970755000002768 ], [ -80.7882700000022, 34.942720000003234 ], [ -80.781921000001944, 34.935848000003354 ], [ -80.791180000001773, 34.867638000003197 ], [ -80.797484000001418, 34.819803000003333 ], [ -80.726947000001473, 34.819206000003405 ], [ -80.626290000002115, 34.818221000002858 ], [ -80.561710000001213, 34.817429000003465 ], [ -80.544479000001317, 34.783956000002682 ], [ -80.508607000001319, 34.75025000000312 ], [ -80.489760000002065, 34.720216000002985 ], [ -80.473065000001682, 34.692357000002737 ], [ -80.431671000001941, 34.659902000003399 ], [ -80.435036000001617, 34.642075000003267 ], [ -80.408373000001873, 34.614765000002933 ], [ -80.550552000002199, 34.560116000003084 ], [ -80.546606000001177, 34.551358000002779 ], [ -80.524226000002145, 34.512328000003308 ], [ -80.548559000002172, 34.493570000003203 ], [ -80.595766000001788, 34.502134000002961 ], [ -80.646825000001442, 34.482470000002621 ], [ -80.673778000001818, 34.492176000003525 ], [ -80.698162000002029, 34.515967000003421 ], [ -80.713329000002048, 34.487334000003472 ], [ -80.742408000001788, 34.496799000002824 ], [ -80.743345000001142, 34.53991600000284 ], [ -80.879227000001592, 34.45777600000298 ], [ -80.894400000001284, 34.494346000003098 ], [ -80.932279000001998, 34.503084000002964 ], [ -80.951253000002197, 34.407237000002631 ], [ -80.994319000001596, 34.405079000003411 ], [ -80.996676000001514, 34.362347000003531 ], [ -81.02157000000166, 34.366350000003379 ], [ -81.009315000001919, 34.392250000003209 ], [ -81.061156000001986, 34.388336000002766 ], [ -81.081998000001178, 34.369376000002759 ], [ -81.082647000001359, 34.369773000003022 ], [ -81.101664000002032, 34.403526000002849 ], [ -81.101804000001607, 34.382164000003158 ], [ -81.10040500000197, 34.366856000003025 ], [ -81.084462000002134, 34.336257000002647 ], [ -81.115787000001347, 34.308662000003068 ], [ -81.147646000001615, 34.31474100000343 ], [ -81.178429000001486, 34.302878000003339 ], [ -81.176588000001914, 34.342560000003211 ], [ -81.229130000001831, 34.330189000002747 ], [ -81.248760000002136, 34.31132900000312 ], [ -81.243258000001703, 34.272881000002734 ], [ -81.225578000002145, 34.238222000003425 ], [ -81.18972300000172, 34.234177000002944 ], [ -81.181196000001378, 34.220285000002654 ], [ -81.168431000001931, 34.197653000002731 ], [ -81.178293000001304, 34.174552000003402 ], [ -81.223247000002132, 34.204114000002932 ], [ -81.251273000001859, 34.202946000002683 ], [ -81.278240000001915, 34.229632000002738 ], [ -81.316911000001184, 34.239458000003317 ], [ -81.341364000002088, 34.210286000002895 ], [ -81.33896100000166, 34.197587000002649 ], [ -81.374766000001998, 34.179009000003262 ], [ -81.402981000002015, 34.177891000003399 ], [ -81.410226000002126, 34.168672000002793 ], [ -81.435193000001689, 34.128358000003054 ], [ -81.403254000001638, 34.097900000003413 ], [ -81.394083000002269, 34.071545000002835 ], [ -81.467665000002029, 34.086036000002871 ], [ -81.471972000001387, 34.076552000003133 ], [ -81.540507000001512, 34.083304000002883 ], [ -81.544355000002142, 34.087492000002655 ], [ -81.568511000002005, 34.099687000002987 ], [ -81.596516000001373, 34.117493000003428 ], [ -81.636963000002112, 34.146181000002855 ], [ -81.682493000002054, 34.165967000003235 ], [ -81.716236000001274, 34.17553500000308 ], [ -81.73794400000196, 34.185663000003423 ], [ -81.785992000002054, 34.167127000002935 ], [ -81.853377000001316, 34.180082000002876 ], [ -81.876356000001536, 34.167834000003246 ], [ -81.870084000001825, 34.135357000002791 ], [ -81.907646000001904, 34.167330000002714 ], [ -81.945019000001409, 34.203148000002876 ], [ -81.903453000001775, 34.262864000003134 ], [ -81.895770000001576, 34.295849000003301 ], [ -81.869722000002142, 34.314110000003232 ], [ -81.867573000001428, 34.316390000003501 ], [ -81.83744300000167, 34.342377000003431 ], [ -81.785754000001717, 34.363272000003427 ], [ -81.73710300000198, 34.430544000003259 ], [ -81.702221000001927, 34.456012000002879 ], [ -81.674077000001674, 34.493119000003361 ], [ -81.643552000002003, 34.533652000003045 ], [ -81.65940300000203, 34.548279000003433 ], [ -81.714358000001255, 34.554045000002681 ], [ -81.788749000001928, 34.574171000003034 ], [ -81.851865000001865, 34.594775000003118 ], [ -81.890959000002013, 34.592493000002641 ], [ -81.910519000001585, 34.603478000003406 ], [ -81.943891000001997, 34.643467000003298 ], [ -82.012297000002192, 34.668587000003484 ] ] ] } },
{ "type": "Feature", "properties": { "opt_all": 6, "population": 730026.0, "voting_age_pop": 572228.0, "dem_votes": 131088.0, "rep_votes": 159813.0, "minority_pop": 213256.0, "dem_pct": 0.45062753292335622, "rep_pct": 0.5493724667328842 }, "geometry": { "type": "Polygon", "coordinates": [ [ [ -81.405711000001546, 32.688727000003496 ], [ -81.427505000001588, 32.70224200000299 ], [ -81.405054000001243, 32.744957000002692 ], [ -81.423331000001625, 32.778512000003396 ], [ -81.426475000002071, 32.840773000003068 ], [ -81.457061000002142, 32.850389000002878 ], [ -81.465051000002163, 32.880896000002757 ], [ -81.491911000001963, 32.927774000003069 ], [ -81.502716000002152, 32.93868800000282 ], [ -81.491200000001598, 32.997678000003205 ], [ -81.510586000001808, 33.025805000002649 ], [ -81.565501000001248, 33.047888000002985 ], [ -81.614033000002209, 33.095251000002847 ], [ -81.645433000001589, 33.094051000003148 ], [ -81.704634000001803, 33.116450000002949 ], [ -81.743835000001582, 33.141450000003502 ], [ -81.768235000002193, 33.16794900000351 ], [ -81.75703500000229, 33.198148000003279 ], [ -81.516319000001474, 33.382311000003398 ], [ -81.463042000002005, 33.422083000002786 ], [ -81.372931000001472, 33.490417000002701 ], [ -81.373494000001855, 33.490510000003496 ], [ -81.252490000002155, 33.595195000003216 ], [ -81.187271000001843, 33.652937000003313 ], [ -81.269666000001592, 33.693142000003256 ], [ -81.282836000001495, 33.694333000003482 ], [ -81.366406000001263, 33.728517000003357 ], [ -81.389853000002191, 33.727166000003294 ], [ -81.410840000002139, 33.731044000002768 ], [ -81.431748000002017, 33.769014000003317 ], [ -81.469600000001265, 33.79843600000315 ], [ -81.522124000001497, 33.825522000003446 ], [ -81.57148700000208, 33.877318000002873 ], [ -81.565705000001586, 33.892263000002963 ], [ -81.534863000001479, 33.953376000003125 ], [ -81.533618000002235, 33.951416000003071 ], [ -81.527497000001958, 33.91105900000337 ], [ -81.506911000001921, 33.905278000002816 ], [ -81.467310000002229, 33.864152000002953 ], [ -81.418972000001688, 33.880685000002771 ], [ -81.408013000001532, 33.894855000003467 ], [ -81.410440000001444, 33.899938000002628 ], [ -81.420034000002246, 33.952482000002966 ], [ -81.376339000001863, 33.973989000002689 ], [ -81.342770000001892, 33.977081000003132 ], [ -81.331692000001567, 33.978394000002879 ], [ -81.303562000001335, 33.979744000002839 ], [ -81.290099000002172, 33.986059000003003 ], [ -81.28780200000206, 33.992100000002758 ], [ -81.291766000001857, 34.003047000002709 ], [ -81.284391000001634, 34.00420900000293 ], [ -81.25950200000122, 34.009825000003083 ], [ -81.236798000002096, 34.027164000003019 ], [ -81.231841000001538, 34.051925000003415 ], [ -81.218721000001906, 34.053009000002767 ], [ -81.22112400000124, 34.065162000003532 ], [ -81.203963000001977, 34.077891000003248 ], [ -81.18646700000167, 34.054161000002779 ], [ -81.186286000002085, 34.053643000003085 ], [ -81.182224000001327, 34.047213000002678 ], [ -81.166844000001561, 34.045068000003468 ], [ -81.146917000001665, 34.032250000003216 ], [ -81.146278000001246, 34.045681000003199 ], [ -81.125257000002108, 34.055740000003361 ], [ -81.121490000002069, 34.051593000003479 ], [ -81.11630700000147, 34.04521100000305 ], [ -81.110560000001399, 34.036900000003421 ], [ -81.103823000001384, 34.023316000002886 ], [ -81.103689000001623, 34.023349000002725 ], [ -81.089612000001708, 34.013412000003022 ], [ -81.059715000001859, 34.005253000002675 ], [ -81.052586000001625, 33.998003000002861 ], [ -81.050859000001353, 33.995775000003043 ], [ -81.047704000002014, 33.990505000002848 ], [ -81.04593200000167, 33.977339000002686 ], [ -81.045862000001478, 33.976877000002744 ], [ -81.017014000001396, 33.93085500000273 ], [ -81.029214000002227, 33.916454000003043 ], [ -81.014267000001226, 33.908148000003408 ], [ -81.012330000001285, 33.880080000002714 ], [ -80.985706000001969, 33.848730000002689 ], [ -80.965945000001881, 33.847848000003516 ], [ -80.898535000001758, 33.808767000003243 ], [ -80.86765900000195, 33.81005600000266 ], [ -80.834817000002033, 33.78738800000275 ], [ -80.793354000001386, 33.769525000003362 ], [ -80.747337000001579, 33.761742000003196 ], [ -80.686592000002065, 33.755993000002974 ], [ -80.65905100000181, 33.772986000003243 ], [ -80.645083000002202, 33.752965000003265 ], [ -80.62010700000161, 33.743237000003255 ], [ -80.627554000001567, 33.730996000003032 ], [ -80.596593000002073, 33.695137000003434 ], [ -80.565209000002127, 33.679712000002688 ], [ -80.534085000002179, 33.643911000002952 ], [ -80.520390000001683, 33.598178000003351 ], [ -80.496273000001651, 33.558481000003326 ], [ -80.447463000001591, 33.540472000002936 ], [ -80.457265000001627, 33.501875000003466 ], [ -80.433515000001634, 33.475037000003439 ], [ -80.36442800000134, 33.432898000003043 ], [ -80.322568000002107, 33.431371000003303 ], [ -80.254230000001499, 33.449195000002852 ], [ -80.222267000001665, 33.443716000003285 ], [ -80.222568000001672, 33.391288000003314 ], [ -80.241557000001649, 33.383084000002889 ], [ -80.239878000001852, 33.351377000003076 ], [ -80.255642000001416, 33.300002000003317 ], [ -80.278546000001299, 33.282593000003359 ], [ -80.289268000001243, 33.279113000002681 ], [ -80.317203000001584, 33.26411800000276 ], [ -80.344645000001222, 33.277848000003523 ], [ -80.361851000001806, 33.257443000002688 ], [ -80.334884000001409, 33.222982000003199 ], [ -80.330818000001784, 33.198424000002888 ], [ -80.297577000001567, 33.181838000003019 ], [ -80.334717000001532, 33.146095000002937 ], [ -80.302070000001805, 33.123134000003354 ], [ -80.290077000002043, 33.115226000002977 ], [ -80.251354000001555, 33.089698000002947 ], [ -80.235710000001234, 33.079388000002815 ], [ -80.183200000002117, 33.044765000003366 ], [ -80.17781800000202, 33.041216000003487 ], [ -80.164252000001298, 33.032294000002878 ], [ -80.149246000001227, 33.021601000003301 ], [ -80.163501000001148, 33.014181000003411 ], [ -80.176286000001838, 33.010042000003359 ], [ -80.17255200000136, 33.006742000002703 ], [ -80.155422000002147, 32.992493000003229 ], [ -80.146936000001773, 32.985372000002904 ], [ -80.159425000001306, 32.98811800000346 ], [ -80.165807000001578, 32.982209000002726 ], [ -80.166454000001877, 32.971981000003282 ], [ -80.170003000001373, 32.97169100000351 ], [ -80.169281000002186, 32.970236000002977 ], [ -80.17856300000156, 32.967114000003399 ], [ -80.179978000002123, 32.968782000002889 ], [ -80.180194000002089, 32.969055000003301 ], [ -80.183570000001922, 32.973261000002772 ], [ -80.192388000001273, 32.975965000003143 ], [ -80.198202000001686, 32.973694000003398 ], [ -80.201151000001559, 32.967826000003448 ], [ -80.201011000002083, 32.958388000003453 ], [ -80.205441000001869, 32.948216000003356 ], [ -80.256730000001156, 32.902247000003172 ], [ -80.292076000001856, 32.848860000003533 ], [ -80.401340000001724, 32.858466000003077 ], [ -80.407479000001786, 32.811106000002901 ], [ -80.435692000001197, 32.787407000002965 ], [ -80.447405000001851, 32.762319000003515 ], [ -80.453630000001439, 32.739900000002827 ], [ -80.422952000001402, 32.714757000002678 ], [ -80.418653000002138, 32.677647000003532 ], [ -80.389401000001826, 32.65282000000316 ], [ -80.418172000002045, 32.60447400000335 ], [ -80.388737000001882, 32.574470000003075 ], [ -80.416586000002169, 32.546318000002977 ], [ -80.379032000002155, 32.530932000002998 ], [ -80.352823000001294, 32.500187000003024 ], [ -80.336327000002171, 32.493565000002754 ], [ -80.284708000001274, 32.53039200000299 ], [ -80.249820000002146, 32.530043000002955 ], [ -80.223590000001209, 32.482565000003198 ], [ -80.243074000001386, 32.472449000002747 ], [ -80.263645000001617, 32.429579000002953 ], [ -80.294078000001605, 32.418521000003558 ], [ -80.305711000001395, 32.39758900000308 ], [ -80.336717000001158, 32.380753000002969 ], [ -80.374825000001934, 32.342453000002983 ], [ -80.372830000001287, 32.313408000002944 ], [ -80.392327000001259, 32.280317000003443 ], [ -80.431544000001438, 32.261384000002678 ], [ -80.459332000001766, 32.262221000003393 ], [ -80.523824000001184, 32.234592000003225 ], [ -80.548933000001512, 32.192053000003135 ], [ -80.587387000002067, 32.162287000003353 ], [ -80.616311000001957, 32.153675000003155 ], [ -80.672648000001672, 32.131962000002709 ], [ -80.688717000001446, 32.118749000003433 ], [ -80.745536000001863, 32.078667000002824 ], [ -80.742958000002147, 32.049535000003253 ], [ -80.787093000001832, 31.998888000002921 ], [ -80.815577000001994, 32.029918000002681 ], [ -80.850238000001198, 32.041420000002752 ], [ -80.890277000001703, 32.035555000002731 ], [ -80.925085000001772, 32.041939000003374 ], [ -80.954031000002203, 32.070290000003048 ], [ -80.98350900000186, 32.079549000003233 ], [ -81.004305000002134, 32.102367000003454 ], [ -81.038125000001799, 32.083734000003091 ], [ -81.117225000001596, 32.117604000003233 ], [ -81.128142000001247, 32.169097000002914 ], [ -81.123149000001874, 32.201320000002951 ], [ -81.151474000001556, 32.235705000003442 ], [ -81.141414000001433, 32.272039000002984 ], [ -81.123276000002235, 32.276975000003226 ], [ -81.132057000001382, 32.341206000003154 ], [ -81.167124000002161, 32.358718000003385 ], [ -81.178283000001741, 32.392986000002956 ], [ -81.205572000001794, 32.423893000002721 ], [ -81.200408000002128, 32.46831400000319 ], [ -81.262831000001981, 32.524791000003361 ], [ -81.281270000001498, 32.55647100000332 ], [ -81.315881000001994, 32.56019800000329 ], [ -81.355926000001773, 32.571606000003271 ], [ -81.389205000001823, 32.595416000002999 ], [ -81.418660000001282, 32.62939200000325 ], [ -81.393033000001907, 32.651542000003502 ], [ -81.405711000001546, 32.688727000003496 ] ] ] } },
{ "type": "Feature", "properties": { "opt_all": 7, "population": 731078.0, "voting_age_pop": 589144.0, "dem_votes": 123022.0, "rep_votes": 168765.0, "minority_pop": 203326.0, "dem_pct": 0.42161576752164565, "rep_pct": 0.57838423213563861 }, "geometry": { "type": "Polygon", "coordinates": [ [ [ -80.101697000001622, 33.496891000002812 ], [ -80.093570000001861, 33.511816000002959 ], [ -80.088885000001312, 33.520497000003246 ], [ -80.019349000001739, 33.648936000003182 ], [ -79.993233000001169, 33.704458000002802 ], [ -79.974382000001313, 33.721590000003452 ], [ -79.995638000001705, 33.767906000002775 ], [ -79.968322000001578, 33.790058000002801 ], [ -79.965195000001927, 33.792695000003178 ], [ -79.952330000001936, 33.803537000003189 ], [ -79.94450500000201, 33.810214000003256 ], [ -79.915305000001183, 33.818648000003058 ], [ -79.876030000001563, 33.884496000003523 ], [ -79.875620000001348, 33.885245000003479 ], [ -79.945584000002057, 33.88571700000346 ], [ -79.952317000001926, 33.894250000003275 ], [ -79.962331000001797, 33.917621000003543 ], [ -79.974601000001229, 33.946527000002888 ], [ -80.056328000001372, 33.906848000003073 ], [ -80.057824000001872, 33.932633000003555 ], [ -80.102497000001733, 33.94743600000313 ], [ -80.120475000001463, 33.980429000003305 ], [ -80.070364000001149, 34.007920000003125 ], [ -80.02676000000173, 34.008543000002895 ], [ -80.000594000001954, 34.047877000003552 ], [ -80.045120000001688, 34.076749000002863 ], [ -80.069878000001964, 34.086191000003481 ], [ -80.13144100000126, 34.128666000002816 ], [ -80.158582000001616, 34.16162300000309 ], [ -80.13181400000208, 34.182380000003164 ], [ -80.112727000001897, 34.197018000002728 ], [ -80.111733000001138, 34.22861300000271 ], [ -80.11772100000131, 34.238319000003301 ], [ -80.134541000001121, 34.270307000003434 ], [ -80.135803000001459, 34.272437000003194 ], [ -80.175195000001182, 34.329286000003279 ], [ -80.191004000001342, 34.366655000003036 ], [ -80.206302000001472, 34.339055000002652 ], [ -80.24322600000184, 34.324455000003148 ], [ -80.288692000001319, 34.364139000003107 ], [ -80.288596000002102, 34.366207000003392 ], [ -80.15424400000181, 34.43605100000304 ], [ -80.097261000001424, 34.464831000002867 ], [ -80.076511000001403, 34.476339000002689 ], [ -79.981038000002187, 34.501511000003234 ], [ -79.956698000001467, 34.4866990000031 ], [ -79.940832000002089, 34.488020000003139 ], [ -79.88454200000163, 34.491218000003443 ], [ -79.843676000002148, 34.533085000003489 ], [ -79.829981000001794, 34.531925000002929 ], [ -79.803877000001123, 34.609053000003506 ], [ -79.777815000001709, 34.614293000003435 ], [ -79.800592000002069, 34.637668000003217 ], [ -79.855007000001606, 34.673351000003024 ], [ -79.86121500000182, 34.680286000003385 ], [ -79.875685000001241, 34.708235000002979 ], [ -79.909735000002158, 34.75460000000303 ], [ -79.925240000002134, 34.765296000003509 ], [ -79.927412000001254, 34.806734000003459 ], [ -79.763111000001516, 34.80560900000269 ], [ -79.724098000001888, 34.805336000003123 ], [ -79.669266000001357, 34.799184000002789 ], [ -79.554873000001436, 34.706395000003049 ], [ -79.479172000001242, 34.644704000002761 ], [ -79.450024000001889, 34.621053000002831 ], [ -79.365407000001994, 34.551650000003278 ], [ -79.316552000001195, 34.508991000003384 ], [ -79.275187000001281, 34.472282000003354 ], [ -79.201428000001215, 34.4088020000029 ], [ -79.071211000001512, 34.2993420000032 ], [ -78.953066000001797, 34.200103000002755 ], [ -78.882437000002085, 34.140694000003066 ], [ -78.827393000002104, 34.094250000003214 ], [ -78.794289000001427, 34.066234000002858 ], [ -78.711396000001528, 33.996145000003324 ], [ -78.650342000001288, 33.944365000003131 ], [ -78.616039000001081, 33.915229000003279 ], [ -78.574059000001711, 33.87953700000309 ], [ -78.55835300000183, 33.866054000003331 ], [ -78.49973000000152, 33.813275000002733 ], [ -78.621068000001742, 33.780605000003042 ], [ -78.634026000001327, 33.777176000002896 ], [ -78.639667000001978, 33.775209000002775 ], [ -78.664662000001371, 33.766221000002716 ], [ -78.683843000001872, 33.758576000003451 ], [ -78.687778000001998, 33.756858000003135 ], [ -78.707637000001156, 33.745748000002706 ], [ -78.713354000001559, 33.742584000003419 ], [ -78.760419000001079, 33.715689000003096 ], [ -78.779149000001112, 33.702087000003374 ], [ -78.810656000001572, 33.679188000003521 ], [ -78.814025000001777, 33.676544000003297 ], [ -78.826319000001263, 33.666266000003091 ], [ -78.834637000001081, 33.65847100000331 ], [ -78.845627000001585, 33.648479000003128 ], [ -78.873092000002003, 33.624931000002782 ], [ -78.886381000001464, 33.612910000003339 ], [ -78.9170490000011, 33.582359000002754 ], [ -78.925682000001942, 33.573083000003081 ], [ -78.926075000001418, 33.572658000003116 ], [ -78.996113000001088, 33.487612000003011 ], [ -79.030057000001293, 33.460765000003526 ], [ -79.036986000001477, 33.453440000002985 ], [ -79.084438000001612, 33.375397000003034 ], [ -79.093312000001674, 33.304952000002977 ], [ -79.120217000001787, 33.246932000003234 ], [ -79.081634000001372, 33.207329000002908 ], [ -79.077735000001425, 33.189746000002749 ], [ -79.091614000001584, 33.159056000003524 ], [ -79.140519000001333, 33.139620000003184 ], [ -79.180871000001986, 33.10752800000347 ], [ -79.21553800000143, 33.064248000002912 ], [ -79.261830000001581, 33.049793000003106 ], [ -79.293344000001781, 33.102874000002721 ], [ -79.268411000002089, 33.130308000003104 ], [ -79.27804000000161, 33.142559000002926 ], [ -79.350816000001828, 33.153528000003391 ], [ -79.446699000001516, 33.213458000003335 ], [ -79.459952000002104, 33.235091000002676 ], [ -79.493993000002064, 33.236030000002842 ], [ -79.546563000002109, 33.255990000003329 ], [ -79.5622500000011, 33.272523000003154 ], [ -79.677014000001648, 33.304944000002983 ], [ -79.709576000002002, 33.321246000003249 ], [ -79.741153000001361, 33.322308000002721 ], [ -79.794013000001812, 33.377679000003489 ], [ -79.854764000001964, 33.403904000002875 ], [ -79.867503000002131, 33.433651000003401 ], [ -79.960892000002033, 33.494446000002853 ], [ -80.069438000001483, 33.506442000003084 ], [ -80.101697000001622, 33.496891000002812 ] ] ] } }
]
}
