{
"type": "FeatureCollection",
"name": "south_dakota_enacted_districts",
"crs": { "type": "name", "properties": { "name": "urn:ogc:def:crs:OGC:1.3:CRS84" } },
"features": [
{ "type": "Feature", "properties": { "enacted_district": 1, "population": 886667.0, "voting_age_pop": 669255.0, "dem_votes": 127361.0, "rep_votes": 209639.0, "minority_pop": 113174.0, "dem_pct": 0.37792581591159469, "rep_pct": 0.62207418379166934 }, "geometry": { "type": "Polygon", "coordinates": [ [ [ -96.483504000001673, 42.510280000002275 ], [ -96.625961000002761, 42.513578000002134 ], [ -96.710998000002135, 42.608129000002499 ], [ -96.687667000002236, 42.653127000002371 ], [ -96.979120000001942, 42.760090000002187 ], [ -97.130257000002601, 42.771541000002131 ], [ -97.218046000002033, 42.845113000001852 ], [ -97.417066000001682, 42.865918000002452 ], [ -97.686477000001844, 42.84221200000205 ], [ -97.831393000002379, 42.868960000002261 ], [ -97.94718900000214, 42.770709000001979 ], [ -98.013072000002083, 42.762219000002482 ], [ -98.258276000002098, 42.874390000002052 ], [ -98.467356000002383, 42.947556000002294 ], [ -98.498550000002126, 42.998559000002381 ], [ -99.877274000001975, 42.997816000002445 ], [ -100.887520000002596, 42.998015000002283 ], [ -101.633007000001555, 42.996255000001511 ], [ -102.625701000002536, 42.999773000002108 ], [ -104.0530280000022, 43.000585000001372 ], [ -104.054879000002501, 43.582999000001941 ], [ -104.05448700000224, 44.180381000001901 ], [ -104.057879000001975, 44.997605000002025 ], [ -104.039694000001447, 44.998070000001491 ], [ -104.045547000002003, 45.945308000001774 ], [ -103.369029000001603, 45.945152000001549 ], [ -102.44596100000156, 45.944916000001633 ], [ -101.041137000001982, 45.943455000001798 ], [ -99.760635000002225, 45.940811000001816 ], [ -98.414318000001884, 45.936493000002237 ], [ -97.449798000002403, 45.935171000002192 ], [ -96.5636720000022, 45.935245000001728 ], [ -96.583085000001475, 45.820024000002398 ], [ -96.672665000002098, 45.732336000002277 ], [ -96.838648000001584, 45.647509000002238 ], [ -96.856834000001882, 45.605378000002425 ], [ -96.680454000001916, 45.41049900000197 ], [ -96.489065000002043, 45.35707100000235 ], [ -96.453097000001478, 45.300751000002016 ], [ -96.452275000001904, 44.302118000001869 ], [ -96.4532600000027, 43.50039000000195 ], [ -96.599191000001966, 43.500456000002032 ], [ -96.521720000001906, 43.386755000001948 ], [ -96.524522000002136, 43.312067000001932 ], [ -96.436567000001915, 43.119818000001757 ], [ -96.51368100000154, 43.047030000002223 ], [ -96.498909000001561, 42.95833000000259 ], [ -96.544831000001722, 42.850193000002577 ], [ -96.635561000002483, 42.740847000001835 ], [ -96.515140000001779, 42.628228000002188 ], [ -96.483504000001673, 42.510280000002275 ] ] ] } }
]
}
