{
"type": "FeatureCollection",
"name": "tennessee_enacted_districts",
"crs": { "type": "name", "properties": { "name": "urn:ogc:def:crs:OGC:1.3:CRS84" } },
"features": [
{ "type": "Feature", "properties": { "enacted_district": 1, "population": 770492.0, "voting_age_pop": 618617.0, "dem_votes": 65554.0, "rep_votes": 240904.0, "minority_pop": 64412.0, "dem_pct": 0.21390859425633901, "rep_pct": 0.78609140541735201 }, "geometry": { "type": "Polygon", "coordinates": [ [ [ -83.350985000002126, 35.660449000003354 ], [ -83.368295000002135, 35.637769000003289 ], [ -83.422038000001336, 35.61104900000263 ], [ -83.445676000001797, 35.611747000003312 ], [ -83.485834000001773, 35.568190000003092 ], [ -83.584374000001759, 35.562698000002705 ], [ -83.601774000002223, 35.578919000002919 ], [ -83.662999000001648, 35.56946800000329 ], [ -83.662814000001347, 35.69061800000334 ], [ -83.70198500000231, 35.716017000003355 ], [ -83.716671000001526, 35.730682000002972 ], [ -83.734186000002026, 35.77265700000266 ], [ -83.764022000002072, 35.830257000003144 ], [ -83.778602000002039, 35.853778000003366 ], [ -83.784379000001891, 35.876163000003388 ], [ -83.794275000001562, 35.88712500000269 ], [ -83.74387600000145, 35.920582000003023 ], [ -83.694578000002309, 35.94388700000308 ], [ -83.667341000001628, 35.961643000002709 ], [ -83.650947000001665, 35.98648100000262 ], [ -83.669979000001433, 36.018314000002761 ], [ -83.673297000001682, 36.038486000002678 ], [ -83.69459900000237, 36.058249000002547 ], [ -83.709924000001422, 36.087032000003383 ], [ -83.667460000002393, 36.080587000002758 ], [ -83.667179000001624, 36.126660000003433 ], [ -83.638319000001644, 36.097996000002595 ], [ -83.617618000001457, 36.143000000003205 ], [ -83.597766000001997, 36.164182000003073 ], [ -83.56439900000133, 36.166486000002855 ], [ -83.543143000002104, 36.181813000002606 ], [ -83.519936000002332, 36.177349000002557 ], [ -83.490697000001589, 36.166588000002776 ], [ -83.467097000001772, 36.174688000002902 ], [ -83.45101600000217, 36.206070000002725 ], [ -83.437561000002106, 36.211483000002936 ], [ -83.389831000002076, 36.262743000002544 ], [ -83.381502000001703, 36.265431000002593 ], [ -83.355196000002209, 36.282590000002784 ], [ -83.319988000002212, 36.283685000002762 ], [ -83.284111000001985, 36.261996000002767 ], [ -83.255292000001802, 36.289092000002526 ], [ -83.273690000001409, 36.319086000003338 ], [ -83.271217000002125, 36.363001000003003 ], [ -83.280595000001497, 36.394689000003311 ], [ -83.304197000002119, 36.388189000002612 ], [ -83.352099000001516, 36.419787000003282 ], [ -83.386800000001898, 36.413186000003087 ], [ -83.373094000001402, 36.430860000003037 ], [ -83.36983100000171, 36.450758000003333 ], [ -83.38841800000138, 36.513859000002611 ], [ -83.388473000001909, 36.51397700000301 ], [ -83.398403000002062, 36.535002000002585 ], [ -83.410409000001309, 36.548926000003199 ], [ -83.432626000001548, 36.573098000002723 ], [ -83.472108000001839, 36.597284000002531 ], [ -83.276300000001967, 36.598187000003414 ], [ -83.225444000001929, 36.593918000003349 ], [ -83.101524000002001, 36.594039000002759 ], [ -82.830433000001378, 36.593761000003312 ], [ -82.779600000002191, 36.593743000002782 ], [ -82.609176000001426, 36.594099000003041 ], [ -82.549173000001716, 36.594948000002837 ], [ -82.5172710000015, 36.595391000002877 ], [ -82.416443000002161, 36.595015000002689 ], [ -82.272647000001868, 36.59564800000301 ], [ -82.189740000002303, 36.595173000003037 ], [ -82.151211000002306, 36.594690000002622 ], [ -82.102171000001576, 36.594762000002575 ], [ -81.93414400000141, 36.594213000002853 ], [ -81.922644000001284, 36.616213000002737 ], [ -81.826742000001374, 36.614215000002886 ], [ -81.770529000001659, 36.612922000003401 ], [ -81.646900000001935, 36.611918000002809 ], [ -81.680011000001841, 36.585818000003357 ], [ -81.708097000002041, 36.524148000003258 ], [ -81.694608000001679, 36.473372000002705 ], [ -81.715062000001794, 36.453358000003149 ], [ -81.720876000001695, 36.422470000002896 ], [ -81.74159600000128, 36.412587000003072 ], [ -81.717754000001676, 36.348040000002968 ], [ -81.744275000001267, 36.3378540000027 ], [ -81.790137000001465, 36.348848000003372 ], [ -81.793085000002236, 36.362408000003228 ], [ -81.862982000001622, 36.330212000003058 ], [ -81.908167000001868, 36.301966000003461 ], [ -81.933065000001974, 36.264873000003313 ], [ -81.975957000001998, 36.204591000003354 ], [ -82.033839000002132, 36.120475000003417 ], [ -82.054012000001407, 36.126674000002772 ], [ -82.080028000001931, 36.106433000002902 ], [ -82.12879400000223, 36.104014000002614 ], [ -82.148520000001312, 36.149700000003428 ], [ -82.17721700000186, 36.142373000002834 ], [ -82.222064000001623, 36.156960000002606 ], [ -82.245388000001284, 36.131199000003086 ], [ -82.288572000002119, 36.135727000003399 ], [ -82.325770000001953, 36.119005000002929 ], [ -82.374014000002276, 36.106194000003313 ], [ -82.416738000001317, 36.072827000003365 ], [ -82.460583000001776, 36.007724000002682 ], [ -82.491030000001572, 35.989048000002981 ], [ -82.549975000002291, 35.963840000002918 ], [ -82.610703000001678, 35.967203000003003 ], [ -82.615177000001268, 36.00082600000276 ], [ -82.602980000001764, 36.039677000002719 ], [ -82.647154000002132, 36.05988300000314 ], [ -82.684073000001703, 36.045795000003437 ], [ -82.785041000001399, 35.987096000003149 ], [ -82.787350000001638, 35.952496000003279 ], [ -82.821948000001413, 35.921830000002657 ], [ -82.852030000001875, 35.94932900000304 ], [ -82.898317000001299, 35.944967000002826 ], [ -82.912289000001877, 35.917877000002768 ], [ -82.896776000001879, 35.878257000003288 ], [ -82.920831000002323, 35.868178000002843 ], [ -82.962818000001704, 35.795651000002572 ], [ -82.99585100000202, 35.773085000003249 ], [ -83.025065000002201, 35.783628000002771 ], [ -83.078745000002343, 35.789587000003031 ], [ -83.099429000001962, 35.775097000003321 ], [ -83.165059000001733, 35.759504000002828 ], [ -83.18513700000149, 35.730753000002935 ], [ -83.240827000002142, 35.726856000002954 ], [ -83.255343000001631, 35.715084000002769 ], [ -83.254439000001895, 35.695308000002903 ], [ -83.312379000001641, 35.65470600000301 ], [ -83.350985000002126, 35.660449000003354 ] ] ] } },
{ "type": "Feature", "properties": { "enacted_district": 2, "population": 765335.0, "voting_age_pop": 607523.0, "dem_votes": 106683.0, "rep_votes": 213629.0, "minority_pop": 95512.0, "dem_pct": 0.33305964174521729, "rep_pct": 0.6669403579425871 }, "geometry": { "type": "Polygon", "coordinates": [ [ [ -84.253071000001739, 35.617852000002792 ], [ -84.247600000001484, 35.633782000003173 ], [ -84.29088700000186, 35.643017000002814 ], [ -84.326906000001941, 35.664959000002931 ], [ -84.398074000001841, 35.640208000003391 ], [ -84.406472000002211, 35.665622000003076 ], [ -84.467744000001943, 35.658492000002823 ], [ -84.51369700000231, 35.644034000002883 ], [ -84.525850000001583, 35.624186000002609 ], [ -84.547603000001573, 35.641327000002953 ], [ -84.584472000001568, 35.644424000003056 ], [ -84.539963000001663, 35.670465000003382 ], [ -84.521936000001915, 35.676597000003248 ], [ -84.512361000001434, 35.715149000002938 ], [ -84.467930000001843, 35.741489000002908 ], [ -84.44733000000214, 35.759083000002931 ], [ -84.416415000001663, 35.776451000002744 ], [ -84.388333000001793, 35.768683000002731 ], [ -84.374342000001647, 35.822954000003271 ], [ -84.342791000001483, 35.831890000002659 ], [ -84.330159000001842, 35.89211500000328 ], [ -84.278817000002348, 35.881035000002612 ], [ -84.263383000001724, 35.896940000002616 ], [ -84.271587000002015, 35.910165000002806 ], [ -84.21378200000197, 35.950119000002658 ], [ -84.220575000001588, 35.961614000003188 ], [ -84.195511000001616, 35.991602000003255 ], [ -84.157886000001952, 35.991276000002699 ], [ -84.133731000002058, 35.994067000002552 ], [ -84.070116000002216, 36.028881000002933 ], [ -84.071836000001724, 36.04876400000331 ], [ -84.094011000001444, 36.068911000002686 ], [ -84.029717000001483, 36.116475000003071 ], [ -84.007283000001664, 36.135887000003144 ], [ -83.9417110000023, 36.186378000003067 ], [ -83.946499000001992, 36.191341000002645 ], [ -83.969650000002048, 36.211183000002897 ], [ -84.004317000001862, 36.270378000002772 ], [ -84.025774000001533, 36.294179000002771 ], [ -84.072698000001964, 36.251989000003299 ], [ -84.077885000002283, 36.271032000003309 ], [ -84.118513000001712, 36.297145000002658 ], [ -84.106718000001919, 36.319814000003269 ], [ -84.126291000001515, 36.336586000003024 ], [ -84.12641700000178, 36.35281100000261 ], [ -84.11335000000183, 36.359645000002814 ], [ -84.111713000001515, 36.361321000002945 ], [ -84.124733000002323, 36.37074400000256 ], [ -84.126645000001872, 36.389470000002802 ], [ -84.127214000001658, 36.391598000002958 ], [ -84.131341000001484, 36.393673000002849 ], [ -84.16963400000148, 36.368494000002883 ], [ -84.194977000001799, 36.373576000003197 ], [ -84.223756000002055, 36.360508000002802 ], [ -84.253969000001675, 36.391429000002795 ], [ -84.299903000001535, 36.414317000002548 ], [ -84.322211000001346, 36.392865000003354 ], [ -84.344701000001962, 36.415677000002766 ], [ -84.349939000002053, 36.466292000003122 ], [ -84.337143000001817, 36.496497000003075 ], [ -84.332578000001888, 36.502161000002587 ], [ -84.266877000001983, 36.511698000002973 ], [ -84.252532000001864, 36.530180000003085 ], [ -84.249231000002254, 36.564684000002622 ], [ -84.261337000002129, 36.591784000002669 ], [ -84.191244000002399, 36.591801000003152 ], [ -84.020983000001493, 36.590088000003149 ], [ -83.987615000002094, 36.589471000002966 ], [ -83.690789000002212, 36.582596000003335 ], [ -83.649722000002171, 36.60011900000309 ], [ -83.595217000001568, 36.597757000002623 ], [ -83.472108000001839, 36.597284000002531 ], [ -83.432626000001548, 36.573098000002723 ], [ -83.410409000001309, 36.548926000003199 ], [ -83.398403000002062, 36.535002000002585 ], [ -83.388473000001909, 36.51397700000301 ], [ -83.38841800000138, 36.513859000002611 ], [ -83.36983100000171, 36.450758000003333 ], [ -83.373094000001402, 36.430860000003037 ], [ -83.386800000001898, 36.413186000003087 ], [ -83.352099000001516, 36.419787000003282 ], [ -83.304197000002119, 36.388189000002612 ], [ -83.280595000001497, 36.394689000003311 ], [ -83.271217000002125, 36.363001000003003 ], [ -83.273690000001409, 36.319086000003338 ], [ -83.255292000001802, 36.289092000002526 ], [ -83.284111000001985, 36.261996000002767 ], [ -83.319988000002212, 36.283685000002762 ], [ -83.355196000002209, 36.282590000002784 ], [ -83.381502000001703, 36.265431000002593 ], [ -83.389831000002076, 36.262743000002544 ], [ -83.437561000002106, 36.211483000002936 ], [ -83.45101600000217, 36.206070000002725 ], [ -83.467097000001772, 36.174688000002902 ], [ -83.490697000001589, 36.166588000002776 ], [ -83.519936000002332, 36.177349000002557 ], [ -83.543143000002104, 36.181813000002606 ], [ -83.56439900000133, 36.166486000002855 ], [ -83.597766000001997, 36.164182000003073 ], [ -83.617618000001457, 36.143000000003205 ], [ -83.638319000001644, 36.097996000002595 ], [ -83.667179000001624, 36.126660000003433 ], [ -83.667460000002393, 36.080587000002758 ], [ -83.709924000001422, 36.087032000003383 ], [ -83.69459900000237, 36.058249000002547 ], [ -83.673297000001682, 36.038486000002678 ], [ -83.669979000001433, 36.018314000002761 ], [ -83.650947000001665, 35.98648100000262 ], [ -83.667341000001628, 35.961643000002709 ], [ -83.694578000002309, 35.94388700000308 ], [ -83.74387600000145, 35.920582000003023 ], [ -83.794275000001562, 35.88712500000269 ], [ -83.784379000001891, 35.876163000003388 ], [ -83.778602000002039, 35.853778000003366 ], [ -83.764022000002072, 35.830257000003144 ], [ -83.734186000002026, 35.77265700000266 ], [ -83.716671000001526, 35.730682000002972 ], [ -83.70198500000231, 35.716017000003355 ], [ -83.662814000001347, 35.69061800000334 ], [ -83.662999000001648, 35.56946800000329 ], [ -83.770587000002081, 35.561743000002828 ], [ -83.825566000002311, 35.524311000003109 ], [ -83.880312000001766, 35.518782000002965 ], [ -83.920844000001594, 35.473849000003007 ], [ -83.961102000001759, 35.463754000002979 ], [ -83.943794000002057, 35.48074100000327 ], [ -84.010910000001488, 35.516114000002823 ], [ -83.992453000001802, 35.530721000003112 ], [ -83.997120000001814, 35.541075000003232 ], [ -83.993815000002087, 35.550001000002972 ], [ -84.008842000002275, 35.55333800000296 ], [ -84.014371000001589, 35.546260000003031 ], [ -84.042972000001924, 35.542175000003333 ], [ -84.094249000001525, 35.554020000002581 ], [ -84.096169000001936, 35.575487000003399 ], [ -84.148710000001657, 35.58379000000339 ], [ -84.181868000001373, 35.598892000002721 ], [ -84.188319000001528, 35.610549000002955 ], [ -84.190967000001962, 35.615356000002627 ], [ -84.195961000001859, 35.617935000002753 ], [ -84.253071000001739, 35.617852000002792 ] ] ] } },
{ "type": "Feature", "properties": { "enacted_district": 3, "population": 767938.0, "voting_age_pop": 607045.0, "dem_votes": 102824.0, "rep_votes": 213744.0, "minority_pop": 121057.0, "dem_pct": 0.32480857183138895, "rep_pct": 0.67519142785272313 }, "geometry": { "type": "Polygon", "coordinates": [ [ [ -85.322819000002212, 34.984155000002502 ], [ -85.345558000001887, 34.983675000002641 ], [ -85.36475800000234, 34.983375000002724 ], [ -85.474073000002051, 34.983020000003194 ], [ -85.427779000001777, 35.006673000002806 ], [ -85.409272000002389, 35.040683000002808 ], [ -85.382255000001692, 35.044730000002659 ], [ -85.361959000001477, 35.087773000002777 ], [ -85.391819000001604, 35.120448000002725 ], [ -85.39083300000226, 35.123195000002617 ], [ -85.390390000001389, 35.124409000002686 ], [ -85.387547000001462, 35.143246000003103 ], [ -85.387089000001623, 35.147169000002776 ], [ -85.382889000001441, 35.152221000002939 ], [ -85.376418000002161, 35.160009000002674 ], [ -85.363127000001455, 35.176299000003013 ], [ -85.292544000001371, 35.262910000003259 ], [ -85.289701000002168, 35.266402000002721 ], [ -85.248683000001392, 35.316049000002579 ], [ -85.225877000002228, 35.354276000003303 ], [ -85.216407000001936, 35.37002500000299 ], [ -85.188920000001517, 35.418001000003208 ], [ -85.168302000002114, 35.45561400000252 ], [ -85.13109400000215, 35.458004000002568 ], [ -85.11165700000187, 35.456955000002807 ], [ -85.082868000002065, 35.43145800000331 ], [ -85.04369400000212, 35.423843000002499 ], [ -85.01666100000233, 35.409101000002671 ], [ -85.030369000001556, 35.379122000002504 ], [ -85.008366000001459, 35.383255000002848 ], [ -84.975249000002307, 35.357870000002571 ], [ -84.964078000002146, 35.310315000002738 ], [ -84.946339000001643, 35.287717000003283 ], [ -84.925848000001636, 35.2906710000033 ], [ -84.860164000001461, 35.350074000003282 ], [ -84.858702000002012, 35.352545000002856 ], [ -84.81092200000198, 35.436491000002896 ], [ -84.757586000001837, 35.49247400000305 ], [ -84.736514000002273, 35.516316000003151 ], [ -84.70677300000203, 35.541347000003086 ], [ -84.666889000001859, 35.592814000002733 ], [ -84.655157000002319, 35.606749000003155 ], [ -84.619865000001951, 35.644651000002973 ], [ -84.625868000001944, 35.658869000002767 ], [ -84.634349000001734, 35.719108000003025 ], [ -84.676540000001324, 35.717501000003288 ], [ -84.72155700000188, 35.752235000002742 ], [ -84.723853000002293, 35.752896000003354 ], [ -84.738033000002318, 35.779291000002665 ], [ -84.773330000001422, 35.808840000002839 ], [ -84.781901000002335, 35.825000000002852 ], [ -84.728771000001373, 35.8592230000028 ], [ -84.717406000001873, 35.875847000002857 ], [ -84.70201900000167, 35.895848000003177 ], [ -84.680633000002345, 35.90845400000304 ], [ -84.698203000001712, 35.946416000002642 ], [ -84.720727000001418, 35.994914000002787 ], [ -84.769044000001742, 36.038662000002468 ], [ -84.791008000001881, 36.058531000002581 ], [ -84.804940000002418, 36.088552000003247 ], [ -84.832377000002168, 36.084010000002749 ], [ -84.870888000002026, 36.136925000003345 ], [ -84.907753000002288, 36.156293000003117 ], [ -84.899747000001994, 36.172665000003065 ], [ -84.914155000002253, 36.208290000002478 ], [ -84.897425000001888, 36.224098000003075 ], [ -84.877659000001458, 36.278380000002734 ], [ -84.85250600000208, 36.292433000002944 ], [ -84.797861000001376, 36.296894000002951 ], [ -84.774966000002067, 36.332426000003188 ], [ -84.739671000001508, 36.337932000003192 ], [ -84.732491000002042, 36.366261000003078 ], [ -84.700785000002213, 36.370824000002621 ], [ -84.659082000001661, 36.395227000003125 ], [ -84.692534000001388, 36.435468000002579 ], [ -84.665604000002105, 36.458497000003149 ], [ -84.632335000001561, 36.450554000003272 ], [ -84.624955000001833, 36.425983000002702 ], [ -84.579644000001849, 36.396667000003291 ], [ -84.539467000001395, 36.391612000003057 ], [ -84.489083000002069, 36.340000000003059 ], [ -84.477279000002071, 36.33968400000272 ], [ -84.443346000001512, 36.345436000002842 ], [ -84.45357300000191, 36.394700000002587 ], [ -84.435635000001582, 36.406040000003188 ], [ -84.443148000002054, 36.433510000003082 ], [ -84.425895000001489, 36.433930000002952 ], [ -84.357751000002025, 36.471821000003104 ], [ -84.337143000001817, 36.496497000003075 ], [ -84.349939000002053, 36.466292000003122 ], [ -84.344701000001962, 36.415677000002766 ], [ -84.322211000001346, 36.392865000003354 ], [ -84.299903000001535, 36.414317000002548 ], [ -84.253969000001675, 36.391429000002795 ], [ -84.223756000002055, 36.360508000002802 ], [ -84.194977000001799, 36.373576000003197 ], [ -84.16963400000148, 36.368494000002883 ], [ -84.131341000001484, 36.393673000002849 ], [ -84.127214000001658, 36.391598000002958 ], [ -84.126645000001872, 36.389470000002802 ], [ -84.124733000002323, 36.37074400000256 ], [ -84.111713000001515, 36.361321000002945 ], [ -84.11335000000183, 36.359645000002814 ], [ -84.12641700000178, 36.35281100000261 ], [ -84.126291000001515, 36.336586000003024 ], [ -84.106718000001919, 36.319814000003269 ], [ -84.118513000001712, 36.297145000002658 ], [ -84.077885000002283, 36.271032000003309 ], [ -84.072698000001964, 36.251989000003299 ], [ -84.025774000001533, 36.294179000002771 ], [ -84.004317000001862, 36.270378000002772 ], [ -83.969650000002048, 36.211183000002897 ], [ -83.946499000001992, 36.191341000002645 ], [ -83.9417110000023, 36.186378000003067 ], [ -84.007283000001664, 36.135887000003144 ], [ -84.029717000001483, 36.116475000003071 ], [ -84.094011000001444, 36.068911000002686 ], [ -84.071836000001724, 36.04876400000331 ], [ -84.070116000002216, 36.028881000002933 ], [ -84.133731000002058, 35.994067000002552 ], [ -84.157886000001952, 35.991276000002699 ], [ -84.195511000001616, 35.991602000003255 ], [ -84.220575000001588, 35.961614000003188 ], [ -84.21378200000197, 35.950119000002658 ], [ -84.271587000002015, 35.910165000002806 ], [ -84.263383000001724, 35.896940000002616 ], [ -84.278817000002348, 35.881035000002612 ], [ -84.330159000001842, 35.89211500000328 ], [ -84.342791000001483, 35.831890000002659 ], [ -84.374342000001647, 35.822954000003271 ], [ -84.388333000001793, 35.768683000002731 ], [ -84.416415000001663, 35.776451000002744 ], [ -84.44733000000214, 35.759083000002931 ], [ -84.467930000001843, 35.741489000002908 ], [ -84.512361000001434, 35.715149000002938 ], [ -84.521936000001915, 35.676597000003248 ], [ -84.539963000001663, 35.670465000003382 ], [ -84.584472000001568, 35.644424000003056 ], [ -84.547603000001573, 35.641327000002953 ], [ -84.525850000001583, 35.624186000002609 ], [ -84.51369700000231, 35.644034000002883 ], [ -84.467744000001943, 35.658492000002823 ], [ -84.406472000002211, 35.665622000003076 ], [ -84.398074000001841, 35.640208000003391 ], [ -84.326906000001941, 35.664959000002931 ], [ -84.29088700000186, 35.643017000002814 ], [ -84.247600000001484, 35.633782000003173 ], [ -84.253071000001739, 35.617852000002792 ], [ -84.195961000001859, 35.617935000002753 ], [ -84.190967000001962, 35.615356000002627 ], [ -84.188319000001528, 35.610549000002955 ], [ -84.181868000001373, 35.598892000002721 ], [ -84.148710000001657, 35.58379000000339 ], [ -84.096169000001936, 35.575487000003399 ], [ -84.094249000001525, 35.554020000002581 ], [ -84.042972000001924, 35.542175000003333 ], [ -84.014371000001589, 35.546260000003031 ], [ -84.008842000002275, 35.55333800000296 ], [ -83.993815000002087, 35.550001000002972 ], [ -83.997120000001814, 35.541075000003232 ], [ -83.992453000001802, 35.530721000003112 ], [ -84.010910000001488, 35.516114000002823 ], [ -83.943794000002057, 35.48074100000327 ], [ -83.961102000001759, 35.463754000002979 ], [ -83.999124000001899, 35.434223000003215 ], [ -84.021452000001503, 35.404223000002851 ], [ -84.009630000001891, 35.381872000002815 ], [ -84.035829000002352, 35.3157980000028 ], [ -84.021495000002389, 35.301083000002606 ], [ -84.05559800000195, 35.268496000002784 ], [ -84.092318000002365, 35.249374000003364 ], [ -84.149972000001981, 35.246059000002873 ], [ -84.199755000002312, 35.244119000003394 ], [ -84.211395000001971, 35.265621000002724 ], [ -84.290519000001325, 35.223571000003147 ], [ -84.29236500000232, 35.20669400000272 ], [ -84.308219000001372, 35.092946000002556 ], [ -84.31762700000165, 35.021862000003125 ], [ -84.321821000001478, 34.98840800000287 ], [ -84.568240000001879, 34.988298000003361 ], [ -84.775853000002087, 34.987884000002573 ], [ -84.88652700000226, 34.987871000003253 ], [ -84.976976000001628, 34.987664000003001 ], [ -85.096092000001391, 34.986538000002632 ], [ -85.140602000001692, 34.986374000002954 ], [ -85.175227000002309, 34.985976000002907 ], [ -85.226572000001951, 34.985574000003147 ], [ -85.273020000001623, 34.984975000002834 ], [ -85.280199000001588, 34.984904000002786 ], [ -85.305462000002294, 34.984475000002647 ], [ -85.322819000002212, 34.984155000002502 ] ] ] } },
{ "type": "Feature", "properties": { "enacted_district": 4, "population": 768357.0, "voting_age_pop": 587832.0, "dem_votes": 85548.0, "rep_votes": 203683.0, "minority_pop": 126403.0, "dem_pct": 0.29577742347957947, "rep_pct": 0.7042225761746761 }, "geometry": { "type": "Polygon", "coordinates": [ [ [ -86.937456000002427, 34.993907000002942 ], [ -87.089895000002286, 34.996590000003216 ], [ -87.224052000002217, 34.999377000003307 ], [ -87.349324000002341, 35.001659000003073 ], [ -87.437074000001985, 35.002776000003237 ], [ -87.522663000002268, 35.003051000003005 ], [ -87.60603100000219, 35.003425000003261 ], [ -87.60573300000199, 35.035865000003099 ], [ -87.588833000002069, 35.058431000002912 ], [ -87.589431000002079, 35.092261000002992 ], [ -87.590376000001896, 35.142756000002848 ], [ -87.577796000002522, 35.159400000002975 ], [ -87.578897000001703, 35.193846000003269 ], [ -87.578732000001807, 35.225094000003189 ], [ -87.578686000002421, 35.244649000002454 ], [ -87.576972000002556, 35.318965000003281 ], [ -87.575352000001587, 35.398454000002708 ], [ -87.52901600000196, 35.398556000002834 ], [ -87.509612000001951, 35.414679000002508 ], [ -87.448820000001845, 35.420622000002801 ], [ -87.441166000001516, 35.457844000002574 ], [ -87.375836000002138, 35.457856000002785 ], [ -87.325796000002256, 35.456415000002451 ], [ -87.294534000002187, 35.444676000003 ], [ -87.279531000002137, 35.439252000002789 ], [ -87.227932000002497, 35.429332000002667 ], [ -87.206578000001642, 35.433207000002675 ], [ -87.160263000002175, 35.435371000002732 ], [ -87.120883000001498, 35.455660000002894 ], [ -87.080093000001682, 35.441210000003011 ], [ -87.016207000002112, 35.419164000003299 ], [ -86.960804000002128, 35.417021000003068 ], [ -86.925703000002315, 35.402475000003072 ], [ -86.92010700000246, 35.352180000002804 ], [ -86.90268800000149, 35.332033000002873 ], [ -86.902203000002061, 35.316277000003147 ], [ -86.828500000001853, 35.293376000002425 ], [ -86.828301000001701, 35.263677000002993 ], [ -86.746899000001619, 35.252878000003193 ], [ -86.73669000000173, 35.260776000002991 ], [ -86.730666000002017, 35.269557000003068 ], [ -86.69799800000213, 35.295277000002628 ], [ -86.637396000002298, 35.320976000002894 ], [ -86.602613000002407, 35.327013000002474 ], [ -86.599478000001895, 35.364950000003013 ], [ -86.618220000001841, 35.366795000002433 ], [ -86.658247000002333, 35.435281000003229 ], [ -86.664163000002446, 35.491750000003087 ], [ -86.653193000001693, 35.574120000002452 ], [ -86.635207000002509, 35.57741500000288 ], [ -86.649204000002086, 35.599391000003287 ], [ -86.63943600000249, 35.685900000002846 ], [ -86.686193000002248, 35.710051000002487 ], [ -86.700265000002005, 35.722621000003208 ], [ -86.696904000001965, 35.75233400000306 ], [ -86.663821000001917, 35.770982000002817 ], [ -86.661467000002531, 35.786348000002654 ], [ -86.623703000002379, 35.791191000002591 ], [ -86.600221000001753, 35.851519000003073 ], [ -86.617427000002195, 35.86413200000284 ], [ -86.615132000001708, 35.889440000002836 ], [ -86.626851000001849, 35.915866000002453 ], [ -86.618899000002173, 35.968141000002582 ], [ -86.618892000001907, 35.968224000003246 ], [ -86.612691000001661, 36.007523000003275 ], [ -86.560677000001462, 36.039845000002877 ], [ -86.566379000001433, 36.048762000002881 ], [ -86.565485000001942, 36.050850000002939 ], [ -86.540689000001848, 36.077619000002869 ], [ -86.521083000001425, 36.072395000002842 ], [ -86.515589000001938, 36.100610000003222 ], [ -86.472000000001685, 36.07207900000283 ], [ -86.383847000002447, 36.026697000002983 ], [ -86.364201000002183, 36.010172000002591 ], [ -86.310954000002013, 35.980507000003072 ], [ -86.2871120000014, 35.974985000002597 ], [ -86.255957000002326, 35.967369000003153 ], [ -86.222995000001873, 35.969276000002772 ], [ -86.176951000002433, 35.957508000002527 ], [ -86.153214000001583, 35.954399000003193 ], [ -86.155934000001452, 35.888146000002948 ], [ -86.169145000002061, 35.877733000003239 ], [ -86.179138000002339, 35.807565000002988 ], [ -86.187090000002314, 35.763725000003092 ], [ -86.207920000001948, 35.732286000003185 ], [ -86.20714700000164, 35.703790000002883 ], [ -86.15106700000166, 35.666971000003329 ], [ -86.120263000001756, 35.660929000003307 ], [ -86.088890000001996, 35.64682300000252 ], [ -86.053246000001806, 35.643989000003025 ], [ -85.985062000002372, 35.660108000002893 ], [ -85.991257000002477, 35.697406000003156 ], [ -85.972312000002006, 35.750619000002601 ], [ -85.969994000001762, 35.753541000003111 ], [ -85.932844000001836, 35.798534000003293 ], [ -85.923442000002382, 35.810429000002856 ], [ -85.885156000001516, 35.839658000003254 ], [ -85.813624000001909, 35.845816000002841 ], [ -85.796925000001949, 35.851131000002752 ], [ -85.761318000001694, 35.848606000003151 ], [ -85.734988000001877, 35.844055000003266 ], [ -85.682095000001752, 35.831254000002858 ], [ -85.620300000002359, 35.801247000002562 ], [ -85.602876000002212, 35.794996000003053 ], [ -85.607942000002026, 35.771395000002933 ], [ -85.591894000002412, 35.754360000002627 ], [ -85.597422000002453, 35.726036000003262 ], [ -85.602147000001779, 35.683181000002982 ], [ -85.594632000001738, 35.617898000002896 ], [ -85.557535000002076, 35.532977000002553 ], [ -85.492257000002155, 35.547570000003105 ], [ -85.469152000001912, 35.547442000002718 ], [ -85.423804000002193, 35.567422000002487 ], [ -85.420163000001992, 35.570742000003108 ], [ -85.360032000002221, 35.625674000002952 ], [ -85.332948000001878, 35.65174400000258 ], [ -85.26538700000232, 35.721237000002901 ], [ -85.254062000002179, 35.765611000002991 ], [ -85.226503000001415, 35.766419000003019 ], [ -85.165106000002055, 35.768298000003121 ], [ -85.051500000001425, 35.767562000002641 ], [ -85.041140000001533, 35.77177000000313 ], [ -85.028787000002168, 35.74628500000253 ], [ -84.981205000002106, 35.756860000002646 ], [ -84.938299000001862, 35.766394000002705 ], [ -84.916062000001801, 35.761939000002918 ], [ -84.797830000001596, 35.82515100000294 ], [ -84.789924000001378, 35.82507700000285 ], [ -84.781901000002335, 35.825000000002852 ], [ -84.773330000001422, 35.808840000002839 ], [ -84.738033000002318, 35.779291000002665 ], [ -84.723853000002293, 35.752896000003354 ], [ -84.72155700000188, 35.752235000002742 ], [ -84.676540000001324, 35.717501000003288 ], [ -84.634349000001734, 35.719108000003025 ], [ -84.625868000001944, 35.658869000002767 ], [ -84.619865000001951, 35.644651000002973 ], [ -84.655157000002319, 35.606749000003155 ], [ -84.666889000001859, 35.592814000002733 ], [ -84.70677300000203, 35.541347000003086 ], [ -84.736514000002273, 35.516316000003151 ], [ -84.757586000001837, 35.49247400000305 ], [ -84.81092200000198, 35.436491000002896 ], [ -84.858702000002012, 35.352545000002856 ], [ -84.860164000001461, 35.350074000003282 ], [ -84.925848000001636, 35.2906710000033 ], [ -84.946339000001643, 35.287717000003283 ], [ -84.964078000002146, 35.310315000002738 ], [ -84.975249000002307, 35.357870000002571 ], [ -85.008366000001459, 35.383255000002848 ], [ -85.030369000001556, 35.379122000002504 ], [ -85.01666100000233, 35.409101000002671 ], [ -85.04369400000212, 35.423843000002499 ], [ -85.082868000002065, 35.43145800000331 ], [ -85.11165700000187, 35.456955000002807 ], [ -85.13109400000215, 35.458004000002568 ], [ -85.168302000002114, 35.45561400000252 ], [ -85.188920000001517, 35.418001000003208 ], [ -85.216407000001936, 35.37002500000299 ], [ -85.225877000002228, 35.354276000003303 ], [ -85.248683000001392, 35.316049000002579 ], [ -85.289701000002168, 35.266402000002721 ], [ -85.292544000001371, 35.262910000003259 ], [ -85.363127000001455, 35.176299000003013 ], [ -85.376418000002161, 35.160009000002674 ], [ -85.382889000001441, 35.152221000002939 ], [ -85.387089000001623, 35.147169000002776 ], [ -85.387547000001462, 35.143246000003103 ], [ -85.390390000001389, 35.124409000002686 ], [ -85.39083300000226, 35.123195000002617 ], [ -85.391819000001604, 35.120448000002725 ], [ -85.361959000001477, 35.087773000002777 ], [ -85.382255000001692, 35.044730000002659 ], [ -85.409272000002389, 35.040683000002808 ], [ -85.427779000001777, 35.006673000002806 ], [ -85.474073000002051, 34.983020000003194 ], [ -85.552714000001771, 34.983996000002897 ], [ -85.694764000002479, 34.986241000003275 ], [ -85.795819000001956, 34.987600000003162 ], [ -85.847865000002045, 34.988203000003217 ], [ -85.863935000001518, 34.988253000002686 ], [ -86.067137000001765, 34.989514000002806 ], [ -86.152814000001769, 34.989926000002896 ], [ -86.318761000002382, 34.991169000003332 ], [ -86.428637000001657, 34.990927000003019 ], [ -86.571308000001494, 34.991012000003195 ], [ -86.600040000002195, 34.991241000002972 ], [ -86.721724000002425, 34.991930000003187 ], [ -86.836306000002324, 34.991899000002775 ], [ -86.937456000002427, 34.993907000002942 ] ] ] } },
{ "type": "Feature", "properties": { "enacted_district": 5, "population": 756376.0, "voting_age_pop": 573917.0, "dem_votes": 135300.0, "rep_votes": 188440.0, "minority_pop": 157619.0, "dem_pct": 0.41792796675791438, "rep_pct": 0.58207203293319576 }, "geometry": { "type": "Polygon", "coordinates": [ [ [ -87.080093000001682, 35.441210000003011 ], [ -87.120883000001498, 35.455660000002894 ], [ -87.160263000002175, 35.435371000002732 ], [ -87.206578000001642, 35.433207000002675 ], [ -87.227932000002497, 35.429332000002667 ], [ -87.279531000002137, 35.439252000002789 ], [ -87.294534000002187, 35.444676000003 ], [ -87.325796000002256, 35.456415000002451 ], [ -87.375836000002138, 35.457856000002785 ], [ -87.441166000001516, 35.457844000002574 ], [ -87.448820000001845, 35.420622000002801 ], [ -87.509612000001951, 35.414679000002508 ], [ -87.52901600000196, 35.398556000002834 ], [ -87.575352000001587, 35.398454000002708 ], [ -87.591911000002327, 35.411577000002936 ], [ -87.607276000002216, 35.436176000002504 ], [ -87.6464850000024, 35.442071000002791 ], [ -87.645896000001784, 35.472745000003023 ], [ -87.713420000001506, 35.482606000003052 ], [ -87.717559000002126, 35.483347000002645 ], [ -87.690651000001978, 35.505329000002874 ], [ -87.687622000001696, 35.532369000002582 ], [ -87.657798000001847, 35.560682000002906 ], [ -87.648530000001671, 35.590012000002844 ], [ -87.65818900000157, 35.609349000003029 ], [ -87.635358000002256, 35.614358000002916 ], [ -87.586867000002172, 35.653304000003054 ], [ -87.549164000001525, 35.630228000002766 ], [ -87.507790000002316, 35.628383000002962 ], [ -87.458129000001819, 35.615605000003022 ], [ -87.418709000002139, 35.624870000003256 ], [ -87.357379000001913, 35.659514000002453 ], [ -87.339232000002298, 35.659110000002414 ], [ -87.307867000001892, 35.686128000002547 ], [ -87.265994000002038, 35.695765000002766 ], [ -87.245757000002271, 35.720637000002952 ], [ -87.234143000002462, 35.724691000002558 ], [ -87.22574400000191, 35.77519300000278 ], [ -87.219369000002445, 35.819561000002821 ], [ -87.215099000001601, 35.8506510000025 ], [ -87.077796000002223, 35.806787000003119 ], [ -87.003959000002453, 35.779028000002803 ], [ -86.96951000000179, 35.771676000002948 ], [ -86.929251000001472, 35.778160000003254 ], [ -86.91325900000156, 35.782542000002749 ], [ -86.911411000001735, 35.800399000002429 ], [ -86.90467900000165, 35.799277000002448 ], [ -86.881740000001884, 35.833108000002611 ], [ -86.86431700000189, 35.851684000002621 ], [ -86.83164600000211, 35.859487000002524 ], [ -86.829172000001606, 35.892102000003085 ], [ -86.823334000002419, 35.91392300000274 ], [ -86.822782000002476, 35.922348000002735 ], [ -86.821495000002216, 35.926186000003248 ], [ -86.814051000002308, 35.947585000002498 ], [ -86.807631000002516, 35.966064000002952 ], [ -86.833056000001434, 35.973339000002738 ], [ -86.885966000002213, 35.973687000002613 ], [ -86.885497000002005, 35.97311400000271 ], [ -86.899790000001758, 35.971410000002571 ], [ -86.905823000001945, 35.936417000002479 ], [ -86.902420000002394, 35.923645000002729 ], [ -86.904266000001698, 35.907280000003205 ], [ -86.906249000002333, 35.906964000003143 ], [ -86.925731000002344, 35.906337000002843 ], [ -86.946677000002254, 35.931423000003122 ], [ -86.970800000002356, 35.93705200000246 ], [ -86.972679000002003, 35.965549000003257 ], [ -87.016082000001845, 35.997874000003229 ], [ -87.023023000002283, 35.993202000002874 ], [ -87.045351000002455, 36.01259700000292 ], [ -87.05372200000194, 36.045582000002696 ], [ -87.054530000001876, 36.048776000003258 ], [ -87.038792000001578, 36.078900000003152 ], [ -87.023179000002187, 36.076855000002659 ], [ -86.994334000001643, 36.077803000002731 ], [ -86.923046000002316, 36.121689000002775 ], [ -86.899104000001657, 36.130596000002669 ], [ -86.898479000001572, 36.130826000003275 ], [ -86.880563000002056, 36.139069000002848 ], [ -86.857684000002479, 36.152272000002959 ], [ -86.854072000001509, 36.15297100000312 ], [ -86.847625000001727, 36.131462000003125 ], [ -86.822976000001958, 36.139714000002961 ], [ -86.821594000002179, 36.1368960000027 ], [ -86.821431000002121, 36.137064000002901 ], [ -86.816625000002176, 36.129760000002953 ], [ -86.814209000001583, 36.126079000003188 ], [ -86.79819600000215, 36.116386000002727 ], [ -86.791710000001572, 36.116334000003242 ], [ -86.773785000001979, 36.115839000002474 ], [ -86.773415000002487, 36.112373000003046 ], [ -86.771069000002129, 36.111118000003039 ], [ -86.759308000001738, 36.111579000002862 ], [ -86.751541000001481, 36.111225000003145 ], [ -86.763057000002007, 36.08623000000307 ], [ -86.763717000001947, 36.08251800000253 ], [ -86.760020000001944, 36.081511000003069 ], [ -86.749505000001946, 36.098590000002616 ], [ -86.714720000002146, 36.097486000002689 ], [ -86.708159000001913, 36.096337000002727 ], [ -86.699949000002491, 36.086046000002653 ], [ -86.68296000000251, 36.081533000003105 ], [ -86.663844000001475, 36.073358000003054 ], [ -86.641461000001826, 36.077141000002548 ], [ -86.651104000002036, 36.090965000002903 ], [ -86.619266000002227, 36.089307000002883 ], [ -86.629707000002327, 36.112339000003068 ], [ -86.609517000001645, 36.11574100000319 ], [ -86.610364000001553, 36.132060000002909 ], [ -86.610058000001956, 36.133499000002779 ], [ -86.596747000002509, 36.156915000002677 ], [ -86.619007000001631, 36.156181000002469 ], [ -86.633378000001912, 36.18617900000244 ], [ -86.620269000001798, 36.198441000002845 ], [ -86.622736000002504, 36.212472000002514 ], [ -86.622803000001511, 36.213349000002829 ], [ -86.625900000002488, 36.234520000003123 ], [ -86.622798000001481, 36.249308000003197 ], [ -86.616226000002214, 36.245767000002637 ], [ -86.594286000002, 36.245105000003022 ], [ -86.59439500000174, 36.245853000002761 ], [ -86.579554000002261, 36.256490000003041 ], [ -86.566293000001878, 36.273132000002605 ], [ -86.553585000001419, 36.254371000002813 ], [ -86.508375000002175, 36.275159000002567 ], [ -86.485468000001703, 36.230955000003277 ], [ -86.43612900000214, 36.233246000002815 ], [ -86.400545000002097, 36.239681000002378 ], [ -86.374292000001432, 36.237361000002828 ], [ -86.371394000002169, 36.25593700000266 ], [ -86.3270680000021, 36.261568000003273 ], [ -86.32377800000198, 36.256810000002531 ], [ -86.289033000001879, 36.243258000002449 ], [ -86.273415000001947, 36.225980000002622 ], [ -86.294358000001921, 36.212860000002507 ], [ -86.291269000001591, 36.206854000002558 ], [ -86.276441000002521, 36.186448000003182 ], [ -86.272438000001529, 36.170324000002651 ], [ -86.271274000001853, 36.158950000003117 ], [ -86.259799000001962, 36.138819000003167 ], [ -86.205668000002234, 36.122955000003181 ], [ -86.185112000002448, 36.098009000002669 ], [ -86.194047000001717, 36.040905000003022 ], [ -86.216119000002408, 36.003626000003088 ], [ -86.174242000002408, 35.982204000003151 ], [ -86.176951000002433, 35.957508000002527 ], [ -86.222995000001873, 35.969276000002772 ], [ -86.255957000002326, 35.967369000003153 ], [ -86.2871120000014, 35.974985000002597 ], [ -86.310954000002013, 35.980507000003072 ], [ -86.364201000002183, 36.010172000002591 ], [ -86.383847000002447, 36.026697000002983 ], [ -86.472000000001685, 36.07207900000283 ], [ -86.515589000001938, 36.100610000003222 ], [ -86.521083000001425, 36.072395000002842 ], [ -86.540689000001848, 36.077619000002869 ], [ -86.565485000001942, 36.050850000002939 ], [ -86.566379000001433, 36.048762000002881 ], [ -86.560677000001462, 36.039845000002877 ], [ -86.612691000001661, 36.007523000003275 ], [ -86.618892000001907, 35.968224000003246 ], [ -86.618899000002173, 35.968141000002582 ], [ -86.626851000001849, 35.915866000002453 ], [ -86.615132000001708, 35.889440000002836 ], [ -86.617427000002195, 35.86413200000284 ], [ -86.600221000001753, 35.851519000003073 ], [ -86.623703000002379, 35.791191000002591 ], [ -86.661467000002531, 35.786348000002654 ], [ -86.663821000001917, 35.770982000002817 ], [ -86.696904000001965, 35.75233400000306 ], [ -86.700265000002005, 35.722621000003208 ], [ -86.686193000002248, 35.710051000002487 ], [ -86.63943600000249, 35.685900000002846 ], [ -86.649204000002086, 35.599391000003287 ], [ -86.635207000002509, 35.57741500000288 ], [ -86.653193000001693, 35.574120000002452 ], [ -86.664163000002446, 35.491750000003087 ], [ -86.658247000002333, 35.435281000003229 ], [ -86.618220000001841, 35.366795000002433 ], [ -86.599478000001895, 35.364950000003013 ], [ -86.602613000002407, 35.327013000002474 ], [ -86.637396000002298, 35.320976000002894 ], [ -86.69799800000213, 35.295277000002628 ], [ -86.730666000002017, 35.269557000003068 ], [ -86.73669000000173, 35.260776000002991 ], [ -86.746899000001619, 35.252878000003193 ], [ -86.828301000001701, 35.263677000002993 ], [ -86.828500000001853, 35.293376000002425 ], [ -86.902203000002061, 35.316277000003147 ], [ -86.90268800000149, 35.332033000002873 ], [ -86.92010700000246, 35.352180000002804 ], [ -86.925703000002315, 35.402475000003072 ], [ -86.960804000002128, 35.417021000003068 ], [ -87.016207000002112, 35.419164000003299 ], [ -87.080093000001682, 35.441210000003011 ] ] ] } },
{ "type": "Feature", "properties": { "enacted_district": 6, "population": 788608.0, "voting_age_pop": 618825.0, "dem_votes": 109396.0, "rep_votes": 207424.0, "minority_pop": 127545.0, "dem_pct": 0.3452938576020157, "rep_pct": 0.65470614208234768 }, "geometry": { "type": "Polygon", "coordinates": [ [ [ -86.708159000001913, 36.096337000002727 ], [ -86.714720000002146, 36.097486000002689 ], [ -86.749505000001946, 36.098590000002616 ], [ -86.760020000001944, 36.081511000003069 ], [ -86.763717000001947, 36.08251800000253 ], [ -86.763057000002007, 36.08623000000307 ], [ -86.751541000001481, 36.111225000003145 ], [ -86.750515000001585, 36.121602000002454 ], [ -86.749899000001562, 36.123181000002702 ], [ -86.727129000001923, 36.137002000002433 ], [ -86.725044000001532, 36.135803000003087 ], [ -86.722283000001795, 36.140579000002887 ], [ -86.72207500000151, 36.153640000003115 ], [ -86.725295000001992, 36.164197000002957 ], [ -86.744085000001562, 36.162098000003184 ], [ -86.760463000002161, 36.159064000002417 ], [ -86.778249000001637, 36.171598000002462 ], [ -86.780591000001934, 36.175963000002525 ], [ -86.782977000001821, 36.191892000003058 ], [ -86.777988000002082, 36.19194900000258 ], [ -86.775596000001954, 36.194327000002914 ], [ -86.766184000002426, 36.209717000003089 ], [ -86.764397000002162, 36.213954000003064 ], [ -86.757934000001612, 36.237544000002693 ], [ -86.756555000001654, 36.243912000002766 ], [ -86.757100000001714, 36.24966300000294 ], [ -86.757932000001574, 36.256345000002895 ], [ -86.737515000002162, 36.264692000002555 ], [ -86.729981000001786, 36.283682000002678 ], [ -86.733734000002414, 36.292389000002458 ], [ -86.741496000001547, 36.293249000003136 ], [ -86.737952000001627, 36.302193000003122 ], [ -86.774612000002151, 36.333362000002786 ], [ -86.756121000001812, 36.342876000002562 ], [ -86.752661000002149, 36.362909000003249 ], [ -86.777749000002373, 36.391150000002732 ], [ -86.754795000002446, 36.405496000002948 ], [ -86.748276000002306, 36.418627000002971 ], [ -86.690759000002416, 36.40974200000273 ], [ -86.688652000001426, 36.430888000002852 ], [ -86.65176400000172, 36.470319000002952 ], [ -86.642164000002438, 36.507271000002781 ], [ -86.635037000002455, 36.534041000002901 ], [ -86.595187000002369, 36.585714000002469 ], [ -86.563909000002184, 36.633562000002584 ], [ -86.507781000002367, 36.652379000002405 ], [ -86.459689000001418, 36.651692000003166 ], [ -86.340076000002313, 36.648971000002746 ], [ -86.205388000002145, 36.640184000002641 ], [ -86.094300000001837, 36.634593000002667 ], [ -86.002973000001518, 36.629443000002468 ], [ -85.919498000001752, 36.625948000002921 ], [ -85.788726000001745, 36.622048000002998 ], [ -85.665763000001974, 36.618285000002849 ], [ -85.508593000001966, 36.6149940000033 ], [ -85.501599000001633, 36.614857000002672 ], [ -85.276281000001774, 36.626816000002641 ], [ -85.213286000002185, 36.62566900000315 ], [ -85.170180000001537, 36.624840000002507 ], [ -85.049583000001604, 36.620303000002629 ], [ -84.830035000002113, 36.604536000002682 ], [ -84.785450000002413, 36.603444000002952 ], [ -84.52092100000138, 36.59642300000273 ], [ -84.261337000002129, 36.591784000002669 ], [ -84.249231000002254, 36.564684000002622 ], [ -84.252532000001864, 36.530180000003085 ], [ -84.266877000001983, 36.511698000002973 ], [ -84.332578000001888, 36.502161000002587 ], [ -84.337143000001817, 36.496497000003075 ], [ -84.357751000002025, 36.471821000003104 ], [ -84.425895000001489, 36.433930000002952 ], [ -84.443148000002054, 36.433510000003082 ], [ -84.435635000001582, 36.406040000003188 ], [ -84.45357300000191, 36.394700000002587 ], [ -84.443346000001512, 36.345436000002842 ], [ -84.477279000002071, 36.33968400000272 ], [ -84.489083000002069, 36.340000000003059 ], [ -84.539467000001395, 36.391612000003057 ], [ -84.579644000001849, 36.396667000003291 ], [ -84.624955000001833, 36.425983000002702 ], [ -84.632335000001561, 36.450554000003272 ], [ -84.665604000002105, 36.458497000003149 ], [ -84.692534000001388, 36.435468000002579 ], [ -84.659082000001661, 36.395227000003125 ], [ -84.700785000002213, 36.370824000002621 ], [ -84.732491000002042, 36.366261000003078 ], [ -84.739671000001508, 36.337932000003192 ], [ -84.774966000002067, 36.332426000003188 ], [ -84.797861000001376, 36.296894000002951 ], [ -84.85250600000208, 36.292433000002944 ], [ -84.877659000001458, 36.278380000002734 ], [ -84.897425000001888, 36.224098000003075 ], [ -84.914155000002253, 36.208290000002478 ], [ -84.899747000001994, 36.172665000003065 ], [ -84.907753000002288, 36.156293000003117 ], [ -84.870888000002026, 36.136925000003345 ], [ -84.832377000002168, 36.084010000002749 ], [ -84.804940000002418, 36.088552000003247 ], [ -84.791008000001881, 36.058531000002581 ], [ -84.769044000001742, 36.038662000002468 ], [ -84.720727000001418, 35.994914000002787 ], [ -84.698203000001712, 35.946416000002642 ], [ -84.680633000002345, 35.90845400000304 ], [ -84.70201900000167, 35.895848000003177 ], [ -84.717406000001873, 35.875847000002857 ], [ -84.728771000001373, 35.8592230000028 ], [ -84.781901000002335, 35.825000000002852 ], [ -84.789924000001378, 35.82507700000285 ], [ -84.797830000001596, 35.82515100000294 ], [ -84.916062000001801, 35.761939000002918 ], [ -84.938299000001862, 35.766394000002705 ], [ -84.981205000002106, 35.756860000002646 ], [ -85.028787000002168, 35.74628500000253 ], [ -85.041140000001533, 35.77177000000313 ], [ -85.051500000001425, 35.767562000002641 ], [ -85.165106000002055, 35.768298000003121 ], [ -85.226503000001415, 35.766419000003019 ], [ -85.254062000002179, 35.765611000002991 ], [ -85.26538700000232, 35.721237000002901 ], [ -85.332948000001878, 35.65174400000258 ], [ -85.360032000002221, 35.625674000002952 ], [ -85.420163000001992, 35.570742000003108 ], [ -85.423804000002193, 35.567422000002487 ], [ -85.469152000001912, 35.547442000002718 ], [ -85.492257000002155, 35.547570000003105 ], [ -85.557535000002076, 35.532977000002553 ], [ -85.594632000001738, 35.617898000002896 ], [ -85.602147000001779, 35.683181000002982 ], [ -85.597422000002453, 35.726036000003262 ], [ -85.591894000002412, 35.754360000002627 ], [ -85.607942000002026, 35.771395000002933 ], [ -85.602876000002212, 35.794996000003053 ], [ -85.620300000002359, 35.801247000002562 ], [ -85.682095000001752, 35.831254000002858 ], [ -85.734988000001877, 35.844055000003266 ], [ -85.761318000001694, 35.848606000003151 ], [ -85.796925000001949, 35.851131000002752 ], [ -85.813624000001909, 35.845816000002841 ], [ -85.885156000001516, 35.839658000003254 ], [ -85.923442000002382, 35.810429000002856 ], [ -85.932844000001836, 35.798534000003293 ], [ -85.969994000001762, 35.753541000003111 ], [ -85.972312000002006, 35.750619000002601 ], [ -85.991257000002477, 35.697406000003156 ], [ -85.985062000002372, 35.660108000002893 ], [ -86.053246000001806, 35.643989000003025 ], [ -86.088890000001996, 35.64682300000252 ], [ -86.120263000001756, 35.660929000003307 ], [ -86.15106700000166, 35.666971000003329 ], [ -86.20714700000164, 35.703790000002883 ], [ -86.207920000001948, 35.732286000003185 ], [ -86.187090000002314, 35.763725000003092 ], [ -86.179138000002339, 35.807565000002988 ], [ -86.169145000002061, 35.877733000003239 ], [ -86.155934000001452, 35.888146000002948 ], [ -86.153214000001583, 35.954399000003193 ], [ -86.176951000002433, 35.957508000002527 ], [ -86.174242000002408, 35.982204000003151 ], [ -86.216119000002408, 36.003626000003088 ], [ -86.194047000001717, 36.040905000003022 ], [ -86.185112000002448, 36.098009000002669 ], [ -86.205668000002234, 36.122955000003181 ], [ -86.259799000001962, 36.138819000003167 ], [ -86.271274000001853, 36.158950000003117 ], [ -86.272438000001529, 36.170324000002651 ], [ -86.276441000002521, 36.186448000003182 ], [ -86.291269000001591, 36.206854000002558 ], [ -86.294358000001921, 36.212860000002507 ], [ -86.273415000001947, 36.225980000002622 ], [ -86.289033000001879, 36.243258000002449 ], [ -86.32377800000198, 36.256810000002531 ], [ -86.3270680000021, 36.261568000003273 ], [ -86.371394000002169, 36.25593700000266 ], [ -86.374292000001432, 36.237361000002828 ], [ -86.400545000002097, 36.239681000002378 ], [ -86.43612900000214, 36.233246000002815 ], [ -86.485468000001703, 36.230955000003277 ], [ -86.508375000002175, 36.275159000002567 ], [ -86.553585000001419, 36.254371000002813 ], [ -86.566293000001878, 36.273132000002605 ], [ -86.579554000002261, 36.256490000003041 ], [ -86.59439500000174, 36.245853000002761 ], [ -86.594286000002, 36.245105000003022 ], [ -86.616226000002214, 36.245767000002637 ], [ -86.622798000001481, 36.249308000003197 ], [ -86.625900000002488, 36.234520000003123 ], [ -86.622803000001511, 36.213349000002829 ], [ -86.622736000002504, 36.212472000002514 ], [ -86.620269000001798, 36.198441000002845 ], [ -86.633378000001912, 36.18617900000244 ], [ -86.619007000001631, 36.156181000002469 ], [ -86.596747000002509, 36.156915000002677 ], [ -86.610058000001956, 36.133499000002779 ], [ -86.610364000001553, 36.132060000002909 ], [ -86.609517000001645, 36.11574100000319 ], [ -86.629707000002327, 36.112339000003068 ], [ -86.619266000002227, 36.089307000002883 ], [ -86.651104000002036, 36.090965000002903 ], [ -86.641461000001826, 36.077141000002548 ], [ -86.663844000001475, 36.073358000003054 ], [ -86.68296000000251, 36.081533000003105 ], [ -86.699949000002491, 36.086046000002653 ], [ -86.708159000001913, 36.096337000002727 ] ] ] } },
{ "type": "Feature", "properties": { "enacted_district": 7, "population": 758011.0, "voting_age_pop": 590494.0, "dem_votes": 117198.0, "rep_votes": 168054.0, "minority_pop": 166562.0, "dem_pct": 0.41085776772437782, "rep_pct": 0.58914223192505499 }, "geometry": { "type": "Polygon", "coordinates": [ [ [ -87.984362000002463, 35.108674000002488 ], [ -87.983573000002238, 35.180648000002492 ], [ -87.982928000002374, 35.220596000002487 ], [ -87.98169700000156, 35.287940000002529 ], [ -88.009538000001569, 35.30152600000303 ], [ -88.017908000001654, 35.329979000002467 ], [ -88.004872000002308, 35.350912000002857 ], [ -88.024739000001844, 35.389652000003139 ], [ -88.024741000002265, 35.392307000002475 ], [ -88.061042000002288, 35.416590000002437 ], [ -88.114464000001732, 35.385809000003285 ], [ -88.134327000002344, 35.384715000002437 ], [ -88.166525000002068, 35.392059000002419 ], [ -88.196462000002271, 35.379561000003172 ], [ -88.210134000002199, 35.407322000002729 ], [ -88.241677000001658, 35.423263000002621 ], [ -88.246172000001792, 35.46221700000288 ], [ -88.245356000002161, 35.479565000003213 ], [ -88.243057000002224, 35.528858000003154 ], [ -88.221032000002182, 35.547928000003019 ], [ -88.22360700000165, 35.558611000002792 ], [ -88.189920000001607, 35.617591000002648 ], [ -88.187384000001515, 35.663702000002843 ], [ -88.184897000002223, 35.706631000002666 ], [ -88.179177000002056, 35.81678500000239 ], [ -88.17785900000176, 35.845841000002544 ], [ -88.217436000002536, 35.846582000002385 ], [ -88.216237000001897, 35.904790000002933 ], [ -88.214831000002107, 35.961429000003157 ], [ -88.214442000001554, 35.98275200000289 ], [ -88.162441000001948, 36.007273000002662 ], [ -88.159313000002442, 36.045556000002449 ], [ -88.142760000002525, 36.052080000003095 ], [ -88.090485000002104, 36.057885000002628 ], [ -88.098678000001996, 36.075410000002378 ], [ -88.081928000001639, 36.109075000003024 ], [ -88.083030000001486, 36.164145000002918 ], [ -88.087845000002446, 36.198755000002421 ], [ -88.136905000001548, 36.209537000002733 ], [ -88.101938000001908, 36.232659000002847 ], [ -88.082890000002024, 36.260406000003115 ], [ -88.100693000001741, 36.322804000002563 ], [ -88.096473000002348, 36.347202000003001 ], [ -88.087674000002039, 36.359166000003228 ], [ -87.990920000002021, 36.360133000002669 ], [ -88.035982000001752, 36.420317000002719 ], [ -88.061456000001868, 36.444093000002802 ], [ -88.05329300000173, 36.497058000003022 ], [ -88.032675000001788, 36.536985000002844 ], [ -88.044862000001643, 36.60307000000261 ], [ -88.070541000001498, 36.678255000003226 ], [ -88.012203000001975, 36.67719000000249 ], [ -87.902059000002225, 36.667000000003007 ], [ -87.849544000002439, 36.663695000002392 ], [ -87.853319000002557, 36.633160000002405 ], [ -87.80210200000208, 36.634762000003221 ], [ -87.641157000001698, 36.638109000002899 ], [ -87.475678000002233, 36.64039600000239 ], [ -87.414296000002167, 36.641052000002553 ], [ -87.386316000002012, 36.641315000003111 ], [ -87.314919000001566, 36.641683000002587 ], [ -87.114983000002042, 36.642371000003031 ], [ -86.980882000001671, 36.644370000002624 ], [ -86.787599000002174, 36.64838700000265 ], [ -86.699116000002022, 36.64965800000266 ], [ -86.589906000001946, 36.652443000003203 ], [ -86.563909000002184, 36.633562000002584 ], [ -86.595187000002369, 36.585714000002469 ], [ -86.635037000002455, 36.534041000002901 ], [ -86.642164000002438, 36.507271000002781 ], [ -86.65176400000172, 36.470319000002952 ], [ -86.688652000001426, 36.430888000002852 ], [ -86.690759000002416, 36.40974200000273 ], [ -86.748276000002306, 36.418627000002971 ], [ -86.754795000002446, 36.405496000002948 ], [ -86.777749000002373, 36.391150000002732 ], [ -86.752661000002149, 36.362909000003249 ], [ -86.756121000001812, 36.342876000002562 ], [ -86.774612000002151, 36.333362000002786 ], [ -86.737952000001627, 36.302193000003122 ], [ -86.741496000001547, 36.293249000003136 ], [ -86.733734000002414, 36.292389000002458 ], [ -86.729981000001786, 36.283682000002678 ], [ -86.737515000002162, 36.264692000002555 ], [ -86.757932000001574, 36.256345000002895 ], [ -86.757100000001714, 36.24966300000294 ], [ -86.756555000001654, 36.243912000002766 ], [ -86.757934000001612, 36.237544000002693 ], [ -86.764397000002162, 36.213954000003064 ], [ -86.766184000002426, 36.209717000003089 ], [ -86.775596000001954, 36.194327000002914 ], [ -86.777988000002082, 36.19194900000258 ], [ -86.782977000001821, 36.191892000003058 ], [ -86.780591000001934, 36.175963000002525 ], [ -86.778249000001637, 36.171598000002462 ], [ -86.760463000002161, 36.159064000002417 ], [ -86.744085000001562, 36.162098000003184 ], [ -86.725295000001992, 36.164197000002957 ], [ -86.72207500000151, 36.153640000003115 ], [ -86.722283000001795, 36.140579000002887 ], [ -86.725044000001532, 36.135803000003087 ], [ -86.727129000001923, 36.137002000002433 ], [ -86.749899000001562, 36.123181000002702 ], [ -86.750515000001585, 36.121602000002454 ], [ -86.751541000001481, 36.111225000003145 ], [ -86.759308000001738, 36.111579000002862 ], [ -86.771069000002129, 36.111118000003039 ], [ -86.773415000002487, 36.112373000003046 ], [ -86.773785000001979, 36.115839000002474 ], [ -86.791710000001572, 36.116334000003242 ], [ -86.79819600000215, 36.116386000002727 ], [ -86.814209000001583, 36.126079000003188 ], [ -86.816625000002176, 36.129760000002953 ], [ -86.821431000002121, 36.137064000002901 ], [ -86.821594000002179, 36.1368960000027 ], [ -86.822976000001958, 36.139714000002961 ], [ -86.847625000001727, 36.131462000003125 ], [ -86.854072000001509, 36.15297100000312 ], [ -86.857684000002479, 36.152272000002959 ], [ -86.880563000002056, 36.139069000002848 ], [ -86.898479000001572, 36.130826000003275 ], [ -86.899104000001657, 36.130596000002669 ], [ -86.923046000002316, 36.121689000002775 ], [ -86.994334000001643, 36.077803000002731 ], [ -87.023179000002187, 36.076855000002659 ], [ -87.038792000001578, 36.078900000003152 ], [ -87.054530000001876, 36.048776000003258 ], [ -87.05372200000194, 36.045582000002696 ], [ -87.045351000002455, 36.01259700000292 ], [ -87.023023000002283, 35.993202000002874 ], [ -87.016082000001845, 35.997874000003229 ], [ -86.972679000002003, 35.965549000003257 ], [ -86.970800000002356, 35.93705200000246 ], [ -86.946677000002254, 35.931423000003122 ], [ -86.925731000002344, 35.906337000002843 ], [ -86.906249000002333, 35.906964000003143 ], [ -86.904266000001698, 35.907280000003205 ], [ -86.902420000002394, 35.923645000002729 ], [ -86.905823000001945, 35.936417000002479 ], [ -86.899790000001758, 35.971410000002571 ], [ -86.885497000002005, 35.97311400000271 ], [ -86.885966000002213, 35.973687000002613 ], [ -86.833056000001434, 35.973339000002738 ], [ -86.807631000002516, 35.966064000002952 ], [ -86.814051000002308, 35.947585000002498 ], [ -86.821495000002216, 35.926186000003248 ], [ -86.822782000002476, 35.922348000002735 ], [ -86.823334000002419, 35.91392300000274 ], [ -86.829172000001606, 35.892102000003085 ], [ -86.83164600000211, 35.859487000002524 ], [ -86.86431700000189, 35.851684000002621 ], [ -86.881740000001884, 35.833108000002611 ], [ -86.90467900000165, 35.799277000002448 ], [ -86.911411000001735, 35.800399000002429 ], [ -86.91325900000156, 35.782542000002749 ], [ -86.929251000001472, 35.778160000003254 ], [ -86.96951000000179, 35.771676000002948 ], [ -87.003959000002453, 35.779028000002803 ], [ -87.077796000002223, 35.806787000003119 ], [ -87.215099000001601, 35.8506510000025 ], [ -87.219369000002445, 35.819561000002821 ], [ -87.22574400000191, 35.77519300000278 ], [ -87.234143000002462, 35.724691000002558 ], [ -87.245757000002271, 35.720637000002952 ], [ -87.265994000002038, 35.695765000002766 ], [ -87.307867000001892, 35.686128000002547 ], [ -87.339232000002298, 35.659110000002414 ], [ -87.357379000001913, 35.659514000002453 ], [ -87.418709000002139, 35.624870000003256 ], [ -87.458129000001819, 35.615605000003022 ], [ -87.507790000002316, 35.628383000002962 ], [ -87.549164000001525, 35.630228000002766 ], [ -87.586867000002172, 35.653304000003054 ], [ -87.635358000002256, 35.614358000002916 ], [ -87.65818900000157, 35.609349000003029 ], [ -87.648530000001671, 35.590012000002844 ], [ -87.657798000001847, 35.560682000002906 ], [ -87.687622000001696, 35.532369000002582 ], [ -87.690651000001978, 35.505329000002874 ], [ -87.717559000002126, 35.483347000002645 ], [ -87.713420000001506, 35.482606000003052 ], [ -87.645896000001784, 35.472745000003023 ], [ -87.6464850000024, 35.442071000002791 ], [ -87.607276000002216, 35.436176000002504 ], [ -87.591911000002327, 35.411577000002936 ], [ -87.575352000001587, 35.398454000002708 ], [ -87.576972000002556, 35.318965000003281 ], [ -87.578686000002421, 35.244649000002454 ], [ -87.578732000001807, 35.225094000003189 ], [ -87.578897000001703, 35.193846000003269 ], [ -87.577796000002522, 35.159400000002975 ], [ -87.590376000001896, 35.142756000002848 ], [ -87.589431000002079, 35.092261000002992 ], [ -87.588833000002069, 35.058431000002912 ], [ -87.60573300000199, 35.035865000003099 ], [ -87.60603100000219, 35.003425000003261 ], [ -87.619270000002302, 35.003620000002769 ], [ -87.722343000002056, 35.004228000002598 ], [ -87.984916000002571, 35.005933000002585 ], [ -87.984912000002552, 35.012347000002698 ], [ -87.984362000002463, 35.108674000002488 ] ] ] } },
{ "type": "Feature", "properties": { "enacted_district": 8, "population": 760000.0, "voting_age_pop": 591094.0, "dem_votes": 97997.0, "rep_votes": 230178.0, "minority_pop": 151696.0, "dem_pct": 0.29861202093437583, "rep_pct": 0.70138797876090864 }, "geometry": { "type": "Polygon", "coordinates": [ [ [ -89.795733000002514, 35.047416000003082 ], [ -89.770565000002321, 35.061738000002485 ], [ -89.794255000002593, 35.074475000002749 ], [ -89.812444000002557, 35.068094000003008 ], [ -89.825226000002644, 35.066528000003181 ], [ -89.829088000001818, 35.077691000002773 ], [ -89.858772000002347, 35.085987000002326 ], [ -89.871018000002593, 35.089382000002693 ], [ -89.870111000001884, 35.099978000002316 ], [ -89.884237000002344, 35.106199000002853 ], [ -89.89618100000186, 35.112915000002836 ], [ -89.907436000002605, 35.114931000003004 ], [ -89.945412000001994, 35.123197000002591 ], [ -89.945219000002126, 35.127790000003017 ], [ -89.945074000002023, 35.131937000002893 ], [ -89.925537000001725, 35.131497000003179 ], [ -89.917355000002431, 35.144477000002503 ], [ -89.898036000001795, 35.144034000003195 ], [ -89.888165000002516, 35.148885000002586 ], [ -89.868103000002392, 35.135934000003026 ], [ -89.855229000001628, 35.132931000002863 ], [ -89.855095000001967, 35.132807000002487 ], [ -89.833335000002265, 35.120948000002656 ], [ -89.800972000002318, 35.116909000002316 ], [ -89.786097000001888, 35.109352000003192 ], [ -89.763483000002182, 35.103218000002698 ], [ -89.761086000001725, 35.103374000002816 ], [ -89.737371000001886, 35.108826000002566 ], [ -89.731539000001561, 35.105631000002816 ], [ -89.723104000002323, 35.117418000002964 ], [ -89.680115000001578, 35.114933000002345 ], [ -89.675697000002245, 35.188127000002893 ], [ -89.681560000002634, 35.200429000003162 ], [ -89.681188000002592, 35.210636000002694 ], [ -89.699189000001638, 35.206274000003219 ], [ -89.732775000001709, 35.205659000002669 ], [ -89.75447800000228, 35.204546000002807 ], [ -89.775555000002342, 35.20440300000309 ], [ -89.777709000001707, 35.204391000002765 ], [ -89.792012000002018, 35.204601000003024 ], [ -89.833478000002373, 35.205346000002486 ], [ -89.834406000002417, 35.205482000002831 ], [ -89.844739000001681, 35.223144000002343 ], [ -89.827321000002655, 35.229749000002748 ], [ -89.825551000002392, 35.230789000002773 ], [ -89.801812000002357, 35.251830000003139 ], [ -89.793456000002081, 35.237451000002736 ], [ -89.771950000002207, 35.245925000002686 ], [ -89.760301000002471, 35.250542000003051 ], [ -89.760812000002375, 35.281317000003121 ], [ -89.848645000001909, 35.276411000002803 ], [ -89.854534000002459, 35.276255000002351 ], [ -89.848200000001768, 35.282610000002499 ], [ -89.769026000002441, 35.362011000002425 ], [ -89.822984000002663, 35.367919000003134 ], [ -89.88966300000223, 35.389445000002446 ], [ -89.889317000002563, 35.390906000002978 ], [ -89.778755000002619, 35.387820000003117 ], [ -89.776736000001605, 35.405173000003174 ], [ -89.812575000001672, 35.408095000003222 ], [ -89.811710000001625, 35.426906000002965 ], [ -89.772430000002345, 35.457227000002341 ], [ -89.778199000002019, 35.489698000002655 ], [ -89.733975000002332, 35.494299000003011 ], [ -89.732589000002321, 35.508243000002921 ], [ -89.693364000001722, 35.522911000002502 ], [ -89.700284000001872, 35.558477000003052 ], [ -89.693189000002064, 35.600395000003047 ], [ -89.706053000001774, 35.639674000002358 ], [ -89.750093000001755, 35.646364000002862 ], [ -89.793145000002198, 35.637356000002313 ], [ -89.827804000002402, 35.602433000003138 ], [ -89.869972000002164, 35.5825240000026 ], [ -89.909698000001583, 35.537955000002327 ], [ -89.95446900000195, 35.576192000002813 ], [ -89.947847000002625, 35.600218000002769 ], [ -89.890259000002061, 35.616416000003177 ], [ -89.856104000001622, 35.635012000003009 ], [ -89.85831800000156, 35.668724000002562 ], [ -89.908575000001818, 35.651736000002451 ], [ -89.955841000001897, 35.690399000002422 ], [ -89.95889500000186, 35.723530000002803 ], [ -89.907461000001845, 35.759288000002414 ], [ -89.852359000002039, 35.755426000002693 ], [ -89.838717000002148, 35.742129000002734 ], [ -89.798950000002407, 35.759356000002448 ], [ -89.799565000001977, 35.788331000002408 ], [ -89.781662000002413, 35.805228000003083 ], [ -89.714215000002397, 35.808871000002654 ], [ -89.694709000001566, 35.83476900000251 ], [ -89.767923000001645, 35.860017000002948 ], [ -89.765240000001739, 35.893106000002845 ], [ -89.744547000002044, 35.910699000003007 ], [ -89.716352000002175, 35.907059000002512 ], [ -89.676378000002316, 35.876698000002484 ], [ -89.645617000002005, 35.885833000003196 ], [ -89.641078000001585, 35.906233000002409 ], [ -89.650267000001989, 35.92766300000298 ], [ -89.7140070000018, 35.959813000002448 ], [ -89.722916000002314, 35.989061000002657 ], [ -89.706729000002028, 36.001883000002593 ], [ -89.687254000001928, 36.034048000002407 ], [ -89.680029000001667, 36.08249400000247 ], [ -89.593070000001873, 36.129699000002553 ], [ -89.592206000002065, 36.150120000002879 ], [ -89.629453000001632, 36.185382000002527 ], [ -89.705250000002025, 36.236568000002542 ], [ -89.695235000001745, 36.252766000002879 ], [ -89.65140700000255, 36.250683000002489 ], [ -89.611145000002509, 36.239271000002901 ], [ -89.534676000001824, 36.252771000002859 ], [ -89.537183000002528, 36.274385000002304 ], [ -89.611819000002043, 36.309088000002419 ], [ -89.610689000001798, 36.340442000002703 ], [ -89.531822000002478, 36.339246000003158 ], [ -89.511178000001749, 36.367844000002712 ], [ -89.542337000001893, 36.420103000002413 ], [ -89.520642000002226, 36.47866800000282 ], [ -89.453514000001874, 36.461789000003002 ], [ -89.41822000000154, 36.499029000002587 ], [ -89.346066000002438, 36.503232000002633 ], [ -89.256345000002369, 36.506316000002343 ], [ -89.010553000002361, 36.502753000002485 ], [ -88.964166000002564, 36.502122000002409 ], [ -88.827303000002502, 36.502633000003023 ], [ -88.576890000002209, 36.502096000002837 ], [ -88.516403000002114, 36.501583000002668 ], [ -88.259186000001876, 36.50006300000274 ], [ -88.137736000002022, 36.498672000003111 ], [ -88.05329300000173, 36.497058000003022 ], [ -88.061456000001868, 36.444093000002802 ], [ -88.035982000001752, 36.420317000002719 ], [ -87.990920000002021, 36.360133000002669 ], [ -88.087674000002039, 36.359166000003228 ], [ -88.096473000002348, 36.347202000003001 ], [ -88.100693000001741, 36.322804000002563 ], [ -88.082890000002024, 36.260406000003115 ], [ -88.101938000001908, 36.232659000002847 ], [ -88.136905000001548, 36.209537000002733 ], [ -88.087845000002446, 36.198755000002421 ], [ -88.083030000001486, 36.164145000002918 ], [ -88.081928000001639, 36.109075000003024 ], [ -88.098678000001996, 36.075410000002378 ], [ -88.090485000002104, 36.057885000002628 ], [ -88.142760000002525, 36.052080000003095 ], [ -88.159313000002442, 36.045556000002449 ], [ -88.162441000001948, 36.007273000002662 ], [ -88.214442000001554, 35.98275200000289 ], [ -88.214831000002107, 35.961429000003157 ], [ -88.216237000001897, 35.904790000002933 ], [ -88.217436000002536, 35.846582000002385 ], [ -88.17785900000176, 35.845841000002544 ], [ -88.179177000002056, 35.81678500000239 ], [ -88.184897000002223, 35.706631000002666 ], [ -88.187384000001515, 35.663702000002843 ], [ -88.189920000001607, 35.617591000002648 ], [ -88.22360700000165, 35.558611000002792 ], [ -88.221032000002182, 35.547928000003019 ], [ -88.243057000002224, 35.528858000003154 ], [ -88.245356000002161, 35.479565000003213 ], [ -88.246172000001792, 35.46221700000288 ], [ -88.241677000001658, 35.423263000002621 ], [ -88.210134000002199, 35.407322000002729 ], [ -88.196462000002271, 35.379561000003172 ], [ -88.166525000002068, 35.392059000002419 ], [ -88.134327000002344, 35.384715000002437 ], [ -88.114464000001732, 35.385809000003285 ], [ -88.061042000002288, 35.416590000002437 ], [ -88.024741000002265, 35.392307000002475 ], [ -88.024739000001844, 35.389652000003139 ], [ -88.004872000002308, 35.350912000002857 ], [ -88.017908000001654, 35.329979000002467 ], [ -88.009538000001569, 35.30152600000303 ], [ -87.98169700000156, 35.287940000002529 ], [ -87.982928000002374, 35.220596000002487 ], [ -87.983573000002238, 35.180648000002492 ], [ -87.984362000002463, 35.108674000002488 ], [ -87.984912000002552, 35.012347000002698 ], [ -87.984916000002571, 35.005933000002585 ], [ -88.202959000002039, 35.008028000002746 ], [ -88.200064000002087, 34.995634000002674 ], [ -88.345949000001696, 34.995507000002753 ], [ -88.380508000001683, 34.995610000002529 ], [ -88.505408000002362, 34.995872000002905 ], [ -88.584988000001829, 34.995655000002458 ], [ -88.753522000002278, 34.995295000002862 ], [ -88.786612000002208, 34.99525200000263 ], [ -88.858245000001929, 34.995136000002532 ], [ -88.993645000001692, 34.994887000003096 ], [ -89.099772000002503, 34.994730000002804 ], [ -89.198288000002336, 34.994484000002998 ], [ -89.342735000001596, 34.993948000002618 ], [ -89.441017000001921, 34.993796000003044 ], [ -89.582227000002518, 34.995063000002638 ], [ -89.644050000002125, 34.995291000003171 ], [ -89.706606000001742, 34.995292000002472 ], [ -89.724232000001791, 35.020723000002427 ], [ -89.733208000002179, 35.025011000002834 ], [ -89.759748000002404, 35.033323000003023 ], [ -89.795951000002532, 35.044894000002401 ], [ -89.795733000002514, 35.047416000003082 ] ] ] } },
{ "type": "Feature", "properties": { "enacted_district": 9, "population": 775723.0, "voting_age_pop": 589126.0, "dem_votes": 197843.0, "rep_votes": 72660.0, "minority_pop": 415371.0, "dem_pct": 0.73138930040280914, "rep_pct": 0.26861069922750924 }, "geometry": { "type": "Polygon", "coordinates": [ [ [ -90.096338000001737, 34.994762000002794 ], [ -90.137647000001877, 34.994714000002915 ], [ -90.308361000001923, 34.995694000002679 ], [ -90.296968000001556, 35.038175000002461 ], [ -90.264360000002199, 35.040300000002311 ], [ -90.206777000002646, 35.026013000002365 ], [ -90.181157000001662, 35.053943000003123 ], [ -90.181374000002478, 35.094013000002356 ], [ -90.167358000002181, 35.123585000003033 ], [ -90.140857000001716, 35.132904000002888 ], [ -90.086543000001598, 35.119286000003207 ], [ -90.074402000002465, 35.127865000002465 ], [ -90.064399000001615, 35.141820000002809 ], [ -90.066330000001699, 35.153135000002784 ], [ -90.11645900000164, 35.18626600000303 ], [ -90.077163000002514, 35.211033000003006 ], [ -90.094337000001687, 35.248790000002806 ], [ -90.155264000002234, 35.258981000002478 ], [ -90.162058000002617, 35.298255000002925 ], [ -90.109966000001833, 35.304988000002666 ], [ -90.100374000001921, 35.335000000002594 ], [ -90.080873000002242, 35.386005000002314 ], [ -90.114565000002258, 35.411259000002467 ], [ -90.140750000001717, 35.409444000002722 ], [ -90.13567600000242, 35.376696000002511 ], [ -90.179342000002478, 35.385313000002334 ], [ -90.168880000001565, 35.421878000002351 ], [ -90.12943500000172, 35.442119000002918 ], [ -90.107837000001936, 35.476836000003033 ], [ -90.067239000001862, 35.460945000002909 ], [ -90.069528000002293, 35.408132000002411 ], [ -90.054322000001847, 35.389277000002437 ], [ -90.041563000002256, 35.396620000002713 ], [ -90.048086000002016, 35.411737000002773 ], [ -90.002668000002146, 35.429985000003136 ], [ -90.007209000001581, 35.454247000002894 ], [ -90.045245000002112, 35.496648000002331 ], [ -90.039876000001755, 35.547418000003105 ], [ -89.989667000002228, 35.560221000002905 ], [ -89.95972200000223, 35.542664000002802 ], [ -89.958749000001944, 35.52383700000253 ], [ -89.926539000002606, 35.511607000002321 ], [ -89.909698000001583, 35.537955000002327 ], [ -89.869972000002164, 35.5825240000026 ], [ -89.827804000002402, 35.602433000003138 ], [ -89.793145000002198, 35.637356000002313 ], [ -89.750093000001755, 35.646364000002862 ], [ -89.706053000001774, 35.639674000002358 ], [ -89.693189000002064, 35.600395000003047 ], [ -89.700284000001872, 35.558477000003052 ], [ -89.693364000001722, 35.522911000002502 ], [ -89.732589000002321, 35.508243000002921 ], [ -89.733975000002332, 35.494299000003011 ], [ -89.778199000002019, 35.489698000002655 ], [ -89.772430000002345, 35.457227000002341 ], [ -89.811710000001625, 35.426906000002965 ], [ -89.812575000001672, 35.408095000003222 ], [ -89.776736000001605, 35.405173000003174 ], [ -89.778755000002619, 35.387820000003117 ], [ -89.889317000002563, 35.390906000002978 ], [ -89.88966300000223, 35.389445000002446 ], [ -89.822984000002663, 35.367919000003134 ], [ -89.769026000002441, 35.362011000002425 ], [ -89.848200000001768, 35.282610000002499 ], [ -89.854534000002459, 35.276255000002351 ], [ -89.848645000001909, 35.276411000002803 ], [ -89.760812000002375, 35.281317000003121 ], [ -89.760301000002471, 35.250542000003051 ], [ -89.771950000002207, 35.245925000002686 ], [ -89.793456000002081, 35.237451000002736 ], [ -89.801812000002357, 35.251830000003139 ], [ -89.825551000002392, 35.230789000002773 ], [ -89.827321000002655, 35.229749000002748 ], [ -89.844739000001681, 35.223144000002343 ], [ -89.834406000002417, 35.205482000002831 ], [ -89.833478000002373, 35.205346000002486 ], [ -89.792012000002018, 35.204601000003024 ], [ -89.777709000001707, 35.204391000002765 ], [ -89.775555000002342, 35.20440300000309 ], [ -89.75447800000228, 35.204546000002807 ], [ -89.732775000001709, 35.205659000002669 ], [ -89.699189000001638, 35.206274000003219 ], [ -89.681188000002592, 35.210636000002694 ], [ -89.681560000002634, 35.200429000003162 ], [ -89.675697000002245, 35.188127000002893 ], [ -89.680115000001578, 35.114933000002345 ], [ -89.723104000002323, 35.117418000002964 ], [ -89.731539000001561, 35.105631000002816 ], [ -89.737371000001886, 35.108826000002566 ], [ -89.761086000001725, 35.103374000002816 ], [ -89.763483000002182, 35.103218000002698 ], [ -89.786097000001888, 35.109352000003192 ], [ -89.800972000002318, 35.116909000002316 ], [ -89.833335000002265, 35.120948000002656 ], [ -89.855095000001967, 35.132807000002487 ], [ -89.855229000001628, 35.132931000002863 ], [ -89.868103000002392, 35.135934000003026 ], [ -89.888165000002516, 35.148885000002586 ], [ -89.898036000001795, 35.144034000003195 ], [ -89.917355000002431, 35.144477000002503 ], [ -89.925537000001725, 35.131497000003179 ], [ -89.945074000002023, 35.131937000002893 ], [ -89.945219000002126, 35.127790000003017 ], [ -89.945412000001994, 35.123197000002591 ], [ -89.907436000002605, 35.114931000003004 ], [ -89.89618100000186, 35.112915000002836 ], [ -89.884237000002344, 35.106199000002853 ], [ -89.870111000001884, 35.099978000002316 ], [ -89.871018000002593, 35.089382000002693 ], [ -89.858772000002347, 35.085987000002326 ], [ -89.829088000001818, 35.077691000002773 ], [ -89.825226000002644, 35.066528000003181 ], [ -89.812444000002557, 35.068094000003008 ], [ -89.794255000002593, 35.074475000002749 ], [ -89.770565000002321, 35.061738000002485 ], [ -89.795733000002514, 35.047416000003082 ], [ -89.795951000002532, 35.044894000002401 ], [ -89.759748000002404, 35.033323000003023 ], [ -89.733208000002179, 35.025011000002834 ], [ -89.724232000001791, 35.020723000002427 ], [ -89.706606000001742, 34.995292000002472 ], [ -89.759612000002065, 34.994669000002723 ], [ -89.795357000002085, 34.994564000002413 ], [ -89.830690000002249, 34.994498000003013 ], [ -89.861799000001625, 34.994242000003112 ], [ -89.989906000002051, 34.995089000002885 ], [ -90.043036000002331, 34.994964000002952 ], [ -90.060784000001789, 34.99485400000291 ], [ -90.096338000001737, 34.994762000002794 ] ] ] } }
]
}
