{
"type": "FeatureCollection",
"name": "tennessee_optimized_districts_all",
"crs": { "type": "name", "properties": { "name": "urn:ogc:def:crs:OGC:1.3:CRS84" } },
"features": [
{ "type": "Feature", "properties": { "opt_all": 1, "population": 767719.0, "voting_age_pop": 584798.0, "dem_votes": 82993.0, "rep_votes": 203975.0, "minority_pop": 120818.0, "dem_pct": 0.28920646194376848, "rep_pct": 0.71079353770776055 }, "geometry": { "type": "Polygon", "coordinates": [ [ [ -87.534530000002519, 35.993074000003041 ], [ -87.552372000001824, 36.016007000003285 ], [ -87.544599000001682, 36.093575000003071 ], [ -87.544519000001685, 36.094158000002949 ], [ -87.566798000002549, 36.17785700000276 ], [ -87.541735000002518, 36.215309000003032 ], [ -87.532361000002552, 36.246745000002925 ], [ -87.523935000002481, 36.251242000002755 ], [ -87.513533000001942, 36.334713000003219 ], [ -87.530815000001525, 36.3363600000026 ], [ -87.587951000001681, 36.347122000003218 ], [ -87.592358000001568, 36.367663000002501 ], [ -87.602597000001992, 36.418979000003091 ], [ -87.626071000002085, 36.542825000002921 ], [ -87.626107000001468, 36.543051000002649 ], [ -87.641157000001698, 36.638109000002899 ], [ -87.475678000002233, 36.64039600000239 ], [ -87.414296000002167, 36.641052000002553 ], [ -87.386316000002012, 36.641315000003111 ], [ -87.314919000001566, 36.641683000002587 ], [ -87.114983000002042, 36.642371000003031 ], [ -86.980882000001671, 36.644370000002624 ], [ -86.787599000002174, 36.64838700000265 ], [ -86.699116000002022, 36.64965800000266 ], [ -86.589906000001946, 36.652443000003203 ], [ -86.563909000002184, 36.633562000002584 ], [ -86.507781000002367, 36.652379000002405 ], [ -86.459689000001418, 36.651692000003166 ], [ -86.340076000002313, 36.648971000002746 ], [ -86.205388000002145, 36.640184000002641 ], [ -86.094300000001837, 36.634593000002667 ], [ -86.002973000001518, 36.629443000002468 ], [ -85.919498000001752, 36.625948000002921 ], [ -85.788726000001745, 36.622048000002998 ], [ -85.665763000001974, 36.618285000002849 ], [ -85.508593000001966, 36.6149940000033 ], [ -85.501599000001633, 36.614857000002672 ], [ -85.276281000001774, 36.626816000002641 ], [ -85.213286000002185, 36.62566900000315 ], [ -85.170180000001537, 36.624840000002507 ], [ -85.049583000001604, 36.620303000002629 ], [ -84.830035000002113, 36.604536000002682 ], [ -84.785450000002413, 36.603444000002952 ], [ -84.7318390000016, 36.524674000003088 ], [ -84.715139000001415, 36.498874000002949 ], [ -84.69264800000245, 36.435777000002602 ], [ -84.692534000001388, 36.435468000002579 ], [ -84.659082000001661, 36.395227000003125 ], [ -84.700785000002213, 36.370824000002621 ], [ -84.732491000002042, 36.366261000003078 ], [ -84.739671000001508, 36.337932000003192 ], [ -84.774966000002067, 36.332426000003188 ], [ -84.797861000001376, 36.296894000002951 ], [ -84.85250600000208, 36.292433000002944 ], [ -84.877659000001458, 36.278380000002734 ], [ -84.897425000001888, 36.224098000003075 ], [ -84.914155000002253, 36.208290000002478 ], [ -84.899747000001994, 36.172665000003065 ], [ -84.907753000002288, 36.156293000003117 ], [ -84.961831000001681, 36.150480000002723 ], [ -85.000286000001935, 36.150813000002827 ], [ -85.02803100000169, 36.170101000003157 ], [ -85.081654000001535, 36.132789000002703 ], [ -85.100213000002171, 36.13856100000266 ], [ -85.102781000001556, 36.136060000003177 ], [ -85.13174800000246, 36.128246000002868 ], [ -85.152233000001658, 36.100249000002663 ], [ -85.235757000001556, 36.105752000002781 ], [ -85.254854000001657, 36.023564000002615 ], [ -85.264206000001565, 35.979154000003319 ], [ -85.311347000001859, 35.996686000003265 ], [ -85.309363000001568, 36.031592000002874 ], [ -85.395356000001513, 36.055085000003245 ], [ -85.469030000001908, 36.073094000002513 ], [ -85.506291000001809, 36.081827000003216 ], [ -85.563507000002005, 36.068927000002851 ], [ -85.583837000002177, 36.044979000003245 ], [ -85.609618000002143, 36.046125000002768 ], [ -85.644604000001834, 36.0150530000031 ], [ -85.668236000002381, 36.029841000003309 ], [ -85.695303000001545, 36.06983900000332 ], [ -85.696158000001844, 36.070024000002853 ], [ -85.722648000001399, 36.081986000002495 ], [ -85.767695000002377, 36.072922000002833 ], [ -85.789850000002076, 36.107780000003324 ], [ -85.807415000001697, 36.131582000003299 ], [ -85.842608000002372, 36.119545000003029 ], [ -85.866494000001524, 36.094143000002944 ], [ -85.894357000002245, 36.104963000002897 ], [ -85.964574000001605, 36.108826000002445 ], [ -85.986083000001457, 36.087095000002691 ], [ -86.012302000001824, 36.089962000003254 ], [ -86.059706000001896, 36.086024000002737 ], [ -86.06613200000244, 36.124178000003049 ], [ -86.090005000002421, 36.170371000002852 ], [ -86.09252700000178, 36.203502000002821 ], [ -86.102800000002389, 36.205147000002775 ], [ -86.131497000002184, 36.283722000002712 ], [ -86.136803000001947, 36.295859000002828 ], [ -86.175916000002402, 36.328836000002553 ], [ -86.230096000002234, 36.349172000002547 ], [ -86.244456000002515, 36.336405000002912 ], [ -86.283256000001984, 36.347500000002761 ], [ -86.298452000001433, 36.313634000002914 ], [ -86.344832000001475, 36.314195000002506 ], [ -86.346517000001683, 36.345112000002679 ], [ -86.376888000002438, 36.350921000002799 ], [ -86.390436000002012, 36.310196000002954 ], [ -86.41544000000215, 36.313698000002617 ], [ -86.437184000001707, 36.33965600000306 ], [ -86.474093000002043, 36.321450000003189 ], [ -86.48322900000214, 36.316811000003277 ], [ -86.509276000002131, 36.30293800000328 ], [ -86.51699400000193, 36.285151000002649 ], [ -86.564433000002481, 36.304550000003132 ], [ -86.559794000002213, 36.287451000002953 ], [ -86.603692000002169, 36.285038000002523 ], [ -86.60037800000228, 36.278543000003175 ], [ -86.622673000002152, 36.28598400000277 ], [ -86.635552000002122, 36.302572000002925 ], [ -86.672838000002344, 36.312213000002679 ], [ -86.678914000001527, 36.316487000002546 ], [ -86.687387000001607, 36.318200000002911 ], [ -86.717827000002274, 36.338987000002426 ], [ -86.72204700000232, 36.34438300000317 ], [ -86.726192000001461, 36.360972000002569 ], [ -86.754795000002446, 36.405496000002948 ], [ -86.777749000002373, 36.391150000002732 ], [ -86.795015000002024, 36.359874000003025 ], [ -86.823083000001731, 36.351648000002577 ], [ -86.858665000002276, 36.380738000002509 ], [ -86.913233000002478, 36.382621000003283 ], [ -86.906275000002168, 36.366532000002771 ], [ -86.947873000001877, 36.282367000003148 ], [ -86.963358000002003, 36.267004000003006 ], [ -86.980404000002423, 36.21669200000305 ], [ -86.985255000001729, 36.210061000002803 ], [ -86.983613000001483, 36.209566000002809 ], [ -86.997705000001446, 36.128512000003106 ], [ -87.038168000001775, 36.094418000002989 ], [ -87.038792000001578, 36.078900000003152 ], [ -87.054530000001876, 36.048776000003258 ], [ -87.05372200000194, 36.045582000002696 ], [ -87.182573000002037, 36.049726000003176 ], [ -87.188208000001779, 36.0236860000024 ], [ -87.190826000002218, 35.975884000002843 ], [ -87.204242000001571, 35.959186000002923 ], [ -87.314036000001821, 35.969809000003288 ], [ -87.399405000002375, 35.978938000002451 ], [ -87.445527000002414, 35.983697000002884 ], [ -87.534530000002519, 35.993074000003041 ] ] ] } },
{ "type": "Feature", "properties": { "opt_all": 2, "population": 767733.0, "voting_age_pop": 584541.0, "dem_votes": 196824.0, "rep_votes": 85272.0, "minority_pop": 394025.0, "dem_pct": 0.69771992488453582, "rep_pct": 0.30228007476097496 }, "geometry": { "type": "Polygon", "coordinates": [ [ [ -90.137647000001877, 34.994714000002915 ], [ -90.308361000001923, 34.995694000002679 ], [ -90.296968000001556, 35.038175000002461 ], [ -90.264360000002199, 35.040300000002311 ], [ -90.206777000002646, 35.026013000002365 ], [ -90.181157000001662, 35.053943000003123 ], [ -90.181374000002478, 35.094013000002356 ], [ -90.167358000002181, 35.123585000003033 ], [ -90.140857000001716, 35.132904000002888 ], [ -90.086543000001598, 35.119286000003207 ], [ -90.074402000002465, 35.127865000002465 ], [ -90.064399000001615, 35.141820000002809 ], [ -90.066330000001699, 35.153135000002784 ], [ -90.064414000001989, 35.178953000002529 ], [ -90.03517000000177, 35.189752000002777 ], [ -90.035225000001873, 35.188452000002975 ], [ -90.023098000002207, 35.182378000002522 ], [ -90.008206000001692, 35.182262000003206 ], [ -89.998336000002027, 35.204740000002516 ], [ -90.014912000002184, 35.225402000002425 ], [ -90.017984000001817, 35.223344000002875 ], [ -90.022181000002305, 35.226844000003062 ], [ -89.99400900000245, 35.259699000002804 ], [ -89.968761000002431, 35.254472000002416 ], [ -89.929427000001994, 35.262940000003148 ], [ -89.926611000002552, 35.263964000002886 ], [ -89.922810000001846, 35.243045000003178 ], [ -89.900291000001602, 35.230077000002723 ], [ -89.894897000002572, 35.235496000002861 ], [ -89.882629000001558, 35.223299000002804 ], [ -89.88761300000175, 35.20626400000306 ], [ -89.879735000002526, 35.195001000002996 ], [ -89.869270000002274, 35.187944000003135 ], [ -89.852303000002436, 35.187875000002315 ], [ -89.845189000002307, 35.192575000002336 ], [ -89.833478000002373, 35.205346000002486 ], [ -89.792012000002018, 35.204601000003024 ], [ -89.777709000001707, 35.204391000002765 ], [ -89.775555000002342, 35.20440300000309 ], [ -89.75447800000228, 35.204546000002807 ], [ -89.732775000001709, 35.205659000002669 ], [ -89.699189000001638, 35.206274000003219 ], [ -89.681188000002592, 35.210636000002694 ], [ -89.681560000002634, 35.200429000003162 ], [ -89.725649000001809, 35.183169000002522 ], [ -89.76172100000241, 35.189151000002632 ], [ -89.756609000001689, 35.172968000002342 ], [ -89.761628000002588, 35.159816000003119 ], [ -89.770731000002471, 35.127472000002534 ], [ -89.761086000001725, 35.103374000002816 ], [ -89.737371000001886, 35.108826000002566 ], [ -89.731539000001561, 35.105631000002816 ], [ -89.703444000002563, 35.094354000002383 ], [ -89.68996900000235, 35.091787000002768 ], [ -89.639223000002119, 35.131327000002862 ], [ -89.640077000001739, 35.105625000002313 ], [ -89.640886000002325, 35.081545000002642 ], [ -89.64218700000184, 35.057687000002772 ], [ -89.642786000002161, 35.044860000002508 ], [ -89.644050000002125, 34.995291000003171 ], [ -89.706606000001742, 34.995292000002472 ], [ -89.759612000002065, 34.994669000002723 ], [ -89.795357000002085, 34.994564000002413 ], [ -89.830690000002249, 34.994498000003013 ], [ -89.861799000001625, 34.994242000003112 ], [ -89.989906000002051, 34.995089000002885 ], [ -90.043036000002331, 34.994964000002952 ], [ -90.060784000001789, 34.99485400000291 ], [ -90.096338000001737, 34.994762000002794 ], [ -90.137647000001877, 34.994714000002915 ] ] ] } },
{ "type": "Feature", "properties": { "opt_all": 3, "population": 768034.0, "voting_age_pop": 608834.0, "dem_votes": 184758.0, "rep_votes": 113495.0, "minority_pop": 245018.0, "dem_pct": 0.61946736474755748, "rep_pct": 0.38053263491715666 }, "geometry": { "type": "Polygon", "coordinates": [ [ [ -86.929251000001472, 35.778160000003254 ], [ -86.96951000000179, 35.771676000002948 ], [ -87.003959000002453, 35.779028000002803 ], [ -87.077796000002223, 35.806787000003119 ], [ -87.215099000001601, 35.8506510000025 ], [ -87.212200000001715, 35.867363000002513 ], [ -87.205070000001939, 35.914639000002687 ], [ -87.204242000001571, 35.959186000002923 ], [ -87.190826000002218, 35.975884000002843 ], [ -87.188208000001779, 36.0236860000024 ], [ -87.182573000002037, 36.049726000003176 ], [ -87.05372200000194, 36.045582000002696 ], [ -87.054530000001876, 36.048776000003258 ], [ -87.038792000001578, 36.078900000003152 ], [ -87.038168000001775, 36.094418000002989 ], [ -86.997705000001446, 36.128512000003106 ], [ -86.983613000001483, 36.209566000002809 ], [ -86.985255000001729, 36.210061000002803 ], [ -86.980404000002423, 36.21669200000305 ], [ -86.963358000002003, 36.267004000003006 ], [ -86.947873000001877, 36.282367000003148 ], [ -86.906275000002168, 36.366532000002771 ], [ -86.913233000002478, 36.382621000003283 ], [ -86.858665000002276, 36.380738000002509 ], [ -86.823083000001731, 36.351648000002577 ], [ -86.795015000002024, 36.359874000003025 ], [ -86.777749000002373, 36.391150000002732 ], [ -86.754795000002446, 36.405496000002948 ], [ -86.726192000001461, 36.360972000002569 ], [ -86.72204700000232, 36.34438300000317 ], [ -86.717827000002274, 36.338987000002426 ], [ -86.687387000001607, 36.318200000002911 ], [ -86.678914000001527, 36.316487000002546 ], [ -86.672838000002344, 36.312213000002679 ], [ -86.668744000001823, 36.300577000003159 ], [ -86.642000000001602, 36.288251000002688 ], [ -86.639095000002442, 36.25510500000329 ], [ -86.622798000001481, 36.249308000003197 ], [ -86.616226000002214, 36.245767000002637 ], [ -86.594286000002, 36.245105000003022 ], [ -86.583626000002042, 36.216703000002454 ], [ -86.580900000001463, 36.208819000002926 ], [ -86.577515000002094, 36.199759000003262 ], [ -86.572172000002453, 36.179372000002793 ], [ -86.567917000002467, 36.168690000002748 ], [ -86.556609000001856, 36.134928000003121 ], [ -86.526437000002062, 36.126479000002803 ], [ -86.515589000001938, 36.100610000003222 ], [ -86.521083000001425, 36.072395000002842 ], [ -86.540689000001848, 36.077619000002869 ], [ -86.565485000001942, 36.050850000002939 ], [ -86.566379000001433, 36.048762000002881 ], [ -86.560677000001462, 36.039845000002877 ], [ -86.612691000001661, 36.007523000003275 ], [ -86.618892000001907, 35.968224000003246 ], [ -86.632912000002392, 35.974401000002452 ], [ -86.681889000002442, 35.989399000002706 ], [ -86.687714000002515, 35.995343000003082 ], [ -86.692324000002131, 35.994753000003271 ], [ -86.738652000001665, 36.01325600000326 ], [ -86.769095000001869, 36.029216000002478 ], [ -86.783079000002104, 36.034886000002949 ], [ -86.864957000001965, 36.044672000002898 ], [ -86.928602000001902, 36.052909000003012 ], [ -86.962984000001512, 36.031386000003245 ], [ -86.968487000002071, 36.027906000003057 ], [ -87.016082000001845, 35.997874000003229 ], [ -87.023023000002283, 35.993202000002874 ], [ -87.016927000001616, 35.950293000002404 ], [ -87.034470000001761, 35.92370400000312 ], [ -87.0887530000022, 35.857723000003141 ], [ -87.068889000001519, 35.836799000002877 ], [ -87.031987000002133, 35.842814000002527 ], [ -86.997542000001687, 35.816665000002502 ], [ -86.968875000001745, 35.828212000002409 ], [ -86.940002000001812, 35.878695000002494 ], [ -86.909921000002328, 35.874973000002903 ], [ -86.881740000001884, 35.833108000002611 ], [ -86.90467900000165, 35.799277000002448 ], [ -86.861282000001509, 35.789708000003046 ], [ -86.86993400000209, 35.751497000002644 ], [ -86.86561300000173, 35.737370000002784 ], [ -86.873047000001961, 35.739204000002907 ], [ -86.913083000001947, 35.752518000002837 ], [ -86.92518900000249, 35.756173000002519 ], [ -86.928779000002464, 35.778095000003262 ], [ -86.929251000001472, 35.778160000003254 ] ] ] } },
{ "type": "Feature", "properties": { "opt_all": 4, "population": 766704.0, "voting_age_pop": 615546.0, "dem_votes": 63379.0, "rep_votes": 237665.0, "minority_pop": 58956.0, "dem_pct": 0.21053068647422613, "rep_pct": 0.78946931319359648 }, "geometry": { "type": "Polygon", "coordinates": [ [ [ -83.589897000001599, 36.005040000003412 ], [ -83.655398000001711, 36.04298600000336 ], [ -83.673297000001682, 36.038486000002678 ], [ -83.69459900000237, 36.058249000002547 ], [ -83.709924000001422, 36.087032000003383 ], [ -83.667460000002393, 36.080587000002758 ], [ -83.694247000001994, 36.120869000002905 ], [ -83.717445000002044, 36.13296900000261 ], [ -83.732704000001704, 36.164583000002622 ], [ -83.772645000002015, 36.165572000002605 ], [ -83.816790000002328, 36.166749000002845 ], [ -83.820440000001909, 36.166849000003168 ], [ -83.862048000001735, 36.167964000002954 ], [ -83.917522000002364, 36.169333000002972 ], [ -83.9417110000023, 36.186378000003067 ], [ -83.946499000001992, 36.191341000002645 ], [ -83.969650000002048, 36.211183000002897 ], [ -84.004317000001862, 36.270378000002772 ], [ -84.025774000001533, 36.294179000002771 ], [ -84.012800000002215, 36.331683000003181 ], [ -84.035180000002342, 36.36780000000261 ], [ -84.046818000001409, 36.360421000003043 ], [ -84.053405000002158, 36.346431000003257 ], [ -84.09637800000155, 36.346451000002546 ], [ -84.11335000000183, 36.359645000002814 ], [ -84.111713000001515, 36.361321000002945 ], [ -84.124733000002323, 36.37074400000256 ], [ -84.126645000001872, 36.389470000002802 ], [ -84.127214000001658, 36.391598000002958 ], [ -84.131341000001484, 36.393673000002849 ], [ -84.16963400000148, 36.368494000002883 ], [ -84.194977000001799, 36.373576000003197 ], [ -84.223756000002055, 36.360508000002802 ], [ -84.253969000001675, 36.391429000002795 ], [ -84.299903000001535, 36.414317000002548 ], [ -84.322211000001346, 36.392865000003354 ], [ -84.344701000001962, 36.415677000002766 ], [ -84.349939000002053, 36.466292000003122 ], [ -84.337143000001817, 36.496497000003075 ], [ -84.332578000001888, 36.502161000002587 ], [ -84.266877000001983, 36.511698000002973 ], [ -84.252532000001864, 36.530180000003085 ], [ -84.249231000002254, 36.564684000002622 ], [ -84.261337000002129, 36.591784000002669 ], [ -84.191244000002399, 36.591801000003152 ], [ -84.020983000001493, 36.590088000003149 ], [ -83.987615000002094, 36.589471000002966 ], [ -83.690789000002212, 36.582596000003335 ], [ -83.649722000002171, 36.60011900000309 ], [ -83.595217000001568, 36.597757000002623 ], [ -83.472108000001839, 36.597284000002531 ], [ -83.276300000001967, 36.598187000003414 ], [ -83.225444000001929, 36.593918000003349 ], [ -83.101524000002001, 36.594039000002759 ], [ -82.830433000001378, 36.593761000003312 ], [ -82.779600000002191, 36.593743000002782 ], [ -82.609176000001426, 36.594099000003041 ], [ -82.549173000001716, 36.594948000002837 ], [ -82.5172710000015, 36.595391000002877 ], [ -82.416443000002161, 36.595015000002689 ], [ -82.272647000001868, 36.59564800000301 ], [ -82.189740000002303, 36.595173000003037 ], [ -82.151211000002306, 36.594690000002622 ], [ -82.102171000001576, 36.594762000002575 ], [ -81.93414400000141, 36.594213000002853 ], [ -81.922644000001284, 36.616213000002737 ], [ -81.826742000001374, 36.614215000002886 ], [ -81.770529000001659, 36.612922000003401 ], [ -81.646900000001935, 36.611918000002809 ], [ -81.680011000001841, 36.585818000003357 ], [ -81.708097000002041, 36.524148000003258 ], [ -81.694608000001679, 36.473372000002705 ], [ -81.715062000001794, 36.453358000003149 ], [ -81.720876000001695, 36.422470000002896 ], [ -81.74159600000128, 36.412587000003072 ], [ -81.717754000001676, 36.348040000002968 ], [ -81.744275000001267, 36.3378540000027 ], [ -81.790137000001465, 36.348848000003372 ], [ -81.793085000002236, 36.362408000003228 ], [ -81.862982000001622, 36.330212000003058 ], [ -81.908167000001868, 36.301966000003461 ], [ -81.933065000001974, 36.264873000003313 ], [ -81.975957000001998, 36.204591000003354 ], [ -82.033839000002132, 36.120475000003417 ], [ -82.054012000001407, 36.126674000002772 ], [ -82.080028000001931, 36.106433000002902 ], [ -82.12879400000223, 36.104014000002614 ], [ -82.148520000001312, 36.149700000003428 ], [ -82.17721700000186, 36.142373000002834 ], [ -82.222064000001623, 36.156960000002606 ], [ -82.245388000001284, 36.131199000003086 ], [ -82.288572000002119, 36.135727000003399 ], [ -82.325770000001953, 36.119005000002929 ], [ -82.374014000002276, 36.106194000003313 ], [ -82.416738000001317, 36.072827000003365 ], [ -82.460583000001776, 36.007724000002682 ], [ -82.491030000001572, 35.989048000002981 ], [ -82.549975000002291, 35.963840000002918 ], [ -82.610703000001678, 35.967203000003003 ], [ -82.615177000001268, 36.00082600000276 ], [ -82.602980000001764, 36.039677000002719 ], [ -82.647154000002132, 36.05988300000314 ], [ -82.684073000001703, 36.045795000003437 ], [ -82.785041000001399, 35.987096000003149 ], [ -82.787350000001638, 35.952496000003279 ], [ -82.821948000001413, 35.921830000002657 ], [ -82.852030000001875, 35.94932900000304 ], [ -82.898317000001299, 35.944967000002826 ], [ -82.912289000001877, 35.917877000002768 ], [ -82.896776000001879, 35.878257000003288 ], [ -82.920831000002323, 35.868178000002843 ], [ -82.962818000001704, 35.795651000002572 ], [ -82.99585100000202, 35.773085000003249 ], [ -83.025065000002201, 35.783628000002771 ], [ -83.078745000002343, 35.789587000003031 ], [ -83.099429000001962, 35.775097000003321 ], [ -83.165059000001733, 35.759504000002828 ], [ -83.18513700000149, 35.730753000002935 ], [ -83.240827000002142, 35.726856000002954 ], [ -83.255343000001631, 35.715084000002769 ], [ -83.27641300000225, 35.713591000002857 ], [ -83.275055000002354, 35.769644000002792 ], [ -83.287421000001714, 35.795423000002643 ], [ -83.262460000002108, 35.822908000003387 ], [ -83.308735000002102, 35.871692000003208 ], [ -83.312904000002291, 35.888265000003095 ], [ -83.31078200000168, 35.89584600000255 ], [ -83.353374000001352, 35.9196280000033 ], [ -83.415994000001547, 35.933231000003367 ], [ -83.474901000001836, 35.922893000003143 ], [ -83.489462000001524, 35.930931000003426 ], [ -83.524522000001525, 35.964224000002766 ], [ -83.525858000002103, 35.964796000003375 ], [ -83.56993400000232, 35.992479000003001 ], [ -83.589897000001599, 36.005040000003412 ] ] ] } },
{ "type": "Feature", "properties": { "opt_all": 5, "population": 770309.0, "voting_age_pop": 609284.0, "dem_votes": 110724.0, "rep_votes": 208956.0, "minority_pop": 101490.0, "dem_pct": 0.34635885875051337, "rep_pct": 0.6536411409366738 }, "geometry": { "type": "Polygon", "coordinates": [ [ [ -84.205711000002324, 35.844009000003268 ], [ -84.224015000001543, 35.861045000003031 ], [ -84.240753000001803, 35.876654000002603 ], [ -84.263383000001724, 35.896940000002616 ], [ -84.271587000002015, 35.910165000002806 ], [ -84.325177000001332, 36.005034000003327 ], [ -84.33907700000141, 36.041992000003141 ], [ -84.341812000001582, 36.04897700000339 ], [ -84.376189000002043, 36.091290000002658 ], [ -84.379030000002118, 36.095377000003346 ], [ -84.420432000002279, 36.108377000002868 ], [ -84.442963000002194, 36.139901000002752 ], [ -84.441034000001835, 36.163478000002627 ], [ -84.415333000002434, 36.167978000003259 ], [ -84.37273100000202, 36.216778000003188 ], [ -84.376133000002099, 36.260079000003245 ], [ -84.329927000002243, 36.285086000002785 ], [ -84.334433000001823, 36.388079000002683 ], [ -84.313774000002155, 36.383055000003019 ], [ -84.322211000001346, 36.392865000003354 ], [ -84.299903000001535, 36.414317000002548 ], [ -84.253969000001675, 36.391429000002795 ], [ -84.223756000002055, 36.360508000002802 ], [ -84.194977000001799, 36.373576000003197 ], [ -84.16963400000148, 36.368494000002883 ], [ -84.131341000001484, 36.393673000002849 ], [ -84.127214000001658, 36.391598000002958 ], [ -84.126645000001872, 36.389470000002802 ], [ -84.124733000002323, 36.37074400000256 ], [ -84.111713000001515, 36.361321000002945 ], [ -84.11335000000183, 36.359645000002814 ], [ -84.09637800000155, 36.346451000002546 ], [ -84.053405000002158, 36.346431000003257 ], [ -84.046818000001409, 36.360421000003043 ], [ -84.035180000002342, 36.36780000000261 ], [ -84.012800000002215, 36.331683000003181 ], [ -84.025774000001533, 36.294179000002771 ], [ -84.004317000001862, 36.270378000002772 ], [ -83.969650000002048, 36.211183000002897 ], [ -83.946499000001992, 36.191341000002645 ], [ -83.9417110000023, 36.186378000003067 ], [ -83.917522000002364, 36.169333000002972 ], [ -83.862048000001735, 36.167964000002954 ], [ -83.820440000001909, 36.166849000003168 ], [ -83.816790000002328, 36.166749000002845 ], [ -83.772645000002015, 36.165572000002605 ], [ -83.732704000001704, 36.164583000002622 ], [ -83.717445000002044, 36.13296900000261 ], [ -83.694247000001994, 36.120869000002905 ], [ -83.667460000002393, 36.080587000002758 ], [ -83.709924000001422, 36.087032000003383 ], [ -83.69459900000237, 36.058249000002547 ], [ -83.673297000001682, 36.038486000002678 ], [ -83.655398000001711, 36.04298600000336 ], [ -83.589897000001599, 36.005040000003412 ], [ -83.56993400000232, 35.992479000003001 ], [ -83.525858000002103, 35.964796000003375 ], [ -83.524522000001525, 35.964224000002766 ], [ -83.489462000001524, 35.930931000003426 ], [ -83.474901000001836, 35.922893000003143 ], [ -83.415994000001547, 35.933231000003367 ], [ -83.353374000001352, 35.9196280000033 ], [ -83.31078200000168, 35.89584600000255 ], [ -83.312904000002291, 35.888265000003095 ], [ -83.308735000002102, 35.871692000003208 ], [ -83.262460000002108, 35.822908000003387 ], [ -83.287421000001714, 35.795423000002643 ], [ -83.275055000002354, 35.769644000002792 ], [ -83.27641300000225, 35.713591000002857 ], [ -83.255343000001631, 35.715084000002769 ], [ -83.254439000001895, 35.695308000002903 ], [ -83.312379000001641, 35.65470600000301 ], [ -83.350985000002126, 35.660449000003354 ], [ -83.368295000002135, 35.637769000003289 ], [ -83.422038000001336, 35.61104900000263 ], [ -83.445676000001797, 35.611747000003312 ], [ -83.485834000001773, 35.568190000003092 ], [ -83.584374000001759, 35.562698000002705 ], [ -83.601774000002223, 35.578919000002919 ], [ -83.662999000001648, 35.56946800000329 ], [ -83.662814000001347, 35.69061800000334 ], [ -83.70198500000231, 35.716017000003355 ], [ -83.716671000001526, 35.730682000002972 ], [ -83.734186000002026, 35.77265700000266 ], [ -83.781671000002007, 35.759629000002718 ], [ -83.81917500000219, 35.73508500000279 ], [ -83.833499000001694, 35.747086000002597 ], [ -83.85417800000198, 35.731274000002955 ], [ -83.865612000002102, 35.704308000002818 ], [ -83.901985000001829, 35.671564000002917 ], [ -83.931548000002209, 35.686047000003214 ], [ -83.94609200000211, 35.727970000003339 ], [ -83.950426000002153, 35.733065000003407 ], [ -83.966369000001748, 35.71592900000293 ], [ -83.979220000001462, 35.716696000003317 ], [ -83.988263000001581, 35.708344000002697 ], [ -84.023921000001522, 35.712449000003289 ], [ -84.019125000001637, 35.717933000003384 ], [ -84.072194000002014, 35.740086000003323 ], [ -84.056600000001794, 35.757670000003394 ], [ -84.067588000002161, 35.758922000002656 ], [ -84.093572000002069, 35.755589000003084 ], [ -84.090922000001385, 35.778302000003038 ], [ -84.142520000002207, 35.796954000002664 ], [ -84.166267000001824, 35.805106000002567 ], [ -84.195349000002267, 35.834689000003209 ], [ -84.205711000002324, 35.844009000003268 ] ] ] } },
{ "type": "Feature", "properties": { "opt_all": 6, "population": 764762.0, "voting_age_pop": 593984.0, "dem_votes": 98774.0, "rep_votes": 216097.0, "minority_pop": 172128.0, "dem_pct": 0.31369672014453642, "rep_pct": 0.68630327953787318 }, "geometry": { "type": "Polygon", "coordinates": [ [ [ -89.737371000001886, 35.108826000002566 ], [ -89.761086000001725, 35.103374000002816 ], [ -89.770731000002471, 35.127472000002534 ], [ -89.761628000002588, 35.159816000003119 ], [ -89.756609000001689, 35.172968000002342 ], [ -89.76172100000241, 35.189151000002632 ], [ -89.725649000001809, 35.183169000002522 ], [ -89.681560000002634, 35.200429000003162 ], [ -89.681188000002592, 35.210636000002694 ], [ -89.699189000001638, 35.206274000003219 ], [ -89.732775000001709, 35.205659000002669 ], [ -89.75447800000228, 35.204546000002807 ], [ -89.775555000002342, 35.20440300000309 ], [ -89.777709000001707, 35.204391000002765 ], [ -89.792012000002018, 35.204601000003024 ], [ -89.833478000002373, 35.205346000002486 ], [ -89.845189000002307, 35.192575000002336 ], [ -89.852303000002436, 35.187875000002315 ], [ -89.869270000002274, 35.187944000003135 ], [ -89.879735000002526, 35.195001000002996 ], [ -89.88761300000175, 35.20626400000306 ], [ -89.882629000001558, 35.223299000002804 ], [ -89.894897000002572, 35.235496000002861 ], [ -89.900291000001602, 35.230077000002723 ], [ -89.922810000001846, 35.243045000003178 ], [ -89.926611000002552, 35.263964000002886 ], [ -89.929427000001994, 35.262940000003148 ], [ -89.968761000002431, 35.254472000002416 ], [ -89.99400900000245, 35.259699000002804 ], [ -90.022181000002305, 35.226844000003062 ], [ -90.017984000001817, 35.223344000002875 ], [ -90.014912000002184, 35.225402000002425 ], [ -89.998336000002027, 35.204740000002516 ], [ -90.008206000001692, 35.182262000003206 ], [ -90.023098000002207, 35.182378000002522 ], [ -90.035225000001873, 35.188452000002975 ], [ -90.03517000000177, 35.189752000002777 ], [ -90.064414000001989, 35.178953000002529 ], [ -90.066330000001699, 35.153135000002784 ], [ -90.11645900000164, 35.18626600000303 ], [ -90.077163000002514, 35.211033000003006 ], [ -90.094337000001687, 35.248790000002806 ], [ -90.155264000002234, 35.258981000002478 ], [ -90.162058000002617, 35.298255000002925 ], [ -90.109966000001833, 35.304988000002666 ], [ -90.100374000001921, 35.335000000002594 ], [ -90.080873000002242, 35.386005000002314 ], [ -90.114565000002258, 35.411259000002467 ], [ -90.140750000001717, 35.409444000002722 ], [ -90.13567600000242, 35.376696000002511 ], [ -90.179342000002478, 35.385313000002334 ], [ -90.168880000001565, 35.421878000002351 ], [ -90.12943500000172, 35.442119000002918 ], [ -90.107837000001936, 35.476836000003033 ], [ -90.067239000001862, 35.460945000002909 ], [ -90.069528000002293, 35.408132000002411 ], [ -90.054322000001847, 35.389277000002437 ], [ -90.041563000002256, 35.396620000002713 ], [ -90.048086000002016, 35.411737000002773 ], [ -90.002668000002146, 35.429985000003136 ], [ -90.007209000001581, 35.454247000002894 ], [ -90.045245000002112, 35.496648000002331 ], [ -90.039876000001755, 35.547418000003105 ], [ -89.989667000002228, 35.560221000002905 ], [ -89.95972200000223, 35.542664000002802 ], [ -89.958749000001944, 35.52383700000253 ], [ -89.926539000002606, 35.511607000002321 ], [ -89.909698000001583, 35.537955000002327 ], [ -89.95446900000195, 35.576192000002813 ], [ -89.947847000002625, 35.600218000002769 ], [ -89.890259000002061, 35.616416000003177 ], [ -89.856104000001622, 35.635012000003009 ], [ -89.85831800000156, 35.668724000002562 ], [ -89.908575000001818, 35.651736000002451 ], [ -89.955841000001897, 35.690399000002422 ], [ -89.95889500000186, 35.723530000002803 ], [ -89.907461000001845, 35.759288000002414 ], [ -89.852359000002039, 35.755426000002693 ], [ -89.838717000002148, 35.742129000002734 ], [ -89.798950000002407, 35.759356000002448 ], [ -89.799565000001977, 35.788331000002408 ], [ -89.781662000002413, 35.805228000003083 ], [ -89.714215000002397, 35.808871000002654 ], [ -89.694709000001566, 35.83476900000251 ], [ -89.767923000001645, 35.860017000002948 ], [ -89.765240000001739, 35.893106000002845 ], [ -89.744547000002044, 35.910699000003007 ], [ -89.716352000002175, 35.907059000002512 ], [ -89.676378000002316, 35.876698000002484 ], [ -89.645617000002005, 35.885833000003196 ], [ -89.641078000001585, 35.906233000002409 ], [ -89.650267000001989, 35.92766300000298 ], [ -89.7140070000018, 35.959813000002448 ], [ -89.722916000002314, 35.989061000002657 ], [ -89.706729000002028, 36.001883000002593 ], [ -89.687254000001928, 36.034048000002407 ], [ -89.680029000001667, 36.08249400000247 ], [ -89.593070000001873, 36.129699000002553 ], [ -89.592206000002065, 36.150120000002879 ], [ -89.629453000001632, 36.185382000002527 ], [ -89.705250000002025, 36.236568000002542 ], [ -89.695235000001745, 36.252766000002879 ], [ -89.65140700000255, 36.250683000002489 ], [ -89.611145000002509, 36.239271000002901 ], [ -89.534676000001824, 36.252771000002859 ], [ -89.537183000002528, 36.274385000002304 ], [ -89.611819000002043, 36.309088000002419 ], [ -89.610689000001798, 36.340442000002703 ], [ -89.531822000002478, 36.339246000003158 ], [ -89.511178000001749, 36.367844000002712 ], [ -89.542337000001893, 36.420103000002413 ], [ -89.520642000002226, 36.47866800000282 ], [ -89.453514000001874, 36.461789000003002 ], [ -89.41822000000154, 36.499029000002587 ], [ -89.346066000002438, 36.503232000002633 ], [ -89.256345000002369, 36.506316000002343 ], [ -89.010553000002361, 36.502753000002485 ], [ -88.964166000002564, 36.502122000002409 ], [ -88.827303000002502, 36.502633000003023 ], [ -88.576890000002209, 36.502096000002837 ], [ -88.516403000002114, 36.501583000002668 ], [ -88.259186000001876, 36.50006300000274 ], [ -88.137736000002022, 36.498672000003111 ], [ -88.05329300000173, 36.497058000003022 ], [ -88.032675000001788, 36.536985000002844 ], [ -88.044862000001643, 36.60307000000261 ], [ -88.070541000001498, 36.678255000003226 ], [ -88.012203000001975, 36.67719000000249 ], [ -87.902059000002225, 36.667000000003007 ], [ -87.849544000002439, 36.663695000002392 ], [ -87.853319000002557, 36.633160000002405 ], [ -87.80210200000208, 36.634762000003221 ], [ -87.641157000001698, 36.638109000002899 ], [ -87.626107000001468, 36.543051000002649 ], [ -87.626071000002085, 36.542825000002921 ], [ -87.602597000001992, 36.418979000003091 ], [ -87.592358000001568, 36.367663000002501 ], [ -87.587951000001681, 36.347122000003218 ], [ -87.530815000001525, 36.3363600000026 ], [ -87.513533000001942, 36.334713000003219 ], [ -87.523935000002481, 36.251242000002755 ], [ -87.532361000002552, 36.246745000002925 ], [ -87.541735000002518, 36.215309000003032 ], [ -87.566798000002549, 36.17785700000276 ], [ -87.585973000001957, 36.197699000002665 ], [ -87.652999000002509, 36.200795000003225 ], [ -87.707509000002489, 36.227205000002535 ], [ -87.791086000002153, 36.244559000003029 ], [ -87.834641000002492, 36.232368000002474 ], [ -87.949603000002483, 36.243160000002469 ], [ -87.944295000002541, 36.264177000002391 ], [ -87.955844000002031, 36.312223000002788 ], [ -87.98074000000183, 36.353307000002637 ], [ -87.990920000002021, 36.360133000002669 ], [ -88.087674000002039, 36.359166000003228 ], [ -88.096473000002348, 36.347202000003001 ], [ -88.100693000001741, 36.322804000002563 ], [ -88.082890000002024, 36.260406000003115 ], [ -88.101938000001908, 36.232659000002847 ], [ -88.136905000001548, 36.209537000002733 ], [ -88.168821000002396, 36.165978000002745 ], [ -88.212559000001633, 36.120290000003145 ], [ -88.213005000002383, 36.069379000003146 ], [ -88.214442000001554, 35.98275200000289 ], [ -88.214831000002107, 35.961429000003157 ], [ -88.216237000001897, 35.904790000002933 ], [ -88.217436000002536, 35.846582000002385 ], [ -88.17785900000176, 35.845841000002544 ], [ -88.179177000002056, 35.81678500000239 ], [ -88.252439000001871, 35.818494000002971 ], [ -88.26524000000164, 35.818825000002938 ], [ -88.477158000002063, 35.823382000003164 ], [ -88.500450000002218, 35.82346300000286 ], [ -88.569047000002485, 35.824829000002545 ], [ -88.599627000001945, 35.801785000002468 ], [ -88.60686200000184, 35.789354000002483 ], [ -88.608494000001869, 35.726184000002576 ], [ -88.608501000001695, 35.72592300000251 ], [ -88.609539000001675, 35.690100000003007 ], [ -88.613611000002038, 35.588089000002384 ], [ -88.561953000001537, 35.578368000003231 ], [ -88.527999000001827, 35.530374000003128 ], [ -88.505354000001574, 35.512030000002483 ], [ -88.459472000001924, 35.494043000002968 ], [ -88.441276000001864, 35.490306000002448 ], [ -88.422362000002053, 35.489095000002493 ], [ -88.364005000001526, 35.492801000003091 ], [ -88.362590000001845, 35.458554000003225 ], [ -88.360829000001786, 35.418972000002405 ], [ -88.362572000002075, 35.3809940000029 ], [ -88.368646000002371, 35.25529400000265 ], [ -88.332379000002433, 35.262305000002648 ], [ -88.297858000002108, 35.255513000002786 ], [ -88.289969000002301, 35.271270000003149 ], [ -88.261667000001538, 35.248701000003194 ], [ -88.257804000002167, 35.224595000003184 ], [ -88.238142000002057, 35.22291700000266 ], [ -88.234885000001881, 35.239165000003169 ], [ -88.1929890000021, 35.2523810000026 ], [ -88.156621000002119, 35.222658000002767 ], [ -88.123323000002443, 35.230746000003222 ], [ -88.102911000001711, 35.229315000002934 ], [ -88.066724000001514, 35.201007000002392 ], [ -88.011345000002223, 35.197949000002716 ], [ -87.983573000002238, 35.180648000002492 ], [ -87.982928000002374, 35.220596000002487 ], [ -87.98169700000156, 35.287940000002529 ], [ -88.009538000001569, 35.30152600000303 ], [ -88.017908000001654, 35.329979000002467 ], [ -88.004872000002308, 35.350912000002857 ], [ -88.024739000001844, 35.389652000003139 ], [ -88.024741000002265, 35.392307000002475 ], [ -87.974860000001499, 35.401970000003047 ], [ -88.007709000002038, 35.42338100000255 ], [ -87.973180000002429, 35.459968000002817 ], [ -87.905790000002227, 35.462456000002682 ], [ -87.862541000001542, 35.475091000003218 ], [ -87.815016000002402, 35.476487000002727 ], [ -87.803589000002063, 35.484954000003015 ], [ -87.733811000001523, 35.49169100000249 ], [ -87.717559000002126, 35.483347000002645 ], [ -87.713420000001506, 35.482606000003052 ], [ -87.645896000001784, 35.472745000003023 ], [ -87.6464850000024, 35.442071000002791 ], [ -87.607276000002216, 35.436176000002504 ], [ -87.591911000002327, 35.411577000002936 ], [ -87.575352000001587, 35.398454000002708 ], [ -87.576972000002556, 35.318965000003281 ], [ -87.578686000002421, 35.244649000002454 ], [ -87.578732000001807, 35.225094000003189 ], [ -87.578897000001703, 35.193846000003269 ], [ -87.577796000002522, 35.159400000002975 ], [ -87.590376000001896, 35.142756000002848 ], [ -87.589431000002079, 35.092261000002992 ], [ -87.588833000002069, 35.058431000002912 ], [ -87.60573300000199, 35.035865000003099 ], [ -87.60603100000219, 35.003425000003261 ], [ -87.619270000002302, 35.003620000002769 ], [ -87.722343000002056, 35.004228000002598 ], [ -87.984916000002571, 35.005933000002585 ], [ -88.202959000002039, 35.008028000002746 ], [ -88.200064000002087, 34.995634000002674 ], [ -88.345949000001696, 34.995507000002753 ], [ -88.380508000001683, 34.995610000002529 ], [ -88.505408000002362, 34.995872000002905 ], [ -88.584988000001829, 34.995655000002458 ], [ -88.753522000002278, 34.995295000002862 ], [ -88.786612000002208, 34.99525200000263 ], [ -88.858245000001929, 34.995136000002532 ], [ -88.993645000001692, 34.994887000003096 ], [ -89.099772000002503, 34.994730000002804 ], [ -89.198288000002336, 34.994484000002998 ], [ -89.342735000001596, 34.993948000002618 ], [ -89.441017000001921, 34.993796000003044 ], [ -89.582227000002518, 34.995063000002638 ], [ -89.644050000002125, 34.995291000003171 ], [ -89.642786000002161, 35.044860000002508 ], [ -89.64218700000184, 35.057687000002772 ], [ -89.640886000002325, 35.081545000002642 ], [ -89.640077000001739, 35.105625000002313 ], [ -89.639223000002119, 35.131327000002862 ], [ -89.68996900000235, 35.091787000002768 ], [ -89.703444000002563, 35.094354000002383 ], [ -89.731539000001561, 35.105631000002816 ], [ -89.737371000001886, 35.108826000002566 ] ] ] } },
{ "type": "Feature", "properties": { "opt_all": 7, "population": 766404.0, "voting_age_pop": 580426.0, "dem_votes": 91078.0, "rep_votes": 233329.0, "minority_pop": 97442.0, "dem_pct": 0.28075226481526222, "rep_pct": 0.71924773487648297 }, "geometry": { "type": "Polygon", "coordinates": [ [ [ -88.066724000001514, 35.201007000002392 ], [ -88.102911000001711, 35.229315000002934 ], [ -88.123323000002443, 35.230746000003222 ], [ -88.156621000002119, 35.222658000002767 ], [ -88.1929890000021, 35.2523810000026 ], [ -88.234885000001881, 35.239165000003169 ], [ -88.238142000002057, 35.22291700000266 ], [ -88.257804000002167, 35.224595000003184 ], [ -88.261667000001538, 35.248701000003194 ], [ -88.289969000002301, 35.271270000003149 ], [ -88.297858000002108, 35.255513000002786 ], [ -88.332379000002433, 35.262305000002648 ], [ -88.368646000002371, 35.25529400000265 ], [ -88.362572000002075, 35.3809940000029 ], [ -88.360829000001786, 35.418972000002405 ], [ -88.362590000001845, 35.458554000003225 ], [ -88.364005000001526, 35.492801000003091 ], [ -88.422362000002053, 35.489095000002493 ], [ -88.441276000001864, 35.490306000002448 ], [ -88.459472000001924, 35.494043000002968 ], [ -88.505354000001574, 35.512030000002483 ], [ -88.527999000001827, 35.530374000003128 ], [ -88.561953000001537, 35.578368000003231 ], [ -88.613611000002038, 35.588089000002384 ], [ -88.609539000001675, 35.690100000003007 ], [ -88.608501000001695, 35.72592300000251 ], [ -88.608494000001869, 35.726184000002576 ], [ -88.60686200000184, 35.789354000002483 ], [ -88.599627000001945, 35.801785000002468 ], [ -88.569047000002485, 35.824829000002545 ], [ -88.500450000002218, 35.82346300000286 ], [ -88.477158000002063, 35.823382000003164 ], [ -88.26524000000164, 35.818825000002938 ], [ -88.252439000001871, 35.818494000002971 ], [ -88.179177000002056, 35.81678500000239 ], [ -88.17785900000176, 35.845841000002544 ], [ -88.217436000002536, 35.846582000002385 ], [ -88.216237000001897, 35.904790000002933 ], [ -88.214831000002107, 35.961429000003157 ], [ -88.214442000001554, 35.98275200000289 ], [ -88.213005000002383, 36.069379000003146 ], [ -88.212559000001633, 36.120290000003145 ], [ -88.168821000002396, 36.165978000002745 ], [ -88.136905000001548, 36.209537000002733 ], [ -88.101938000001908, 36.232659000002847 ], [ -88.082890000002024, 36.260406000003115 ], [ -88.100693000001741, 36.322804000002563 ], [ -88.096473000002348, 36.347202000003001 ], [ -88.087674000002039, 36.359166000003228 ], [ -87.990920000002021, 36.360133000002669 ], [ -87.98074000000183, 36.353307000002637 ], [ -87.955844000002031, 36.312223000002788 ], [ -87.944295000002541, 36.264177000002391 ], [ -87.949603000002483, 36.243160000002469 ], [ -87.834641000002492, 36.232368000002474 ], [ -87.791086000002153, 36.244559000003029 ], [ -87.707509000002489, 36.227205000002535 ], [ -87.652999000002509, 36.200795000003225 ], [ -87.585973000001957, 36.197699000002665 ], [ -87.566798000002549, 36.17785700000276 ], [ -87.544519000001685, 36.094158000002949 ], [ -87.544599000001682, 36.093575000003071 ], [ -87.552372000001824, 36.016007000003285 ], [ -87.534530000002519, 35.993074000003041 ], [ -87.445527000002414, 35.983697000002884 ], [ -87.399405000002375, 35.978938000002451 ], [ -87.314036000001821, 35.969809000003288 ], [ -87.204242000001571, 35.959186000002923 ], [ -87.205070000001939, 35.914639000002687 ], [ -87.212200000001715, 35.867363000002513 ], [ -87.215099000001601, 35.8506510000025 ], [ -87.077796000002223, 35.806787000003119 ], [ -87.003959000002453, 35.779028000002803 ], [ -86.96951000000179, 35.771676000002948 ], [ -86.929251000001472, 35.778160000003254 ], [ -86.928779000002464, 35.778095000003262 ], [ -86.92518900000249, 35.756173000002519 ], [ -86.913083000001947, 35.752518000002837 ], [ -86.873047000001961, 35.739204000002907 ], [ -86.86561300000173, 35.737370000002784 ], [ -86.86993400000209, 35.751497000002644 ], [ -86.861282000001509, 35.789708000003046 ], [ -86.90467900000165, 35.799277000002448 ], [ -86.881740000001884, 35.833108000002611 ], [ -86.909921000002328, 35.874973000002903 ], [ -86.940002000001812, 35.878695000002494 ], [ -86.968875000001745, 35.828212000002409 ], [ -86.997542000001687, 35.816665000002502 ], [ -87.031987000002133, 35.842814000002527 ], [ -87.068889000001519, 35.836799000002877 ], [ -87.0887530000022, 35.857723000003141 ], [ -87.034470000001761, 35.92370400000312 ], [ -87.016927000001616, 35.950293000002404 ], [ -87.023023000002283, 35.993202000002874 ], [ -87.016082000001845, 35.997874000003229 ], [ -86.968487000002071, 36.027906000003057 ], [ -86.962984000001512, 36.031386000003245 ], [ -86.928602000001902, 36.052909000003012 ], [ -86.864957000001965, 36.044672000002898 ], [ -86.783079000002104, 36.034886000002949 ], [ -86.769095000001869, 36.029216000002478 ], [ -86.738652000001665, 36.01325600000326 ], [ -86.692324000002131, 35.994753000003271 ], [ -86.687714000002515, 35.995343000003082 ], [ -86.681889000002442, 35.989399000002706 ], [ -86.632912000002392, 35.974401000002452 ], [ -86.618892000001907, 35.968224000003246 ], [ -86.618899000002173, 35.968141000002582 ], [ -86.596531000001463, 35.956264000003216 ], [ -86.566355000001479, 35.967787000002645 ], [ -86.532031000001709, 35.935063000003076 ], [ -86.52085700000201, 35.925014000003195 ], [ -86.510064000001748, 35.915323000003156 ], [ -86.476228000002351, 35.88481700000245 ], [ -86.457223000001463, 35.867463000003177 ], [ -86.451920000001707, 35.844818000002476 ], [ -86.440187000001913, 35.846500000002642 ], [ -86.442391000001621, 35.826054000002564 ], [ -86.431975000001884, 35.819504000003128 ], [ -86.459229000001486, 35.810716000003048 ], [ -86.443442000002378, 35.788852000003168 ], [ -86.426022000002064, 35.783709000002482 ], [ -86.400704000001824, 35.786028000002915 ], [ -86.372205000001713, 35.785171000003153 ], [ -86.355137000001989, 35.763811000002782 ], [ -86.371725000002385, 35.750051000002529 ], [ -86.357428000001704, 35.723536000002539 ], [ -86.365042000001665, 35.684260000003334 ], [ -86.359716000002379, 35.652161000002565 ], [ -86.310374000001843, 35.661587000003166 ], [ -86.245165000001819, 35.631913000003102 ], [ -86.24681700000184, 35.685428000003157 ], [ -86.20714700000164, 35.703790000002883 ], [ -86.15106700000166, 35.666971000003329 ], [ -86.120263000001756, 35.660929000003307 ], [ -86.088890000001996, 35.64682300000252 ], [ -86.053246000001806, 35.643989000003025 ], [ -85.985062000002372, 35.660108000002893 ], [ -85.984021000001931, 35.655202000002667 ], [ -85.971593000002272, 35.630693000002523 ], [ -85.955972000001935, 35.586206000003294 ], [ -85.937508000001486, 35.566782000002476 ], [ -85.908495000001565, 35.554426000002678 ], [ -85.87696200000201, 35.524095000003001 ], [ -85.885043000002184, 35.490204000002493 ], [ -85.889216000001497, 35.443954000002904 ], [ -85.884482000001967, 35.39297900000247 ], [ -85.86947800000209, 35.380435000002556 ], [ -85.88107700000225, 35.348804000003291 ], [ -85.904877000002486, 35.330434000003308 ], [ -85.913593000001399, 35.289189000003233 ], [ -85.946767000001813, 35.307951000003115 ], [ -86.001882000001814, 35.314680000003236 ], [ -86.027040000001932, 35.343837000002786 ], [ -86.092220000002442, 35.352627000002443 ], [ -86.106663000002428, 35.354808000002848 ], [ -86.15801800000186, 35.362607000002932 ], [ -86.181904000002007, 35.351703000003056 ], [ -86.207591000001983, 35.337847000003215 ], [ -86.212154000001561, 35.344885000002655 ], [ -86.261489000002072, 35.333579000003262 ], [ -86.261240000002203, 35.340829000003296 ], [ -86.26092900000171, 35.36160200000257 ], [ -86.251673000001631, 35.403511000003157 ], [ -86.257590000001557, 35.412476000003096 ], [ -86.288015000001721, 35.407260000002623 ], [ -86.317999000001848, 35.381562000002837 ], [ -86.367770000002409, 35.352234000002788 ], [ -86.409286000002112, 35.346591000003194 ], [ -86.421672000002147, 35.319267000003094 ], [ -86.476458000001458, 35.339437000003052 ], [ -86.485098000002395, 35.360545000003292 ], [ -86.525306000002118, 35.354718000002805 ], [ -86.531014000002415, 35.318275000003055 ], [ -86.461260000001758, 35.292767000002776 ], [ -86.460795000002307, 35.284573000003157 ], [ -86.444197000001921, 35.277975000002932 ], [ -86.415591000001641, 35.2606790000033 ], [ -86.416520000001526, 35.232313000002634 ], [ -86.404153000001784, 35.238510000003068 ], [ -86.370391000001646, 35.179082000002509 ], [ -86.370097000002445, 35.136020000002574 ], [ -86.318168000002018, 35.126986000002951 ], [ -86.318175000002483, 35.110975000003258 ], [ -86.317841000002048, 35.063371000002896 ], [ -86.318761000002382, 34.991169000003332 ], [ -86.428637000001657, 34.990927000003019 ], [ -86.571308000001494, 34.991012000003195 ], [ -86.600040000002195, 34.991241000002972 ], [ -86.721724000002425, 34.991930000003187 ], [ -86.836306000002324, 34.991899000002775 ], [ -86.937456000002427, 34.993907000002942 ], [ -87.089895000002286, 34.996590000003216 ], [ -87.224052000002217, 34.999377000003307 ], [ -87.349324000002341, 35.001659000003073 ], [ -87.437074000001985, 35.002776000003237 ], [ -87.522663000002268, 35.003051000003005 ], [ -87.60603100000219, 35.003425000003261 ], [ -87.60573300000199, 35.035865000003099 ], [ -87.588833000002069, 35.058431000002912 ], [ -87.589431000002079, 35.092261000002992 ], [ -87.590376000001896, 35.142756000002848 ], [ -87.577796000002522, 35.159400000002975 ], [ -87.578897000001703, 35.193846000003269 ], [ -87.578732000001807, 35.225094000003189 ], [ -87.578686000002421, 35.244649000002454 ], [ -87.576972000002556, 35.318965000003281 ], [ -87.575352000001587, 35.398454000002708 ], [ -87.591911000002327, 35.411577000002936 ], [ -87.607276000002216, 35.436176000002504 ], [ -87.6464850000024, 35.442071000002791 ], [ -87.645896000001784, 35.472745000003023 ], [ -87.713420000001506, 35.482606000003052 ], [ -87.717559000002126, 35.483347000002645 ], [ -87.733811000001523, 35.49169100000249 ], [ -87.803589000002063, 35.484954000003015 ], [ -87.815016000002402, 35.476487000002727 ], [ -87.862541000001542, 35.475091000003218 ], [ -87.905790000002227, 35.462456000002682 ], [ -87.973180000002429, 35.459968000002817 ], [ -88.007709000002038, 35.42338100000255 ], [ -87.974860000001499, 35.401970000003047 ], [ -88.024741000002265, 35.392307000002475 ], [ -88.024739000001844, 35.389652000003139 ], [ -88.004872000002308, 35.350912000002857 ], [ -88.017908000001654, 35.329979000002467 ], [ -88.009538000001569, 35.30152600000303 ], [ -87.98169700000156, 35.287940000002529 ], [ -87.982928000002374, 35.220596000002487 ], [ -87.983573000002238, 35.180648000002492 ], [ -88.011345000002223, 35.197949000002716 ], [ -88.066724000001514, 35.201007000002392 ] ] ] } },
{ "type": "Feature", "properties": { "opt_all": 8, "population": 768858.0, "voting_age_pop": 609930.0, "dem_votes": 102601.0, "rep_votes": 221479.0, "minority_pop": 122076.0, "dem_pct": 0.31659158222766243, "rep_pct": 0.68340841746377179 }, "geometry": { "type": "Polygon", "coordinates": [ [ [ -86.317841000002048, 35.063371000002896 ], [ -86.318175000002483, 35.110975000003258 ], [ -86.318168000002018, 35.126986000002951 ], [ -86.370097000002445, 35.136020000002574 ], [ -86.370391000001646, 35.179082000002509 ], [ -86.404153000001784, 35.238510000003068 ], [ -86.416520000001526, 35.232313000002634 ], [ -86.415591000001641, 35.2606790000033 ], [ -86.444197000001921, 35.277975000002932 ], [ -86.460795000002307, 35.284573000003157 ], [ -86.461260000001758, 35.292767000002776 ], [ -86.531014000002415, 35.318275000003055 ], [ -86.525306000002118, 35.354718000002805 ], [ -86.485098000002395, 35.360545000003292 ], [ -86.476458000001458, 35.339437000003052 ], [ -86.421672000002147, 35.319267000003094 ], [ -86.409286000002112, 35.346591000003194 ], [ -86.367770000002409, 35.352234000002788 ], [ -86.317999000001848, 35.381562000002837 ], [ -86.288015000001721, 35.407260000002623 ], [ -86.257590000001557, 35.412476000003096 ], [ -86.251673000001631, 35.403511000003157 ], [ -86.26092900000171, 35.36160200000257 ], [ -86.261240000002203, 35.340829000003296 ], [ -86.261489000002072, 35.333579000003262 ], [ -86.212154000001561, 35.344885000002655 ], [ -86.207591000001983, 35.337847000003215 ], [ -86.181904000002007, 35.351703000003056 ], [ -86.15801800000186, 35.362607000002932 ], [ -86.106663000002428, 35.354808000002848 ], [ -86.092220000002442, 35.352627000002443 ], [ -86.027040000001932, 35.343837000002786 ], [ -86.001882000001814, 35.314680000003236 ], [ -85.946767000001813, 35.307951000003115 ], [ -85.913593000001399, 35.289189000003233 ], [ -85.899154000002383, 35.264828000002737 ], [ -85.887876000001953, 35.249037000002787 ], [ -85.854465000002307, 35.242798000002942 ], [ -85.792468000001421, 35.266292000003077 ], [ -85.837297000001442, 35.276907000002574 ], [ -85.814498000002402, 35.307707000003298 ], [ -85.788855000001405, 35.309427000002451 ], [ -85.752098000001709, 35.305156000003286 ], [ -85.732598000001644, 35.305737000003191 ], [ -85.709418000001762, 35.289251000002835 ], [ -85.690415000002432, 35.286075000002832 ], [ -85.655553000001504, 35.30553600000254 ], [ -85.640094000002392, 35.302729000003211 ], [ -85.560119000001635, 35.318691000002786 ], [ -85.558551000001785, 35.319292000002882 ], [ -85.543873000001454, 35.302371000002857 ], [ -85.463506000001559, 35.267723000003194 ], [ -85.439893000001547, 35.254432000003277 ], [ -85.418071000002385, 35.235752000002769 ], [ -85.391427000002423, 35.201367000002769 ], [ -85.387089000001623, 35.147169000002776 ], [ -85.382889000001441, 35.152221000002939 ], [ -85.376418000002161, 35.160009000002674 ], [ -85.363127000001455, 35.176299000003013 ], [ -85.292544000001371, 35.262910000003259 ], [ -85.289701000002168, 35.266402000002721 ], [ -85.248683000001392, 35.316049000002579 ], [ -85.225877000002228, 35.354276000003303 ], [ -85.216407000001936, 35.37002500000299 ], [ -85.188920000001517, 35.418001000003208 ], [ -85.168302000002114, 35.45561400000252 ], [ -85.13109400000215, 35.458004000002568 ], [ -85.11165700000187, 35.456955000002807 ], [ -85.082868000002065, 35.43145800000331 ], [ -85.04369400000212, 35.423843000002499 ], [ -85.01666100000233, 35.409101000002671 ], [ -85.030369000001556, 35.379122000002504 ], [ -85.008366000001459, 35.383255000002848 ], [ -84.975249000002307, 35.357870000002571 ], [ -84.964078000002146, 35.310315000002738 ], [ -84.946339000001643, 35.287717000003283 ], [ -84.925848000001636, 35.2906710000033 ], [ -84.860164000001461, 35.350074000003282 ], [ -84.858702000002012, 35.352545000002856 ], [ -84.81092200000198, 35.436491000002896 ], [ -84.757586000001837, 35.49247400000305 ], [ -84.736514000002273, 35.516316000003151 ], [ -84.70677300000203, 35.541347000003086 ], [ -84.666889000001859, 35.592814000002733 ], [ -84.655157000002319, 35.606749000003155 ], [ -84.619865000001951, 35.644651000002973 ], [ -84.584472000001568, 35.644424000003056 ], [ -84.539963000001663, 35.670465000003382 ], [ -84.521936000001915, 35.676597000003248 ], [ -84.512361000001434, 35.715149000002938 ], [ -84.467930000001843, 35.741489000002908 ], [ -84.44733000000214, 35.759083000002931 ], [ -84.416415000001663, 35.776451000002744 ], [ -84.388333000001793, 35.768683000002731 ], [ -84.374342000001647, 35.822954000003271 ], [ -84.342791000001483, 35.831890000002659 ], [ -84.330159000001842, 35.89211500000328 ], [ -84.278817000002348, 35.881035000002612 ], [ -84.263383000001724, 35.896940000002616 ], [ -84.240753000001803, 35.876654000002603 ], [ -84.224015000001543, 35.861045000003031 ], [ -84.205711000002324, 35.844009000003268 ], [ -84.195349000002267, 35.834689000003209 ], [ -84.166267000001824, 35.805106000002567 ], [ -84.142520000002207, 35.796954000002664 ], [ -84.090922000001385, 35.778302000003038 ], [ -84.093572000002069, 35.755589000003084 ], [ -84.067588000002161, 35.758922000002656 ], [ -84.056600000001794, 35.757670000003394 ], [ -84.072194000002014, 35.740086000003323 ], [ -84.019125000001637, 35.717933000003384 ], [ -84.023921000001522, 35.712449000003289 ], [ -83.988263000001581, 35.708344000002697 ], [ -83.979220000001462, 35.716696000003317 ], [ -83.966369000001748, 35.71592900000293 ], [ -83.950426000002153, 35.733065000003407 ], [ -83.94609200000211, 35.727970000003339 ], [ -83.931548000002209, 35.686047000003214 ], [ -83.901985000001829, 35.671564000002917 ], [ -83.865612000002102, 35.704308000002818 ], [ -83.85417800000198, 35.731274000002955 ], [ -83.833499000001694, 35.747086000002597 ], [ -83.81917500000219, 35.73508500000279 ], [ -83.781671000002007, 35.759629000002718 ], [ -83.734186000002026, 35.77265700000266 ], [ -83.716671000001526, 35.730682000002972 ], [ -83.70198500000231, 35.716017000003355 ], [ -83.662814000001347, 35.69061800000334 ], [ -83.662999000001648, 35.56946800000329 ], [ -83.770587000002081, 35.561743000002828 ], [ -83.825566000002311, 35.524311000003109 ], [ -83.880312000001766, 35.518782000002965 ], [ -83.920844000001594, 35.473849000003007 ], [ -83.961102000001759, 35.463754000002979 ], [ -83.999124000001899, 35.434223000003215 ], [ -84.021452000001503, 35.404223000002851 ], [ -84.009630000001891, 35.381872000002815 ], [ -84.035829000002352, 35.3157980000028 ], [ -84.021495000002389, 35.301083000002606 ], [ -84.05559800000195, 35.268496000002784 ], [ -84.092318000002365, 35.249374000003364 ], [ -84.149972000001981, 35.246059000002873 ], [ -84.199755000002312, 35.244119000003394 ], [ -84.211395000001971, 35.265621000002724 ], [ -84.290519000001325, 35.223571000003147 ], [ -84.29236500000232, 35.20669400000272 ], [ -84.308219000001372, 35.092946000002556 ], [ -84.31762700000165, 35.021862000003125 ], [ -84.321821000001478, 34.98840800000287 ], [ -84.568240000001879, 34.988298000003361 ], [ -84.775853000002087, 34.987884000002573 ], [ -84.88652700000226, 34.987871000003253 ], [ -84.976976000001628, 34.987664000003001 ], [ -85.096092000001391, 34.986538000002632 ], [ -85.140602000001692, 34.986374000002954 ], [ -85.175227000002309, 34.985976000002907 ], [ -85.226572000001951, 34.985574000003147 ], [ -85.273020000001623, 34.984975000002834 ], [ -85.280199000001588, 34.984904000002786 ], [ -85.305462000002294, 34.984475000002647 ], [ -85.322819000002212, 34.984155000002502 ], [ -85.345558000001887, 34.983675000002641 ], [ -85.36475800000234, 34.983375000002724 ], [ -85.474073000002051, 34.983020000003194 ], [ -85.552714000001771, 34.983996000002897 ], [ -85.694764000002479, 34.986241000003275 ], [ -85.795819000001956, 34.987600000003162 ], [ -85.847865000002045, 34.988203000003217 ], [ -85.863935000001518, 34.988253000002686 ], [ -86.067137000001765, 34.989514000002806 ], [ -86.152814000001769, 34.989926000002896 ], [ -86.318761000002382, 34.991169000003332 ], [ -86.317841000002048, 35.063371000002896 ] ] ] } },
{ "type": "Feature", "properties": { "opt_all": 9, "population": 770317.0, "voting_age_pop": 597130.0, "dem_votes": 87212.0, "rep_votes": 218448.0, "minority_pop": 114224.0, "dem_pct": 0.28532356203450776, "rep_pct": 0.71467643763833133 }, "geometry": { "type": "Polygon", "coordinates": [ [ [ -86.510064000001748, 35.915323000003156 ], [ -86.52085700000201, 35.925014000003195 ], [ -86.532031000001709, 35.935063000003076 ], [ -86.566355000001479, 35.967787000002645 ], [ -86.596531000001463, 35.956264000003216 ], [ -86.618899000002173, 35.968141000002582 ], [ -86.618892000001907, 35.968224000003246 ], [ -86.612691000001661, 36.007523000003275 ], [ -86.560677000001462, 36.039845000002877 ], [ -86.566379000001433, 36.048762000002881 ], [ -86.565485000001942, 36.050850000002939 ], [ -86.540689000001848, 36.077619000002869 ], [ -86.521083000001425, 36.072395000002842 ], [ -86.515589000001938, 36.100610000003222 ], [ -86.526437000002062, 36.126479000002803 ], [ -86.556609000001856, 36.134928000003121 ], [ -86.567917000002467, 36.168690000002748 ], [ -86.572172000002453, 36.179372000002793 ], [ -86.577515000002094, 36.199759000003262 ], [ -86.580900000001463, 36.208819000002926 ], [ -86.583626000002042, 36.216703000002454 ], [ -86.594286000002, 36.245105000003022 ], [ -86.616226000002214, 36.245767000002637 ], [ -86.622798000001481, 36.249308000003197 ], [ -86.639095000002442, 36.25510500000329 ], [ -86.642000000001602, 36.288251000002688 ], [ -86.668744000001823, 36.300577000003159 ], [ -86.672838000002344, 36.312213000002679 ], [ -86.635552000002122, 36.302572000002925 ], [ -86.622673000002152, 36.28598400000277 ], [ -86.60037800000228, 36.278543000003175 ], [ -86.603692000002169, 36.285038000002523 ], [ -86.559794000002213, 36.287451000002953 ], [ -86.564433000002481, 36.304550000003132 ], [ -86.51699400000193, 36.285151000002649 ], [ -86.509276000002131, 36.30293800000328 ], [ -86.48322900000214, 36.316811000003277 ], [ -86.474093000002043, 36.321450000003189 ], [ -86.437184000001707, 36.33965600000306 ], [ -86.41544000000215, 36.313698000002617 ], [ -86.390436000002012, 36.310196000002954 ], [ -86.376888000002438, 36.350921000002799 ], [ -86.346517000001683, 36.345112000002679 ], [ -86.344832000001475, 36.314195000002506 ], [ -86.298452000001433, 36.313634000002914 ], [ -86.283256000001984, 36.347500000002761 ], [ -86.244456000002515, 36.336405000002912 ], [ -86.230096000002234, 36.349172000002547 ], [ -86.175916000002402, 36.328836000002553 ], [ -86.136803000001947, 36.295859000002828 ], [ -86.131497000002184, 36.283722000002712 ], [ -86.102800000002389, 36.205147000002775 ], [ -86.09252700000178, 36.203502000002821 ], [ -86.090005000002421, 36.170371000002852 ], [ -86.06613200000244, 36.124178000003049 ], [ -86.059706000001896, 36.086024000002737 ], [ -86.012302000001824, 36.089962000003254 ], [ -85.986083000001457, 36.087095000002691 ], [ -85.964574000001605, 36.108826000002445 ], [ -85.894357000002245, 36.104963000002897 ], [ -85.866494000001524, 36.094143000002944 ], [ -85.842608000002372, 36.119545000003029 ], [ -85.807415000001697, 36.131582000003299 ], [ -85.789850000002076, 36.107780000003324 ], [ -85.767695000002377, 36.072922000002833 ], [ -85.722648000001399, 36.081986000002495 ], [ -85.696158000001844, 36.070024000002853 ], [ -85.695303000001545, 36.06983900000332 ], [ -85.668236000002381, 36.029841000003309 ], [ -85.644604000001834, 36.0150530000031 ], [ -85.609618000002143, 36.046125000002768 ], [ -85.583837000002177, 36.044979000003245 ], [ -85.563507000002005, 36.068927000002851 ], [ -85.506291000001809, 36.081827000003216 ], [ -85.469030000001908, 36.073094000002513 ], [ -85.395356000001513, 36.055085000003245 ], [ -85.309363000001568, 36.031592000002874 ], [ -85.311347000001859, 35.996686000003265 ], [ -85.264206000001565, 35.979154000003319 ], [ -85.254854000001657, 36.023564000002615 ], [ -85.235757000001556, 36.105752000002781 ], [ -85.152233000001658, 36.100249000002663 ], [ -85.13174800000246, 36.128246000002868 ], [ -85.102781000001556, 36.136060000003177 ], [ -85.100213000002171, 36.13856100000266 ], [ -85.081654000001535, 36.132789000002703 ], [ -85.02803100000169, 36.170101000003157 ], [ -85.000286000001935, 36.150813000002827 ], [ -84.961831000001681, 36.150480000002723 ], [ -84.907753000002288, 36.156293000003117 ], [ -84.899747000001994, 36.172665000003065 ], [ -84.914155000002253, 36.208290000002478 ], [ -84.897425000001888, 36.224098000003075 ], [ -84.877659000001458, 36.278380000002734 ], [ -84.85250600000208, 36.292433000002944 ], [ -84.797861000001376, 36.296894000002951 ], [ -84.774966000002067, 36.332426000003188 ], [ -84.739671000001508, 36.337932000003192 ], [ -84.732491000002042, 36.366261000003078 ], [ -84.700785000002213, 36.370824000002621 ], [ -84.659082000001661, 36.395227000003125 ], [ -84.692534000001388, 36.435468000002579 ], [ -84.69264800000245, 36.435777000002602 ], [ -84.715139000001415, 36.498874000002949 ], [ -84.7318390000016, 36.524674000003088 ], [ -84.785450000002413, 36.603444000002952 ], [ -84.52092100000138, 36.59642300000273 ], [ -84.261337000002129, 36.591784000002669 ], [ -84.249231000002254, 36.564684000002622 ], [ -84.252532000001864, 36.530180000003085 ], [ -84.266877000001983, 36.511698000002973 ], [ -84.332578000001888, 36.502161000002587 ], [ -84.337143000001817, 36.496497000003075 ], [ -84.349939000002053, 36.466292000003122 ], [ -84.344701000001962, 36.415677000002766 ], [ -84.322211000001346, 36.392865000003354 ], [ -84.313774000002155, 36.383055000003019 ], [ -84.334433000001823, 36.388079000002683 ], [ -84.329927000002243, 36.285086000002785 ], [ -84.376133000002099, 36.260079000003245 ], [ -84.37273100000202, 36.216778000003188 ], [ -84.415333000002434, 36.167978000003259 ], [ -84.441034000001835, 36.163478000002627 ], [ -84.442963000002194, 36.139901000002752 ], [ -84.420432000002279, 36.108377000002868 ], [ -84.379030000002118, 36.095377000003346 ], [ -84.376189000002043, 36.091290000002658 ], [ -84.341812000001582, 36.04897700000339 ], [ -84.33907700000141, 36.041992000003141 ], [ -84.325177000001332, 36.005034000003327 ], [ -84.271587000002015, 35.910165000002806 ], [ -84.263383000001724, 35.896940000002616 ], [ -84.278817000002348, 35.881035000002612 ], [ -84.330159000001842, 35.89211500000328 ], [ -84.342791000001483, 35.831890000002659 ], [ -84.374342000001647, 35.822954000003271 ], [ -84.388333000001793, 35.768683000002731 ], [ -84.416415000001663, 35.776451000002744 ], [ -84.44733000000214, 35.759083000002931 ], [ -84.467930000001843, 35.741489000002908 ], [ -84.512361000001434, 35.715149000002938 ], [ -84.521936000001915, 35.676597000003248 ], [ -84.539963000001663, 35.670465000003382 ], [ -84.584472000001568, 35.644424000003056 ], [ -84.619865000001951, 35.644651000002973 ], [ -84.655157000002319, 35.606749000003155 ], [ -84.666889000001859, 35.592814000002733 ], [ -84.70677300000203, 35.541347000003086 ], [ -84.736514000002273, 35.516316000003151 ], [ -84.757586000001837, 35.49247400000305 ], [ -84.81092200000198, 35.436491000002896 ], [ -84.858702000002012, 35.352545000002856 ], [ -84.860164000001461, 35.350074000003282 ], [ -84.925848000001636, 35.2906710000033 ], [ -84.946339000001643, 35.287717000003283 ], [ -84.964078000002146, 35.310315000002738 ], [ -84.975249000002307, 35.357870000002571 ], [ -85.008366000001459, 35.383255000002848 ], [ -85.030369000001556, 35.379122000002504 ], [ -85.01666100000233, 35.409101000002671 ], [ -85.04369400000212, 35.423843000002499 ], [ -85.082868000002065, 35.43145800000331 ], [ -85.11165700000187, 35.456955000002807 ], [ -85.13109400000215, 35.458004000002568 ], [ -85.168302000002114, 35.45561400000252 ], [ -85.188920000001517, 35.418001000003208 ], [ -85.216407000001936, 35.37002500000299 ], [ -85.225877000002228, 35.354276000003303 ], [ -85.248683000001392, 35.316049000002579 ], [ -85.289701000002168, 35.266402000002721 ], [ -85.292544000001371, 35.262910000003259 ], [ -85.363127000001455, 35.176299000003013 ], [ -85.376418000002161, 35.160009000002674 ], [ -85.382889000001441, 35.152221000002939 ], [ -85.387089000001623, 35.147169000002776 ], [ -85.391427000002423, 35.201367000002769 ], [ -85.418071000002385, 35.235752000002769 ], [ -85.439893000001547, 35.254432000003277 ], [ -85.463506000001559, 35.267723000003194 ], [ -85.543873000001454, 35.302371000002857 ], [ -85.558551000001785, 35.319292000002882 ], [ -85.560119000001635, 35.318691000002786 ], [ -85.640094000002392, 35.302729000003211 ], [ -85.655553000001504, 35.30553600000254 ], [ -85.690415000002432, 35.286075000002832 ], [ -85.709418000001762, 35.289251000002835 ], [ -85.732598000001644, 35.305737000003191 ], [ -85.752098000001709, 35.305156000003286 ], [ -85.788855000001405, 35.309427000002451 ], [ -85.814498000002402, 35.307707000003298 ], [ -85.837297000001442, 35.276907000002574 ], [ -85.792468000001421, 35.266292000003077 ], [ -85.854465000002307, 35.242798000002942 ], [ -85.887876000001953, 35.249037000002787 ], [ -85.899154000002383, 35.264828000002737 ], [ -85.913593000001399, 35.289189000003233 ], [ -85.904877000002486, 35.330434000003308 ], [ -85.88107700000225, 35.348804000003291 ], [ -85.86947800000209, 35.380435000002556 ], [ -85.884482000001967, 35.39297900000247 ], [ -85.889216000001497, 35.443954000002904 ], [ -85.885043000002184, 35.490204000002493 ], [ -85.87696200000201, 35.524095000003001 ], [ -85.908495000001565, 35.554426000002678 ], [ -85.937508000001486, 35.566782000002476 ], [ -85.955972000001935, 35.586206000003294 ], [ -85.971593000002272, 35.630693000002523 ], [ -85.984021000001931, 35.655202000002667 ], [ -85.985062000002372, 35.660108000002893 ], [ -86.053246000001806, 35.643989000003025 ], [ -86.088890000001996, 35.64682300000252 ], [ -86.120263000001756, 35.660929000003307 ], [ -86.15106700000166, 35.666971000003329 ], [ -86.20714700000164, 35.703790000002883 ], [ -86.24681700000184, 35.685428000003157 ], [ -86.245165000001819, 35.631913000003102 ], [ -86.310374000001843, 35.661587000003166 ], [ -86.359716000002379, 35.652161000002565 ], [ -86.365042000001665, 35.684260000003334 ], [ -86.357428000001704, 35.723536000002539 ], [ -86.371725000002385, 35.750051000002529 ], [ -86.355137000001989, 35.763811000002782 ], [ -86.372205000001713, 35.785171000003153 ], [ -86.400704000001824, 35.786028000002915 ], [ -86.426022000002064, 35.783709000002482 ], [ -86.443442000002378, 35.788852000003168 ], [ -86.459229000001486, 35.810716000003048 ], [ -86.431975000001884, 35.819504000003128 ], [ -86.442391000001621, 35.826054000002564 ], [ -86.440187000001913, 35.846500000002642 ], [ -86.451920000001707, 35.844818000002476 ], [ -86.457223000001463, 35.867463000003177 ], [ -86.476228000002351, 35.88481700000245 ], [ -86.510064000001748, 35.915323000003156 ] ] ] } }
]
}
