{
"type": "FeatureCollection",
"name": "utah_enacted_districts",
"crs": { "type": "name", "properties": { "name": "urn:ogc:def:crs:OGC:1.3:CRS84" } },
"features": [
{ "type": "Feature", "properties": { "enacted_district": 1, "population": 820069.0, "voting_age_pop": 586749.0, "dem_votes": 101067.0, "rep_votes": 193651.0, "minority_pop": 114565.0, "dem_pct": 0.34292781562614844, "rep_pct": 0.65707218403454415 }, "geometry": { "type": "Polygon", "coordinates": [ [ [ -112.916529000001617, 40.999933000001505 ], [ -113.500829000002199, 40.99992900000116 ], [ -114.042029000001904, 40.999896000001748 ], [ -114.040528000002155, 41.341970000001659 ], [ -114.039463000001476, 41.719178000001193 ], [ -114.041477000001862, 41.993873000001322 ], [ -113.967480000002055, 41.991844000001159 ], [ -113.814884000001356, 41.988654000001581 ], [ -113.48469600000216, 41.993215000001683 ], [ -113.156407000001337, 41.996801000001255 ], [ -112.832528000002327, 41.999421000000993 ], [ -112.589329000002422, 42.000467000001215 ], [ -112.36397900000226, 42.001058000001429 ], [ -112.241266000002, 42.001166000001362 ], [ -112.236400000001638, 42.001167000001708 ], [ -112.159184000001446, 41.998382000001584 ], [ -112.040714000002197, 41.998108000001885 ], [ -111.974251000001999, 41.998317000001919 ], [ -111.949979000002315, 41.99834400000141 ], [ -111.876539000001543, 41.998579000001286 ], [ -111.836874000002297, 41.998836000001106 ], [ -111.739701000002484, 41.999226000001912 ], [ -111.507806000002077, 41.999552000001707 ], [ -111.407875000001823, 42.000716000001397 ], [ -111.262076000001443, 42.001316000001793 ], [ -111.046714000002396, 42.001702000001643 ], [ -111.045797000001642, 41.545758000001449 ], [ -111.046250000002445, 41.41433800000177 ], [ -111.046766000002123, 41.25162700000169 ], [ -111.046815000001516, 40.997875000001862 ], [ -110.864764000001486, 40.997202000001977 ], [ -110.828747000002366, 40.919530000001366 ], [ -110.846812000001577, 40.850415000001554 ], [ -110.926817000002345, 40.862611000001166 ], [ -110.972049000002485, 40.836897000001649 ], [ -111.063490000002361, 40.844489000001843 ], [ -111.09356300000168, 40.830487000001135 ], [ -111.092618000002318, 40.8701930000014 ], [ -111.071560000001895, 40.900638000001827 ], [ -111.11408900000184, 40.928495000001789 ], [ -111.227395000002119, 40.928642000001801 ], [ -111.227800000002262, 40.898861000001581 ], [ -111.32354900000152, 40.893398000001412 ], [ -111.323983000001874, 40.850040000001492 ], [ -111.391091000002234, 40.829144000001513 ], [ -111.407650000002477, 40.808485000001482 ], [ -111.409593000002275, 40.787986000001723 ], [ -111.3760250000024, 40.75286900000156 ], [ -111.433920000002061, 40.73901200000126 ], [ -111.4342430000017, 40.684684000001418 ], [ -111.436870000002514, 40.680587000001864 ], [ -111.46239500000236, 40.683142000001752 ], [ -111.472333000001456, 40.69755100000161 ], [ -111.472579000002241, 40.697441000001184 ], [ -111.501324000002043, 40.686599000001415 ], [ -111.515471000001554, 40.682967000001774 ], [ -111.528177000001662, 40.679254000001755 ], [ -111.533863000001901, 40.68194000000144 ], [ -111.537176000001566, 40.683501000001513 ], [ -111.586641000002317, 40.699436000001789 ], [ -111.592726000001434, 40.69912000000172 ], [ -111.600390000002136, 40.708475000001862 ], [ -111.606221000001696, 40.712856000001594 ], [ -111.781524000002122, 40.707800000001704 ], [ -111.776690000001565, 40.690515000001653 ], [ -111.786726000001394, 40.68906600000166 ], [ -111.791234000002561, 40.689119000001291 ], [ -111.797264000002201, 40.689251000001605 ], [ -111.797421000002359, 40.687040000001581 ], [ -111.808211000001776, 40.686990000001252 ], [ -111.814946000001527, 40.687084000001782 ], [ -111.824492000001456, 40.6870780000012 ], [ -111.829665000002223, 40.687087000001412 ], [ -111.833820000002007, 40.695817000001128 ], [ -111.838644000001679, 40.696277000001409 ], [ -111.838700000001523, 40.699911000001947 ], [ -111.824466000002403, 40.69986900000184 ], [ -111.824434000001759, 40.702567000001743 ], [ -111.8340990000017, 40.707447000001416 ], [ -111.838865000001846, 40.706714000001142 ], [ -111.838881000002047, 40.708344000001624 ], [ -111.839189000002506, 40.712706000001532 ], [ -111.833859000002121, 40.716662000001122 ], [ -111.830828000001375, 40.719788000001543 ], [ -111.830800000001602, 40.725490000001372 ], [ -111.830781000001423, 40.729131000001694 ], [ -111.830758000001836, 40.733581000001614 ], [ -111.830717000002082, 40.741644000001841 ], [ -111.827316000001915, 40.741645000001732 ], [ -111.827263000002105, 40.741646000001303 ], [ -111.832526000001593, 40.747752000001519 ], [ -111.833421000002119, 40.74962100000117 ], [ -111.847928000002298, 40.747275000001757 ], [ -111.853892000002304, 40.747462000001285 ], [ -111.853891000002122, 40.745754000001341 ], [ -111.859552000002282, 40.745749000001275 ], [ -111.865331000002513, 40.749790000001092 ], [ -111.868193000001881, 40.749792000001456 ], [ -111.87105800000208, 40.749789000001471 ], [ -111.882489000001939, 40.749783000001457 ], [ -111.888218000002354, 40.749779000001581 ], [ -111.88822200000196, 40.756306000001302 ], [ -111.888225000002095, 40.760652000001102 ], [ -111.899669000001623, 40.760645000001489 ], [ -111.896815000002505, 40.769346000001264 ], [ -111.899674000002221, 40.769346000001647 ], [ -111.899677000001404, 40.773693000001508 ], [ -111.889948000001596, 40.779934000001823 ], [ -111.893592000002357, 40.781281000001663 ], [ -111.899684000002281, 40.786733000001306 ], [ -111.918941000002036, 40.816936000001895 ], [ -111.916184000002033, 40.821823000001601 ], [ -111.890956000001864, 40.821826000001138 ], [ -111.883302000001663, 40.827324000001788 ], [ -111.872361000001845, 40.832957000001819 ], [ -111.860785000001584, 40.834641000001199 ], [ -111.849880000001505, 40.841798000001774 ], [ -111.84854700000254, 40.844490000001834 ], [ -111.853443000001562, 40.85643600000175 ], [ -111.836789000001801, 40.863923000001812 ], [ -111.839126000001997, 40.880506000001461 ], [ -111.843812000002202, 40.886306000001518 ], [ -111.844594000002218, 40.893722000001681 ], [ -111.862990000002199, 40.903518000001469 ], [ -111.863122000002207, 40.906486000001465 ], [ -111.853525000001397, 40.907523000001255 ], [ -111.865328000002464, 40.916587000001179 ], [ -111.869863000001999, 40.929328000001945 ], [ -111.868435000001696, 40.931653000001383 ], [ -111.8695980000021, 40.931759000001925 ], [ -111.866668000002406, 40.94012700000178 ], [ -111.870523000001882, 40.939108000001461 ], [ -111.875882000001766, 40.952646000001472 ], [ -111.880018000001698, 40.952387000001863 ], [ -111.880005000002441, 40.96476200000145 ], [ -111.877767000001555, 40.977104000001646 ], [ -111.877739000002165, 40.980052000001585 ], [ -111.881542000002199, 40.998400000001837 ], [ -111.88730900000148, 41.001055000001138 ], [ -111.89222800000168, 41.016528000001749 ], [ -111.896961000001639, 41.014020000001878 ], [ -111.911463000001717, 41.012727000001505 ], [ -111.912812000002319, 41.011833000001431 ], [ -111.914058000002242, 41.012802000001216 ], [ -111.92596900000224, 41.006322000001283 ], [ -111.930403000001661, 41.005610000001489 ], [ -111.931119000002482, 41.005614000001096 ], [ -111.925980000002085, 41.002206000001593 ], [ -111.93995100000194, 40.994634000001746 ], [ -111.94362100000204, 40.9946250000012 ], [ -111.946915000001695, 40.994612000001752 ], [ -111.947669000002122, 40.994607000001729 ], [ -112.007618000001642, 40.985483000001558 ], [ -112.050252000001834, 40.993297000001533 ], [ -112.097491000002037, 41.035288000001152 ], [ -112.126771000002321, 41.089216000001691 ], [ -112.451621000001865, 41.087334000001142 ], [ -112.493515000002034, 41.076888000001169 ], [ -112.663586000001558, 41.034280000001907 ], [ -112.799359000002397, 40.999939000001412 ], [ -112.916529000001617, 40.999933000001505 ] ] ] } },
{ "type": "Feature", "properties": { "enacted_district": 2, "population": 815799.0, "voting_age_pop": 592311.0, "dem_votes": 100308.0, "rep_votes": 174127.0, "minority_pop": 157742.0, "dem_pct": 0.36550731489587429, "rep_pct": 0.63449268473974063 }, "geometry": { "type": "Polygon", "coordinates": [ [ [ -113.558070000001564, 37.000013000001488 ], [ -113.622415000001681, 37.000013000001722 ], [ -114.050052000002154, 37.00019100000177 ], [ -114.052794000001555, 37.472340000001473 ], [ -114.052350000001638, 37.604776000001706 ], [ -114.051763000001998, 37.724038000001471 ], [ -114.048302000001797, 37.80942400000162 ], [ -114.049978000002113, 38.148763000001345 ], [ -114.049977000001903, 38.572974000001494 ], [ -114.048891000001802, 39.057112000001517 ], [ -114.047649000001954, 39.542742000001745 ], [ -114.047026000001978, 39.906097000001786 ], [ -114.046260000001993, 40.242636000001454 ], [ -114.044497000001357, 40.628289000001445 ], [ -114.044004000001635, 40.689755000001782 ], [ -114.043515000001818, 40.747712000001215 ], [ -114.042029000001904, 40.999896000001748 ], [ -113.500829000002199, 40.99992900000116 ], [ -112.916529000001617, 40.999933000001505 ], [ -112.799359000002397, 40.999939000001412 ], [ -112.663586000001558, 41.034280000001907 ], [ -112.493515000002034, 41.076888000001169 ], [ -112.451621000001865, 41.087334000001142 ], [ -112.126771000002321, 41.089216000001691 ], [ -112.097491000002037, 41.035288000001152 ], [ -112.050252000001834, 40.993297000001533 ], [ -112.007618000001642, 40.985483000001558 ], [ -111.947669000002122, 40.994607000001729 ], [ -111.946915000001695, 40.994612000001752 ], [ -111.94362100000204, 40.9946250000012 ], [ -111.93995100000194, 40.994634000001746 ], [ -111.925980000002085, 41.002206000001593 ], [ -111.931119000002482, 41.005614000001096 ], [ -111.930403000001661, 41.005610000001489 ], [ -111.92596900000224, 41.006322000001283 ], [ -111.914058000002242, 41.012802000001216 ], [ -111.912812000002319, 41.011833000001431 ], [ -111.911463000001717, 41.012727000001505 ], [ -111.896961000001639, 41.014020000001878 ], [ -111.89222800000168, 41.016528000001749 ], [ -111.88730900000148, 41.001055000001138 ], [ -111.881542000002199, 40.998400000001837 ], [ -111.877739000002165, 40.980052000001585 ], [ -111.877767000001555, 40.977104000001646 ], [ -111.880005000002441, 40.96476200000145 ], [ -111.880018000001698, 40.952387000001863 ], [ -111.875882000001766, 40.952646000001472 ], [ -111.870523000001882, 40.939108000001461 ], [ -111.866668000002406, 40.94012700000178 ], [ -111.8695980000021, 40.931759000001925 ], [ -111.868435000001696, 40.931653000001383 ], [ -111.869863000001999, 40.929328000001945 ], [ -111.865328000002464, 40.916587000001179 ], [ -111.853525000001397, 40.907523000001255 ], [ -111.863122000002207, 40.906486000001465 ], [ -111.862990000002199, 40.903518000001469 ], [ -111.844594000002218, 40.893722000001681 ], [ -111.843812000002202, 40.886306000001518 ], [ -111.839126000001997, 40.880506000001461 ], [ -111.836789000001801, 40.863923000001812 ], [ -111.853443000001562, 40.85643600000175 ], [ -111.84854700000254, 40.844490000001834 ], [ -111.849880000001505, 40.841798000001774 ], [ -111.860785000001584, 40.834641000001199 ], [ -111.872361000001845, 40.832957000001819 ], [ -111.883302000001663, 40.827324000001788 ], [ -111.890956000001864, 40.821826000001138 ], [ -111.916184000002033, 40.821823000001601 ], [ -111.918941000002036, 40.816936000001895 ], [ -111.899684000002281, 40.786733000001306 ], [ -111.893592000002357, 40.781281000001663 ], [ -111.889948000001596, 40.779934000001823 ], [ -111.899677000001404, 40.773693000001508 ], [ -111.899674000002221, 40.769346000001647 ], [ -111.896815000002505, 40.769346000001264 ], [ -111.899669000001623, 40.760645000001489 ], [ -111.888225000002095, 40.760652000001102 ], [ -111.88822200000196, 40.756306000001302 ], [ -111.888218000002354, 40.749779000001581 ], [ -111.882489000001939, 40.749783000001457 ], [ -111.87105800000208, 40.749789000001471 ], [ -111.868193000001881, 40.749792000001456 ], [ -111.865331000002513, 40.749790000001092 ], [ -111.859552000002282, 40.745749000001275 ], [ -111.853891000002122, 40.745754000001341 ], [ -111.853892000002304, 40.747462000001285 ], [ -111.847928000002298, 40.747275000001757 ], [ -111.833421000002119, 40.74962100000117 ], [ -111.832526000001593, 40.747752000001519 ], [ -111.827263000002105, 40.741646000001303 ], [ -111.827316000001915, 40.741645000001732 ], [ -111.830717000002082, 40.741644000001841 ], [ -111.830758000001836, 40.733581000001614 ], [ -111.830781000001423, 40.729131000001694 ], [ -111.830800000001602, 40.725490000001372 ], [ -111.830828000001375, 40.719788000001543 ], [ -111.833859000002121, 40.716662000001122 ], [ -111.839189000002506, 40.712706000001532 ], [ -111.838881000002047, 40.708344000001624 ], [ -111.838865000001846, 40.706714000001142 ], [ -111.8340990000017, 40.707447000001416 ], [ -111.824434000001759, 40.702567000001743 ], [ -111.824466000002403, 40.69986900000184 ], [ -111.838700000001523, 40.699911000001947 ], [ -111.838644000001679, 40.696277000001409 ], [ -111.833820000002007, 40.695817000001128 ], [ -111.829665000002223, 40.687087000001412 ], [ -111.834032000002125, 40.687088000001729 ], [ -111.839818000002523, 40.687099000001126 ], [ -111.845080000002241, 40.687096000001475 ], [ -111.854093000002507, 40.687070000001754 ], [ -111.85980800000182, 40.687054000001289 ], [ -111.865518000001543, 40.687057000001218 ], [ -111.871369000002005, 40.687072000001415 ], [ -111.876987000002217, 40.687062000001809 ], [ -111.882797000001702, 40.687066000001501 ], [ -111.888249000002446, 40.687010000001194 ], [ -111.902693000001719, 40.686700000001217 ], [ -111.911172000002537, 40.687020000001681 ], [ -111.921104000001563, 40.686329000001379 ], [ -111.929350000002216, 40.684560000001376 ], [ -111.938880000002356, 40.682122000001634 ], [ -111.946322000002354, 40.682127000001614 ], [ -111.948444000002397, 40.682129000001488 ], [ -111.951651000001917, 40.68213500000126 ], [ -111.958022000001577, 40.68214600000141 ], [ -111.967518000001647, 40.682124000001927 ], [ -111.970370000001523, 40.682119000001414 ], [ -111.977057000001594, 40.682107000001828 ], [ -111.981474000001583, 40.682105000001322 ], [ -111.986595000002538, 40.682086000001298 ], [ -111.996136000002025, 40.682064000001198 ], [ -112.005677000001555, 40.682041000001838 ], [ -112.00988100000248, 40.6820490000013 ], [ -112.015207000001439, 40.682060000001719 ], [ -112.016265000001781, 40.682062000001473 ], [ -112.017878000001886, 40.682065000001941 ], [ -112.02474300000226, 40.682078000001198 ], [ -112.024706000001757, 40.674488000001134 ], [ -112.024676000001676, 40.668462000001277 ], [ -112.024672000001715, 40.667578000001491 ], [ -112.024580000001421, 40.656872000001201 ], [ -112.024608000001621, 40.653048000001746 ], [ -112.024617000001399, 40.650240000001219 ], [ -112.024638000001801, 40.648408000001858 ], [ -112.024580000002359, 40.643653000001095 ], [ -112.024575000001676, 40.643178000001853 ], [ -112.024634000001598, 40.638551000001407 ], [ -112.031385000001464, 40.638556000001273 ], [ -112.035019000001526, 40.63122900000193 ], [ -112.038330000001764, 40.631215000001731 ], [ -112.043554000002402, 40.631218000001681 ], [ -112.043978000001516, 40.631217000001143 ], [ -112.053337000002401, 40.631166000001997 ], [ -112.065716000001515, 40.631231000001186 ], [ -112.066610000001873, 40.628920000001479 ], [ -112.079473000002096, 40.628959000001693 ], [ -112.19639300000226, 40.629340000001591 ], [ -112.188450000002021, 40.614181000001835 ], [ -112.176369000001714, 40.597196000001894 ], [ -112.182613000001624, 40.574605000001256 ], [ -112.187146000001846, 40.513079000001618 ], [ -112.177317000002077, 40.484595000001811 ], [ -112.172862000001615, 40.46706500000159 ], [ -112.213227000001766, 40.455108000001204 ], [ -112.20948500000172, 40.433068000001974 ], [ -112.1991690000023, 40.382545000001933 ], [ -112.175533000001579, 40.335837000001689 ], [ -112.198461000001842, 40.313206000001252 ], [ -112.178725000002302, 40.231407000001397 ], [ -112.153457000001794, 40.217685000001097 ], [ -112.146856000001662, 40.177817000001944 ], [ -112.176175000001763, 40.131689000001437 ], [ -112.157179000002358, 40.097960000001677 ], [ -112.183769000001718, 40.05996400000118 ], [ -112.179800000001435, 40.011656000001722 ], [ -112.109615000002435, 39.97173900000147 ], [ -112.099095000001441, 39.957436000001145 ], [ -112.103590000001404, 39.928767000001805 ], [ -112.062552000001716, 39.904680000001761 ], [ -112.08122000000202, 39.865081000001787 ], [ -112.071338000002356, 39.81452000000143 ], [ -112.089843000001963, 39.781928000001535 ], [ -112.114904000001914, 39.757100000001223 ], [ -112.180031000001435, 39.757398000001466 ], [ -112.211314000001437, 39.706157000001731 ], [ -112.299796000001763, 39.64708200000139 ], [ -112.354467000002401, 39.553684000001105 ], [ -112.324317000001443, 39.553656000001737 ], [ -112.2176480000022, 39.554001000001136 ], [ -112.193242000002058, 39.526023000001508 ], [ -112.193424000002153, 39.443379000001748 ], [ -112.188922000001696, 39.329392000001235 ], [ -112.156245000002102, 39.329369000001179 ], [ -112.081980000001593, 39.329687000001769 ], [ -112.072218000001499, 39.314923000001791 ], [ -112.016003000002044, 39.314561000001412 ], [ -112.014520000002435, 39.132617000001382 ], [ -112.014083000001804, 39.045518000001842 ], [ -111.850084000001758, 39.045570000001781 ], [ -111.840058000002244, 39.033108000001171 ], [ -111.802387000001843, 39.033221000001291 ], [ -111.739967000001926, 39.032728000001498 ], [ -111.29936000000184, 39.032264000001817 ], [ -111.298179000002605, 39.016914000001847 ], [ -111.298889000002404, 38.864436000001568 ], [ -111.298770000001582, 38.789176000001902 ], [ -111.299138000001761, 38.67232900000127 ], [ -111.307082000002495, 38.630316000002075 ], [ -111.305665000002563, 38.510169000001824 ], [ -111.249594000001736, 38.49997800000174 ], [ -110.649548000002042, 38.499981000001824 ], [ -110.025402000002245, 38.499981000002023 ], [ -110.001865000001914, 38.480231000001261 ], [ -110.026957000002, 38.44737000000196 ], [ -110.003381000002364, 38.416182000001619 ], [ -110.031973000002239, 38.384957000001698 ], [ -109.967662000002036, 38.341197000001763 ], [ -109.947896000002487, 38.289066000001554 ], [ -109.909760000001683, 38.27123000000163 ], [ -109.90079500000212, 38.242843000002139 ], [ -109.917487000001643, 38.215333000001365 ], [ -109.885720000001641, 38.189202000001615 ], [ -109.9279950000018, 38.151884000002077 ], [ -109.963644000002461, 38.114330000001758 ], [ -110.009494000002647, 38.109656000001543 ], [ -110.065815000001962, 38.040732000001618 ], [ -110.09259600000216, 37.994670000001811 ], [ -110.136690000002204, 38.005386000002026 ], [ -110.164925000002256, 37.968467000001958 ], [ -110.202382000002004, 37.946536000002013 ], [ -110.214949000002562, 37.892555000002154 ], [ -110.263111000001615, 37.899260000001519 ], [ -110.364146000002179, 37.892185000001732 ], [ -110.404612000002317, 37.879923000001362 ], [ -110.402360000002517, 37.852238000002018 ], [ -110.437538000001638, 37.80692000000213 ], [ -110.476535000002357, 37.800843000001358 ], [ -110.447283000002344, 37.736928000001463 ], [ -110.486917000001995, 37.703555000002019 ], [ -110.501594000002243, 37.650000000001427 ], [ -110.601011000002558, 37.601602000001591 ], [ -110.603607000002356, 37.571264000002031 ], [ -110.646394000001919, 37.541063000001927 ], [ -110.671897000001763, 37.477491000002168 ], [ -110.719198000001725, 37.481391000001985 ], [ -110.731698000002098, 37.457791000001464 ], [ -110.709597000001565, 37.407691000001606 ], [ -110.742198000001906, 37.344392000001903 ], [ -110.777799000002446, 37.322992000001712 ], [ -110.81250100000176, 37.324992000001387 ], [ -110.867403000001559, 37.290292000001998 ], [ -110.861203000002561, 37.264492000001354 ], [ -110.899517000002433, 37.176153000001733 ], [ -110.956276000002404, 37.147527000001311 ], [ -110.992404000002367, 37.111093000001667 ], [ -111.051490000002261, 37.099086000001833 ], [ -111.120938000002042, 37.108041000001975 ], [ -111.134157000001878, 37.091003000001869 ], [ -111.178349000001703, 37.10261300000159 ], [ -111.247488000002406, 37.021604000001339 ], [ -111.283159000002357, 37.038856000002113 ], [ -111.367497000002203, 37.002121000001878 ], [ -111.412784000002361, 37.001503000001605 ], [ -111.572762000002584, 37.001511000001827 ], [ -112.032565000002577, 37.001096000001944 ], [ -112.48428200000204, 37.000944000002008 ], [ -112.538445000002525, 37.00076000000157 ], [ -112.566000000002006, 37.000685000001454 ], [ -112.899191000002276, 37.000385000001927 ], [ -112.953186000002276, 37.000228000001989 ], [ -113.016408000001874, 37.000132000001621 ], [ -113.163847000001766, 37.000050000001323 ], [ -113.332891000002306, 36.999986000001385 ], [ -113.484468000001726, 36.99999000000134 ], [ -113.494884000001719, 37.000003000001371 ], [ -113.558070000001564, 37.000013000001488 ] ] ] } },
{ "type": "Feature", "properties": { "enacted_district": 3, "population": 816914.0, "voting_age_pop": 591993.0, "dem_votes": 97997.0, "rep_votes": 207264.0, "minority_pop": 120173.0, "dem_pct": 0.32102692439550845, "rep_pct": 0.67897307527690298 }, "geometry": { "type": "Polygon", "coordinates": [ [ [ -111.91331300000148, 40.452523000001122 ], [ -111.898749000002127, 40.483911000001612 ], [ -111.890944000002193, 40.50002300000174 ], [ -111.890959000001445, 40.523879000001266 ], [ -111.89095800000176, 40.526748000001589 ], [ -111.891897000001975, 40.533034000001628 ], [ -111.894573000002566, 40.544312000001966 ], [ -111.894940000001981, 40.544313000001686 ], [ -111.896707000002081, 40.551552000001337 ], [ -111.898407000002194, 40.558887000001526 ], [ -111.900100000001558, 40.569703000001383 ], [ -111.8998120000022, 40.569691000001754 ], [ -111.900215000001722, 40.587925000001661 ], [ -111.902998000001674, 40.59632500000145 ], [ -111.90348300000224, 40.598552000001135 ], [ -111.904867000002398, 40.605932000001502 ], [ -111.905861000001437, 40.610915000001768 ], [ -111.898506000001802, 40.620564000001202 ], [ -111.890569000001562, 40.620827000001256 ], [ -111.881979000002275, 40.620760000001532 ], [ -111.877372000002154, 40.620707000001154 ], [ -111.872118000002047, 40.620719000001706 ], [ -111.865993000001765, 40.622184000001717 ], [ -111.872054000001597, 40.626576000001158 ], [ -111.872060000002364, 40.628442000001492 ], [ -111.872065000001925, 40.630025000001126 ], [ -111.865900000001901, 40.630055000001107 ], [ -111.865953000002165, 40.642078000001263 ], [ -111.86595400000148, 40.643774000001592 ], [ -111.86572300000222, 40.659991000001369 ], [ -111.865457000002237, 40.6605470000016 ], [ -111.864753000001926, 40.662120000001167 ], [ -111.864836000002526, 40.665587000001295 ], [ -111.864859000002241, 40.665782000001776 ], [ -111.865424000002434, 40.670629000001611 ], [ -111.865542000001938, 40.674305000001411 ], [ -111.865518000001543, 40.687057000001218 ], [ -111.85980800000182, 40.687054000001289 ], [ -111.854093000002507, 40.687070000001754 ], [ -111.845080000002241, 40.687096000001475 ], [ -111.839818000002523, 40.687099000001126 ], [ -111.834032000002125, 40.687088000001729 ], [ -111.829665000002223, 40.687087000001412 ], [ -111.824492000001456, 40.6870780000012 ], [ -111.814946000001527, 40.687084000001782 ], [ -111.808211000001776, 40.686990000001252 ], [ -111.797421000002359, 40.687040000001581 ], [ -111.797264000002201, 40.689251000001605 ], [ -111.791234000002561, 40.689119000001291 ], [ -111.786726000001394, 40.68906600000166 ], [ -111.776690000001565, 40.690515000001653 ], [ -111.781524000002122, 40.707800000001704 ], [ -111.606221000001696, 40.712856000001594 ], [ -111.600390000002136, 40.708475000001862 ], [ -111.592726000001434, 40.69912000000172 ], [ -111.586641000002317, 40.699436000001789 ], [ -111.537176000001566, 40.683501000001513 ], [ -111.533863000001901, 40.68194000000144 ], [ -111.528177000001662, 40.679254000001755 ], [ -111.515471000001554, 40.682967000001774 ], [ -111.501324000002043, 40.686599000001415 ], [ -111.472579000002241, 40.697441000001184 ], [ -111.472333000001456, 40.69755100000161 ], [ -111.46239500000236, 40.683142000001752 ], [ -111.436870000002514, 40.680587000001864 ], [ -111.4342430000017, 40.684684000001418 ], [ -111.433920000002061, 40.73901200000126 ], [ -111.3760250000024, 40.75286900000156 ], [ -111.409593000002275, 40.787986000001723 ], [ -111.407650000002477, 40.808485000001482 ], [ -111.391091000002234, 40.829144000001513 ], [ -111.323983000001874, 40.850040000001492 ], [ -111.32354900000152, 40.893398000001412 ], [ -111.227800000002262, 40.898861000001581 ], [ -111.227395000002119, 40.928642000001801 ], [ -111.11408900000184, 40.928495000001789 ], [ -111.071560000001895, 40.900638000001827 ], [ -111.092618000002318, 40.8701930000014 ], [ -111.09356300000168, 40.830487000001135 ], [ -111.063490000002361, 40.844489000001843 ], [ -110.972049000002485, 40.836897000001649 ], [ -110.926817000002345, 40.862611000001166 ], [ -110.846812000001577, 40.850415000001554 ], [ -110.828747000002366, 40.919530000001366 ], [ -110.864764000001486, 40.997202000001977 ], [ -110.274112000001523, 40.99481700000181 ], [ -110.000717000001487, 40.99745000000145 ], [ -109.746826000001676, 40.998099000001837 ], [ -109.732457000002199, 40.998152000001411 ], [ -109.708538000002207, 40.998222000002031 ], [ -109.65910700000174, 40.998479000001268 ], [ -109.604015000002562, 40.998367000001579 ], [ -109.430889000001685, 40.999702000001605 ], [ -109.050026000001935, 41.000691000001886 ], [ -109.049662000001561, 40.958853000001795 ], [ -109.048944000002223, 40.662601000001359 ], [ -109.051245000002183, 40.441599000002029 ], [ -109.051157000002078, 40.008238000001512 ], [ -109.051062000002005, 39.746430000001595 ], [ -109.051226000001705, 39.497739000001786 ], [ -109.051166000001956, 39.14260300000192 ], [ -109.054119000002558, 38.873532000002157 ], [ -109.059041000002381, 38.749524000002211 ], [ -109.060119000001578, 38.499989000002024 ], [ -109.060187000002287, 38.27552800000187 ], [ -109.042835000001702, 38.166268000001345 ], [ -109.042027000002307, 37.907691000002217 ], [ -109.041572000001835, 37.562138000001752 ], [ -109.045184000001598, 37.406230000002232 ], [ -109.045172000002239, 36.998977000002057 ], [ -109.362283000002677, 36.999304000001423 ], [ -109.660310000001857, 36.998261000001449 ], [ -109.709818000001675, 36.99828700000139 ], [ -110.469733000001597, 36.997657000001809 ], [ -110.490299000001755, 37.003628000001491 ], [ -111.150576000002118, 37.000950000002028 ], [ -111.412784000002361, 37.001503000001605 ], [ -111.367497000002203, 37.002121000001878 ], [ -111.283159000002357, 37.038856000002113 ], [ -111.247488000002406, 37.021604000001339 ], [ -111.178349000001703, 37.10261300000159 ], [ -111.134157000001878, 37.091003000001869 ], [ -111.120938000002042, 37.108041000001975 ], [ -111.051490000002261, 37.099086000001833 ], [ -110.992404000002367, 37.111093000001667 ], [ -110.956276000002404, 37.147527000001311 ], [ -110.899517000002433, 37.176153000001733 ], [ -110.861203000002561, 37.264492000001354 ], [ -110.867403000001559, 37.290292000001998 ], [ -110.81250100000176, 37.324992000001387 ], [ -110.777799000002446, 37.322992000001712 ], [ -110.742198000001906, 37.344392000001903 ], [ -110.709597000001565, 37.407691000001606 ], [ -110.731698000002098, 37.457791000001464 ], [ -110.719198000001725, 37.481391000001985 ], [ -110.671897000001763, 37.477491000002168 ], [ -110.646394000001919, 37.541063000001927 ], [ -110.603607000002356, 37.571264000002031 ], [ -110.601011000002558, 37.601602000001591 ], [ -110.501594000002243, 37.650000000001427 ], [ -110.486917000001995, 37.703555000002019 ], [ -110.447283000002344, 37.736928000001463 ], [ -110.476535000002357, 37.800843000001358 ], [ -110.437538000001638, 37.80692000000213 ], [ -110.402360000002517, 37.852238000002018 ], [ -110.404612000002317, 37.879923000001362 ], [ -110.364146000002179, 37.892185000001732 ], [ -110.263111000001615, 37.899260000001519 ], [ -110.214949000002562, 37.892555000002154 ], [ -110.202382000002004, 37.946536000002013 ], [ -110.164925000002256, 37.968467000001958 ], [ -110.136690000002204, 38.005386000002026 ], [ -110.09259600000216, 37.994670000001811 ], [ -110.065815000001962, 38.040732000001618 ], [ -110.009494000002647, 38.109656000001543 ], [ -109.963644000002461, 38.114330000001758 ], [ -109.9279950000018, 38.151884000002077 ], [ -109.885720000001641, 38.189202000001615 ], [ -109.917487000001643, 38.215333000001365 ], [ -109.90079500000212, 38.242843000002139 ], [ -109.909760000001683, 38.27123000000163 ], [ -109.947896000002487, 38.289066000001554 ], [ -109.967662000002036, 38.341197000001763 ], [ -110.031973000002239, 38.384957000001698 ], [ -110.003381000002364, 38.416182000001619 ], [ -110.026957000002, 38.44737000000196 ], [ -110.001865000001914, 38.480231000001261 ], [ -110.025402000002245, 38.499981000002023 ], [ -110.649548000002042, 38.499981000001824 ], [ -111.249594000001736, 38.49997800000174 ], [ -111.305665000002563, 38.510169000001824 ], [ -111.307082000002495, 38.630316000002075 ], [ -111.299138000001761, 38.67232900000127 ], [ -111.298770000001582, 38.789176000001902 ], [ -111.298889000002404, 38.864436000001568 ], [ -111.298179000002605, 39.016914000001847 ], [ -111.29936000000184, 39.032264000001817 ], [ -111.299714000001956, 39.155350000001654 ], [ -111.299639000002045, 39.211257000001709 ], [ -111.300940000001461, 39.30424600000125 ], [ -111.300920000002421, 39.422600000001403 ], [ -111.278352000002243, 39.467204000001367 ], [ -111.24774800000236, 39.467199000001962 ], [ -111.247316000002201, 39.582351000001331 ], [ -111.247391000002438, 39.704350000001448 ], [ -111.247496000002442, 39.813028000001474 ], [ -111.135230000001727, 39.812990000001875 ], [ -110.985008000001841, 39.813861000001189 ], [ -110.857780000001483, 39.813285000001642 ], [ -110.857693000002513, 39.888431000001304 ], [ -110.891655000001876, 39.899654000001597 ], [ -111.082455000001559, 39.900155000002009 ], [ -111.082991000002423, 39.928486000001605 ], [ -111.118422000002184, 39.943484000002051 ], [ -111.119271000002456, 39.968156000001166 ], [ -111.169140000002443, 39.995759000001783 ], [ -111.2057720000019, 40.047368000001363 ], [ -111.249339000001726, 40.05521700000152 ], [ -111.221447000002399, 40.124543000002049 ], [ -111.225821000002497, 40.144618000001827 ], [ -111.225507000001741, 40.167324000002012 ], [ -111.273372000001856, 40.221861000001574 ], [ -111.264786000001564, 40.242328000001621 ], [ -111.311834000002364, 40.286464000001772 ], [ -111.377415000001847, 40.297483000001876 ], [ -111.428728000002238, 40.287760000001967 ], [ -111.457193000002022, 40.300741000001999 ], [ -111.536900000002078, 40.264671000001385 ], [ -111.573168000001857, 40.23956500000191 ], [ -111.57193700000164, 40.212156000001329 ], [ -111.543959000001635, 40.181921000001829 ], [ -111.572071000002325, 40.160807000001782 ], [ -111.592902000001885, 40.174002000001309 ], [ -111.593870000001743, 40.172232000001607 ], [ -111.593806000002246, 40.166650000001304 ], [ -111.596236000002236, 40.166655000001917 ], [ -111.610627000002523, 40.166685000001273 ], [ -111.610622000001442, 40.168067000001287 ], [ -111.617834000001693, 40.165286000001515 ], [ -111.637252000001766, 40.161361000001129 ], [ -111.637439000001805, 40.16136300000128 ], [ -111.646867000001478, 40.161373000001362 ], [ -111.646951000001806, 40.148520000001454 ], [ -111.661121000001515, 40.155949000002018 ], [ -111.669348000002159, 40.158528000001326 ], [ -111.66946000000172, 40.178386000001169 ], [ -111.646699000001433, 40.188327000001941 ], [ -111.647853000002442, 40.193407000001592 ], [ -111.652542000002001, 40.199781000001927 ], [ -111.66072400000256, 40.195418000002029 ], [ -111.731597000001884, 40.195300000001851 ], [ -111.736114000002303, 40.239588000001262 ], [ -111.75858700000208, 40.279922000001221 ], [ -111.772579000002423, 40.326167000001931 ], [ -111.772832000002524, 40.334308000001812 ], [ -111.801497000002016, 40.343891000001854 ], [ -111.801289000002527, 40.370836000001908 ], [ -111.827844000001875, 40.382307000001447 ], [ -111.833452000002239, 40.388301000001142 ], [ -111.835446000001639, 40.392159000001193 ], [ -111.847008000002106, 40.399486000001914 ], [ -111.850023000002494, 40.401504000001829 ], [ -111.85438700000212, 40.404424000001747 ], [ -111.856984000001603, 40.40617200000154 ], [ -111.86873900000144, 40.413766000001694 ], [ -111.890553000001901, 40.431378000001459 ], [ -111.900296000002356, 40.440661000001107 ], [ -111.905731000001765, 40.444420000001763 ], [ -111.911174000001637, 40.448353000001589 ], [ -111.91331300000148, 40.452523000001122 ] ] ] } },
{ "type": "Feature", "properties": { "enacted_district": 4, "population": 818834.0, "voting_age_pop": 552998.0, "dem_votes": 79428.0, "rep_votes": 183740.0, "minority_pop": 133571.0, "dem_pct": 0.30181481019659884, "rep_pct": 0.69818518942341579 }, "geometry": { "type": "Polygon", "coordinates": [ [ [ -112.156245000002102, 39.329369000001179 ], [ -112.188922000001696, 39.329392000001235 ], [ -112.193424000002153, 39.443379000001748 ], [ -112.193242000002058, 39.526023000001508 ], [ -112.2176480000022, 39.554001000001136 ], [ -112.324317000001443, 39.553656000001737 ], [ -112.354467000002401, 39.553684000001105 ], [ -112.299796000001763, 39.64708200000139 ], [ -112.211314000001437, 39.706157000001731 ], [ -112.180031000001435, 39.757398000001466 ], [ -112.114904000001914, 39.757100000001223 ], [ -112.089843000001963, 39.781928000001535 ], [ -112.071338000002356, 39.81452000000143 ], [ -112.08122000000202, 39.865081000001787 ], [ -112.062552000001716, 39.904680000001761 ], [ -112.103590000001404, 39.928767000001805 ], [ -112.099095000001441, 39.957436000001145 ], [ -112.109615000002435, 39.97173900000147 ], [ -112.179800000001435, 40.011656000001722 ], [ -112.183769000001718, 40.05996400000118 ], [ -112.157179000002358, 40.097960000001677 ], [ -112.176175000001763, 40.131689000001437 ], [ -112.146856000001662, 40.177817000001944 ], [ -112.153457000001794, 40.217685000001097 ], [ -112.178725000002302, 40.231407000001397 ], [ -112.198461000001842, 40.313206000001252 ], [ -112.175533000001579, 40.335837000001689 ], [ -112.1991690000023, 40.382545000001933 ], [ -112.20948500000172, 40.433068000001974 ], [ -112.213227000001766, 40.455108000001204 ], [ -112.172862000001615, 40.46706500000159 ], [ -112.177317000002077, 40.484595000001811 ], [ -112.187146000001846, 40.513079000001618 ], [ -112.182613000001624, 40.574605000001256 ], [ -112.176369000001714, 40.597196000001894 ], [ -112.188450000002021, 40.614181000001835 ], [ -112.19639300000226, 40.629340000001591 ], [ -112.079473000002096, 40.628959000001693 ], [ -112.066610000001873, 40.628920000001479 ], [ -112.065716000001515, 40.631231000001186 ], [ -112.053337000002401, 40.631166000001997 ], [ -112.043978000001516, 40.631217000001143 ], [ -112.043554000002402, 40.631218000001681 ], [ -112.038330000001764, 40.631215000001731 ], [ -112.035019000001526, 40.63122900000193 ], [ -112.031385000001464, 40.638556000001273 ], [ -112.024634000001598, 40.638551000001407 ], [ -112.024575000001676, 40.643178000001853 ], [ -112.024580000002359, 40.643653000001095 ], [ -112.024638000001801, 40.648408000001858 ], [ -112.024617000001399, 40.650240000001219 ], [ -112.024608000001621, 40.653048000001746 ], [ -112.024580000001421, 40.656872000001201 ], [ -112.024672000001715, 40.667578000001491 ], [ -112.024676000001676, 40.668462000001277 ], [ -112.024706000001757, 40.674488000001134 ], [ -112.02474300000226, 40.682078000001198 ], [ -112.017878000001886, 40.682065000001941 ], [ -112.016265000001781, 40.682062000001473 ], [ -112.015207000001439, 40.682060000001719 ], [ -112.00988100000248, 40.6820490000013 ], [ -112.005677000001555, 40.682041000001838 ], [ -111.996136000002025, 40.682064000001198 ], [ -111.986595000002538, 40.682086000001298 ], [ -111.981474000001583, 40.682105000001322 ], [ -111.977057000001594, 40.682107000001828 ], [ -111.970370000001523, 40.682119000001414 ], [ -111.967518000001647, 40.682124000001927 ], [ -111.958022000001577, 40.68214600000141 ], [ -111.951651000001917, 40.68213500000126 ], [ -111.948444000002397, 40.682129000001488 ], [ -111.946322000002354, 40.682127000001614 ], [ -111.938880000002356, 40.682122000001634 ], [ -111.929350000002216, 40.684560000001376 ], [ -111.921104000001563, 40.686329000001379 ], [ -111.911172000002537, 40.687020000001681 ], [ -111.902693000001719, 40.686700000001217 ], [ -111.888249000002446, 40.687010000001194 ], [ -111.882797000001702, 40.687066000001501 ], [ -111.876987000002217, 40.687062000001809 ], [ -111.871369000002005, 40.687072000001415 ], [ -111.865518000001543, 40.687057000001218 ], [ -111.865542000001938, 40.674305000001411 ], [ -111.865424000002434, 40.670629000001611 ], [ -111.864859000002241, 40.665782000001776 ], [ -111.864836000002526, 40.665587000001295 ], [ -111.864753000001926, 40.662120000001167 ], [ -111.865457000002237, 40.6605470000016 ], [ -111.86572300000222, 40.659991000001369 ], [ -111.86595400000148, 40.643774000001592 ], [ -111.865953000002165, 40.642078000001263 ], [ -111.865900000001901, 40.630055000001107 ], [ -111.872065000001925, 40.630025000001126 ], [ -111.872060000002364, 40.628442000001492 ], [ -111.872054000001597, 40.626576000001158 ], [ -111.865993000001765, 40.622184000001717 ], [ -111.872118000002047, 40.620719000001706 ], [ -111.877372000002154, 40.620707000001154 ], [ -111.881979000002275, 40.620760000001532 ], [ -111.890569000001562, 40.620827000001256 ], [ -111.898506000001802, 40.620564000001202 ], [ -111.905861000001437, 40.610915000001768 ], [ -111.904867000002398, 40.605932000001502 ], [ -111.90348300000224, 40.598552000001135 ], [ -111.902998000001674, 40.59632500000145 ], [ -111.900215000001722, 40.587925000001661 ], [ -111.8998120000022, 40.569691000001754 ], [ -111.900100000001558, 40.569703000001383 ], [ -111.898407000002194, 40.558887000001526 ], [ -111.896707000002081, 40.551552000001337 ], [ -111.894940000001981, 40.544313000001686 ], [ -111.894573000002566, 40.544312000001966 ], [ -111.891897000001975, 40.533034000001628 ], [ -111.89095800000176, 40.526748000001589 ], [ -111.890959000001445, 40.523879000001266 ], [ -111.890944000002193, 40.50002300000174 ], [ -111.898749000002127, 40.483911000001612 ], [ -111.91331300000148, 40.452523000001122 ], [ -111.911174000001637, 40.448353000001589 ], [ -111.905731000001765, 40.444420000001763 ], [ -111.900296000002356, 40.440661000001107 ], [ -111.890553000001901, 40.431378000001459 ], [ -111.86873900000144, 40.413766000001694 ], [ -111.856984000001603, 40.40617200000154 ], [ -111.85438700000212, 40.404424000001747 ], [ -111.850023000002494, 40.401504000001829 ], [ -111.847008000002106, 40.399486000001914 ], [ -111.835446000001639, 40.392159000001193 ], [ -111.833452000002239, 40.388301000001142 ], [ -111.827844000001875, 40.382307000001447 ], [ -111.801289000002527, 40.370836000001908 ], [ -111.801497000002016, 40.343891000001854 ], [ -111.772832000002524, 40.334308000001812 ], [ -111.772579000002423, 40.326167000001931 ], [ -111.75858700000208, 40.279922000001221 ], [ -111.736114000002303, 40.239588000001262 ], [ -111.731597000001884, 40.195300000001851 ], [ -111.66072400000256, 40.195418000002029 ], [ -111.652542000002001, 40.199781000001927 ], [ -111.647853000002442, 40.193407000001592 ], [ -111.646699000001433, 40.188327000001941 ], [ -111.66946000000172, 40.178386000001169 ], [ -111.669348000002159, 40.158528000001326 ], [ -111.661121000001515, 40.155949000002018 ], [ -111.646951000001806, 40.148520000001454 ], [ -111.646867000001478, 40.161373000001362 ], [ -111.637439000001805, 40.16136300000128 ], [ -111.637252000001766, 40.161361000001129 ], [ -111.617834000001693, 40.165286000001515 ], [ -111.610622000001442, 40.168067000001287 ], [ -111.610627000002523, 40.166685000001273 ], [ -111.596236000002236, 40.166655000001917 ], [ -111.593806000002246, 40.166650000001304 ], [ -111.593870000001743, 40.172232000001607 ], [ -111.592902000001885, 40.174002000001309 ], [ -111.572071000002325, 40.160807000001782 ], [ -111.543959000001635, 40.181921000001829 ], [ -111.57193700000164, 40.212156000001329 ], [ -111.573168000001857, 40.23956500000191 ], [ -111.536900000002078, 40.264671000001385 ], [ -111.457193000002022, 40.300741000001999 ], [ -111.428728000002238, 40.287760000001967 ], [ -111.377415000001847, 40.297483000001876 ], [ -111.311834000002364, 40.286464000001772 ], [ -111.264786000001564, 40.242328000001621 ], [ -111.273372000001856, 40.221861000001574 ], [ -111.225507000001741, 40.167324000002012 ], [ -111.225821000002497, 40.144618000001827 ], [ -111.221447000002399, 40.124543000002049 ], [ -111.249339000001726, 40.05521700000152 ], [ -111.2057720000019, 40.047368000001363 ], [ -111.169140000002443, 39.995759000001783 ], [ -111.119271000002456, 39.968156000001166 ], [ -111.118422000002184, 39.943484000002051 ], [ -111.082991000002423, 39.928486000001605 ], [ -111.082455000001559, 39.900155000002009 ], [ -110.891655000001876, 39.899654000001597 ], [ -110.857693000002513, 39.888431000001304 ], [ -110.857780000001483, 39.813285000001642 ], [ -110.985008000001841, 39.813861000001189 ], [ -111.135230000001727, 39.812990000001875 ], [ -111.247496000002442, 39.813028000001474 ], [ -111.247391000002438, 39.704350000001448 ], [ -111.247316000002201, 39.582351000001331 ], [ -111.24774800000236, 39.467199000001962 ], [ -111.278352000002243, 39.467204000001367 ], [ -111.300920000002421, 39.422600000001403 ], [ -111.300940000001461, 39.30424600000125 ], [ -111.299639000002045, 39.211257000001709 ], [ -111.299714000001956, 39.155350000001654 ], [ -111.29936000000184, 39.032264000001817 ], [ -111.739967000001926, 39.032728000001498 ], [ -111.802387000001843, 39.033221000001291 ], [ -111.840058000002244, 39.033108000001171 ], [ -111.850084000001758, 39.045570000001781 ], [ -112.014083000001804, 39.045518000001842 ], [ -112.014520000002435, 39.132617000001382 ], [ -112.016003000002044, 39.314561000001412 ], [ -112.072218000001499, 39.314923000001791 ], [ -112.081980000001593, 39.329687000001769 ], [ -112.156245000002102, 39.329369000001179 ] ] ] } }
]
}
