{
"type": "FeatureCollection",
"name": "vermont_enacted_districts",
"crs": { "type": "name", "properties": { "name": "urn:ogc:def:crs:OGC:1.3:CRS84" } },
"features": [
{ "type": "Feature", "properties": { "enacted_district": 1, "population": 643077.0, "voting_age_pop": 524482.0, "dem_votes": 177981.0, "rep_votes": 115410.0, "minority_pop": 50336.0, "dem_pct": 0.60663415012504329, "rep_pct": 0.39336584953411458 }, "geometry": { "type": "Polygon", "coordinates": [ [ [ -72.53435700000081, 42.894351000003248 ], [ -72.541513000001231, 42.807094000003318 ], [ -72.458412000000607, 42.726933000003193 ], [ -73.276421000001079, 42.746019000003123 ], [ -73.246844000001374, 43.517252000002621 ], [ -73.302553000001311, 43.625709000003326 ], [ -73.427910000000693, 43.634428000002849 ], [ -73.35126500000186, 43.769823000003143 ], [ -73.437905000000782, 44.045125000003168 ], [ -73.390625000000966, 44.191068000002858 ], [ -73.310914000000935, 44.274298000002958 ], [ -73.299896000001823, 44.476651000002839 ], [ -73.389820000001833, 44.617211000002904 ], [ -73.335044000000849, 44.804109000002967 ], [ -73.343178000001103, 45.010713000003058 ], [ -72.634660000001162, 45.014691000002749 ], [ -72.31194700000151, 45.003787000002696 ], [ -71.754112000001072, 45.011335000002582 ], [ -71.535977000001608, 44.99488500000318 ], [ -71.496093000000911, 44.907849000003296 ], [ -71.629919000001507, 44.753578000003195 ], [ -71.55375600000086, 44.630426000002565 ], [ -71.600157000000962, 44.485833000002678 ], [ -71.873053000000979, 44.336756000002808 ], [ -72.068478000001576, 44.270801000003139 ], [ -72.032329000000729, 44.080869000003212 ], [ -72.116956000001224, 43.992636000002918 ], [ -72.183380000001662, 43.810127000003234 ], [ -72.271105000001484, 43.733918000003086 ], [ -72.398871000001535, 43.512653000002885 ], [ -72.473076000001612, 42.972528000003145 ], [ -72.53435700000081, 42.894351000003248 ] ] ] } }
]
}
