{
"type": "FeatureCollection",
"name": "vermont_optimized_districts_race",
"crs": { "type": "name", "properties": { "name": "urn:ogc:def:crs:OGC:1.3:CRS84" } },
"features": [
{ "type": "Feature", "properties": { "district_id": -1, "voting_age_pop": 496422, "lib_votes": 0, "grn_votes": 0, "con_votes": 0, "ref_votes": 0, "total_pop": 625640, "dem_votes_sum": 70984, "rep_votes_sum": 66161, "lib_votes_sum": 0, "grn_votes_sum": 0, "con_votes_sum": 0, "ref_votes_sum": 0, "minority_pop_sum": 9205, "dem_pct": 0.51758357942323818, "rep_pct": 0.48241642057676182, "lib_pct": 0.0, "grn_pct": 0.0, "con_pct": 0.0, "ref_pct": 0.0, "minority_pct": 0.014712933955629436, "compactness": 0.24043310451477742 }, "geometry": { "type": "Polygon", "coordinates": [ [ [ -73.286547, 42.809484 ], [ -73.241587, 43.534969 ], [ -73.258631, 43.56495 ], [ -73.297324, 43.579373 ], [ -73.291019, 43.599235 ], [ -73.30644, 43.628333 ], [ -73.37189, 43.62449 ], [ -73.395768, 43.568087 ], [ -73.431229, 43.588285 ], [ -73.417669, 43.621687 ], [ -73.426463, 43.642599 ], [ -73.350762, 43.771387 ], [ -73.392517, 43.82134 ], [ -73.372589, 43.845354 ], [ -73.382309, 43.856058 ], [ -73.374162, 43.876241 ], [ -73.408554, 43.931894 ], [ -73.407645, 44.021111 ], [ -73.437905, 44.045125 ], [ -73.390625, 44.191068 ], [ -73.343376, 44.23819 ], [ -73.323715, 44.24416 ], [ -73.312741, 44.265411 ], [ -73.33495, 44.36444 ], [ -73.293627, 44.438903 ], [ -73.306713, 44.500335 ], [ -73.338752, 44.548046 ], [ -73.37495, 44.575817 ], [ -73.390231, 44.618354 ], [ -73.361308, 44.694524 ], [ -73.365562, 44.741786 ], [ -73.333154, 44.788759 ], [ -73.335044, 44.804109 ], [ -73.38159, 44.849354 ], [ -73.338979, 44.917681 ], [ -73.338244, 44.964751 ], [ -73.354633, 44.987352 ], [ -73.343124, 45.01084 ], [ -72.845633, 45.016659 ], [ -72.270869, 45.004186 ], [ -71.465039, 45.013638 ], [ -71.480768, 45.00227 ], [ -71.508538, 45.007891 ], [ -71.536663, 44.993588 ], [ -71.541159, 44.983985 ], [ -71.516299, 44.964404 ], [ -71.521764, 44.938533 ], [ -71.49491, 44.904299 ], [ -71.549451, 44.862084 ], [ -71.551114, 44.836965 ], [ -71.576865, 44.815197 ], [ -71.572817, 44.790871 ], [ -71.63216, 44.750985 ], [ -71.593861, 44.696415 ], [ -71.596615, 44.678088 ], [ -71.581463, 44.673204 ], [ -71.587365, 44.659715 ], [ -71.562806, 44.652356 ], [ -71.563721, 44.637247 ], [ -71.546819, 44.629756 ], [ -71.557127, 44.629439 ], [ -71.545978, 44.623118 ], [ -71.561483, 44.600779 ], [ -71.534543, 44.588244 ], [ -71.55428, 44.580998 ], [ -71.547466, 44.571047 ], [ -71.560197, 44.563479 ], [ -71.596627, 44.559303 ], [ -71.571337, 44.538329 ], [ -71.593581, 44.5212 ], [ -71.576665, 44.501855 ], [ -71.588157, 44.506398 ], [ -71.598687, 44.486187 ], [ -71.61764, 44.485591 ], [ -71.625384, 44.47447 ], [ -71.632782, 44.483796 ], [ -71.660883, 44.439937 ], [ -71.70258, 44.413542 ], [ -71.794587, 44.398893 ], [ -71.814388, 44.381932 ], [ -71.815908, 44.353921 ], [ -71.871204, 44.336686 ], [ -71.906909, 44.348284 ], [ -71.935395, 44.33577 ], [ -71.98112, 44.3375 ], [ -72.032816, 44.320446 ], [ -72.032802, 44.302167 ], [ -72.068473, 44.270762 ], [ -72.047761, 44.238931 ], [ -72.06624, 44.19003 ], [ -72.033367, 44.13169 ], [ -72.055524, 44.110666 ], [ -72.047916, 44.096466 ], [ -72.030479, 44.100224 ], [ -72.044289, 44.087244 ], [ -72.03049, 44.078979 ], [ -72.052494, 44.076716 ], [ -72.081383, 44.021913 ], [ -72.095481, 44.021863 ], [ -72.090685, 44.009884 ], [ -72.1025, 44.014848 ], [ -72.116929, 43.995279 ], [ -72.114341, 43.968053 ], [ -72.090881, 43.965864 ], [ -72.118551, 43.946151 ], [ -72.12094, 43.919085 ], [ -72.171872, 43.884479 ], [ -72.166884, 43.869266 ], [ -72.187329, 43.855151 ], [ -72.183728, 43.805129 ], [ -72.205195, 43.770955 ], [ -72.305979, 43.70363 ], [ -72.303505, 43.667427 ], [ -72.334746, 43.617673 ], [ -72.327917, 43.601651 ], [ -72.37944, 43.574069 ], [ -72.380383, 43.54088 ], [ -72.398563, 43.513435 ], [ -72.381723, 43.480091 ], [ -72.415977, 43.377651 ], [ -72.413377, 43.362741 ], [ -72.390103, 43.356926 ], [ -72.410353, 43.331675 ], [ -72.395525, 43.312605 ], [ -72.438693, 43.252905 ], [ -72.457556, 43.148045 ], [ -72.432412, 43.115828 ], [ -72.443466, 43.102443 ], [ -72.435613, 43.081282 ], [ -72.468033, 43.052101 ], [ -72.443333, 43.007835 ], [ -72.473847, 42.972124 ], [ -72.532226, 42.954882 ], [ -72.52454, 42.915546 ], [ -72.555503, 42.87483 ], [ -72.541717, 42.808604 ], [ -72.508858, 42.779919 ], [ -72.516082, 42.765949 ], [ -72.491122, 42.772465 ], [ -72.458436, 42.72685 ], [ -73.276421, 42.746019 ], [ -73.286547, 42.809484 ] ], [ [ -72.921376, 42.926792 ], [ -72.917301, 43.019863 ], [ -73.140484, 43.025853 ], [ -73.146357, 42.932266 ], [ -72.921376, 42.926792 ] ], [ [ -72.952167, 44.161271 ], [ -72.92207, 44.222232 ], [ -72.965185, 44.231413 ], [ -72.952167, 44.161271 ] ], [ [ -71.858382, 44.72766 ], [ -71.662301, 44.626732 ], [ -71.741665, 44.806309 ], [ -71.730451, 44.800502 ], [ -71.598837, 44.953507 ], [ -71.70104, 45.008213 ], [ -71.753095, 44.947292 ], [ -71.917738, 44.943631 ], [ -71.92851, 44.907298 ], [ -71.765841, 44.818999 ], [ -71.858382, 44.72766 ] ] ] } }
]
}
