{
"type": "FeatureCollection",
"name": "virginia_enacted_districts",
"crs": { "type": "name", "properties": { "name": "urn:ogc:def:crs:OGC:1.3:CRS84" } },
"features": [
{ "type": "Feature", "properties": { "enacted_district": 1, "population": 786248.0, "voting_age_pop": 612392.0, "dem_votes": 191158.0, "rep_votes": 220371.0, "minority_pop": 165267.0, "dem_pct": 0.46450675396764096, "rep_pct": 0.53549324578936275 }, "geometry": { "type": "Polygon", "coordinates": [ [ [ -77.612547000001754, 37.270613000002733 ], [ -77.650610000001123, 37.265112000003249 ], [ -77.652200000001585, 37.265822000003105 ], [ -77.669158000002056, 37.292850000002829 ], [ -77.716211000002019, 37.296878000003169 ], [ -77.758620000001088, 37.268717000003264 ], [ -77.806750000001031, 37.304526000002653 ], [ -77.79636000000184, 37.332163000003227 ], [ -77.837346000001801, 37.338380000003013 ], [ -77.851804000001351, 37.354867000003331 ], [ -77.877556000001334, 37.366247000002879 ], [ -77.871810000001943, 37.399434000003247 ], [ -77.855148000001464, 37.418363000002863 ], [ -77.805562000001544, 37.433652000003114 ], [ -77.777616000001274, 37.473619000003033 ], [ -77.762624000001452, 37.484492000003037 ], [ -77.732738000001703, 37.506021000003507 ], [ -77.732333000001276, 37.506239000003163 ], [ -77.696900000001961, 37.531822000002997 ], [ -77.676264000001268, 37.546678000003261 ], [ -77.665331000001217, 37.554548000003017 ], [ -77.655399000001168, 37.563986000003467 ], [ -77.618368000001425, 37.587558000003028 ], [ -77.626031000001646, 37.597944000002968 ], [ -77.640243000002044, 37.6026900000032 ], [ -77.651983000001763, 37.619912000002763 ], [ -77.650621000001308, 37.624188000003251 ], [ -77.652052000001788, 37.63089700000279 ], [ -77.646054000001342, 37.662204000003065 ], [ -77.644357000001392, 37.66936400000278 ], [ -77.632984000002025, 37.699881000003295 ], [ -77.630670000001487, 37.705673000002768 ], [ -77.636168000001078, 37.706545000002798 ], [ -77.654019000001142, 37.74793200000282 ], [ -77.637968000001578, 37.747457000003237 ], [ -77.588768000001608, 37.778606000003023 ], [ -77.576310000001826, 37.799718000003296 ], [ -77.549260000001027, 37.796854000003215 ], [ -77.531321000001427, 37.775298000002891 ], [ -77.49962900000186, 37.772194000002962 ], [ -77.460304000001813, 37.791911000002877 ], [ -77.460309000000933, 37.8114220000027 ], [ -77.430056000001926, 37.798305000002998 ], [ -77.407813000001823, 37.803330000002859 ], [ -77.405065000001827, 37.780177000002972 ], [ -77.378372000001491, 37.776307000003072 ], [ -77.345223000001269, 37.789285000003296 ], [ -77.299259000002039, 37.828694000002912 ], [ -77.247702000001198, 37.876174000003161 ], [ -77.241679000001028, 37.909550000002767 ], [ -77.181418000000917, 37.891654000002781 ], [ -77.181962000001562, 37.949577000002918 ], [ -77.148634000001465, 37.972000000003412 ], [ -77.070115000001337, 37.964770000002865 ], [ -77.088970000001851, 38.013644000003055 ], [ -77.120082000002043, 38.013130000002761 ], [ -77.12943700000173, 38.044992000003006 ], [ -77.159540000001826, 38.064219000003327 ], [ -77.170100000001383, 38.079543000003135 ], [ -77.116847000001741, 38.120641000002792 ], [ -77.115997000001911, 38.149931000002645 ], [ -77.061695000001308, 38.16163100000319 ], [ -77.048192000001805, 38.184679000003094 ], [ -77.044202000001732, 38.260582000002877 ], [ -76.997670000000923, 38.278046000003407 ], [ -76.990943000001593, 38.273687000002816 ], [ -76.962086000001733, 38.256964000002952 ], [ -76.962251000001515, 38.229888000002852 ], [ -76.949020000001212, 38.208418000002801 ], [ -76.897716000001665, 38.187264000003069 ], [ -76.839368000000988, 38.163609000003085 ], [ -76.778769000001134, 38.167919000002819 ], [ -76.701266000001183, 38.161384000003096 ], [ -76.610384000000948, 38.148516000003525 ], [ -76.596128000001286, 38.106892000003256 ], [ -76.550007000001457, 38.081267000003265 ], [ -76.516369000001916, 38.034724000003067 ], [ -76.465008000001987, 38.013220000002896 ], [ -76.443662000001396, 37.991157000003149 ], [ -76.412934000001911, 37.96633200000349 ], [ -76.313770000001497, 37.933257000002911 ], [ -76.267872000000935, 37.912160000003453 ], [ -76.23645800000169, 37.886605000003229 ], [ -76.205229000001893, 37.775076000003168 ], [ -76.198126000000897, 37.750130000003509 ], [ -76.175687000001602, 37.671626000003442 ], [ -76.168125000001893, 37.644819000002819 ], [ -76.151711000001015, 37.585968000002929 ], [ -76.140835000001942, 37.542220000003063 ], [ -76.139103000001953, 37.468813000002989 ], [ -76.139062000001317, 37.466884000002693 ], [ -76.138222000001065, 37.426364000003538 ], [ -76.136307000001111, 37.282790000003445 ], [ -76.136301000000884, 37.282137000002876 ], [ -76.135520000001165, 37.191970000003536 ], [ -76.134941000001817, 37.117603000003307 ], [ -76.275418000001011, 37.116072000003541 ], [ -76.311744000001383, 37.102000000002953 ], [ -76.317364000001845, 37.103044000003415 ], [ -76.344666000001652, 37.096844000003003 ], [ -76.367513000001836, 37.113019000003014 ], [ -76.395795000001812, 37.107174000003461 ], [ -76.400290000001064, 37.0958510000034 ], [ -76.425451000001885, 37.092301000003594 ], [ -76.437748000001861, 37.094048000003433 ], [ -76.458498000001981, 37.100727000003324 ], [ -76.460816000001003, 37.103039000003179 ], [ -76.47097700000171, 37.11444500000313 ], [ -76.500302000001568, 37.147502000002767 ], [ -76.506138000001755, 37.154088000003256 ], [ -76.515102000001178, 37.173185000002746 ], [ -76.565189000001681, 37.2205390000031 ], [ -76.591302000001008, 37.213205000003548 ], [ -76.591631000001513, 37.210698000002992 ], [ -76.578345000000994, 37.186463000003428 ], [ -76.641581000001509, 37.153827000002998 ], [ -76.642845000001174, 37.18878600000329 ], [ -76.658827000001068, 37.203045000002696 ], [ -76.691806000001051, 37.210867000003077 ], [ -76.723934000001918, 37.181251000003265 ], [ -76.732655000001117, 37.172542000002885 ], [ -76.760314000001756, 37.176799000003406 ], [ -76.797740000001667, 37.214087000003467 ], [ -76.823440000001781, 37.224938000002993 ], [ -76.883156000001421, 37.223057000003465 ], [ -76.877218000001321, 37.263633000003473 ], [ -76.881564000001788, 37.285509000003309 ], [ -76.874206000001465, 37.340167000002765 ], [ -76.87350700000114, 37.363415000003549 ], [ -76.904471000001848, 37.37766500000302 ], [ -76.91799300000153, 37.395327000003114 ], [ -76.968821000001356, 37.406511000003391 ], [ -76.975988000001195, 37.418860000003534 ], [ -77.00764800000178, 37.413749000003072 ], [ -77.038375000001338, 37.429178000003191 ], [ -77.086728000000974, 37.441376000003501 ], [ -77.118500000001134, 37.461557000002692 ], [ -77.138175000001795, 37.469814000003197 ], [ -77.177324000001121, 37.490600000003198 ], [ -77.181203000001545, 37.493153000002813 ], [ -77.209105000001045, 37.517464000002903 ], [ -77.209279000001175, 37.51776900000349 ], [ -77.240988000001494, 37.53808800000273 ], [ -77.308290000001605, 37.56309500000269 ], [ -77.324089000001507, 37.569238000002692 ], [ -77.336967000001934, 37.575736000003381 ], [ -77.338096000001045, 37.577206000003528 ], [ -77.362669000001645, 37.587288000003397 ], [ -77.382879000001964, 37.595247000003212 ], [ -77.406257000001474, 37.611851000002829 ], [ -77.407189000002049, 37.612524000002672 ], [ -77.421430000000953, 37.641682000002973 ], [ -77.424307000001875, 37.640329000003078 ], [ -77.451890000001029, 37.636150000003177 ], [ -77.452603000002028, 37.640253000003227 ], [ -77.466626000001682, 37.647585000003382 ], [ -77.489731000001015, 37.659471000002789 ], [ -77.495390000001194, 37.65243000000271 ], [ -77.503441000001303, 37.665243000003507 ], [ -77.504840000002019, 37.665535000003089 ], [ -77.516203000001454, 37.645014000003492 ], [ -77.531442000000965, 37.649225000002865 ], [ -77.537178000001262, 37.637274000003437 ], [ -77.540719000001246, 37.632837000003235 ], [ -77.534422000001356, 37.629054000003002 ], [ -77.524203000001307, 37.619717000002737 ], [ -77.517241000001079, 37.607111000002753 ], [ -77.510666000001322, 37.595775000002916 ], [ -77.518174000001054, 37.5886100000032 ], [ -77.511812000001299, 37.581751000003493 ], [ -77.515677000001347, 37.581991000003541 ], [ -77.531647000001229, 37.591951000002908 ], [ -77.532559000001982, 37.591783000002764 ], [ -77.543353000001943, 37.581060000002843 ], [ -77.525855000001386, 37.568235000002979 ], [ -77.529495000001361, 37.559656000003301 ], [ -77.538563000001474, 37.559548000002749 ], [ -77.570569000001896, 37.557935000003113 ], [ -77.595462000002016, 37.555750000003343 ], [ -77.59244800000107, 37.53294900000266 ], [ -77.58102400000169, 37.53232100000313 ], [ -77.55452000000102, 37.543028000003304 ], [ -77.54503600000163, 37.52810100000346 ], [ -77.528468000001084, 37.525476000003515 ], [ -77.549645000001036, 37.505565000003422 ], [ -77.547001000000947, 37.496997000002807 ], [ -77.551173000000972, 37.48252400000279 ], [ -77.563472000001084, 37.473593000002872 ], [ -77.589518000001178, 37.470478000003418 ], [ -77.595189000001369, 37.470425000003289 ], [ -77.593781000001826, 37.465494000002906 ], [ -77.621883000001745, 37.462605000002689 ], [ -77.596782000002023, 37.43865400000324 ], [ -77.600718000001777, 37.437266000002914 ], [ -77.630330000001948, 37.423784000003053 ], [ -77.591277000001583, 37.411438000002775 ], [ -77.596921000001075, 37.395576000003153 ], [ -77.615483000001859, 37.360299000002989 ], [ -77.624038000001462, 37.350042000002723 ], [ -77.631669000001452, 37.339573000002879 ], [ -77.57097000000131, 37.316558000003418 ], [ -77.553005000001733, 37.324569000003123 ], [ -77.568942000001883, 37.280887000003432 ], [ -77.562516000001665, 37.259175000003488 ], [ -77.572120000001505, 37.237120000002903 ], [ -77.589159000001601, 37.246285000002864 ], [ -77.612547000001754, 37.270613000002733 ] ] ] } },
{ "type": "Feature", "properties": { "enacted_district": 2, "population": 788874.0, "voting_age_pop": 612512.0, "dem_votes": 181698.0, "rep_votes": 175113.0, "minority_pop": 237364.0, "dem_pct": 0.50922757411928787, "rep_pct": 0.49077242560045164 }, "geometry": { "type": "Polygon", "coordinates": [ [ [ -76.915977000001305, 36.543884000002741 ], [ -77.011287000001815, 36.544266000003233 ], [ -77.10302800000143, 36.544594000002988 ], [ -77.098386000001497, 36.558169000003581 ], [ -77.140668000001526, 36.569994000003526 ], [ -77.160681000001262, 36.61409400000359 ], [ -77.12941100000117, 36.629394000003273 ], [ -77.081021000001442, 36.63962900000331 ], [ -77.070699000001596, 36.657215000002886 ], [ -77.102265000001182, 36.698804000003427 ], [ -77.067252000001403, 36.693784000003077 ], [ -77.077032000001296, 36.726165000002773 ], [ -77.045917000001651, 36.774325000003216 ], [ -77.008238000001654, 36.781577000003111 ], [ -76.964624000001464, 36.781206000003451 ], [ -76.94557700000162, 36.831330000002815 ], [ -76.971440000000982, 36.833122000002867 ], [ -77.009610000000947, 36.885598000002766 ], [ -76.970193000001572, 36.888889000002685 ], [ -77.002103000001981, 36.92074700000336 ], [ -76.982590000001736, 36.929609000002728 ], [ -76.953546000001751, 36.944450000003151 ], [ -76.87070500000118, 36.985666000003128 ], [ -76.849684000001332, 36.996211000002759 ], [ -76.825667000001062, 37.007483000002779 ], [ -76.711775000001936, 37.055380000002977 ], [ -76.694463000001761, 37.072884000002887 ], [ -76.671774000001889, 37.141987000003418 ], [ -76.641581000001509, 37.153827000002998 ], [ -76.64582100000105, 37.12515500000324 ], [ -76.628205000001074, 37.092755000003322 ], [ -76.597084000001445, 37.066803000003283 ], [ -76.550891000001869, 37.034245000003082 ], [ -76.535930000000988, 37.023699000002821 ], [ -76.503980000001576, 37.001713000002923 ], [ -76.492090000001554, 36.992889000003089 ], [ -76.486198000001096, 36.988604000002745 ], [ -76.486112000001043, 36.988541000002989 ], [ -76.459039000001113, 36.963881000003134 ], [ -76.445301000001052, 36.941891000003359 ], [ -76.434789000001047, 36.935283000003103 ], [ -76.407059000000928, 36.930781000003527 ], [ -76.39956700000161, 36.930947000002824 ], [ -76.405321000001507, 36.881113000003104 ], [ -76.413434000001942, 36.87425700000324 ], [ -76.420368000001474, 36.866348000002887 ], [ -76.421312000001848, 36.865403000003155 ], [ -76.440670000001333, 36.84155300000279 ], [ -76.456168000001213, 36.816948000002874 ], [ -76.463398000001888, 36.770460000003318 ], [ -76.414503000001574, 36.78519000000324 ], [ -76.413672000001881, 36.78553900000361 ], [ -76.384826000001937, 36.795931000002845 ], [ -76.363839000001065, 36.787804000003071 ], [ -76.364030000001719, 36.784933000003235 ], [ -76.345535000000964, 36.772313000002782 ], [ -76.342709000001179, 36.772372000003116 ], [ -76.344325000001447, 36.766700000003496 ], [ -76.344854000001774, 36.758521000003419 ], [ -76.297776000001136, 36.758067000002796 ], [ -76.297660000000974, 36.757861000003011 ], [ -76.294840000001756, 36.736295000003558 ], [ -76.27163600000128, 36.754172000003024 ], [ -76.266829000001934, 36.748010000003582 ], [ -76.256215000001603, 36.74431200000349 ], [ -76.253426000001113, 36.74256200000351 ], [ -76.245887000001332, 36.749293000003043 ], [ -76.224560000001816, 36.751340000003289 ], [ -76.224880000001605, 36.75308700000339 ], [ -76.218055000001087, 36.773514000003559 ], [ -76.206447000001234, 36.777048000003028 ], [ -76.212882000001102, 36.794165000002977 ], [ -76.219331000001233, 36.81094100000292 ], [ -76.221572000001814, 36.815657000002886 ], [ -76.223249000001118, 36.819972000003432 ], [ -76.226060000000942, 36.839947000003114 ], [ -76.21395900000131, 36.832347000003431 ], [ -76.210412000001, 36.832907000003289 ], [ -76.194742000001881, 36.829967000002874 ], [ -76.189378000001227, 36.841106000002974 ], [ -76.177672000001024, 36.854200000003573 ], [ -76.177637000001198, 36.854364000002896 ], [ -76.1884430000013, 36.874108000003218 ], [ -76.193122000001907, 36.877425000003385 ], [ -76.188285000001514, 36.899756000002903 ], [ -76.187011000000879, 36.910550000002928 ], [ -76.192531000000955, 36.918035000003051 ], [ -76.187509000001285, 36.922912000003215 ], [ -76.18247200000134, 36.921766000003259 ], [ -76.177663000001303, 36.948001000002726 ], [ -76.158378000001932, 36.990129000002987 ], [ -76.133872000001816, 37.040886000003333 ], [ -76.133981000001128, 37.056083000003305 ], [ -76.134941000001817, 37.117603000003307 ], [ -76.135520000001165, 37.191970000003536 ], [ -76.136301000000884, 37.282137000002876 ], [ -76.136307000001111, 37.282790000003445 ], [ -76.138222000001065, 37.426364000003538 ], [ -76.139062000001317, 37.466884000002693 ], [ -76.139103000001953, 37.468813000002989 ], [ -76.140835000001942, 37.542220000003063 ], [ -76.151711000001015, 37.585968000002929 ], [ -76.168125000001893, 37.644819000002819 ], [ -76.175687000001602, 37.671626000003442 ], [ -76.198126000000897, 37.750130000003509 ], [ -76.205229000001893, 37.775076000003168 ], [ -76.23645800000169, 37.886605000003229 ], [ -76.05202100000183, 37.953578000002871 ], [ -75.993338000001074, 37.953487000003506 ], [ -75.943693000001048, 37.946133000002952 ], [ -75.952672000001257, 37.906827000003517 ], [ -75.80120900000135, 37.91219100000275 ], [ -75.761642000001544, 37.941366000003399 ], [ -75.691321000001039, 37.95549600000318 ], [ -75.648214000000976, 37.946862000003435 ], [ -75.648228000001424, 37.966771000003511 ], [ -75.624449000001874, 37.994195000002719 ], [ -75.459648000001593, 38.008429000002998 ], [ -75.323157000000947, 38.020155000003442 ], [ -75.249609000001172, 38.026715000003534 ], [ -75.166435000001115, 38.027834000003523 ], [ -75.238073000001663, 37.935390000003473 ], [ -75.296004000001787, 37.845752000003252 ], [ -75.337979000001653, 37.815232000003263 ], [ -75.366857000001701, 37.80978900000342 ], [ -75.409285000000821, 37.820919000003386 ], [ -75.46093300000156, 37.771356000003223 ], [ -75.470345000001259, 37.748188000003104 ], [ -75.515962000001437, 37.67153800000284 ], [ -75.516925000001251, 37.654833000002725 ], [ -75.541779000000915, 37.606145000003309 ], [ -75.52805600000157, 37.582755000003047 ], [ -75.529901000001786, 37.556717000003196 ], [ -75.574651000001168, 37.500135000002906 ], [ -75.59744100000097, 37.45098800000342 ], [ -75.604026000001014, 37.422024000002963 ], [ -75.643456000001677, 37.37286400000292 ], [ -75.644386000001106, 37.342270000003069 ], [ -75.715515000001005, 37.275687000002875 ], [ -75.732284000000888, 37.245694000003162 ], [ -75.729271000001134, 37.216901000002949 ], [ -75.744639000001769, 37.182349000003065 ], [ -75.781587000001835, 37.137116000003488 ], [ -75.824147000000949, 37.110122000003479 ], [ -75.889676000001259, 37.054515000002937 ], [ -75.909491000000969, 36.990708000002954 ], [ -75.92830700000124, 36.93817900000289 ], [ -75.914017000001564, 36.889220000003156 ], [ -75.909330000001788, 36.871970000003152 ], [ -75.905263000000986, 36.856998000002839 ], [ -75.901039000000878, 36.841451000003595 ], [ -75.887373000001915, 36.791148000003318 ], [ -75.878943000001641, 36.760117000002793 ], [ -75.862119000001798, 36.714051000003479 ], [ -75.8198250000017, 36.625153000003031 ], [ -75.797497000001002, 36.550916000003312 ], [ -75.90100500000139, 36.550534000003168 ], [ -76.026721000001388, 36.550470000003287 ], [ -76.122349000000966, 36.550523000003182 ], [ -76.19303600000174, 36.550471000003249 ], [ -76.376634000001857, 36.550595000002765 ], [ -76.491496000001291, 36.550648000002766 ], [ -76.557936000001888, 36.550680000003268 ], [ -76.75525500000154, 36.550766000003541 ], [ -76.915899000001531, 36.552149000003233 ], [ -76.915977000001305, 36.543884000002741 ] ] ] } },
{ "type": "Feature", "properties": { "enacted_district": 3, "population": 776902.0, "voting_age_pop": 611498.0, "dem_votes": 210943.0, "rep_votes": 91147.0, "minority_pop": 355025.0, "dem_pct": 0.69827865844672821, "rep_pct": 0.30172134122224459 }, "geometry": { "type": "Polygon", "coordinates": [ [ [ -76.456168000001213, 36.816948000002874 ], [ -76.440670000001333, 36.84155300000279 ], [ -76.421312000001848, 36.865403000003155 ], [ -76.420368000001474, 36.866348000002887 ], [ -76.413434000001942, 36.87425700000324 ], [ -76.405321000001507, 36.881113000003104 ], [ -76.39956700000161, 36.930947000002824 ], [ -76.407059000000928, 36.930781000003527 ], [ -76.434789000001047, 36.935283000003103 ], [ -76.445301000001052, 36.941891000003359 ], [ -76.459039000001113, 36.963881000003134 ], [ -76.486112000001043, 36.988541000002989 ], [ -76.486198000001096, 36.988604000002745 ], [ -76.492090000001554, 36.992889000003089 ], [ -76.503980000001576, 37.001713000002923 ], [ -76.535930000000988, 37.023699000002821 ], [ -76.550891000001869, 37.034245000003082 ], [ -76.597084000001445, 37.066803000003283 ], [ -76.628205000001074, 37.092755000003322 ], [ -76.64582100000105, 37.12515500000324 ], [ -76.641581000001509, 37.153827000002998 ], [ -76.578345000000994, 37.186463000003428 ], [ -76.591631000001513, 37.210698000002992 ], [ -76.591302000001008, 37.213205000003548 ], [ -76.565189000001681, 37.2205390000031 ], [ -76.515102000001178, 37.173185000002746 ], [ -76.506138000001755, 37.154088000003256 ], [ -76.500302000001568, 37.147502000002767 ], [ -76.47097700000171, 37.11444500000313 ], [ -76.460816000001003, 37.103039000003179 ], [ -76.458498000001981, 37.100727000003324 ], [ -76.437748000001861, 37.094048000003433 ], [ -76.425451000001885, 37.092301000003594 ], [ -76.400290000001064, 37.0958510000034 ], [ -76.395795000001812, 37.107174000003461 ], [ -76.367513000001836, 37.113019000003014 ], [ -76.344666000001652, 37.096844000003003 ], [ -76.317364000001845, 37.103044000003415 ], [ -76.311744000001383, 37.102000000002953 ], [ -76.275418000001011, 37.116072000003541 ], [ -76.134941000001817, 37.117603000003307 ], [ -76.133981000001128, 37.056083000003305 ], [ -76.133872000001816, 37.040886000003333 ], [ -76.158378000001932, 36.990129000002987 ], [ -76.177663000001303, 36.948001000002726 ], [ -76.18247200000134, 36.921766000003259 ], [ -76.187509000001285, 36.922912000003215 ], [ -76.192531000000955, 36.918035000003051 ], [ -76.187011000000879, 36.910550000002928 ], [ -76.188285000001514, 36.899756000002903 ], [ -76.193122000001907, 36.877425000003385 ], [ -76.1884430000013, 36.874108000003218 ], [ -76.177637000001198, 36.854364000002896 ], [ -76.177672000001024, 36.854200000003573 ], [ -76.189378000001227, 36.841106000002974 ], [ -76.194742000001881, 36.829967000002874 ], [ -76.210412000001, 36.832907000003289 ], [ -76.21395900000131, 36.832347000003431 ], [ -76.226060000000942, 36.839947000003114 ], [ -76.223249000001118, 36.819972000003432 ], [ -76.221572000001814, 36.815657000002886 ], [ -76.219331000001233, 36.81094100000292 ], [ -76.212882000001102, 36.794165000002977 ], [ -76.206447000001234, 36.777048000003028 ], [ -76.218055000001087, 36.773514000003559 ], [ -76.224880000001605, 36.75308700000339 ], [ -76.224560000001816, 36.751340000003289 ], [ -76.245887000001332, 36.749293000003043 ], [ -76.253426000001113, 36.74256200000351 ], [ -76.256215000001603, 36.74431200000349 ], [ -76.266829000001934, 36.748010000003582 ], [ -76.27163600000128, 36.754172000003024 ], [ -76.294840000001756, 36.736295000003558 ], [ -76.297660000000974, 36.757861000003011 ], [ -76.297776000001136, 36.758067000002796 ], [ -76.344854000001774, 36.758521000003419 ], [ -76.344325000001447, 36.766700000003496 ], [ -76.342709000001179, 36.772372000003116 ], [ -76.345535000000964, 36.772313000002782 ], [ -76.364030000001719, 36.784933000003235 ], [ -76.363839000001065, 36.787804000003071 ], [ -76.384826000001937, 36.795931000002845 ], [ -76.413672000001881, 36.78553900000361 ], [ -76.414503000001574, 36.78519000000324 ], [ -76.463398000001888, 36.770460000003318 ], [ -76.456168000001213, 36.816948000002874 ] ] ] } },
{ "type": "Feature", "properties": { "enacted_district": 4, "population": 784671.0, "voting_age_pop": 627643.0, "dem_votes": 240078.0, "rep_votes": 111188.0, "minority_pop": 344406.0, "dem_pct": 0.68346495229157822, "rep_pct": 0.31653504742373728 }, "geometry": { "type": "Polygon", "coordinates": [ [ [ -78.029977000002106, 36.746631000003042 ], [ -78.027759000001453, 36.772367000003271 ], [ -78.027411000001365, 36.777858000002645 ], [ -78.026698000002042, 36.783691000003138 ], [ -78.003639000001414, 37.022756000003184 ], [ -77.966571000001935, 36.987279000003475 ], [ -77.889813000001055, 36.988818000002787 ], [ -77.900338000001526, 37.143882000003011 ], [ -77.855507000001126, 37.164120000003095 ], [ -77.813859000001699, 37.169678000002826 ], [ -77.795926000001856, 37.192592000002811 ], [ -77.75749700000199, 37.19227700000323 ], [ -77.689752000001434, 37.2214820000031 ], [ -77.650610000001123, 37.265112000003249 ], [ -77.612547000001754, 37.270613000002733 ], [ -77.589159000001601, 37.246285000002864 ], [ -77.572120000001505, 37.237120000002903 ], [ -77.562516000001665, 37.259175000003488 ], [ -77.568942000001883, 37.280887000003432 ], [ -77.553005000001733, 37.324569000003123 ], [ -77.57097000000131, 37.316558000003418 ], [ -77.631669000001452, 37.339573000002879 ], [ -77.624038000001462, 37.350042000002723 ], [ -77.615483000001859, 37.360299000002989 ], [ -77.596921000001075, 37.395576000003153 ], [ -77.591277000001583, 37.411438000002775 ], [ -77.630330000001948, 37.423784000003053 ], [ -77.600718000001777, 37.437266000002914 ], [ -77.596782000002023, 37.43865400000324 ], [ -77.621883000001745, 37.462605000002689 ], [ -77.593781000001826, 37.465494000002906 ], [ -77.595189000001369, 37.470425000003289 ], [ -77.589518000001178, 37.470478000003418 ], [ -77.563472000001084, 37.473593000002872 ], [ -77.551173000000972, 37.48252400000279 ], [ -77.547001000000947, 37.496997000002807 ], [ -77.549645000001036, 37.505565000003422 ], [ -77.528468000001084, 37.525476000003515 ], [ -77.54503600000163, 37.52810100000346 ], [ -77.55452000000102, 37.543028000003304 ], [ -77.58102400000169, 37.53232100000313 ], [ -77.59244800000107, 37.53294900000266 ], [ -77.595462000002016, 37.555750000003343 ], [ -77.570569000001896, 37.557935000003113 ], [ -77.538563000001474, 37.559548000002749 ], [ -77.529495000001361, 37.559656000003301 ], [ -77.525855000001386, 37.568235000002979 ], [ -77.543353000001943, 37.581060000002843 ], [ -77.532559000001982, 37.591783000002764 ], [ -77.531647000001229, 37.591951000002908 ], [ -77.515677000001347, 37.581991000003541 ], [ -77.511812000001299, 37.581751000003493 ], [ -77.518174000001054, 37.5886100000032 ], [ -77.510666000001322, 37.595775000002916 ], [ -77.517241000001079, 37.607111000002753 ], [ -77.524203000001307, 37.619717000002737 ], [ -77.534422000001356, 37.629054000003002 ], [ -77.540719000001246, 37.632837000003235 ], [ -77.537178000001262, 37.637274000003437 ], [ -77.531442000000965, 37.649225000002865 ], [ -77.516203000001454, 37.645014000003492 ], [ -77.504840000002019, 37.665535000003089 ], [ -77.503441000001303, 37.665243000003507 ], [ -77.495390000001194, 37.65243000000271 ], [ -77.489731000001015, 37.659471000002789 ], [ -77.466626000001682, 37.647585000003382 ], [ -77.452603000002028, 37.640253000003227 ], [ -77.451890000001029, 37.636150000003177 ], [ -77.424307000001875, 37.640329000003078 ], [ -77.421430000000953, 37.641682000002973 ], [ -77.407189000002049, 37.612524000002672 ], [ -77.406257000001474, 37.611851000002829 ], [ -77.382879000001964, 37.595247000003212 ], [ -77.362669000001645, 37.587288000003397 ], [ -77.338096000001045, 37.577206000003528 ], [ -77.336967000001934, 37.575736000003381 ], [ -77.324089000001507, 37.569238000002692 ], [ -77.308290000001605, 37.56309500000269 ], [ -77.240988000001494, 37.53808800000273 ], [ -77.209279000001175, 37.51776900000349 ], [ -77.209105000001045, 37.517464000002903 ], [ -77.181203000001545, 37.493153000002813 ], [ -77.177324000001121, 37.490600000003198 ], [ -77.138175000001795, 37.469814000003197 ], [ -77.118500000001134, 37.461557000002692 ], [ -77.086728000000974, 37.441376000003501 ], [ -77.038375000001338, 37.429178000003191 ], [ -77.00764800000178, 37.413749000003072 ], [ -76.975988000001195, 37.418860000003534 ], [ -76.968821000001356, 37.406511000003391 ], [ -76.91799300000153, 37.395327000003114 ], [ -76.904471000001848, 37.37766500000302 ], [ -76.87350700000114, 37.363415000003549 ], [ -76.874206000001465, 37.340167000002765 ], [ -76.881564000001788, 37.285509000003309 ], [ -76.877218000001321, 37.263633000003473 ], [ -76.883156000001421, 37.223057000003465 ], [ -76.823440000001781, 37.224938000002993 ], [ -76.797740000001667, 37.214087000003467 ], [ -76.760314000001756, 37.176799000003406 ], [ -76.732655000001117, 37.172542000002885 ], [ -76.723934000001918, 37.181251000003265 ], [ -76.691806000001051, 37.210867000003077 ], [ -76.658827000001068, 37.203045000002696 ], [ -76.642845000001174, 37.18878600000329 ], [ -76.641581000001509, 37.153827000002998 ], [ -76.671774000001889, 37.141987000003418 ], [ -76.694463000001761, 37.072884000002887 ], [ -76.711775000001936, 37.055380000002977 ], [ -76.825667000001062, 37.007483000002779 ], [ -76.849684000001332, 36.996211000002759 ], [ -76.87070500000118, 36.985666000003128 ], [ -76.953546000001751, 36.944450000003151 ], [ -76.982590000001736, 36.929609000002728 ], [ -77.002103000001981, 36.92074700000336 ], [ -76.970193000001572, 36.888889000002685 ], [ -77.009610000000947, 36.885598000002766 ], [ -76.971440000000982, 36.833122000002867 ], [ -76.94557700000162, 36.831330000002815 ], [ -76.964624000001464, 36.781206000003451 ], [ -77.008238000001654, 36.781577000003111 ], [ -77.045917000001651, 36.774325000003216 ], [ -77.077032000001296, 36.726165000002773 ], [ -77.067252000001403, 36.693784000003077 ], [ -77.102265000001182, 36.698804000003427 ], [ -77.070699000001596, 36.657215000002886 ], [ -77.081021000001442, 36.63962900000331 ], [ -77.12941100000117, 36.629394000003273 ], [ -77.160681000001262, 36.61409400000359 ], [ -77.140668000001526, 36.569994000003526 ], [ -77.098386000001497, 36.558169000003581 ], [ -77.10302800000143, 36.544594000002988 ], [ -77.170545000001212, 36.5472800000028 ], [ -77.253163000001948, 36.544690000003037 ], [ -77.296875000001876, 36.54485500000353 ], [ -77.498702000001586, 36.545101000002887 ], [ -77.576164000001654, 36.545187000003104 ], [ -77.76715000000199, 36.545374000003349 ], [ -77.828996000001823, 36.544998000003382 ], [ -78.046271000001653, 36.543551000003362 ], [ -78.046212000001418, 36.544160000003423 ], [ -78.04048900000204, 36.612090000003377 ], [ -78.033437000001101, 36.708451000003365 ], [ -78.029977000002106, 36.746631000003042 ] ] ] } },
{ "type": "Feature", "properties": { "enacted_district": 5, "population": 788570.0, "voting_age_pop": 634058.0, "dem_votes": 180344.0, "rep_votes": 207364.0, "minority_pop": 190308.0, "dem_pct": 0.46515418808351794, "rep_pct": 0.53484581165855594 }, "geometry": { "type": "Polygon", "coordinates": [ [ [ -79.628863000001687, 36.541616000002861 ], [ -79.71484900000182, 36.541965000002975 ], [ -79.690513000001246, 36.645404000003445 ], [ -79.689447000001749, 36.649864000002744 ], [ -79.680963000001739, 36.685306000003393 ], [ -79.672297000001876, 36.721956000002947 ], [ -79.65785700000167, 36.783500000003059 ], [ -79.640652000001168, 36.856139000003402 ], [ -79.621868000001925, 36.934753000002935 ], [ -79.59415700000109, 37.041928000003217 ], [ -79.594069000001369, 37.042206000002842 ], [ -79.564311000001354, 37.034702000002852 ], [ -79.542296000001215, 37.045872000003214 ], [ -79.495178000001161, 37.021965000002957 ], [ -79.481731000001716, 37.005927000003169 ], [ -79.473819000002052, 37.062985000003373 ], [ -79.442859000001462, 37.055867000003111 ], [ -79.38189400000168, 37.154567000002785 ], [ -79.357118000001464, 37.19483700000341 ], [ -79.330477000001494, 37.238418000002909 ], [ -79.348869000001272, 37.245589000003463 ], [ -79.371602000001786, 37.28388200000299 ], [ -79.407828000001146, 37.280619000002666 ], [ -79.394011000001825, 37.308451000003267 ], [ -79.394820000001715, 37.329769000002941 ], [ -79.358529000002065, 37.340945000002883 ], [ -79.344077000002116, 37.347428000003006 ], [ -79.320789000001369, 37.366810000002779 ], [ -79.319374000001162, 37.372302000002925 ], [ -79.360111000002149, 37.406490000003451 ], [ -79.351719000002106, 37.417070000002795 ], [ -79.362758000001691, 37.416796000002826 ], [ -79.379758000001047, 37.456454000002694 ], [ -79.356028000001487, 37.484130000003162 ], [ -79.321830000002137, 37.484148000002712 ], [ -79.29452400000136, 37.499541000003383 ], [ -79.341670000001415, 37.51801500000316 ], [ -79.367342000001102, 37.55114800000333 ], [ -79.380342000002159, 37.590551000003217 ], [ -79.436947000002107, 37.617057000002973 ], [ -79.401580000001388, 37.626049000003128 ], [ -79.352862000001863, 37.657374000002633 ], [ -79.322317000001803, 37.692874000002952 ], [ -79.303011000001703, 37.740923000002851 ], [ -79.264674000001904, 37.794694000003211 ], [ -79.234017000001472, 37.812329000002997 ], [ -79.218087000001802, 37.798477000003416 ], [ -79.198194000001934, 37.788171000003373 ], [ -79.172131000001727, 37.803097000002928 ], [ -79.144473000001057, 37.855912000003094 ], [ -79.157390000001158, 37.891003000003323 ], [ -79.145936000001825, 37.888882000003257 ], [ -79.062283000001926, 37.917520000002774 ], [ -79.036537000002141, 37.892461000003287 ], [ -79.005129000001531, 37.881690000002671 ], [ -78.98515700000128, 37.901996000002846 ], [ -78.9569100000014, 37.916575000003064 ], [ -78.942068000002052, 37.940237000002845 ], [ -78.899053000001643, 37.948862000003096 ], [ -78.904744000001742, 37.988818000003512 ], [ -78.873692000001554, 38.02862400000307 ], [ -78.857456000001008, 38.032630000003159 ], [ -78.838874000001141, 38.047370000002722 ], [ -78.792788000001082, 38.069504000002745 ], [ -78.77924700000159, 38.08892100000341 ], [ -78.781152000001413, 38.097835000003272 ], [ -78.787805000001896, 38.127171000003287 ], [ -78.749396000001468, 38.206648000003042 ], [ -78.726443000001126, 38.229972000003386 ], [ -78.710624000001644, 38.240466000002904 ], [ -78.65723600000122, 38.260566000003109 ], [ -78.663145000001947, 38.277933000003493 ], [ -78.542088000001115, 38.237367000002806 ], [ -78.518031000001514, 38.229874000003264 ], [ -78.438379000001575, 38.205844000002891 ], [ -78.396706000001075, 38.192075000003214 ], [ -78.396281000001224, 38.192018000003451 ], [ -78.368984000001191, 38.184146000003103 ], [ -78.332451000001328, 38.173829000002868 ], [ -78.256818000001005, 38.147905000003334 ], [ -78.221767000001051, 38.135550000003093 ], [ -78.209384000002117, 38.131128000003514 ], [ -78.169607000002074, 38.130690000003433 ], [ -78.113254000001959, 38.143416000003334 ], [ -78.093027000001882, 38.151595000003176 ], [ -78.047876000001281, 38.135883000003439 ], [ -78.001947000001834, 38.137582000003235 ], [ -77.979936000001757, 38.119533000003251 ], [ -77.953639000001829, 38.118501000003413 ], [ -77.936654000001298, 38.116141000002891 ], [ -77.923718000002026, 38.114536000003241 ], [ -77.885450000001029, 38.110703000002999 ], [ -77.839717000001272, 38.106038000002869 ], [ -77.811121000001464, 38.079692000003263 ], [ -77.782514000001854, 38.067537000003092 ], [ -77.784514000001124, 38.063337000003401 ], [ -77.747813000001841, 38.047937000003209 ], [ -77.747670000001776, 38.024295000003136 ], [ -77.6874690000014, 38.007806000002851 ], [ -77.642518000001985, 37.990688000003495 ], [ -77.613874000001502, 37.958973000003269 ], [ -77.583863000001259, 37.950286000003388 ], [ -77.540848000001787, 37.919696000002851 ], [ -77.493333000001456, 37.897271000002675 ], [ -77.458267000001442, 37.890153000003011 ], [ -77.421989000001261, 37.864929000002803 ], [ -77.422796000001711, 37.812048000003202 ], [ -77.407813000001823, 37.803330000002859 ], [ -77.430056000001926, 37.798305000002998 ], [ -77.460309000000933, 37.8114220000027 ], [ -77.460304000001813, 37.791911000002877 ], [ -77.49962900000186, 37.772194000002962 ], [ -77.531321000001427, 37.775298000002891 ], [ -77.549260000001027, 37.796854000003215 ], [ -77.576310000001826, 37.799718000003296 ], [ -77.588768000001608, 37.778606000003023 ], [ -77.637968000001578, 37.747457000003237 ], [ -77.654019000001142, 37.74793200000282 ], [ -77.636168000001078, 37.706545000002798 ], [ -77.630670000001487, 37.705673000002768 ], [ -77.632984000002025, 37.699881000003295 ], [ -77.644357000001392, 37.66936400000278 ], [ -77.646054000001342, 37.662204000003065 ], [ -77.652052000001788, 37.63089700000279 ], [ -77.650621000001308, 37.624188000003251 ], [ -77.651983000001763, 37.619912000002763 ], [ -77.640243000002044, 37.6026900000032 ], [ -77.626031000001646, 37.597944000002968 ], [ -77.618368000001425, 37.587558000003028 ], [ -77.655399000001168, 37.563986000003467 ], [ -77.665331000001217, 37.554548000003017 ], [ -77.676264000001268, 37.546678000003261 ], [ -77.696900000001961, 37.531822000002997 ], [ -77.732333000001276, 37.506239000003163 ], [ -77.732738000001703, 37.506021000003507 ], [ -77.762624000001452, 37.484492000003037 ], [ -77.777616000001274, 37.473619000003033 ], [ -77.805562000001544, 37.433652000003114 ], [ -77.855148000001464, 37.418363000002863 ], [ -77.871810000001943, 37.399434000003247 ], [ -77.877556000001334, 37.366247000002879 ], [ -77.851804000001351, 37.354867000003331 ], [ -77.837346000001801, 37.338380000003013 ], [ -77.79636000000184, 37.332163000003227 ], [ -77.806750000001031, 37.304526000002653 ], [ -77.758620000001088, 37.268717000003264 ], [ -77.716211000002019, 37.296878000003169 ], [ -77.669158000002056, 37.292850000002829 ], [ -77.652200000001585, 37.265822000003105 ], [ -77.650610000001123, 37.265112000003249 ], [ -77.689752000001434, 37.2214820000031 ], [ -77.75749700000199, 37.19227700000323 ], [ -77.795926000001856, 37.192592000002811 ], [ -77.813859000001699, 37.169678000002826 ], [ -77.855507000001126, 37.164120000003095 ], [ -77.900338000001526, 37.143882000003011 ], [ -77.889813000001055, 36.988818000002787 ], [ -77.966571000001935, 36.987279000003475 ], [ -78.003639000001414, 37.022756000003184 ], [ -78.026698000002042, 36.783691000003138 ], [ -78.027411000001365, 36.777858000002645 ], [ -78.027759000001453, 36.772367000003271 ], [ -78.029977000002106, 36.746631000003042 ], [ -78.033437000001101, 36.708451000003365 ], [ -78.04048900000204, 36.612090000003377 ], [ -78.046212000001418, 36.544160000003423 ], [ -78.046271000001653, 36.543551000003362 ], [ -78.313001000001975, 36.543913000002732 ], [ -78.476743000001662, 36.542107000002915 ], [ -78.68235100000193, 36.542119000003105 ], [ -78.734122000002117, 36.54193900000319 ], [ -78.901665000002083, 36.542066000003068 ], [ -78.963324000001307, 36.542180000003533 ], [ -78.979175000001206, 36.542171000003506 ], [ -79.218456000001183, 36.541653000002675 ], [ -79.343117000001072, 36.541590000003197 ], [ -79.400790000001706, 36.541581000003454 ], [ -79.44027400000212, 36.541462000003264 ], [ -79.470057000001177, 36.540971000003452 ], [ -79.495596000001726, 36.540938000002861 ], [ -79.628863000001687, 36.541616000002861 ] ] ] } },
{ "type": "Feature", "properties": { "enacted_district": 6, "population": 783104.0, "voting_age_pop": 622609.0, "dem_votes": 138147.0, "rep_votes": 210342.0, "minority_pop": 119065.0, "dem_pct": 0.39641710343901326, "rep_pct": 0.60358289627403361 }, "geometry": { "type": "Polygon", "coordinates": [ [ [ -79.994392000002151, 37.241179000003271 ], [ -79.998191000001754, 37.252158000002701 ], [ -80.006450000001678, 37.246323000003351 ], [ -80.028780000001362, 37.243694000003089 ], [ -80.0334640000017, 37.262890000003409 ], [ -80.064726000001329, 37.260382000003105 ], [ -80.081631000001138, 37.26595200000267 ], [ -80.112675000001801, 37.281154000002999 ], [ -80.167913000001661, 37.259927000002918 ], [ -80.192536000001681, 37.234383000003255 ], [ -80.20509100000119, 37.24811600000303 ], [ -80.218979000001227, 37.263706000003111 ], [ -80.238936000001857, 37.286222000003171 ], [ -80.251540000001924, 37.300727000002802 ], [ -80.251847000001234, 37.301075000002726 ], [ -80.262184000002193, 37.341526000002922 ], [ -80.200301000001147, 37.378356000002768 ], [ -80.147679000001659, 37.382492000002934 ], [ -80.074119000002185, 37.422469000003041 ], [ -80.04759400000124, 37.443103000002978 ], [ -80.012185000001168, 37.503050000002759 ], [ -79.969071000002145, 37.544408000003138 ], [ -80.02762100000129, 37.624218000002678 ], [ -80.020554000001866, 37.647442000002968 ], [ -80.026743000001545, 37.653955000002618 ], [ -80.154692000001504, 37.601099000002968 ], [ -80.168436000001265, 37.615376000002691 ], [ -80.220984000001692, 37.627767000002919 ], [ -80.221725000001314, 37.62817400000332 ], [ -80.267504000002205, 37.646156000002932 ], [ -80.296077000001333, 37.691730000003311 ], [ -80.258143000002065, 37.720612000002795 ], [ -80.257411000002037, 37.756084000003213 ], [ -80.224268000001416, 37.787432000002646 ], [ -80.201464000001664, 37.825810000003273 ], [ -80.16220200000194, 37.875122000003238 ], [ -80.140609000002129, 37.883932000003398 ], [ -80.056056000001362, 37.95195900000278 ], [ -80.008888000001264, 37.990830000002966 ], [ -79.980290000001219, 38.027596000002909 ], [ -79.953511000001953, 38.081480000003388 ], [ -79.926330000001315, 38.107147000003039 ], [ -79.929031000001117, 38.139771000002753 ], [ -79.897335000001419, 38.19338100000347 ], [ -79.850326000002184, 38.233324000002895 ], [ -79.795921000002068, 38.265552000003233 ], [ -79.809934000001775, 38.304681000003328 ], [ -79.742771000001127, 38.353367000003104 ], [ -79.706634000001628, 38.415730000002966 ], [ -79.689667000001435, 38.4314620000033 ], [ -79.698988000001492, 38.474988000003343 ], [ -79.680074000002165, 38.510617000003322 ], [ -79.662875000001648, 38.570416000002915 ], [ -79.649075000001488, 38.591515000002829 ], [ -79.536870000001855, 38.550917000003331 ], [ -79.521469000001346, 38.533918000003233 ], [ -79.476396000001216, 38.457159000003067 ], [ -79.396556000001354, 38.43460900000342 ], [ -79.312276000001745, 38.411876000003176 ], [ -79.279692000001177, 38.424211000003098 ], [ -79.254482000002014, 38.455930000002688 ], [ -79.224583000001928, 38.477588000002626 ], [ -79.20585900000134, 38.524521000002643 ], [ -79.168101000001982, 38.57882200000266 ], [ -79.131056000001664, 38.65321800000337 ], [ -79.092839000001163, 38.66135400000347 ], [ -79.092955000001893, 38.702002000002622 ], [ -79.047349000001375, 38.791810000002869 ], [ -78.993761000001911, 38.850021000003373 ], [ -78.896011000002076, 38.781665000003194 ], [ -78.869261000001373, 38.762980000002706 ], [ -78.805046000001866, 38.859738000003439 ], [ -78.788031000001098, 38.885123000002714 ], [ -78.759085000002017, 38.900529000002919 ], [ -78.71991400000212, 38.906076000003395 ], [ -78.677449000002099, 38.92790800000342 ], [ -78.629553000001806, 38.98086600000341 ], [ -78.60165500000133, 38.964603000002903 ], [ -78.550467000001674, 39.018065000002707 ], [ -78.571901000001532, 39.031995000002894 ], [ -78.544182000001967, 39.05655900000307 ], [ -78.479597000001021, 39.109505000002869 ], [ -78.459311000001264, 39.114273000003266 ], [ -78.427294000001439, 39.152726000002609 ], [ -78.403907000001638, 39.167738000003261 ], [ -78.427705000001467, 39.185975000003296 ], [ -78.438695000001658, 39.198093000003446 ], [ -78.39966900000104, 39.243874000003451 ], [ -78.419422000001447, 39.257476000003251 ], [ -78.360571000001173, 39.317597000002607 ], [ -78.340415000001698, 39.353628000003368 ], [ -78.366867000001662, 39.359290000003263 ], [ -78.343214000001382, 39.388807000003183 ], [ -78.359918000001699, 39.409028000002962 ], [ -78.346718000001474, 39.427618000002909 ], [ -78.34708700000202, 39.466012000002713 ], [ -78.206444000001397, 39.375793000002943 ], [ -78.123808000001674, 39.322677000003026 ], [ -78.081610000001191, 39.29541000000259 ], [ -78.033191000001736, 39.264612000002685 ], [ -77.919424000001939, 39.191193000003238 ], [ -77.860203000001221, 39.152981000003052 ], [ -77.828299000001763, 39.132426000002994 ], [ -77.845747000000998, 39.116073000003155 ], [ -77.845843000001238, 39.115892000002823 ], [ -77.855169000001425, 39.095284000002785 ], [ -77.887892000002054, 39.06446300000335 ], [ -77.962203000002049, 39.013733000002837 ], [ -77.962273000001119, 39.013693000003435 ], [ -78.004313000001602, 38.979438000002624 ], [ -78.041576000001527, 38.938096000003149 ], [ -78.059086000001855, 38.932595000002685 ], [ -78.075149000001048, 38.912607000002723 ], [ -78.061804000001061, 38.891946000003294 ], [ -78.11224700000156, 38.880260000002728 ], [ -78.130574000001744, 38.864865000003178 ], [ -78.151407000001612, 38.848359000003171 ], [ -78.170941000002003, 38.823847000003383 ], [ -78.200885000001776, 38.776660000003297 ], [ -78.262484000001734, 38.758635000003011 ], [ -78.284805000001583, 38.75931500000263 ], [ -78.303380000002051, 38.73925900000323 ], [ -78.318775000001935, 38.737866000002846 ], [ -78.331705000002003, 38.702642000003479 ], [ -78.314955000001305, 38.681771000003174 ], [ -78.315581000001217, 38.651564000002928 ], [ -78.338176000001894, 38.627312000003158 ], [ -78.359479000001471, 38.613760000003502 ], [ -78.373525000002019, 38.596046000002865 ], [ -78.380929000001686, 38.561307000003154 ], [ -78.41376000000156, 38.547201000003213 ], [ -78.438939000001881, 38.516787000003283 ], [ -78.440451000001602, 38.513471000002845 ], [ -78.445533000001092, 38.48770200000309 ], [ -78.452801000001429, 38.475527000003495 ], [ -78.485740000001428, 38.421579000002673 ], [ -78.542015000001825, 38.364859000002717 ], [ -78.559822000001077, 38.331066000003091 ], [ -78.587506000001198, 38.324830000003395 ], [ -78.622644000002097, 38.301650000002702 ], [ -78.663145000001947, 38.277933000003493 ], [ -78.65723600000122, 38.260566000003109 ], [ -78.710624000001644, 38.240466000002904 ], [ -78.726443000001126, 38.229972000003386 ], [ -78.749396000001468, 38.206648000003042 ], [ -78.787805000001896, 38.127171000003287 ], [ -78.781152000001413, 38.097835000003272 ], [ -78.77924700000159, 38.08892100000341 ], [ -78.792788000001082, 38.069504000002745 ], [ -78.838874000001141, 38.047370000002722 ], [ -78.857456000001008, 38.032630000003159 ], [ -78.873692000001554, 38.02862400000307 ], [ -78.904744000001742, 37.988818000003512 ], [ -78.899053000001643, 37.948862000003096 ], [ -78.942068000002052, 37.940237000002845 ], [ -78.9569100000014, 37.916575000003064 ], [ -78.98515700000128, 37.901996000002846 ], [ -79.005129000001531, 37.881690000002671 ], [ -79.036537000002141, 37.892461000003287 ], [ -79.062283000001926, 37.917520000002774 ], [ -79.145936000001825, 37.888882000003257 ], [ -79.157390000001158, 37.891003000003323 ], [ -79.144473000001057, 37.855912000003094 ], [ -79.172131000001727, 37.803097000002928 ], [ -79.198194000001934, 37.788171000003373 ], [ -79.218087000001802, 37.798477000003416 ], [ -79.234017000001472, 37.812329000002997 ], [ -79.264674000001904, 37.794694000003211 ], [ -79.303011000001703, 37.740923000002851 ], [ -79.322317000001803, 37.692874000002952 ], [ -79.352862000001863, 37.657374000002633 ], [ -79.401580000001388, 37.626049000003128 ], [ -79.436947000002107, 37.617057000002973 ], [ -79.45750400000135, 37.599323000002961 ], [ -79.441100000001455, 37.563445000003362 ], [ -79.494044000002006, 37.5379130000033 ], [ -79.498699000001167, 37.532797000003448 ], [ -79.538645000001139, 37.495689000003232 ], [ -79.567365000002056, 37.487717000003357 ], [ -79.593707000002027, 37.448864000003248 ], [ -79.626124000001667, 37.455284000003175 ], [ -79.63420600000201, 37.457021000003209 ], [ -79.66867200000145, 37.483373000002878 ], [ -79.719076000001508, 37.448957000002977 ], [ -79.786615000001348, 37.410957000002895 ], [ -79.778616000001563, 37.381783000003189 ], [ -79.788151000002046, 37.351116000002968 ], [ -79.812805000001248, 37.334490000002944 ], [ -79.820209000001213, 37.331030000003011 ], [ -79.84747600000189, 37.309352000002605 ], [ -79.850993000001637, 37.284442000002748 ], [ -79.850970000001581, 37.284316000003408 ], [ -79.857122000001738, 37.265412000002854 ], [ -79.846901000001424, 37.241304000003133 ], [ -79.84721700000182, 37.225406000002785 ], [ -79.882568000001356, 37.209712000002853 ], [ -79.896686000001296, 37.180962000002609 ], [ -79.922488000001792, 37.160769000002766 ], [ -79.961890000001475, 37.137349000003383 ], [ -79.989602000001753, 37.143419000002986 ], [ -80.005309000001361, 37.167816000003228 ], [ -80.000609000001717, 37.19303000000334 ], [ -79.957781000001262, 37.21272000000269 ], [ -79.973967000002048, 37.231265000003326 ], [ -79.974073000001638, 37.231346000003263 ], [ -79.976005000001436, 37.236799000003458 ], [ -79.98817500000186, 37.237319000003495 ], [ -79.994392000002151, 37.241179000003271 ] ] ] } },
{ "type": "Feature", "properties": { "enacted_district": 7, "population": 783563.0, "voting_age_pop": 585149.0, "dem_votes": 181247.0, "rep_votes": 156485.0, "minority_pop": 268316.0, "dem_pct": 0.53665924444924995, "rep_pct": 0.46334075525465729 }, "geometry": { "type": "Polygon", "coordinates": [ [ [ -78.001947000001834, 38.137582000003235 ], [ -78.047876000001281, 38.135883000003439 ], [ -78.093027000001882, 38.151595000003176 ], [ -78.113254000001959, 38.143416000003334 ], [ -78.169607000002074, 38.130690000003433 ], [ -78.209384000002117, 38.131128000003514 ], [ -78.221767000001051, 38.135550000003093 ], [ -78.256818000001005, 38.147905000003334 ], [ -78.332451000001328, 38.173829000002868 ], [ -78.368984000001191, 38.184146000003103 ], [ -78.396281000001224, 38.192018000003451 ], [ -78.396706000001075, 38.192075000003214 ], [ -78.438379000001575, 38.205844000002891 ], [ -78.518031000001514, 38.229874000003264 ], [ -78.542088000001115, 38.237367000002806 ], [ -78.663145000001947, 38.277933000003493 ], [ -78.622644000002097, 38.301650000002702 ], [ -78.587506000001198, 38.324830000003395 ], [ -78.559822000001077, 38.331066000003091 ], [ -78.542015000001825, 38.364859000002717 ], [ -78.485740000001428, 38.421579000002673 ], [ -78.452801000001429, 38.475527000003495 ], [ -78.445533000001092, 38.48770200000309 ], [ -78.440451000001602, 38.513471000002845 ], [ -78.438939000001881, 38.516787000003283 ], [ -78.41376000000156, 38.547201000003213 ], [ -78.380929000001686, 38.561307000003154 ], [ -78.373525000002019, 38.596046000002865 ], [ -78.359479000001471, 38.613760000003502 ], [ -78.338176000001894, 38.627312000003158 ], [ -78.231803000001094, 38.53253900000346 ], [ -78.216239000001465, 38.538214000002988 ], [ -78.168792000001091, 38.523809000002892 ], [ -78.089203000001291, 38.597381000002713 ], [ -78.040530000001709, 38.628355000002934 ], [ -77.979070000001173, 38.667850000002751 ], [ -77.972102000001627, 38.672290000003422 ], [ -77.935355000001579, 38.695840000003173 ], [ -77.902908000001858, 38.684181000002908 ], [ -77.883947000001911, 38.666593000002827 ], [ -77.859948000001779, 38.62081000000336 ], [ -77.875507000002059, 38.583060000002931 ], [ -77.847912000000974, 38.551413000003123 ], [ -77.81360000000133, 38.530115000002787 ], [ -77.780446000001561, 38.477542000003211 ], [ -77.761927000001563, 38.441074000003304 ], [ -77.735901000000993, 38.413458000002834 ], [ -77.691890000001436, 38.426873000002807 ], [ -77.634940000001833, 38.410218000003155 ], [ -77.628989000001141, 38.430343000003049 ], [ -77.633837000001435, 38.466892000002836 ], [ -77.588783000001769, 38.504044000002857 ], [ -77.531328000001068, 38.556550000003462 ], [ -77.579484000001983, 38.627653000003363 ], [ -77.553130000001303, 38.615089000002783 ], [ -77.515709000001351, 38.6270170000031 ], [ -77.511643000001214, 38.641546000002968 ], [ -77.429144000000932, 38.633785000003407 ], [ -77.442616000001806, 38.65403500000302 ], [ -77.440549000001198, 38.658587000003372 ], [ -77.416479000000948, 38.664023000002871 ], [ -77.402553000001362, 38.669021000003504 ], [ -77.396108000002002, 38.672107000002981 ], [ -77.367046000001949, 38.676695000003214 ], [ -77.359853000001337, 38.681165000002622 ], [ -77.349073000001326, 38.678173000002801 ], [ -77.345795000001601, 38.694543000002867 ], [ -77.33229600000125, 38.716525000003017 ], [ -77.308567000001815, 38.706727000003205 ], [ -77.299868000001482, 38.705162000002801 ], [ -77.282404000001293, 38.696468000003115 ], [ -77.279262000001282, 38.695361000003132 ], [ -77.263422000001128, 38.686389000003054 ], [ -77.245756000001606, 38.672273000002797 ], [ -77.245387000001628, 38.672129000003032 ], [ -77.240631000002054, 38.667749000002885 ], [ -77.226925000001856, 38.6306950000033 ], [ -77.229281000001961, 38.61840000000312 ], [ -77.227336000001515, 38.604570000003527 ], [ -77.24448000000109, 38.594575000002919 ], [ -77.251759000001698, 38.575014000003293 ], [ -77.281195000001659, 38.530244000002774 ], [ -77.29540600000189, 38.509239000002999 ], [ -77.318542000001997, 38.474437000003277 ], [ -77.322910000001798, 38.432625000002787 ], [ -77.30922700000167, 38.390984000003485 ], [ -77.287097000001907, 38.348800000003017 ], [ -77.26754500000132, 38.334104000003506 ], [ -77.235208000000952, 38.332536000003422 ], [ -77.163219000001149, 38.345823000003534 ], [ -77.124699000001968, 38.366760000003005 ], [ -77.086678000001243, 38.367928000003317 ], [ -77.053420000001893, 38.398813000003223 ], [ -77.018498000001301, 38.381941000003344 ], [ -77.014796000001752, 38.332367000003245 ], [ -77.030683000001375, 38.311622000003496 ], [ -76.997670000000923, 38.278046000003407 ], [ -77.044202000001732, 38.260582000002877 ], [ -77.048192000001805, 38.184679000003094 ], [ -77.061695000001308, 38.16163100000319 ], [ -77.115997000001911, 38.149931000002645 ], [ -77.116847000001741, 38.120641000002792 ], [ -77.170100000001383, 38.079543000003135 ], [ -77.159540000001826, 38.064219000003327 ], [ -77.12943700000173, 38.044992000003006 ], [ -77.120082000002043, 38.013130000002761 ], [ -77.088970000001851, 38.013644000003055 ], [ -77.070115000001337, 37.964770000002865 ], [ -77.148634000001465, 37.972000000003412 ], [ -77.181962000001562, 37.949577000002918 ], [ -77.181418000000917, 37.891654000002781 ], [ -77.241679000001028, 37.909550000002767 ], [ -77.247702000001198, 37.876174000003161 ], [ -77.299259000002039, 37.828694000002912 ], [ -77.345223000001269, 37.789285000003296 ], [ -77.378372000001491, 37.776307000003072 ], [ -77.405065000001827, 37.780177000002972 ], [ -77.407813000001823, 37.803330000002859 ], [ -77.422796000001711, 37.812048000003202 ], [ -77.421989000001261, 37.864929000002803 ], [ -77.458267000001442, 37.890153000003011 ], [ -77.493333000001456, 37.897271000002675 ], [ -77.540848000001787, 37.919696000002851 ], [ -77.583863000001259, 37.950286000003388 ], [ -77.613874000001502, 37.958973000003269 ], [ -77.642518000001985, 37.990688000003495 ], [ -77.6874690000014, 38.007806000002851 ], [ -77.747670000001776, 38.024295000003136 ], [ -77.747813000001841, 38.047937000003209 ], [ -77.784514000001124, 38.063337000003401 ], [ -77.782514000001854, 38.067537000003092 ], [ -77.811121000001464, 38.079692000003263 ], [ -77.839717000001272, 38.106038000002869 ], [ -77.885450000001029, 38.110703000002999 ], [ -77.923718000002026, 38.114536000003241 ], [ -77.936654000001298, 38.116141000002891 ], [ -77.953639000001829, 38.118501000003413 ], [ -77.979936000001757, 38.119533000003251 ], [ -78.001947000001834, 38.137582000003235 ] ] ] } },
{ "type": "Feature", "properties": { "enacted_district": 8, "population": 790895.0, "voting_age_pop": 625025.0, "dem_votes": 280630.0, "rep_votes": 79211.0, "minority_pop": 299502.0, "dem_pct": 0.77987222112547705, "rep_pct": 0.22012777859662244 }, "geometry": { "type": "Polygon", "coordinates": [ [ [ -77.203696000001145, 38.618172000003177 ], [ -77.227336000001515, 38.604570000003527 ], [ -77.229281000001961, 38.61840000000312 ], [ -77.226925000001856, 38.6306950000033 ], [ -77.240631000002054, 38.667749000002885 ], [ -77.210066000001717, 38.701344000003296 ], [ -77.1971210000019, 38.710076000003411 ], [ -77.163035000001003, 38.708157000002629 ], [ -77.163250000001099, 38.740042000003108 ], [ -77.16498300000093, 38.74175700000297 ], [ -77.166136000001529, 38.751639000002832 ], [ -77.164118000001267, 38.755453000003229 ], [ -77.155748000001765, 38.765417000003232 ], [ -77.145940000001858, 38.782190000002949 ], [ -77.136072000001363, 38.784071000003209 ], [ -77.134590000000941, 38.798310000003148 ], [ -77.134491000001418, 38.798603000002934 ], [ -77.137742000001793, 38.800757000002896 ], [ -77.174313000001803, 38.792772000002813 ], [ -77.175279000001197, 38.791924000002631 ], [ -77.186133000001988, 38.795167000003033 ], [ -77.201698000001556, 38.794072000003183 ], [ -77.218782000001639, 38.792764000003316 ], [ -77.218745000001221, 38.793051000003246 ], [ -77.217387000001722, 38.811394000002679 ], [ -77.21758500000206, 38.811390000002667 ], [ -77.217931000001627, 38.834253000003216 ], [ -77.219718000000924, 38.853808000002871 ], [ -77.223238000001928, 38.85521700000313 ], [ -77.227664000001994, 38.865665000003446 ], [ -77.219970000001695, 38.865854000002805 ], [ -77.220434000001532, 38.875787000003363 ], [ -77.219423000001427, 38.887144000002792 ], [ -77.217705000001303, 38.890062000002978 ], [ -77.217448000001752, 38.890523000002858 ], [ -77.21737500000107, 38.910129000003423 ], [ -77.214683000001756, 38.908681000003192 ], [ -77.19624400000113, 38.923473000003035 ], [ -77.210230000002042, 38.931487000003479 ], [ -77.202518000001561, 38.945531000003406 ], [ -77.193766000001787, 38.954607000002966 ], [ -77.179617000001429, 38.968301000003258 ], [ -77.150877000001742, 38.965662000003171 ], [ -77.119792000001766, 38.934374000003267 ], [ -77.11643600000103, 38.929571000003193 ], [ -77.082643000001582, 38.902280000002683 ], [ -77.070469000001395, 38.901104000003279 ], [ -77.064251000000965, 38.888956000002892 ], [ -77.04339400000184, 38.874159000003282 ], [ -77.041040000001644, 38.871779000003251 ], [ -77.048020000001202, 38.841261000003449 ], [ -77.037642000001782, 38.808574000003368 ], [ -77.039184000001455, 38.800300000003034 ], [ -77.041362000001769, 38.785415000003269 ], [ -77.041364000001565, 38.768554000003142 ], [ -77.041848000001565, 38.751811000002817 ], [ -77.04261200000191, 38.721553000003432 ], [ -77.074186000001362, 38.712824000003387 ], [ -77.122632000000934, 38.685256000003108 ], [ -77.134732000001122, 38.660006000002632 ], [ -77.12968200000094, 38.634704000003069 ], [ -77.203696000001145, 38.618172000003177 ] ] ] } },
{ "type": "Feature", "properties": { "enacted_district": 9, "population": 786581.0, "voting_age_pop": 640559.0, "dem_votes": 111167.0, "rep_votes": 244556.0, "minority_pop": 83481.0, "dem_pct": 0.31251001472704604, "rep_pct": 0.68748998499183633 }, "geometry": { "type": "Polygon", "coordinates": [ [ [ -82.572134000001839, 36.594599000002752 ], [ -82.6092540000013, 36.594060000003246 ], [ -82.828300000001519, 36.593750000002871 ], [ -82.929770000001909, 36.593670000002732 ], [ -82.985124000002116, 36.593729000003293 ], [ -83.174533000001929, 36.593895000003144 ], [ -83.175839000001801, 36.593890000002609 ], [ -83.284904000001731, 36.59812300000258 ], [ -83.405614000002188, 36.597385000003143 ], [ -83.488813000001642, 36.597253000003214 ], [ -83.675395000002368, 36.600784000003259 ], [ -83.613896000001574, 36.634850000002601 ], [ -83.567853000002387, 36.646051000002821 ], [ -83.510758000002198, 36.669046000002801 ], [ -83.453690000002027, 36.664793000002881 ], [ -83.414829000001376, 36.670208000002738 ], [ -83.34763500000156, 36.700199000002769 ], [ -83.28703800000217, 36.714281000003012 ], [ -83.195831000002073, 36.738687000002628 ], [ -83.135120000002161, 36.742629000002864 ], [ -83.128987000001572, 36.775784000002787 ], [ -83.098480000001928, 36.813517000003181 ], [ -83.099904000001573, 36.831147000002687 ], [ -83.072836000001814, 36.854457000002625 ], [ -83.009242000002317, 36.847408000003107 ], [ -82.949154000002352, 36.86639300000266 ], [ -82.87840000000196, 36.892953000003146 ], [ -82.857644000001727, 36.928850000002683 ], [ -82.86708200000129, 36.978247000002533 ], [ -82.828720000001752, 37.005798000002571 ], [ -82.781479000001582, 37.009028000002722 ], [ -82.742759000001456, 37.042796000002888 ], [ -82.72502000000199, 37.042419000002575 ], [ -82.726486000002097, 37.0734110000027 ], [ -82.715149000002199, 37.121848000003169 ], [ -82.633918000002012, 37.154179000003388 ], [ -82.553874000002224, 37.202833000003203 ], [ -82.508419000001766, 37.221913000002566 ], [ -82.389960000001622, 37.2582030000031 ], [ -82.349146000001355, 37.267905000002621 ], [ -82.314628000002045, 37.295794000002793 ], [ -82.314195000002158, 37.296075000002659 ], [ -82.247060000001952, 37.342960000002691 ], [ -82.136744000002238, 37.419175000003172 ], [ -81.968012000001963, 37.538035000002601 ], [ -81.939989000001361, 37.512591000003006 ], [ -81.996578000001577, 37.476705000003221 ], [ -81.992270000001398, 37.460916000002889 ], [ -81.945765000002226, 37.440214000003181 ], [ -81.930050000001884, 37.397124000003245 ], [ -81.920737000001282, 37.355401000003354 ], [ -81.897331000002097, 37.332456000002594 ], [ -81.874059000001708, 37.327674000002709 ], [ -81.849844000002108, 37.287186000002606 ], [ -81.825851000001634, 37.279311000002835 ], [ -81.789294000002229, 37.284416000003077 ], [ -81.746039000001289, 37.263398000002816 ], [ -81.740124000002297, 37.23775200000339 ], [ -81.663329000002179, 37.202141000003373 ], [ -81.575223000002111, 37.206003000003008 ], [ -81.506865000001596, 37.234948000002746 ], [ -81.499472000001688, 37.25712500000305 ], [ -81.483559000002217, 37.250604000003293 ], [ -81.437158000001503, 37.274065000003041 ], [ -81.416663000001677, 37.273214000003335 ], [ -81.388057000001737, 37.319883000002555 ], [ -81.362156000001875, 37.337687000003363 ], [ -81.311874000001652, 37.293764000003257 ], [ -81.279139000001877, 37.271564000002591 ], [ -81.225104000001906, 37.234874000002627 ], [ -81.167029000001918, 37.262881000003347 ], [ -81.104147000001163, 37.280605000003042 ], [ -80.987319000001406, 37.301359000003309 ], [ -80.980146000001966, 37.292743000003355 ], [ -80.951018000001682, 37.29497000000314 ], [ -80.898050000001888, 37.316779000003343 ], [ -80.855679000001217, 37.353755000002792 ], [ -80.883247000001916, 37.383933000003275 ], [ -80.859457000001456, 37.429491000003011 ], [ -80.820228000002118, 37.413288000002581 ], [ -80.784188000001677, 37.39458700000295 ], [ -80.770082000001679, 37.372363000002679 ], [ -80.713545000002227, 37.391500000003376 ], [ -80.645893000001635, 37.422147000003228 ], [ -80.552036000001152, 37.473563000003296 ], [ -80.511391000002206, 37.481672000003186 ], [ -80.475796000001395, 37.423071000003311 ], [ -80.4727820000017, 37.423730000003424 ], [ -80.425629000002033, 37.449885000003157 ], [ -80.299789000001766, 37.508271000002978 ], [ -80.28256800000176, 37.533250000003399 ], [ -80.309347000001651, 37.527380000003028 ], [ -80.328504000001303, 37.56431500000329 ], [ -80.258919000001441, 37.595499000003443 ], [ -80.220984000001692, 37.627767000002919 ], [ -80.168436000001265, 37.615376000002691 ], [ -80.154692000001504, 37.601099000002968 ], [ -80.026743000001545, 37.653955000002618 ], [ -80.020554000001866, 37.647442000002968 ], [ -80.02762100000129, 37.624218000002678 ], [ -79.969071000002145, 37.544408000003138 ], [ -80.012185000001168, 37.503050000002759 ], [ -80.04759400000124, 37.443103000002978 ], [ -80.074119000002185, 37.422469000003041 ], [ -80.147679000001659, 37.382492000002934 ], [ -80.200301000001147, 37.378356000002768 ], [ -80.262184000002193, 37.341526000002922 ], [ -80.251847000001234, 37.301075000002726 ], [ -80.251540000001924, 37.300727000002802 ], [ -80.238936000001857, 37.286222000003171 ], [ -80.218979000001227, 37.263706000003111 ], [ -80.20509100000119, 37.24811600000303 ], [ -80.192536000001681, 37.234383000003255 ], [ -80.167913000001661, 37.259927000002918 ], [ -80.112675000001801, 37.281154000002999 ], [ -80.081631000001138, 37.26595200000267 ], [ -80.064726000001329, 37.260382000003105 ], [ -80.0334640000017, 37.262890000003409 ], [ -80.028780000001362, 37.243694000003089 ], [ -80.006450000001678, 37.246323000003351 ], [ -79.998191000001754, 37.252158000002701 ], [ -79.994392000002151, 37.241179000003271 ], [ -79.98817500000186, 37.237319000003495 ], [ -79.976005000001436, 37.236799000003458 ], [ -79.974073000001638, 37.231346000003263 ], [ -79.973967000002048, 37.231265000003326 ], [ -79.957781000001262, 37.21272000000269 ], [ -80.000609000001717, 37.19303000000334 ], [ -80.005309000001361, 37.167816000003228 ], [ -79.989602000001753, 37.143419000002986 ], [ -79.961890000001475, 37.137349000003383 ], [ -79.922488000001792, 37.160769000002766 ], [ -79.896686000001296, 37.180962000002609 ], [ -79.882568000001356, 37.209712000002853 ], [ -79.84721700000182, 37.225406000002785 ], [ -79.846901000001424, 37.241304000003133 ], [ -79.857122000001738, 37.265412000002854 ], [ -79.850970000001581, 37.284316000003408 ], [ -79.850993000001637, 37.284442000002748 ], [ -79.84747600000189, 37.309352000002605 ], [ -79.820209000001213, 37.331030000003011 ], [ -79.812805000001248, 37.334490000002944 ], [ -79.788151000002046, 37.351116000002968 ], [ -79.778616000001563, 37.381783000003189 ], [ -79.786615000001348, 37.410957000002895 ], [ -79.719076000001508, 37.448957000002977 ], [ -79.66867200000145, 37.483373000002878 ], [ -79.63420600000201, 37.457021000003209 ], [ -79.626124000001667, 37.455284000003175 ], [ -79.593707000002027, 37.448864000003248 ], [ -79.567365000002056, 37.487717000003357 ], [ -79.538645000001139, 37.495689000003232 ], [ -79.498699000001167, 37.532797000003448 ], [ -79.494044000002006, 37.5379130000033 ], [ -79.441100000001455, 37.563445000003362 ], [ -79.45750400000135, 37.599323000002961 ], [ -79.436947000002107, 37.617057000002973 ], [ -79.380342000002159, 37.590551000003217 ], [ -79.367342000001102, 37.55114800000333 ], [ -79.341670000001415, 37.51801500000316 ], [ -79.29452400000136, 37.499541000003383 ], [ -79.321830000002137, 37.484148000002712 ], [ -79.356028000001487, 37.484130000003162 ], [ -79.379758000001047, 37.456454000002694 ], [ -79.362758000001691, 37.416796000002826 ], [ -79.351719000002106, 37.417070000002795 ], [ -79.360111000002149, 37.406490000003451 ], [ -79.319374000001162, 37.372302000002925 ], [ -79.320789000001369, 37.366810000002779 ], [ -79.344077000002116, 37.347428000003006 ], [ -79.358529000002065, 37.340945000002883 ], [ -79.394820000001715, 37.329769000002941 ], [ -79.394011000001825, 37.308451000003267 ], [ -79.407828000001146, 37.280619000002666 ], [ -79.371602000001786, 37.28388200000299 ], [ -79.348869000001272, 37.245589000003463 ], [ -79.330477000001494, 37.238418000002909 ], [ -79.357118000001464, 37.19483700000341 ], [ -79.38189400000168, 37.154567000002785 ], [ -79.442859000001462, 37.055867000003111 ], [ -79.473819000002052, 37.062985000003373 ], [ -79.481731000001716, 37.005927000003169 ], [ -79.495178000001161, 37.021965000002957 ], [ -79.542296000001215, 37.045872000003214 ], [ -79.564311000001354, 37.034702000002852 ], [ -79.594069000001369, 37.042206000002842 ], [ -79.59415700000109, 37.041928000003217 ], [ -79.621868000001925, 36.934753000002935 ], [ -79.640652000001168, 36.856139000003402 ], [ -79.65785700000167, 36.783500000003059 ], [ -79.672297000001876, 36.721956000002947 ], [ -79.680963000001739, 36.685306000003393 ], [ -79.689447000001749, 36.649864000002744 ], [ -79.690513000001246, 36.645404000003445 ], [ -79.71484900000182, 36.541965000002975 ], [ -79.771486000001971, 36.542228000003512 ], [ -79.891668000001587, 36.542671000003203 ], [ -79.920080000002145, 36.542689000002852 ], [ -80.053459000002064, 36.542523000003072 ], [ -80.169814000001097, 36.543164000003273 ], [ -80.295128000001554, 36.544067000003288 ], [ -80.377984000001618, 36.547844000003323 ], [ -80.480257000001757, 36.552507000002919 ], [ -80.53978600000184, 36.555271000003394 ], [ -80.612057000001627, 36.557898000002872 ], [ -80.653387000001786, 36.559183000003252 ], [ -80.696200000002094, 36.561946000002671 ], [ -80.815766000001588, 36.560248000002595 ], [ -80.837954000001616, 36.559143000003104 ], [ -80.978559000001454, 36.563432000003267 ], [ -81.103894000001716, 36.568172000002704 ], [ -81.203970000001718, 36.572302000002715 ], [ -81.270658000001873, 36.574083000002929 ], [ -81.443849000002004, 36.576923000003113 ], [ -81.496676000002253, 36.579386000002891 ], [ -81.600455000001588, 36.586948000002899 ], [ -81.677490000001313, 36.588137000003442 ], [ -81.646900000001651, 36.611918000002753 ], [ -81.681725000001762, 36.612130000003354 ], [ -81.891389000002235, 36.615609000003175 ], [ -81.919729000001865, 36.616162000003087 ], [ -81.934144000001396, 36.594213000002561 ], [ -82.014228000001552, 36.594491000003337 ], [ -82.145573000002017, 36.594725000002583 ], [ -82.147375000001531, 36.594721000003354 ], [ -82.183348000001715, 36.595005000003169 ], [ -82.18988600000138, 36.595177000002558 ], [ -82.243382000002157, 36.595651000002896 ], [ -82.294134000001392, 36.59569700000322 ], [ -82.406018000001936, 36.595012000002697 ], [ -82.486994000002028, 36.595822000003096 ], [ -82.572134000001839, 36.594599000002752 ] ] ] } },
{ "type": "Feature", "properties": { "enacted_district": 10, "population": 784556.0, "voting_age_pop": 574180.0, "dem_votes": 209265.0, "rep_votes": 149755.0, "minority_pop": 254036.0, "dem_pct": 0.58287839101362637, "rep_pct": 0.41712160870783754 }, "geometry": { "type": "Polygon", "coordinates": [ [ [ -77.691890000001436, 38.426873000002807 ], [ -77.735901000000993, 38.413458000002834 ], [ -77.761927000001563, 38.441074000003304 ], [ -77.780446000001561, 38.477542000003211 ], [ -77.81360000000133, 38.530115000002787 ], [ -77.847912000000974, 38.551413000003123 ], [ -77.875507000002059, 38.583060000002931 ], [ -77.859948000001779, 38.62081000000336 ], [ -77.883947000001911, 38.666593000002827 ], [ -77.902908000001858, 38.684181000002908 ], [ -77.935355000001579, 38.695840000003173 ], [ -77.972102000001627, 38.672290000003422 ], [ -77.979070000001173, 38.667850000002751 ], [ -78.040530000001709, 38.628355000002934 ], [ -78.089203000001291, 38.597381000002713 ], [ -78.168792000001091, 38.523809000002892 ], [ -78.216239000001465, 38.538214000002988 ], [ -78.231803000001094, 38.53253900000346 ], [ -78.338176000001894, 38.627312000003158 ], [ -78.315581000001217, 38.651564000002928 ], [ -78.314955000001305, 38.681771000003174 ], [ -78.331705000002003, 38.702642000003479 ], [ -78.318775000001935, 38.737866000002846 ], [ -78.303380000002051, 38.73925900000323 ], [ -78.284805000001583, 38.75931500000263 ], [ -78.262484000001734, 38.758635000003011 ], [ -78.200885000001776, 38.776660000003297 ], [ -78.170941000002003, 38.823847000003383 ], [ -78.151407000001612, 38.848359000003171 ], [ -78.130574000001744, 38.864865000003178 ], [ -78.11224700000156, 38.880260000002728 ], [ -78.061804000001061, 38.891946000003294 ], [ -78.075149000001048, 38.912607000002723 ], [ -78.059086000001855, 38.932595000002685 ], [ -78.041576000001527, 38.938096000003149 ], [ -78.004313000001602, 38.979438000002624 ], [ -77.962273000001119, 39.013693000003435 ], [ -77.962203000002049, 39.013733000002837 ], [ -77.887892000002054, 39.06446300000335 ], [ -77.855169000001425, 39.095284000002785 ], [ -77.845843000001238, 39.115892000002823 ], [ -77.845747000000998, 39.116073000003155 ], [ -77.828299000001763, 39.132426000002994 ], [ -77.806049000001934, 39.171737000003411 ], [ -77.798157000001453, 39.200703000003344 ], [ -77.762456000000952, 39.26127500000306 ], [ -77.735518000001036, 39.311871000002611 ], [ -77.719519000001029, 39.321314000003007 ], [ -77.668512000001229, 39.31922600000339 ], [ -77.631381000001326, 39.307766000003049 ], [ -77.568753000001038, 39.306447000002862 ], [ -77.551070000000962, 39.276254000003426 ], [ -77.546471000001532, 39.272228000003125 ], [ -77.484731000001617, 39.246052000002621 ], [ -77.457710000001043, 39.224979000002968 ], [ -77.481202000001474, 39.187909000002819 ], [ -77.507558000001097, 39.181367000002645 ], [ -77.527656000002025, 39.144632000003391 ], [ -77.527222000001558, 39.138296000003223 ], [ -77.521354000001196, 39.122252000003499 ], [ -77.477167000001828, 39.100987000003371 ], [ -77.468747000001315, 39.085248000003475 ], [ -77.456971000000934, 39.073399000003228 ], [ -77.44362500000102, 39.071220000002711 ], [ -77.420734000001545, 39.066329000003172 ], [ -77.40190300000161, 39.064442000003496 ], [ -77.378433000002005, 39.062445000003343 ], [ -77.367952000001878, 39.061760000002934 ], [ -77.333791000001881, 39.059612000003227 ], [ -77.328318000001673, 39.057678000003328 ], [ -77.351700000001586, 39.034065000003402 ], [ -77.371103000001895, 39.014480000003033 ], [ -77.371316000001826, 39.014265000002972 ], [ -77.378344000001746, 39.007161000003194 ], [ -77.394338000001, 38.990984000003458 ], [ -77.400955000001133, 38.984292000003016 ], [ -77.402570000001802, 38.982649000003363 ], [ -77.413524000001615, 38.971573000003424 ], [ -77.422416000000979, 38.962579000002833 ], [ -77.429379000001276, 38.955523000002671 ], [ -77.432198000001236, 38.952673000003259 ], [ -77.473248000001888, 38.911077000003075 ], [ -77.485021000001652, 38.899128000002833 ], [ -77.492128000001401, 38.891918000003336 ], [ -77.496821000001304, 38.887154000003378 ], [ -77.472403000001052, 38.875338000003339 ], [ -77.463520000001409, 38.842374000002941 ], [ -77.463645000000952, 38.833232000003072 ], [ -77.46823300000122, 38.832193000002839 ], [ -77.457456000001187, 38.825667000003428 ], [ -77.436441000001125, 38.827388000003296 ], [ -77.448746000001066, 38.809753000002949 ], [ -77.444199000001618, 38.809455000003055 ], [ -77.435847000001061, 38.805213000002638 ], [ -77.412780000000936, 38.830393000003198 ], [ -77.411928000002064, 38.830519000003527 ], [ -77.384496000001775, 38.827281000003282 ], [ -77.362339000001555, 38.789827000003207 ], [ -77.33950000000209, 38.783198000002713 ], [ -77.326660000001297, 38.788230000003203 ], [ -77.304338000001664, 38.779935000003022 ], [ -77.297257000001878, 38.776346000002654 ], [ -77.301418000001561, 38.75323200000269 ], [ -77.341210000001283, 38.74250600000336 ], [ -77.360395000001375, 38.722262000002772 ], [ -77.33229600000125, 38.716525000003017 ], [ -77.345795000001601, 38.694543000002867 ], [ -77.349073000001326, 38.678173000002801 ], [ -77.359853000001337, 38.681165000002622 ], [ -77.367046000001949, 38.676695000003214 ], [ -77.396108000002002, 38.672107000002981 ], [ -77.402553000001362, 38.669021000003504 ], [ -77.416479000000948, 38.664023000002871 ], [ -77.440549000001198, 38.658587000003372 ], [ -77.442616000001806, 38.65403500000302 ], [ -77.429144000000932, 38.633785000003407 ], [ -77.511643000001214, 38.641546000002968 ], [ -77.515709000001351, 38.6270170000031 ], [ -77.553130000001303, 38.615089000002783 ], [ -77.579484000001983, 38.627653000003363 ], [ -77.531328000001068, 38.556550000003462 ], [ -77.588783000001769, 38.504044000002857 ], [ -77.633837000001435, 38.466892000002836 ], [ -77.628989000001141, 38.430343000003049 ], [ -77.634940000001833, 38.410218000003155 ], [ -77.691890000001436, 38.426873000002807 ] ] ] } },
{ "type": "Feature", "properties": { "enacted_district": 11, "population": 777429.0, "voting_age_pop": 599429.0, "dem_votes": 267633.0, "rep_votes": 114144.0, "minority_pop": 291305.0, "dem_pct": 0.70101918117094031, "rep_pct": 0.29898081856712666 }, "geometry": { "type": "Polygon", "coordinates": [ [ [ -77.457456000001187, 38.825667000003428 ], [ -77.46823300000122, 38.832193000002839 ], [ -77.463645000000952, 38.833232000003072 ], [ -77.463520000001409, 38.842374000002941 ], [ -77.472403000001052, 38.875338000003339 ], [ -77.496821000001304, 38.887154000003378 ], [ -77.492128000001401, 38.891918000003336 ], [ -77.485021000001652, 38.899128000002833 ], [ -77.473248000001888, 38.911077000003075 ], [ -77.432198000001236, 38.952673000003259 ], [ -77.429379000001276, 38.955523000002671 ], [ -77.422416000000979, 38.962579000002833 ], [ -77.413524000001615, 38.971573000003424 ], [ -77.402570000001802, 38.982649000003363 ], [ -77.400955000001133, 38.984292000003016 ], [ -77.394338000001, 38.990984000003458 ], [ -77.378344000001746, 39.007161000003194 ], [ -77.371316000001826, 39.014265000002972 ], [ -77.371103000001895, 39.014480000003033 ], [ -77.351700000001586, 39.034065000003402 ], [ -77.328318000001673, 39.057678000003328 ], [ -77.311157000001757, 39.051813000002667 ], [ -77.282661000001497, 39.039320000003194 ], [ -77.245093000001091, 39.022146000002827 ], [ -77.255759000001959, 39.001991000002782 ], [ -77.234875000001693, 38.975976000002689 ], [ -77.179617000001429, 38.968301000003258 ], [ -77.193766000001787, 38.954607000002966 ], [ -77.202518000001561, 38.945531000003406 ], [ -77.210230000002042, 38.931487000003479 ], [ -77.19624400000113, 38.923473000003035 ], [ -77.214683000001756, 38.908681000003192 ], [ -77.21737500000107, 38.910129000003423 ], [ -77.217448000001752, 38.890523000002858 ], [ -77.217705000001303, 38.890062000002978 ], [ -77.219423000001427, 38.887144000002792 ], [ -77.220434000001532, 38.875787000003363 ], [ -77.219970000001695, 38.865854000002805 ], [ -77.227664000001994, 38.865665000003446 ], [ -77.223238000001928, 38.85521700000313 ], [ -77.219718000000924, 38.853808000002871 ], [ -77.217931000001627, 38.834253000003216 ], [ -77.21758500000206, 38.811390000002667 ], [ -77.217387000001722, 38.811394000002679 ], [ -77.218745000001221, 38.793051000003246 ], [ -77.218782000001639, 38.792764000003316 ], [ -77.201698000001556, 38.794072000003183 ], [ -77.186133000001988, 38.795167000003033 ], [ -77.175279000001197, 38.791924000002631 ], [ -77.174313000001803, 38.792772000002813 ], [ -77.137742000001793, 38.800757000002896 ], [ -77.134491000001418, 38.798603000002934 ], [ -77.134590000000941, 38.798310000003148 ], [ -77.136072000001363, 38.784071000003209 ], [ -77.145940000001858, 38.782190000002949 ], [ -77.155748000001765, 38.765417000003232 ], [ -77.164118000001267, 38.755453000003229 ], [ -77.166136000001529, 38.751639000002832 ], [ -77.16498300000093, 38.74175700000297 ], [ -77.163250000001099, 38.740042000003108 ], [ -77.163035000001003, 38.708157000002629 ], [ -77.1971210000019, 38.710076000003411 ], [ -77.210066000001717, 38.701344000003296 ], [ -77.240631000002054, 38.667749000002885 ], [ -77.245387000001628, 38.672129000003032 ], [ -77.245756000001606, 38.672273000002797 ], [ -77.263422000001128, 38.686389000003054 ], [ -77.279262000001282, 38.695361000003132 ], [ -77.282404000001293, 38.696468000003115 ], [ -77.299868000001482, 38.705162000002801 ], [ -77.308567000001815, 38.706727000003205 ], [ -77.33229600000125, 38.716525000003017 ], [ -77.360395000001375, 38.722262000002772 ], [ -77.341210000001283, 38.74250600000336 ], [ -77.301418000001561, 38.75323200000269 ], [ -77.297257000001878, 38.776346000002654 ], [ -77.304338000001664, 38.779935000003022 ], [ -77.326660000001297, 38.788230000003203 ], [ -77.33950000000209, 38.783198000002713 ], [ -77.362339000001555, 38.789827000003207 ], [ -77.384496000001775, 38.827281000003282 ], [ -77.411928000002064, 38.830519000003527 ], [ -77.412780000000936, 38.830393000003198 ], [ -77.435847000001061, 38.805213000002638 ], [ -77.444199000001618, 38.809455000003055 ], [ -77.448746000001066, 38.809753000002949 ], [ -77.436441000001125, 38.827388000003296 ], [ -77.457456000001187, 38.825667000003428 ] ] ] } }
]
}
