{
"type": "FeatureCollection",
"name": "virginia_optimized_districts_all",
"crs": { "type": "name", "properties": { "name": "urn:ogc:def:crs:OGC:1.3:CRS84" } },
"features": [
{ "type": "Feature", "properties": { "opt_all": 1, "population": 785586.0, "voting_age_pop": 618773.0, "dem_votes": 208402.0, "rep_votes": 175022.0, "minority_pop": 248441.0, "dem_pct": 0.54352883477728864, "rep_pct": 0.45647116496190349 }, "geometry": { "type": "Polygon", "coordinates": [ [ [ -77.489999000001689, 36.721009000002809 ], [ -77.480110000001957, 36.765736000003109 ], [ -77.458678000001854, 36.862963000003383 ], [ -77.491243000001973, 36.848474000003094 ], [ -77.520451000001728, 36.849499000002794 ], [ -77.576445000001556, 36.851565000003546 ], [ -77.619029000001774, 36.877844000002781 ], [ -77.65803600000136, 36.894514000002701 ], [ -77.673235000001029, 36.901364000003106 ], [ -77.69461900000131, 36.906591000003104 ], [ -77.733630000001412, 36.945676000003381 ], [ -77.770375000001621, 36.97563300000273 ], [ -77.840869000001859, 36.995934000003167 ], [ -77.851809000001808, 36.989250000002883 ], [ -77.889813000001055, 36.988818000002787 ], [ -77.900338000001526, 37.143882000003011 ], [ -77.855507000001126, 37.164120000003095 ], [ -77.813859000001699, 37.169678000002826 ], [ -77.795926000001856, 37.192592000002811 ], [ -77.75749700000199, 37.19227700000323 ], [ -77.689752000001434, 37.2214820000031 ], [ -77.650610000001123, 37.265112000003249 ], [ -77.612547000001754, 37.270613000002733 ], [ -77.589159000001601, 37.246285000002864 ], [ -77.572120000001505, 37.237120000002903 ], [ -77.522559000001394, 37.21714200000271 ], [ -77.447408000002042, 37.223066000002973 ], [ -77.442279000001491, 37.223433000003169 ], [ -77.432686000001809, 37.22582400000281 ], [ -77.417438000000942, 37.232651000003138 ], [ -77.416501000001034, 37.233208000003252 ], [ -77.416505000001422, 37.264574000002767 ], [ -77.426774000001714, 37.269139000003243 ], [ -77.431794000001602, 37.275912000003501 ], [ -77.412319000001759, 37.283030000002697 ], [ -77.389379000001526, 37.287365000003255 ], [ -77.389149000001552, 37.287357000003134 ], [ -77.379237000001126, 37.267308000003261 ], [ -77.379692000001825, 37.25282300000292 ], [ -77.403671000001196, 37.237346000002916 ], [ -77.395349000000948, 37.238088000002747 ], [ -77.376785000001732, 37.244849000003192 ], [ -77.352518000002021, 37.310165000003373 ], [ -77.335666000000927, 37.31303900000345 ], [ -77.321630000000994, 37.308535000003069 ], [ -77.296952000001269, 37.31016000000335 ], [ -77.284019000001464, 37.313012000003333 ], [ -77.27067500000156, 37.320756000003342 ], [ -77.244167000000985, 37.369274000003266 ], [ -77.249665000001272, 37.382000000003117 ], [ -77.272995000001245, 37.353722000003302 ], [ -77.305038000001332, 37.358515000003187 ], [ -77.304214000001721, 37.405938000002685 ], [ -77.326203000001954, 37.377598000003388 ], [ -77.346483000001342, 37.378579000002894 ], [ -77.38630800000162, 37.386622000002838 ], [ -77.410711000001839, 37.422141000003457 ], [ -77.418589000001901, 37.421256000003297 ], [ -77.420737000001722, 37.447524000002929 ], [ -77.421705000001765, 37.498988000002711 ], [ -77.418319000001617, 37.503211000003127 ], [ -77.416510000001892, 37.517133000003241 ], [ -77.387597000001989, 37.517483000002755 ], [ -77.393905000000984, 37.526108000003141 ], [ -77.394993000001904, 37.544018000003064 ], [ -77.395079000001161, 37.549355000003231 ], [ -77.411538000001769, 37.552592000003393 ], [ -77.409465000001447, 37.555842000003125 ], [ -77.408937000001785, 37.557921000003496 ], [ -77.410653000000949, 37.572563000003271 ], [ -77.413323000001526, 37.579964000003088 ], [ -77.42320400000149, 37.582246000002677 ], [ -77.424844000001826, 37.582109000002887 ], [ -77.43144000000116, 37.580848000003108 ], [ -77.433589000001319, 37.582175000003197 ], [ -77.438045000001992, 37.584740000002967 ], [ -77.437620000001132, 37.598566000002691 ], [ -77.450427000001412, 37.602427000003438 ], [ -77.455181000001446, 37.601456000002827 ], [ -77.460626000000985, 37.597067000002752 ], [ -77.465886000001049, 37.597272000002938 ], [ -77.470903000001002, 37.59839600000349 ], [ -77.478146000001502, 37.598892000002749 ], [ -77.47561100000155, 37.583823000003527 ], [ -77.47292700000169, 37.578422000003343 ], [ -77.483147000001267, 37.573790000003449 ], [ -77.48627800000169, 37.576411000002736 ], [ -77.492899000001728, 37.581786000002737 ], [ -77.493810000001858, 37.581987000003366 ], [ -77.503846000001232, 37.577483000003454 ], [ -77.50627400000127, 37.578794000003043 ], [ -77.511812000001299, 37.581751000003493 ], [ -77.515677000001347, 37.581991000003541 ], [ -77.531647000001229, 37.591951000002908 ], [ -77.532559000001982, 37.591783000002764 ], [ -77.543353000001943, 37.581060000002843 ], [ -77.525855000001386, 37.568235000002979 ], [ -77.529495000001361, 37.559656000003301 ], [ -77.538563000001474, 37.559548000002749 ], [ -77.570569000001896, 37.557935000003113 ], [ -77.595462000002016, 37.555750000003343 ], [ -77.622000000001904, 37.556880000002735 ], [ -77.655399000001168, 37.563986000003467 ], [ -77.618368000001425, 37.587558000003028 ], [ -77.626031000001646, 37.597944000002968 ], [ -77.640243000002044, 37.6026900000032 ], [ -77.651983000001763, 37.619912000002763 ], [ -77.650621000001308, 37.624188000003251 ], [ -77.652052000001788, 37.63089700000279 ], [ -77.646054000001342, 37.662204000003065 ], [ -77.644357000001392, 37.66936400000278 ], [ -77.632984000002025, 37.699881000003295 ], [ -77.630670000001487, 37.705673000002768 ], [ -77.608504000001233, 37.709899000003048 ], [ -77.565229000001182, 37.683217000003083 ], [ -77.542686000001922, 37.686167000003039 ], [ -77.530798000001894, 37.694566000003235 ], [ -77.499191000001289, 37.700921000003518 ], [ -77.479006000001405, 37.681396000002806 ], [ -77.451133000001462, 37.680272000002716 ], [ -77.421430000000953, 37.641682000002973 ], [ -77.407189000002049, 37.612524000002672 ], [ -77.406257000001474, 37.611851000002829 ], [ -77.382879000001964, 37.595247000003212 ], [ -77.362669000001645, 37.587288000003397 ], [ -77.338096000001045, 37.577206000003528 ], [ -77.336967000001934, 37.575736000003381 ], [ -77.324089000001507, 37.569238000002692 ], [ -77.308290000001605, 37.56309500000269 ], [ -77.240988000001494, 37.53808800000273 ], [ -77.233949000001815, 37.546862000002974 ], [ -77.202651000000927, 37.570895000003539 ], [ -77.170941000001065, 37.596524000003058 ], [ -77.142661000001226, 37.591033000003257 ], [ -77.13754100000169, 37.617372000003023 ], [ -77.123675000001413, 37.626881000003394 ], [ -77.109741000001051, 37.652406000003253 ], [ -77.163199000001342, 37.665791000003068 ], [ -77.184602000002002, 37.686962000003419 ], [ -77.209194000002014, 37.685600000003355 ], [ -77.247598000001616, 37.730463000002899 ], [ -77.289165000001489, 37.715153000003021 ], [ -77.301224000000929, 37.751290000002825 ], [ -77.3344090000016, 37.754636000003366 ], [ -77.321719000001039, 37.76995400000353 ], [ -77.345223000001269, 37.789285000003296 ], [ -77.299259000002039, 37.828694000002912 ], [ -77.247702000001198, 37.876174000003161 ], [ -77.241679000001028, 37.909550000002767 ], [ -77.181418000000917, 37.891654000002781 ], [ -77.181962000001562, 37.949577000002918 ], [ -77.148634000001465, 37.972000000003412 ], [ -77.070115000001337, 37.964770000002865 ], [ -77.055231000001427, 37.930883000003142 ], [ -77.024858000001984, 37.906849000002786 ], [ -77.042721000001677, 37.873143000002926 ], [ -77.01899600000165, 37.84488300000293 ], [ -76.982773000001401, 37.83944700000297 ], [ -76.945212000001575, 37.828174000002775 ], [ -76.943221000000946, 37.782955000003454 ], [ -76.906446000001793, 37.796236000003461 ], [ -76.872310000001889, 37.782729000003343 ], [ -76.84262800000198, 37.79804000000356 ], [ -76.804288000001577, 37.794902000003027 ], [ -76.77208000000094, 37.762322000003252 ], [ -76.751072000001301, 37.728605000002851 ], [ -76.723086000001587, 37.756697000003477 ], [ -76.703069000001264, 37.755714000003294 ], [ -76.668182000001011, 37.778386000002868 ], [ -76.613046000001617, 37.759262000003019 ], [ -76.587234000001331, 37.737073000003534 ], [ -76.554420000001869, 37.671364000003067 ], [ -76.549022000001358, 37.65859900000298 ], [ -76.531747000001005, 37.633571000003435 ], [ -76.475899000001831, 37.631436000003198 ], [ -76.424412000001908, 37.622972000003053 ], [ -76.404812000001755, 37.614120000003012 ], [ -76.357501000000966, 37.591685000002677 ], [ -76.282306000001583, 37.585279000003425 ], [ -76.151711000001015, 37.585968000002929 ], [ -76.140835000001942, 37.542220000003063 ], [ -76.139103000001953, 37.468813000002989 ], [ -76.139062000001317, 37.466884000002693 ], [ -76.138222000001065, 37.426364000003538 ], [ -76.136307000001111, 37.282790000003445 ], [ -76.136301000000884, 37.282137000002876 ], [ -76.135520000001165, 37.191970000003536 ], [ -76.134941000001817, 37.117603000003307 ], [ -76.275418000001011, 37.116072000003541 ], [ -76.311744000001383, 37.102000000002953 ], [ -76.317364000001845, 37.103044000003415 ], [ -76.344666000001652, 37.096844000003003 ], [ -76.367513000001836, 37.113019000003014 ], [ -76.395795000001812, 37.107174000003461 ], [ -76.400290000001064, 37.0958510000034 ], [ -76.425451000001885, 37.092301000003594 ], [ -76.437748000001861, 37.094048000003433 ], [ -76.458498000001981, 37.100727000003324 ], [ -76.460816000001003, 37.103039000003179 ], [ -76.47097700000171, 37.11444500000313 ], [ -76.500302000001568, 37.147502000002767 ], [ -76.506138000001755, 37.154088000003256 ], [ -76.515102000001178, 37.173185000002746 ], [ -76.565189000001681, 37.2205390000031 ], [ -76.591302000001008, 37.213205000003548 ], [ -76.591631000001513, 37.210698000002992 ], [ -76.578345000000994, 37.186463000003428 ], [ -76.641581000001509, 37.153827000002998 ], [ -76.671774000001889, 37.141987000003418 ], [ -76.694463000001761, 37.072884000002887 ], [ -76.711775000001936, 37.055380000002977 ], [ -76.825667000001062, 37.007483000002779 ], [ -76.849684000001332, 36.996211000002759 ], [ -76.87070500000118, 36.985666000003128 ], [ -76.953546000001751, 36.944450000003151 ], [ -76.982590000001736, 36.929609000002728 ], [ -77.002103000001981, 36.92074700000336 ], [ -77.121793000001432, 36.857741000002918 ], [ -77.207271000001626, 36.816131000003345 ], [ -77.279512000001048, 36.78210000000351 ], [ -77.334701000001516, 36.757149000003096 ], [ -77.430127000001562, 36.707658000003171 ], [ -77.489999000001689, 36.721009000002809 ] ] ] } },
{ "type": "Feature", "properties": { "opt_all": 2, "population": 787238.0, "voting_age_pop": 606744.0, "dem_votes": 191287.0, "rep_votes": 157298.0, "minority_pop": 261807.0, "dem_pct": 0.54875281479445392, "rep_pct": 0.451247184918672 }, "geometry": { "type": "Polygon", "coordinates": [ [ [ -76.557936000001888, 36.550680000003268 ], [ -76.75525500000154, 36.550766000003541 ], [ -76.915899000001531, 36.552149000003233 ], [ -76.912268000001845, 36.617895000003209 ], [ -76.893880000001673, 36.625712000003105 ], [ -76.897592000001282, 36.644050000002707 ], [ -76.860938000001852, 36.670658000003009 ], [ -76.747665000001433, 36.7526160000034 ], [ -76.741229000001326, 36.75750000000361 ], [ -76.670513000001691, 36.812093000002861 ], [ -76.647932000001944, 36.829347000002997 ], [ -76.581707000001217, 36.87941300000292 ], [ -76.537863000001948, 36.912395000003492 ], [ -76.521099000001769, 36.906330000003571 ], [ -76.493335000001764, 36.925076000002939 ], [ -76.445301000001052, 36.941891000003359 ], [ -76.434789000001047, 36.935283000003103 ], [ -76.407059000000928, 36.930781000003527 ], [ -76.39956700000161, 36.930947000002824 ], [ -76.384775000001184, 36.950712000002873 ], [ -76.384419000001586, 36.951059000003397 ], [ -76.338519000001611, 36.9407870000028 ], [ -76.341825000001265, 36.924772000003138 ], [ -76.333088000001155, 36.896363000003106 ], [ -76.33359800000143, 36.882216000003105 ], [ -76.33514800000134, 36.878719000003152 ], [ -76.330784000000946, 36.868403000002687 ], [ -76.313533000001598, 36.858533000002971 ], [ -76.306663000001265, 36.854047000002936 ], [ -76.297960000001794, 36.846412000003241 ], [ -76.29441400000141, 36.840756000002834 ], [ -76.294543000001966, 36.83240000000351 ], [ -76.28996200000158, 36.822048000003079 ], [ -76.276963000001004, 36.824892000003089 ], [ -76.27241600000103, 36.827140000003197 ], [ -76.257475000001577, 36.820757000003574 ], [ -76.243765000001545, 36.836862000002931 ], [ -76.241960000000901, 36.837147000002737 ], [ -76.236644000001689, 36.838083000002975 ], [ -76.226060000000942, 36.839947000003114 ], [ -76.223249000001118, 36.819972000003432 ], [ -76.221572000001814, 36.815657000002886 ], [ -76.219331000001233, 36.81094100000292 ], [ -76.212882000001102, 36.794165000002977 ], [ -76.195439000001201, 36.807309000003563 ], [ -76.186966000001192, 36.803249000002822 ], [ -76.175062000001674, 36.797348000002927 ], [ -76.164178000001968, 36.789683000002967 ], [ -76.163608000001403, 36.795955000003268 ], [ -76.148503000001114, 36.797166000003386 ], [ -76.149812000001873, 36.78676500000303 ], [ -76.143957000000995, 36.774472000002994 ], [ -76.138728000001663, 36.777329000002808 ], [ -76.135373000001124, 36.788564000003412 ], [ -76.129058000001152, 36.79537200000297 ], [ -76.130279000001593, 36.796904000002812 ], [ -76.155961000001284, 36.809820000003299 ], [ -76.165487000001207, 36.813358000002829 ], [ -76.160914000000886, 36.825551000003351 ], [ -76.13781700000105, 36.830734000003488 ], [ -76.13748300000114, 36.83407200000353 ], [ -76.136734000000928, 36.840975000002878 ], [ -76.15651900000104, 36.845816000002749 ], [ -76.154706000001156, 36.865047000003614 ], [ -76.152128000000999, 36.867558000002909 ], [ -76.139603000001458, 36.860842000003515 ], [ -76.132184000001033, 36.865811000002807 ], [ -76.147618000000975, 36.870067000003509 ], [ -76.14985700000193, 36.884447000003149 ], [ -76.134417000001307, 36.884145000003478 ], [ -76.144544000001858, 36.897784000003405 ], [ -76.137558000001789, 36.899130000003588 ], [ -76.117098000001207, 36.904182000002898 ], [ -76.126371000001299, 36.927926000002934 ], [ -76.104727000001233, 36.985337000003099 ], [ -76.084863000001221, 37.030363000002815 ], [ -75.99965300000197, 37.01332600000277 ], [ -75.909491000000969, 36.990708000002954 ], [ -75.92830700000124, 36.93817900000289 ], [ -75.914017000001564, 36.889220000003156 ], [ -75.909330000001788, 36.871970000003152 ], [ -75.905263000000986, 36.856998000002839 ], [ -75.901039000000878, 36.841451000003595 ], [ -75.887373000001915, 36.791148000003318 ], [ -75.878943000001641, 36.760117000002793 ], [ -75.862119000001798, 36.714051000003479 ], [ -75.8198250000017, 36.625153000003031 ], [ -75.797497000001002, 36.550916000003312 ], [ -75.90100500000139, 36.550534000003168 ], [ -76.026721000001388, 36.550470000003287 ], [ -76.122349000000966, 36.550523000003182 ], [ -76.19303600000174, 36.550471000003249 ], [ -76.376634000001857, 36.550595000002765 ], [ -76.491496000001291, 36.550648000002766 ], [ -76.557936000001888, 36.550680000003268 ] ] ] } },
{ "type": "Feature", "properties": { "opt_all": 3, "population": 782527.0, "voting_age_pop": 621145.0, "dem_votes": 202859.0, "rep_votes": 106947.0, "minority_pop": 339956.0, "dem_pct": 0.65479364484393665, "rep_pct": 0.34520635483328072 }, "geometry": { "type": "Polygon", "coordinates": [ [ [ -76.915899000001531, 36.552149000003233 ], [ -76.915977000001305, 36.543884000002741 ], [ -77.011287000001815, 36.544266000003233 ], [ -77.10302800000143, 36.544594000002988 ], [ -77.170545000001212, 36.5472800000028 ], [ -77.253163000001948, 36.544690000003037 ], [ -77.296875000001876, 36.54485500000353 ], [ -77.498702000001586, 36.545101000002887 ], [ -77.576164000001654, 36.545187000003104 ], [ -77.76715000000199, 36.545374000003349 ], [ -77.828996000001823, 36.544998000003382 ], [ -78.046271000001653, 36.543551000003362 ], [ -78.046212000001418, 36.544160000003423 ], [ -78.04048900000204, 36.612090000003377 ], [ -78.060502000001236, 36.635512000003096 ], [ -78.088775000001903, 36.642749000003406 ], [ -78.135842000001986, 36.644940000003047 ], [ -78.12795600000166, 36.677973000003171 ], [ -78.168551000001031, 36.700843000003296 ], [ -78.193997000001175, 36.687036000003488 ], [ -78.204857000001709, 36.688207000003267 ], [ -78.206668000001315, 36.684278000003246 ], [ -78.236924000001991, 36.717689000003169 ], [ -78.280401000001902, 36.723113000002932 ], [ -78.258538000001892, 36.771850000002978 ], [ -78.212262000001061, 36.805523000002772 ], [ -78.167810000001765, 36.801515000002922 ], [ -78.124719000002031, 36.788163000003237 ], [ -78.082905000001119, 36.7917350000032 ], [ -78.027411000001365, 36.777858000002645 ], [ -78.026698000002042, 36.783691000003138 ], [ -78.003639000001414, 37.022756000003184 ], [ -77.966571000001935, 36.987279000003475 ], [ -77.889813000001055, 36.988818000002787 ], [ -77.851809000001808, 36.989250000002883 ], [ -77.840869000001859, 36.995934000003167 ], [ -77.770375000001621, 36.97563300000273 ], [ -77.733630000001412, 36.945676000003381 ], [ -77.69461900000131, 36.906591000003104 ], [ -77.673235000001029, 36.901364000003106 ], [ -77.65803600000136, 36.894514000002701 ], [ -77.619029000001774, 36.877844000002781 ], [ -77.576445000001556, 36.851565000003546 ], [ -77.520451000001728, 36.849499000002794 ], [ -77.491243000001973, 36.848474000003094 ], [ -77.458678000001854, 36.862963000003383 ], [ -77.480110000001957, 36.765736000003109 ], [ -77.489999000001689, 36.721009000002809 ], [ -77.430127000001562, 36.707658000003171 ], [ -77.334701000001516, 36.757149000003096 ], [ -77.279512000001048, 36.78210000000351 ], [ -77.207271000001626, 36.816131000003345 ], [ -77.121793000001432, 36.857741000002918 ], [ -77.002103000001981, 36.92074700000336 ], [ -76.982590000001736, 36.929609000002728 ], [ -76.953546000001751, 36.944450000003151 ], [ -76.87070500000118, 36.985666000003128 ], [ -76.849684000001332, 36.996211000002759 ], [ -76.825667000001062, 37.007483000002779 ], [ -76.711775000001936, 37.055380000002977 ], [ -76.694463000001761, 37.072884000002887 ], [ -76.671774000001889, 37.141987000003418 ], [ -76.641581000001509, 37.153827000002998 ], [ -76.578345000000994, 37.186463000003428 ], [ -76.591631000001513, 37.210698000002992 ], [ -76.591302000001008, 37.213205000003548 ], [ -76.565189000001681, 37.2205390000031 ], [ -76.515102000001178, 37.173185000002746 ], [ -76.506138000001755, 37.154088000003256 ], [ -76.500302000001568, 37.147502000002767 ], [ -76.47097700000171, 37.11444500000313 ], [ -76.460816000001003, 37.103039000003179 ], [ -76.458498000001981, 37.100727000003324 ], [ -76.437748000001861, 37.094048000003433 ], [ -76.425451000001885, 37.092301000003594 ], [ -76.400290000001064, 37.0958510000034 ], [ -76.395795000001812, 37.107174000003461 ], [ -76.367513000001836, 37.113019000003014 ], [ -76.344666000001652, 37.096844000003003 ], [ -76.317364000001845, 37.103044000003415 ], [ -76.311744000001383, 37.102000000002953 ], [ -76.275418000001011, 37.116072000003541 ], [ -76.134941000001817, 37.117603000003307 ], [ -76.133981000001128, 37.056083000003305 ], [ -76.133872000001816, 37.040886000003333 ], [ -76.084863000001221, 37.030363000002815 ], [ -76.104727000001233, 36.985337000003099 ], [ -76.126371000001299, 36.927926000002934 ], [ -76.117098000001207, 36.904182000002898 ], [ -76.137558000001789, 36.899130000003588 ], [ -76.144544000001858, 36.897784000003405 ], [ -76.134417000001307, 36.884145000003478 ], [ -76.14985700000193, 36.884447000003149 ], [ -76.147618000000975, 36.870067000003509 ], [ -76.132184000001033, 36.865811000002807 ], [ -76.139603000001458, 36.860842000003515 ], [ -76.152128000000999, 36.867558000002909 ], [ -76.154706000001156, 36.865047000003614 ], [ -76.15651900000104, 36.845816000002749 ], [ -76.136734000000928, 36.840975000002878 ], [ -76.13748300000114, 36.83407200000353 ], [ -76.13781700000105, 36.830734000003488 ], [ -76.160914000000886, 36.825551000003351 ], [ -76.165487000001207, 36.813358000002829 ], [ -76.155961000001284, 36.809820000003299 ], [ -76.130279000001593, 36.796904000002812 ], [ -76.129058000001152, 36.79537200000297 ], [ -76.135373000001124, 36.788564000003412 ], [ -76.138728000001663, 36.777329000002808 ], [ -76.143957000000995, 36.774472000002994 ], [ -76.149812000001873, 36.78676500000303 ], [ -76.148503000001114, 36.797166000003386 ], [ -76.163608000001403, 36.795955000003268 ], [ -76.164178000001968, 36.789683000002967 ], [ -76.175062000001674, 36.797348000002927 ], [ -76.186966000001192, 36.803249000002822 ], [ -76.195439000001201, 36.807309000003563 ], [ -76.212882000001102, 36.794165000002977 ], [ -76.219331000001233, 36.81094100000292 ], [ -76.221572000001814, 36.815657000002886 ], [ -76.223249000001118, 36.819972000003432 ], [ -76.226060000000942, 36.839947000003114 ], [ -76.236644000001689, 36.838083000002975 ], [ -76.241960000000901, 36.837147000002737 ], [ -76.243765000001545, 36.836862000002931 ], [ -76.257475000001577, 36.820757000003574 ], [ -76.27241600000103, 36.827140000003197 ], [ -76.276963000001004, 36.824892000003089 ], [ -76.28996200000158, 36.822048000003079 ], [ -76.294543000001966, 36.83240000000351 ], [ -76.29441400000141, 36.840756000002834 ], [ -76.297960000001794, 36.846412000003241 ], [ -76.306663000001265, 36.854047000002936 ], [ -76.313533000001598, 36.858533000002971 ], [ -76.330784000000946, 36.868403000002687 ], [ -76.33514800000134, 36.878719000003152 ], [ -76.33359800000143, 36.882216000003105 ], [ -76.333088000001155, 36.896363000003106 ], [ -76.341825000001265, 36.924772000003138 ], [ -76.338519000001611, 36.9407870000028 ], [ -76.384419000001586, 36.951059000003397 ], [ -76.384775000001184, 36.950712000002873 ], [ -76.39956700000161, 36.930947000002824 ], [ -76.407059000000928, 36.930781000003527 ], [ -76.434789000001047, 36.935283000003103 ], [ -76.445301000001052, 36.941891000003359 ], [ -76.493335000001764, 36.925076000002939 ], [ -76.521099000001769, 36.906330000003571 ], [ -76.537863000001948, 36.912395000003492 ], [ -76.581707000001217, 36.87941300000292 ], [ -76.647932000001944, 36.829347000002997 ], [ -76.670513000001691, 36.812093000002861 ], [ -76.741229000001326, 36.75750000000361 ], [ -76.747665000001433, 36.7526160000034 ], [ -76.860938000001852, 36.670658000003009 ], [ -76.897592000001282, 36.644050000002707 ], [ -76.893880000001673, 36.625712000003105 ], [ -76.912268000001845, 36.617895000003209 ], [ -76.915899000001531, 36.552149000003233 ] ] ] } },
{ "type": "Feature", "properties": { "opt_all": 4, "population": 781878.0, "voting_age_pop": 615476.0, "dem_votes": 218345.0, "rep_votes": 170011.0, "minority_pop": 240300.0, "dem_pct": 0.56222898563116597, "rep_pct": 0.43777101411133829 }, "geometry": { "type": "Polygon", "coordinates": [ [ [ -77.758620000001088, 37.268717000003264 ], [ -77.806750000001031, 37.304526000002653 ], [ -77.79636000000184, 37.332163000003227 ], [ -77.837346000001801, 37.338380000003013 ], [ -77.851804000001351, 37.354867000003331 ], [ -77.877556000001334, 37.366247000002879 ], [ -77.871810000001943, 37.399434000003247 ], [ -77.855148000001464, 37.418363000002863 ], [ -77.866608000001236, 37.456751000003159 ], [ -77.885808000001944, 37.449617000002895 ], [ -77.914558000001406, 37.474815000003055 ], [ -77.965226000001707, 37.48440300000351 ], [ -77.999575000001954, 37.498052000002673 ], [ -78.016851000002006, 37.471982000003408 ], [ -78.050491000001514, 37.471672000003238 ], [ -78.06658000000138, 37.452054000002683 ], [ -78.090937000001645, 37.456416000003465 ], [ -78.094750000001682, 37.444722000003061 ], [ -78.132048000001632, 37.454686000003171 ], [ -78.158673000001187, 37.453105000003347 ], [ -78.217181000001091, 37.397238000003263 ], [ -78.235039000001109, 37.368102000002807 ], [ -78.278681000001711, 37.343306000003203 ], [ -78.321840000001302, 37.309292000003502 ], [ -78.370866000001982, 37.307465000003226 ], [ -78.389125000001229, 37.307309000003251 ], [ -78.402100000001539, 37.3132370000028 ], [ -78.465089000001115, 37.339677000002993 ], [ -78.433486000002091, 37.383776000003273 ], [ -78.354491000001957, 37.493404000003103 ], [ -78.340217000001246, 37.512087000003326 ], [ -78.327151000001734, 37.529857000003055 ], [ -78.278601000001785, 37.595163000002827 ], [ -78.249021000002031, 37.635546000002691 ], [ -78.244347000001312, 37.663238000002728 ], [ -78.239748000001484, 37.690495000003146 ], [ -78.22530200000125, 37.711579000003411 ], [ -78.163851000001173, 37.749354000002853 ], [ -78.159326000001897, 37.74852800000339 ], [ -78.105810000001242, 37.836968000003239 ], [ -78.063310000001806, 37.905108000003366 ], [ -78.042088000001826, 37.895419000002704 ], [ -78.024378000001633, 37.958207000002865 ], [ -77.993076000001693, 38.008310000002801 ], [ -77.984443000001917, 38.00793500000281 ], [ -77.922627000001526, 37.97250200000326 ], [ -77.886232000001343, 37.980913000003213 ], [ -77.883186000001729, 38.008168000002627 ], [ -77.864494000001216, 38.033512000003029 ], [ -77.811121000001464, 38.079692000003263 ], [ -77.782514000001854, 38.067537000003092 ], [ -77.784514000001124, 38.063337000003401 ], [ -77.747813000001841, 38.047937000003209 ], [ -77.747670000001776, 38.024295000003136 ], [ -77.6874690000014, 38.007806000002851 ], [ -77.642518000001985, 37.990688000003495 ], [ -77.613874000001502, 37.958973000003269 ], [ -77.583863000001259, 37.950286000003388 ], [ -77.540848000001787, 37.919696000002851 ], [ -77.493333000001456, 37.897271000002675 ], [ -77.458267000001442, 37.890153000003011 ], [ -77.421989000001261, 37.864929000002803 ], [ -77.422796000001711, 37.812048000003202 ], [ -77.407813000001823, 37.803330000002859 ], [ -77.405065000001827, 37.780177000002972 ], [ -77.378372000001491, 37.776307000003072 ], [ -77.345223000001269, 37.789285000003296 ], [ -77.321719000001039, 37.76995400000353 ], [ -77.3344090000016, 37.754636000003366 ], [ -77.301224000000929, 37.751290000002825 ], [ -77.289165000001489, 37.715153000003021 ], [ -77.247598000001616, 37.730463000002899 ], [ -77.209194000002014, 37.685600000003355 ], [ -77.184602000002002, 37.686962000003419 ], [ -77.163199000001342, 37.665791000003068 ], [ -77.109741000001051, 37.652406000003253 ], [ -77.123675000001413, 37.626881000003394 ], [ -77.13754100000169, 37.617372000003023 ], [ -77.142661000001226, 37.591033000003257 ], [ -77.170941000001065, 37.596524000003058 ], [ -77.202651000000927, 37.570895000003539 ], [ -77.233949000001815, 37.546862000002974 ], [ -77.240988000001494, 37.53808800000273 ], [ -77.308290000001605, 37.56309500000269 ], [ -77.324089000001507, 37.569238000002692 ], [ -77.336967000001934, 37.575736000003381 ], [ -77.338096000001045, 37.577206000003528 ], [ -77.362669000001645, 37.587288000003397 ], [ -77.382879000001964, 37.595247000003212 ], [ -77.406257000001474, 37.611851000002829 ], [ -77.407189000002049, 37.612524000002672 ], [ -77.421430000000953, 37.641682000002973 ], [ -77.451133000001462, 37.680272000002716 ], [ -77.479006000001405, 37.681396000002806 ], [ -77.499191000001289, 37.700921000003518 ], [ -77.530798000001894, 37.694566000003235 ], [ -77.542686000001922, 37.686167000003039 ], [ -77.565229000001182, 37.683217000003083 ], [ -77.608504000001233, 37.709899000003048 ], [ -77.630670000001487, 37.705673000002768 ], [ -77.632984000002025, 37.699881000003295 ], [ -77.644357000001392, 37.66936400000278 ], [ -77.646054000001342, 37.662204000003065 ], [ -77.652052000001788, 37.63089700000279 ], [ -77.650621000001308, 37.624188000003251 ], [ -77.651983000001763, 37.619912000002763 ], [ -77.640243000002044, 37.6026900000032 ], [ -77.626031000001646, 37.597944000002968 ], [ -77.618368000001425, 37.587558000003028 ], [ -77.655399000001168, 37.563986000003467 ], [ -77.622000000001904, 37.556880000002735 ], [ -77.595462000002016, 37.555750000003343 ], [ -77.570569000001896, 37.557935000003113 ], [ -77.538563000001474, 37.559548000002749 ], [ -77.529495000001361, 37.559656000003301 ], [ -77.525855000001386, 37.568235000002979 ], [ -77.543353000001943, 37.581060000002843 ], [ -77.532559000001982, 37.591783000002764 ], [ -77.531647000001229, 37.591951000002908 ], [ -77.515677000001347, 37.581991000003541 ], [ -77.511812000001299, 37.581751000003493 ], [ -77.50627400000127, 37.578794000003043 ], [ -77.503846000001232, 37.577483000003454 ], [ -77.493810000001858, 37.581987000003366 ], [ -77.492899000001728, 37.581786000002737 ], [ -77.48627800000169, 37.576411000002736 ], [ -77.483147000001267, 37.573790000003449 ], [ -77.47292700000169, 37.578422000003343 ], [ -77.47561100000155, 37.583823000003527 ], [ -77.478146000001502, 37.598892000002749 ], [ -77.470903000001002, 37.59839600000349 ], [ -77.465886000001049, 37.597272000002938 ], [ -77.460626000000985, 37.597067000002752 ], [ -77.455181000001446, 37.601456000002827 ], [ -77.450427000001412, 37.602427000003438 ], [ -77.437620000001132, 37.598566000002691 ], [ -77.438045000001992, 37.584740000002967 ], [ -77.433589000001319, 37.582175000003197 ], [ -77.43144000000116, 37.580848000003108 ], [ -77.424844000001826, 37.582109000002887 ], [ -77.42320400000149, 37.582246000002677 ], [ -77.413323000001526, 37.579964000003088 ], [ -77.410653000000949, 37.572563000003271 ], [ -77.408937000001785, 37.557921000003496 ], [ -77.409465000001447, 37.555842000003125 ], [ -77.411538000001769, 37.552592000003393 ], [ -77.395079000001161, 37.549355000003231 ], [ -77.394993000001904, 37.544018000003064 ], [ -77.393905000000984, 37.526108000003141 ], [ -77.387597000001989, 37.517483000002755 ], [ -77.416510000001892, 37.517133000003241 ], [ -77.418319000001617, 37.503211000003127 ], [ -77.421705000001765, 37.498988000002711 ], [ -77.420737000001722, 37.447524000002929 ], [ -77.418589000001901, 37.421256000003297 ], [ -77.410711000001839, 37.422141000003457 ], [ -77.38630800000162, 37.386622000002838 ], [ -77.346483000001342, 37.378579000002894 ], [ -77.326203000001954, 37.377598000003388 ], [ -77.304214000001721, 37.405938000002685 ], [ -77.305038000001332, 37.358515000003187 ], [ -77.272995000001245, 37.353722000003302 ], [ -77.249665000001272, 37.382000000003117 ], [ -77.244167000000985, 37.369274000003266 ], [ -77.27067500000156, 37.320756000003342 ], [ -77.284019000001464, 37.313012000003333 ], [ -77.296952000001269, 37.31016000000335 ], [ -77.321630000000994, 37.308535000003069 ], [ -77.335666000000927, 37.31303900000345 ], [ -77.352518000002021, 37.310165000003373 ], [ -77.376785000001732, 37.244849000003192 ], [ -77.395349000000948, 37.238088000002747 ], [ -77.403671000001196, 37.237346000002916 ], [ -77.379692000001825, 37.25282300000292 ], [ -77.379237000001126, 37.267308000003261 ], [ -77.389149000001552, 37.287357000003134 ], [ -77.389379000001526, 37.287365000003255 ], [ -77.412319000001759, 37.283030000002697 ], [ -77.431794000001602, 37.275912000003501 ], [ -77.426774000001714, 37.269139000003243 ], [ -77.416505000001422, 37.264574000002767 ], [ -77.416501000001034, 37.233208000003252 ], [ -77.417438000000942, 37.232651000003138 ], [ -77.432686000001809, 37.22582400000281 ], [ -77.442279000001491, 37.223433000003169 ], [ -77.447408000002042, 37.223066000002973 ], [ -77.522559000001394, 37.21714200000271 ], [ -77.572120000001505, 37.237120000002903 ], [ -77.589159000001601, 37.246285000002864 ], [ -77.612547000001754, 37.270613000002733 ], [ -77.650610000001123, 37.265112000003249 ], [ -77.652200000001585, 37.265822000003105 ], [ -77.669158000002056, 37.292850000002829 ], [ -77.716211000002019, 37.296878000003169 ], [ -77.758620000001088, 37.268717000003264 ] ] ] } },
{ "type": "Feature", "properties": { "opt_all": 5, "population": 781890.0, "voting_age_pop": 628806.0, "dem_votes": 137363.0, "rep_votes": 235187.0, "minority_pop": 146076.0, "dem_pct": 0.36871024013724057, "rep_pct": 0.63128975959433908 }, "geometry": { "type": "Polygon", "coordinates": [ [ [ -80.050211000001354, 36.60933300000287 ], [ -80.069095000001852, 36.674018000002846 ], [ -80.081005000001625, 36.698436000003241 ], [ -80.094166000001408, 36.745104000002819 ], [ -80.089839000002073, 36.753211000003326 ], [ -80.094389000001499, 36.779552000002816 ], [ -80.041493000001225, 36.794365000003438 ], [ -80.102370000001144, 36.846818000003374 ], [ -80.10483600000147, 36.847260000002883 ], [ -80.235455000002091, 36.872130000003231 ], [ -80.198854000001106, 36.901524000003171 ], [ -80.172041000001315, 36.953449000003332 ], [ -80.139539000001378, 36.970786000003038 ], [ -80.133723000001694, 37.006061000003371 ], [ -80.115716000001271, 37.008132000003279 ], [ -80.111018000001252, 37.069718000003206 ], [ -80.12867400000151, 37.122901000002869 ], [ -80.082765000001828, 37.16090800000346 ], [ -80.040421000001416, 37.168197000002898 ], [ -80.005309000001361, 37.167816000003228 ], [ -79.989602000001753, 37.143419000002986 ], [ -79.961890000001475, 37.137349000003383 ], [ -79.922488000001792, 37.160769000002766 ], [ -79.896686000001296, 37.180962000002609 ], [ -79.882568000001356, 37.209712000002853 ], [ -79.84721700000182, 37.225406000002785 ], [ -79.846901000001424, 37.241304000003133 ], [ -79.857122000001738, 37.265412000002854 ], [ -79.850970000001581, 37.284316000003408 ], [ -79.850993000001637, 37.284442000002748 ], [ -79.84747600000189, 37.309352000002605 ], [ -79.857699000001489, 37.320408000003091 ], [ -79.865882000001221, 37.328752000003327 ], [ -79.886983000002189, 37.309574000003082 ], [ -79.90871000000179, 37.320339000003095 ], [ -79.926634000001286, 37.32403700000318 ], [ -79.934026000002092, 37.320846000002994 ], [ -79.94973400000147, 37.326254000003452 ], [ -79.974023000001196, 37.335419000003 ], [ -79.958832000001124, 37.345540000003183 ], [ -79.954814000002102, 37.33415700000333 ], [ -79.947310000001679, 37.344453000003277 ], [ -79.929296000001926, 37.356039000003108 ], [ -79.945616000002104, 37.362997000003205 ], [ -79.962395000001919, 37.36970300000344 ], [ -80.01940400000214, 37.391496000002697 ], [ -80.062622000001454, 37.408325000003359 ], [ -80.074119000002185, 37.422469000003041 ], [ -80.04759400000124, 37.443103000002978 ], [ -80.012185000001168, 37.503050000002759 ], [ -79.969071000002145, 37.544408000003138 ], [ -80.02762100000129, 37.624218000002678 ], [ -80.020554000001866, 37.647442000002968 ], [ -80.026743000001545, 37.653955000002618 ], [ -80.154692000001504, 37.601099000002968 ], [ -80.168436000001265, 37.615376000002691 ], [ -80.220984000001692, 37.627767000002919 ], [ -80.221725000001314, 37.62817400000332 ], [ -80.267504000002205, 37.646156000002932 ], [ -80.296077000001333, 37.691730000003311 ], [ -80.258143000002065, 37.720612000002795 ], [ -80.257411000002037, 37.756084000003213 ], [ -80.224268000001416, 37.787432000002646 ], [ -80.201464000001664, 37.825810000003273 ], [ -80.16220200000194, 37.875122000003238 ], [ -80.140609000002129, 37.883932000003398 ], [ -80.056056000001362, 37.95195900000278 ], [ -80.008888000001264, 37.990830000002966 ], [ -79.980290000001219, 38.027596000002909 ], [ -79.953511000001953, 38.081480000003388 ], [ -79.926330000001315, 38.107147000003039 ], [ -79.929031000001117, 38.139771000002753 ], [ -79.897335000001419, 38.19338100000347 ], [ -79.850326000002184, 38.233324000002895 ], [ -79.795921000002068, 38.265552000003233 ], [ -79.809934000001775, 38.304681000003328 ], [ -79.742771000001127, 38.353367000003104 ], [ -79.706634000001628, 38.415730000002966 ], [ -79.689667000001435, 38.4314620000033 ], [ -79.698988000001492, 38.474988000003343 ], [ -79.680074000002165, 38.510617000003322 ], [ -79.662875000001648, 38.570416000002915 ], [ -79.649075000001488, 38.591515000002829 ], [ -79.536870000001855, 38.550917000003331 ], [ -79.521469000001346, 38.533918000003233 ], [ -79.476396000001216, 38.457159000003067 ], [ -79.396556000001354, 38.43460900000342 ], [ -79.312276000001745, 38.411876000003176 ], [ -79.279692000001177, 38.424211000003098 ], [ -79.254482000002014, 38.455930000002688 ], [ -79.224583000001928, 38.477588000002626 ], [ -79.073392000001363, 38.393427000003264 ], [ -79.017073000002114, 38.361897000003133 ], [ -78.98042600000106, 38.341344000003446 ], [ -78.936350000001653, 38.316612000002706 ], [ -78.93069300000208, 38.313424000002883 ], [ -78.914289000001958, 38.304319000002941 ], [ -78.893543000002012, 38.30658800000311 ], [ -78.836485000001161, 38.265561000003366 ], [ -78.820803000001163, 38.25447700000273 ], [ -78.753044000001225, 38.209015000003063 ], [ -78.749396000001468, 38.206648000003042 ], [ -78.787805000001896, 38.127171000003287 ], [ -78.781152000001413, 38.097835000003272 ], [ -78.77924700000159, 38.08892100000341 ], [ -78.792788000001082, 38.069504000002745 ], [ -78.838874000001141, 38.047370000002722 ], [ -78.807041000001234, 37.991942000003228 ], [ -78.801400000001053, 37.982628000002613 ], [ -78.75351600000154, 37.902557000002624 ], [ -78.725983000001492, 37.854062000003452 ], [ -78.717323000001784, 37.840273000002902 ], [ -78.691524000001735, 37.796782000003255 ], [ -78.686087000001976, 37.737505000002827 ], [ -78.643918000001321, 37.733084000003117 ], [ -78.65593500000125, 37.703543000003378 ], [ -78.692163000001202, 37.686015000003415 ], [ -78.719040000001158, 37.661543000003526 ], [ -78.719279000001251, 37.635386000003137 ], [ -78.788128000001905, 37.642038000003325 ], [ -78.821939000001223, 37.618992000003239 ], [ -78.82914000000126, 37.594642000003198 ], [ -78.815853000001695, 37.571149000003011 ], [ -78.82523800000196, 37.552542000003221 ], [ -78.704187000001653, 37.455910000002888 ], [ -78.683224000001502, 37.428974000003109 ], [ -78.636325000001563, 37.416467000003273 ], [ -78.628932000001925, 37.384436000002708 ], [ -78.594436000001437, 37.397974000002883 ], [ -78.601434000001788, 37.351367000003094 ], [ -78.632979000001029, 37.314325000003159 ], [ -78.681573000001137, 37.248759000003091 ], [ -78.692472000001615, 37.204786000002784 ], [ -78.644621000001763, 37.194323000003365 ], [ -78.620417000001339, 37.1576610000035 ], [ -78.576745000001523, 37.142702000003425 ], [ -78.546871000001147, 37.150288000003052 ], [ -78.515336000001014, 37.132722000003504 ], [ -78.503047000001999, 37.105768000002683 ], [ -78.475129000002028, 37.086049000002731 ], [ -78.443644000001228, 37.07937100000327 ], [ -78.468402000001319, 36.988098000003468 ], [ -78.469680000000992, 36.983078000003182 ], [ -78.47794000000134, 36.950062000003101 ], [ -78.493028000001999, 36.891220000003493 ], [ -78.498240000001715, 36.884376000002874 ], [ -78.559109000001001, 36.808746000002785 ], [ -78.630613000001603, 36.720238000003214 ], [ -78.648541000001458, 36.697909000003435 ], [ -78.615329000001054, 36.663828000002717 ], [ -78.653551000002025, 36.690850000002833 ], [ -78.690330000001836, 36.681437000002923 ], [ -78.712908000001363, 36.635339000003519 ], [ -78.711241000001138, 36.610841000003482 ], [ -78.734122000002117, 36.54193900000319 ], [ -78.901665000002083, 36.542066000003068 ], [ -78.963324000001307, 36.542180000003533 ], [ -78.979175000001206, 36.542171000003506 ], [ -79.218456000001183, 36.541653000002675 ], [ -79.343117000001072, 36.541590000003197 ], [ -79.400790000001706, 36.541581000003454 ], [ -79.44027400000212, 36.541462000003264 ], [ -79.470057000001177, 36.540971000003452 ], [ -79.495596000001726, 36.540938000002861 ], [ -79.628863000001687, 36.541616000002861 ], [ -79.71484900000182, 36.541965000002975 ], [ -79.771486000001971, 36.542228000003512 ], [ -79.891668000001587, 36.542671000003203 ], [ -79.920080000002145, 36.542689000002852 ], [ -80.053459000002064, 36.542523000003072 ], [ -80.050211000001354, 36.60933300000287 ] ] ] } },
{ "type": "Feature", "properties": { "opt_all": 6, "population": 787710.0, "voting_age_pop": 625706.0, "dem_votes": 168122.0, "rep_votes": 191694.0, "minority_pop": 154233.0, "dem_pct": 0.46724436921447504, "rep_pct": 0.5327556305076051 }, "geometry": { "type": "Polygon", "coordinates": [ [ [ -78.712908000001363, 36.635339000003519 ], [ -78.690330000001836, 36.681437000002923 ], [ -78.653551000002025, 36.690850000002833 ], [ -78.615329000001054, 36.663828000002717 ], [ -78.648541000001458, 36.697909000003435 ], [ -78.630613000001603, 36.720238000003214 ], [ -78.559109000001001, 36.808746000002785 ], [ -78.498240000001715, 36.884376000002874 ], [ -78.493028000001999, 36.891220000003493 ], [ -78.47794000000134, 36.950062000003101 ], [ -78.469680000000992, 36.983078000003182 ], [ -78.468402000001319, 36.988098000003468 ], [ -78.443644000001228, 37.07937100000327 ], [ -78.475129000002028, 37.086049000002731 ], [ -78.503047000001999, 37.105768000002683 ], [ -78.515336000001014, 37.132722000003504 ], [ -78.546871000001147, 37.150288000003052 ], [ -78.576745000001523, 37.142702000003425 ], [ -78.620417000001339, 37.1576610000035 ], [ -78.644621000001763, 37.194323000003365 ], [ -78.692472000001615, 37.204786000002784 ], [ -78.681573000001137, 37.248759000003091 ], [ -78.632979000001029, 37.314325000003159 ], [ -78.601434000001788, 37.351367000003094 ], [ -78.594436000001437, 37.397974000002883 ], [ -78.628932000001925, 37.384436000002708 ], [ -78.636325000001563, 37.416467000003273 ], [ -78.683224000001502, 37.428974000003109 ], [ -78.704187000001653, 37.455910000002888 ], [ -78.82523800000196, 37.552542000003221 ], [ -78.815853000001695, 37.571149000003011 ], [ -78.82914000000126, 37.594642000003198 ], [ -78.821939000001223, 37.618992000003239 ], [ -78.788128000001905, 37.642038000003325 ], [ -78.719279000001251, 37.635386000003137 ], [ -78.719040000001158, 37.661543000003526 ], [ -78.692163000001202, 37.686015000003415 ], [ -78.65593500000125, 37.703543000003378 ], [ -78.643918000001321, 37.733084000003117 ], [ -78.686087000001976, 37.737505000002827 ], [ -78.691524000001735, 37.796782000003255 ], [ -78.717323000001784, 37.840273000002902 ], [ -78.725983000001492, 37.854062000003452 ], [ -78.75351600000154, 37.902557000002624 ], [ -78.801400000001053, 37.982628000002613 ], [ -78.807041000001234, 37.991942000003228 ], [ -78.838874000001141, 38.047370000002722 ], [ -78.792788000001082, 38.069504000002745 ], [ -78.77924700000159, 38.08892100000341 ], [ -78.781152000001413, 38.097835000003272 ], [ -78.787805000001896, 38.127171000003287 ], [ -78.749396000001468, 38.206648000003042 ], [ -78.753044000001225, 38.209015000003063 ], [ -78.820803000001163, 38.25447700000273 ], [ -78.836485000001161, 38.265561000003366 ], [ -78.893543000002012, 38.30658800000311 ], [ -78.914289000001958, 38.304319000002941 ], [ -78.93069300000208, 38.313424000002883 ], [ -78.936350000001653, 38.316612000002706 ], [ -78.98042600000106, 38.341344000003446 ], [ -79.017073000002114, 38.361897000003133 ], [ -79.073392000001363, 38.393427000003264 ], [ -79.224583000001928, 38.477588000002626 ], [ -79.20585900000134, 38.524521000002643 ], [ -79.168101000001982, 38.57882200000266 ], [ -79.131056000001664, 38.65321800000337 ], [ -79.092839000001163, 38.66135400000347 ], [ -79.092955000001893, 38.702002000002622 ], [ -79.047349000001375, 38.791810000002869 ], [ -78.993761000001911, 38.850021000003373 ], [ -78.896011000002076, 38.781665000003194 ], [ -78.869261000001373, 38.762980000002706 ], [ -78.805046000001866, 38.859738000003439 ], [ -78.788031000001098, 38.885123000002714 ], [ -78.759085000002017, 38.900529000002919 ], [ -78.71991400000212, 38.906076000003395 ], [ -78.677449000002099, 38.92790800000342 ], [ -78.629553000001806, 38.98086600000341 ], [ -78.60165500000133, 38.964603000002903 ], [ -78.550467000001674, 39.018065000002707 ], [ -78.571901000001532, 39.031995000002894 ], [ -78.544182000001967, 39.05655900000307 ], [ -78.479597000001021, 39.109505000002869 ], [ -78.459311000001264, 39.114273000003266 ], [ -78.427294000001439, 39.152726000002609 ], [ -78.403907000001638, 39.167738000003261 ], [ -78.427705000001467, 39.185975000003296 ], [ -78.438695000001658, 39.198093000003446 ], [ -78.39966900000104, 39.243874000003451 ], [ -78.419422000001447, 39.257476000003251 ], [ -78.360571000001173, 39.317597000002607 ], [ -78.340415000001698, 39.353628000003368 ], [ -78.366867000001662, 39.359290000003263 ], [ -78.343214000001382, 39.388807000003183 ], [ -78.359918000001699, 39.409028000002962 ], [ -78.346718000001474, 39.427618000002909 ], [ -78.34708700000202, 39.466012000002713 ], [ -78.206444000001397, 39.375793000002943 ], [ -78.123808000001674, 39.322677000003026 ], [ -78.081610000001191, 39.29541000000259 ], [ -78.033191000001736, 39.264612000002685 ], [ -78.07347400000188, 39.193360000002734 ], [ -78.072969000001962, 39.178311000003063 ], [ -78.085094000001931, 39.158536000002726 ], [ -78.090269000001555, 39.147661000003261 ], [ -78.108779000001107, 39.097323000003009 ], [ -78.142073000001815, 39.061735000003246 ], [ -78.151614000001246, 39.036629000002783 ], [ -78.125981000001133, 39.02547300000321 ], [ -78.096992000001435, 39.0129230000028 ], [ -78.058276000001499, 39.019020000002939 ], [ -78.004313000001602, 38.979438000002624 ], [ -78.041576000001527, 38.938096000003149 ], [ -78.059086000001855, 38.932595000002685 ], [ -78.075149000001048, 38.912607000002723 ], [ -78.061804000001061, 38.891946000003294 ], [ -78.11224700000156, 38.880260000002728 ], [ -78.130574000001744, 38.864865000003178 ], [ -78.113009000001625, 38.845635000003483 ], [ -78.039410000001766, 38.798493000003198 ], [ -78.028047000001933, 38.759309000003299 ], [ -77.995104000002073, 38.710106000002945 ], [ -77.935355000001579, 38.695840000003173 ], [ -77.972102000001627, 38.672290000003422 ], [ -77.979070000001173, 38.667850000002751 ], [ -78.040530000001709, 38.628355000002934 ], [ -78.089203000001291, 38.597381000002713 ], [ -78.061653000001129, 38.598234000003487 ], [ -78.058565000001977, 38.554685000003502 ], [ -77.994095000001352, 38.532287000002803 ], [ -77.987911000001318, 38.510349000003373 ], [ -77.983094000001458, 38.492884000003379 ], [ -77.984328000001767, 38.450785000003101 ], [ -77.965675000001184, 38.45891600000305 ], [ -77.914462000001407, 38.450016000003139 ], [ -77.883971000001281, 38.472904000002877 ], [ -77.854908000001416, 38.45380900000341 ], [ -77.816206000001984, 38.456623000003368 ], [ -77.784568000001826, 38.474935000002965 ], [ -77.772838000001656, 38.447579000003458 ], [ -77.804068000001479, 38.421823000003187 ], [ -77.785103000001214, 38.379275000003112 ], [ -77.771186000001961, 38.393030000003343 ], [ -77.70284300000209, 38.360840000002824 ], [ -77.726226000002001, 38.325302000002871 ], [ -77.772093000001661, 38.282199000003153 ], [ -77.785890000001075, 38.269931000003162 ], [ -77.78939300000151, 38.266818000003255 ], [ -77.925564000001216, 38.144590000002843 ], [ -77.953639000001829, 38.118501000003413 ], [ -77.936654000001298, 38.116141000002891 ], [ -77.923718000002026, 38.114536000003241 ], [ -77.885450000001029, 38.110703000002999 ], [ -77.839717000001272, 38.106038000002869 ], [ -77.811121000001464, 38.079692000003263 ], [ -77.864494000001216, 38.033512000003029 ], [ -77.883186000001729, 38.008168000002627 ], [ -77.886232000001343, 37.980913000003213 ], [ -77.922627000001526, 37.97250200000326 ], [ -77.984443000001917, 38.00793500000281 ], [ -77.993076000001693, 38.008310000002801 ], [ -78.024378000001633, 37.958207000002865 ], [ -78.042088000001826, 37.895419000002704 ], [ -78.063310000001806, 37.905108000003366 ], [ -78.105810000001242, 37.836968000003239 ], [ -78.159326000001897, 37.74852800000339 ], [ -78.163851000001173, 37.749354000002853 ], [ -78.22530200000125, 37.711579000003411 ], [ -78.239748000001484, 37.690495000003146 ], [ -78.244347000001312, 37.663238000002728 ], [ -78.249021000002031, 37.635546000002691 ], [ -78.278601000001785, 37.595163000002827 ], [ -78.327151000001734, 37.529857000003055 ], [ -78.340217000001246, 37.512087000003326 ], [ -78.354491000001957, 37.493404000003103 ], [ -78.433486000002091, 37.383776000003273 ], [ -78.465089000001115, 37.339677000002993 ], [ -78.402100000001539, 37.3132370000028 ], [ -78.389125000001229, 37.307309000003251 ], [ -78.370866000001982, 37.307465000003226 ], [ -78.321840000001302, 37.309292000003502 ], [ -78.278681000001711, 37.343306000003203 ], [ -78.235039000001109, 37.368102000002807 ], [ -78.217181000001091, 37.397238000003263 ], [ -78.158673000001187, 37.453105000003347 ], [ -78.132048000001632, 37.454686000003171 ], [ -78.094750000001682, 37.444722000003061 ], [ -78.090937000001645, 37.456416000003465 ], [ -78.06658000000138, 37.452054000002683 ], [ -78.050491000001514, 37.471672000003238 ], [ -78.016851000002006, 37.471982000003408 ], [ -77.999575000001954, 37.498052000002673 ], [ -77.965226000001707, 37.48440300000351 ], [ -77.914558000001406, 37.474815000003055 ], [ -77.885808000001944, 37.449617000002895 ], [ -77.866608000001236, 37.456751000003159 ], [ -77.855148000001464, 37.418363000002863 ], [ -77.871810000001943, 37.399434000003247 ], [ -77.877556000001334, 37.366247000002879 ], [ -77.851804000001351, 37.354867000003331 ], [ -77.837346000001801, 37.338380000003013 ], [ -77.79636000000184, 37.332163000003227 ], [ -77.806750000001031, 37.304526000002653 ], [ -77.758620000001088, 37.268717000003264 ], [ -77.716211000002019, 37.296878000003169 ], [ -77.669158000002056, 37.292850000002829 ], [ -77.652200000001585, 37.265822000003105 ], [ -77.650610000001123, 37.265112000003249 ], [ -77.689752000001434, 37.2214820000031 ], [ -77.75749700000199, 37.19227700000323 ], [ -77.795926000001856, 37.192592000002811 ], [ -77.813859000001699, 37.169678000002826 ], [ -77.855507000001126, 37.164120000003095 ], [ -77.900338000001526, 37.143882000003011 ], [ -77.889813000001055, 36.988818000002787 ], [ -77.966571000001935, 36.987279000003475 ], [ -78.003639000001414, 37.022756000003184 ], [ -78.026698000002042, 36.783691000003138 ], [ -78.027411000001365, 36.777858000002645 ], [ -78.082905000001119, 36.7917350000032 ], [ -78.124719000002031, 36.788163000003237 ], [ -78.167810000001765, 36.801515000002922 ], [ -78.212262000001061, 36.805523000002772 ], [ -78.258538000001892, 36.771850000002978 ], [ -78.280401000001902, 36.723113000002932 ], [ -78.236924000001991, 36.717689000003169 ], [ -78.206668000001315, 36.684278000003246 ], [ -78.204857000001709, 36.688207000003267 ], [ -78.193997000001175, 36.687036000003488 ], [ -78.168551000001031, 36.700843000003296 ], [ -78.12795600000166, 36.677973000003171 ], [ -78.135842000001986, 36.644940000003047 ], [ -78.088775000001903, 36.642749000003406 ], [ -78.060502000001236, 36.635512000003096 ], [ -78.04048900000204, 36.612090000003377 ], [ -78.046212000001418, 36.544160000003423 ], [ -78.046271000001653, 36.543551000003362 ], [ -78.313001000001975, 36.543913000002732 ], [ -78.476743000001662, 36.542107000002915 ], [ -78.68235100000193, 36.542119000003105 ], [ -78.734122000002117, 36.54193900000319 ], [ -78.711241000001138, 36.610841000003482 ], [ -78.712908000001363, 36.635339000003519 ] ] ] } },
{ "type": "Feature", "properties": { "opt_all": 7, "population": 785187.0, "voting_age_pop": 596362.0, "dem_votes": 186548.0, "rep_votes": 190331.0, "minority_pop": 203171.0, "dem_pct": 0.49498114766410939, "rep_pct": 0.50501885207055341 }, "geometry": { "type": "Polygon", "coordinates": [ [ [ -77.885450000001029, 38.110703000002999 ], [ -77.923718000002026, 38.114536000003241 ], [ -77.936654000001298, 38.116141000002891 ], [ -77.953639000001829, 38.118501000003413 ], [ -77.925564000001216, 38.144590000002843 ], [ -77.78939300000151, 38.266818000003255 ], [ -77.785890000001075, 38.269931000003162 ], [ -77.772093000001661, 38.282199000003153 ], [ -77.726226000002001, 38.325302000002871 ], [ -77.70284300000209, 38.360840000002824 ], [ -77.771186000001961, 38.393030000003343 ], [ -77.785103000001214, 38.379275000003112 ], [ -77.804068000001479, 38.421823000003187 ], [ -77.772838000001656, 38.447579000003458 ], [ -77.784568000001826, 38.474935000002965 ], [ -77.816206000001984, 38.456623000003368 ], [ -77.854908000001416, 38.45380900000341 ], [ -77.883971000001281, 38.472904000002877 ], [ -77.914462000001407, 38.450016000003139 ], [ -77.965675000001184, 38.45891600000305 ], [ -77.984328000001767, 38.450785000003101 ], [ -77.983094000001458, 38.492884000003379 ], [ -77.987911000001318, 38.510349000003373 ], [ -77.994095000001352, 38.532287000002803 ], [ -78.058565000001977, 38.554685000003502 ], [ -78.061653000001129, 38.598234000003487 ], [ -78.089203000001291, 38.597381000002713 ], [ -78.040530000001709, 38.628355000002934 ], [ -77.979070000001173, 38.667850000002751 ], [ -77.972102000001627, 38.672290000003422 ], [ -77.935355000001579, 38.695840000003173 ], [ -77.995104000002073, 38.710106000002945 ], [ -78.028047000001933, 38.759309000003299 ], [ -78.039410000001766, 38.798493000003198 ], [ -78.113009000001625, 38.845635000003483 ], [ -78.130574000001744, 38.864865000003178 ], [ -78.11224700000156, 38.880260000002728 ], [ -78.061804000001061, 38.891946000003294 ], [ -78.075149000001048, 38.912607000002723 ], [ -78.059086000001855, 38.932595000002685 ], [ -78.041576000001527, 38.938096000003149 ], [ -78.004313000001602, 38.979438000002624 ], [ -78.058276000001499, 39.019020000002939 ], [ -78.096992000001435, 39.0129230000028 ], [ -78.125981000001133, 39.02547300000321 ], [ -78.151614000001246, 39.036629000002783 ], [ -78.142073000001815, 39.061735000003246 ], [ -78.108779000001107, 39.097323000003009 ], [ -78.090269000001555, 39.147661000003261 ], [ -78.085094000001931, 39.158536000002726 ], [ -78.072969000001962, 39.178311000003063 ], [ -78.07347400000188, 39.193360000002734 ], [ -78.033191000001736, 39.264612000002685 ], [ -77.919424000001939, 39.191193000003238 ], [ -77.860203000001221, 39.152981000003052 ], [ -77.828299000001763, 39.132426000002994 ], [ -77.806049000001934, 39.171737000003411 ], [ -77.798157000001453, 39.200703000003344 ], [ -77.762456000000952, 39.26127500000306 ], [ -77.735518000001036, 39.311871000002611 ], [ -77.719519000001029, 39.321314000003007 ], [ -77.668512000001229, 39.31922600000339 ], [ -77.631381000001326, 39.307766000003049 ], [ -77.568753000001038, 39.306447000002862 ], [ -77.551070000000962, 39.276254000003426 ], [ -77.546471000001532, 39.272228000003125 ], [ -77.484731000001617, 39.246052000002621 ], [ -77.457710000001043, 39.224979000002968 ], [ -77.481202000001474, 39.187909000002819 ], [ -77.507558000001097, 39.181367000002645 ], [ -77.527656000002025, 39.144632000003391 ], [ -77.527222000001558, 39.138296000003223 ], [ -77.521354000001196, 39.122252000003499 ], [ -77.477167000001828, 39.100987000003371 ], [ -77.468747000001315, 39.085248000003475 ], [ -77.456971000000934, 39.073399000003228 ], [ -77.44362500000102, 39.071220000002711 ], [ -77.420734000001545, 39.066329000003172 ], [ -77.419178000001381, 39.049625000002877 ], [ -77.423111000001512, 39.041282000003477 ], [ -77.407577000001879, 39.033231000002772 ], [ -77.40156400000177, 39.030176000002982 ], [ -77.407186000001261, 39.022400000003366 ], [ -77.431252000001663, 39.027608000003234 ], [ -77.432124000001011, 39.01690400000323 ], [ -77.459100000001484, 39.026980000003228 ], [ -77.475412000001072, 39.036827000003328 ], [ -77.487431000001337, 39.043973000003227 ], [ -77.511085000001174, 39.063612000003396 ], [ -77.519384000001779, 39.069331000002762 ], [ -77.528884000000929, 39.050563000002803 ], [ -77.507540000001654, 39.046046000002711 ], [ -77.487492000001239, 39.043563000003104 ], [ -77.487297000001291, 39.027565000002973 ], [ -77.495206000001076, 39.033685000003075 ], [ -77.495192000001836, 39.014982000002639 ], [ -77.505990000002001, 39.016229000002937 ], [ -77.511495000001332, 39.026442000002938 ], [ -77.52344800000175, 39.030267000003469 ], [ -77.518735000001499, 39.017380000002909 ], [ -77.531698000001086, 39.012478000003149 ], [ -77.526716000001059, 39.030595000002712 ], [ -77.535146000001632, 39.039555000003467 ], [ -77.575977000002069, 39.017831000003234 ], [ -77.563899000002067, 38.992193000002935 ], [ -77.558201000001148, 38.980968000003159 ], [ -77.543704000001497, 38.95961100000288 ], [ -77.575733000001208, 38.965563000003101 ], [ -77.60626300000115, 38.937891000003162 ], [ -77.624235000001903, 38.936610000003398 ], [ -77.625044000000997, 38.931825000003165 ], [ -77.65516900000128, 38.94265600000297 ], [ -77.69967600000183, 38.863888000003492 ], [ -77.70996200000188, 38.823761000003117 ], [ -77.679854000001654, 38.778620000002732 ], [ -77.669725000001421, 38.763418000002723 ], [ -77.657967000001307, 38.745756000003411 ], [ -77.624978000001605, 38.696168000002679 ], [ -77.619641000001408, 38.688149000002646 ], [ -77.579484000001983, 38.627653000003363 ], [ -77.531328000001068, 38.556550000003462 ], [ -77.476847000001612, 38.592286000003199 ], [ -77.425965000001128, 38.564997000003508 ], [ -77.372027000001935, 38.521189000003098 ], [ -77.326436000001792, 38.506376000003257 ], [ -77.29540600000189, 38.509239000002999 ], [ -77.318542000001997, 38.474437000003277 ], [ -77.322910000001798, 38.432625000002787 ], [ -77.30922700000167, 38.390984000003485 ], [ -77.287097000001907, 38.348800000003017 ], [ -77.26754500000132, 38.334104000003506 ], [ -77.235208000000952, 38.332536000003422 ], [ -77.163219000001149, 38.345823000003534 ], [ -77.124699000001968, 38.366760000003005 ], [ -77.086678000001243, 38.367928000003317 ], [ -77.053420000001893, 38.398813000003223 ], [ -77.018498000001301, 38.381941000003344 ], [ -77.014796000001752, 38.332367000003245 ], [ -77.030683000001375, 38.311622000003496 ], [ -76.997670000000923, 38.278046000003407 ], [ -76.990943000001593, 38.273687000002816 ], [ -76.962086000001733, 38.256964000002952 ], [ -76.962251000001515, 38.229888000002852 ], [ -76.949020000001212, 38.208418000002801 ], [ -76.897716000001665, 38.187264000003069 ], [ -76.839368000000988, 38.163609000003085 ], [ -76.778769000001134, 38.167919000002819 ], [ -76.701266000001183, 38.161384000003096 ], [ -76.610384000000948, 38.148516000003525 ], [ -76.596128000001286, 38.106892000003256 ], [ -76.550007000001457, 38.081267000003265 ], [ -76.516369000001916, 38.034724000003067 ], [ -76.465008000001987, 38.013220000002896 ], [ -76.443662000001396, 37.991157000003149 ], [ -76.412934000001911, 37.96633200000349 ], [ -76.313770000001497, 37.933257000002911 ], [ -76.267872000000935, 37.912160000003453 ], [ -76.23645800000169, 37.886605000003229 ], [ -76.05202100000183, 37.953578000002871 ], [ -75.993338000001074, 37.953487000003506 ], [ -75.943693000001048, 37.946133000002952 ], [ -75.952672000001257, 37.906827000003517 ], [ -75.80120900000135, 37.91219100000275 ], [ -75.761642000001544, 37.941366000003399 ], [ -75.691321000001039, 37.95549600000318 ], [ -75.648214000000976, 37.946862000003435 ], [ -75.648228000001424, 37.966771000003511 ], [ -75.624449000001874, 37.994195000002719 ], [ -75.459648000001593, 38.008429000002998 ], [ -75.323157000000947, 38.020155000003442 ], [ -75.249609000001172, 38.026715000003534 ], [ -75.166435000001115, 38.027834000003523 ], [ -75.238073000001663, 37.935390000003473 ], [ -75.296004000001787, 37.845752000003252 ], [ -75.337979000001653, 37.815232000003263 ], [ -75.366857000001701, 37.80978900000342 ], [ -75.409285000000821, 37.820919000003386 ], [ -75.46093300000156, 37.771356000003223 ], [ -75.470345000001259, 37.748188000003104 ], [ -75.515962000001437, 37.67153800000284 ], [ -75.516925000001251, 37.654833000002725 ], [ -75.541779000000915, 37.606145000003309 ], [ -75.52805600000157, 37.582755000003047 ], [ -75.529901000001786, 37.556717000003196 ], [ -75.574651000001168, 37.500135000002906 ], [ -75.59744100000097, 37.45098800000342 ], [ -75.604026000001014, 37.422024000002963 ], [ -75.643456000001677, 37.37286400000292 ], [ -75.644386000001106, 37.342270000003069 ], [ -75.715515000001005, 37.275687000002875 ], [ -75.732284000000888, 37.245694000003162 ], [ -75.729271000001134, 37.216901000002949 ], [ -75.744639000001769, 37.182349000003065 ], [ -75.781587000001835, 37.137116000003488 ], [ -75.824147000000949, 37.110122000003479 ], [ -75.889676000001259, 37.054515000002937 ], [ -75.909491000000969, 36.990708000002954 ], [ -75.99965300000197, 37.01332600000277 ], [ -76.084863000001221, 37.030363000002815 ], [ -76.133872000001816, 37.040886000003333 ], [ -76.133981000001128, 37.056083000003305 ], [ -76.134941000001817, 37.117603000003307 ], [ -76.135520000001165, 37.191970000003536 ], [ -76.136301000000884, 37.282137000002876 ], [ -76.136307000001111, 37.282790000003445 ], [ -76.138222000001065, 37.426364000003538 ], [ -76.139062000001317, 37.466884000002693 ], [ -76.139103000001953, 37.468813000002989 ], [ -76.140835000001942, 37.542220000003063 ], [ -76.151711000001015, 37.585968000002929 ], [ -76.282306000001583, 37.585279000003425 ], [ -76.357501000000966, 37.591685000002677 ], [ -76.404812000001755, 37.614120000003012 ], [ -76.424412000001908, 37.622972000003053 ], [ -76.475899000001831, 37.631436000003198 ], [ -76.531747000001005, 37.633571000003435 ], [ -76.549022000001358, 37.65859900000298 ], [ -76.554420000001869, 37.671364000003067 ], [ -76.587234000001331, 37.737073000003534 ], [ -76.613046000001617, 37.759262000003019 ], [ -76.668182000001011, 37.778386000002868 ], [ -76.703069000001264, 37.755714000003294 ], [ -76.723086000001587, 37.756697000003477 ], [ -76.751072000001301, 37.728605000002851 ], [ -76.77208000000094, 37.762322000003252 ], [ -76.804288000001577, 37.794902000003027 ], [ -76.84262800000198, 37.79804000000356 ], [ -76.872310000001889, 37.782729000003343 ], [ -76.906446000001793, 37.796236000003461 ], [ -76.943221000000946, 37.782955000003454 ], [ -76.945212000001575, 37.828174000002775 ], [ -76.982773000001401, 37.83944700000297 ], [ -77.01899600000165, 37.84488300000293 ], [ -77.042721000001677, 37.873143000002926 ], [ -77.024858000001984, 37.906849000002786 ], [ -77.055231000001427, 37.930883000003142 ], [ -77.070115000001337, 37.964770000002865 ], [ -77.148634000001465, 37.972000000003412 ], [ -77.181962000001562, 37.949577000002918 ], [ -77.181418000000917, 37.891654000002781 ], [ -77.241679000001028, 37.909550000002767 ], [ -77.247702000001198, 37.876174000003161 ], [ -77.299259000002039, 37.828694000002912 ], [ -77.345223000001269, 37.789285000003296 ], [ -77.378372000001491, 37.776307000003072 ], [ -77.405065000001827, 37.780177000002972 ], [ -77.407813000001823, 37.803330000002859 ], [ -77.422796000001711, 37.812048000003202 ], [ -77.421989000001261, 37.864929000002803 ], [ -77.458267000001442, 37.890153000003011 ], [ -77.493333000001456, 37.897271000002675 ], [ -77.540848000001787, 37.919696000002851 ], [ -77.583863000001259, 37.950286000003388 ], [ -77.613874000001502, 37.958973000003269 ], [ -77.642518000001985, 37.990688000003495 ], [ -77.6874690000014, 38.007806000002851 ], [ -77.747670000001776, 38.024295000003136 ], [ -77.747813000001841, 38.047937000003209 ], [ -77.784514000001124, 38.063337000003401 ], [ -77.782514000001854, 38.067537000003092 ], [ -77.811121000001464, 38.079692000003263 ], [ -77.839717000001272, 38.106038000002869 ], [ -77.885450000001029, 38.110703000002999 ] ] ] } },
{ "type": "Feature", "properties": { "opt_all": 8, "population": 786716.0, "voting_age_pop": 622400.0, "dem_votes": 287155.0, "rep_votes": 82506.0, "minority_pop": 301948.0, "dem_pct": 0.77680631692907653, "rep_pct": 0.22319368280040533 }, "geometry": { "type": "Polygon", "coordinates": [ [ [ -77.203696000001145, 38.618172000003177 ], [ -77.227336000001515, 38.604570000003527 ], [ -77.229281000001961, 38.61840000000312 ], [ -77.226925000001856, 38.6306950000033 ], [ -77.240631000002054, 38.667749000002885 ], [ -77.210066000001717, 38.701344000003296 ], [ -77.1971210000019, 38.710076000003411 ], [ -77.163035000001003, 38.708157000002629 ], [ -77.163250000001099, 38.740042000003108 ], [ -77.16498300000093, 38.74175700000297 ], [ -77.185054000001827, 38.74044700000286 ], [ -77.185551000001482, 38.738724000003437 ], [ -77.190077000001523, 38.740543000002887 ], [ -77.203999000001176, 38.756305000003032 ], [ -77.215686000001696, 38.755287000003143 ], [ -77.217077000001851, 38.759149000003468 ], [ -77.226974000001562, 38.757526000003153 ], [ -77.245820000001544, 38.775174000002643 ], [ -77.233240000000976, 38.77922700000294 ], [ -77.247791000001286, 38.795932000003411 ], [ -77.248429000001309, 38.797924000002865 ], [ -77.256497000000977, 38.810715000003235 ], [ -77.266099000001816, 38.811461000003426 ], [ -77.269895000001355, 38.814909000002892 ], [ -77.269483000001159, 38.818368000003247 ], [ -77.25752300000191, 38.827980000002832 ], [ -77.254969000001452, 38.831723000003322 ], [ -77.251382000001556, 38.838447000003455 ], [ -77.23886500000161, 38.836829000002851 ], [ -77.231997000001186, 38.835965000002759 ], [ -77.217931000001627, 38.834253000003216 ], [ -77.219718000000924, 38.853808000002871 ], [ -77.223238000001928, 38.85521700000313 ], [ -77.227664000001994, 38.865665000003446 ], [ -77.219970000001695, 38.865854000002805 ], [ -77.212495000001226, 38.865979000002845 ], [ -77.197175000001309, 38.853351000002888 ], [ -77.185086000001789, 38.857062000002649 ], [ -77.182610000000963, 38.857413000002737 ], [ -77.18273100000178, 38.84733500000312 ], [ -77.174704000002009, 38.846474000003411 ], [ -77.16600000000102, 38.860260000002675 ], [ -77.174778000001496, 38.866754000002892 ], [ -77.174631000001639, 38.869776000002638 ], [ -77.156335000002045, 38.872372000002727 ], [ -77.158128000000943, 38.873295000002926 ], [ -77.149701000001528, 38.875670000003502 ], [ -77.153842000002015, 38.878851000003451 ], [ -77.163517000001278, 38.886391000003279 ], [ -77.172276000002014, 38.893245000003112 ], [ -77.189854000001574, 38.894395000002845 ], [ -77.189922000001388, 38.894267000002955 ], [ -77.202859000001865, 38.902561000002997 ], [ -77.188801000001874, 38.91351300000283 ], [ -77.177608000001129, 38.915396000003376 ], [ -77.17360800000192, 38.920711000002726 ], [ -77.169286000001406, 38.929585000003271 ], [ -77.155922000001709, 38.933242000002949 ], [ -77.139295000000914, 38.93623400000353 ], [ -77.124875000001097, 38.930408000002991 ], [ -77.121179000001703, 38.933287000002871 ], [ -77.119792000001766, 38.934374000003267 ], [ -77.11643600000103, 38.929571000003193 ], [ -77.082643000001582, 38.902280000002683 ], [ -77.070469000001395, 38.901104000003279 ], [ -77.064251000000965, 38.888956000002892 ], [ -77.04339400000184, 38.874159000003282 ], [ -77.041040000001644, 38.871779000003251 ], [ -77.048020000001202, 38.841261000003449 ], [ -77.037642000001782, 38.808574000003368 ], [ -77.039184000001455, 38.800300000003034 ], [ -77.041362000001769, 38.785415000003269 ], [ -77.041364000001565, 38.768554000003142 ], [ -77.041848000001565, 38.751811000002817 ], [ -77.04261200000191, 38.721553000003432 ], [ -77.074186000001362, 38.712824000003387 ], [ -77.122632000000934, 38.685256000003108 ], [ -77.134732000001122, 38.660006000002632 ], [ -77.12968200000094, 38.634704000003069 ], [ -77.203696000001145, 38.618172000003177 ] ] ] } },
{ "type": "Feature", "properties": { "opt_all": 9, "population": 782688.0, "voting_age_pop": 635258.0, "dem_votes": 120547.0, "rep_votes": 223625.0, "minority_pop": 93422.0, "dem_pct": 0.35025219937988789, "rep_pct": 0.6497478003295597 }, "geometry": { "type": "Polygon", "coordinates": [ [ [ -82.572134000001839, 36.594599000002752 ], [ -82.6092540000013, 36.594060000003246 ], [ -82.828300000001519, 36.593750000002871 ], [ -82.929770000001909, 36.593670000002732 ], [ -82.985124000002116, 36.593729000003293 ], [ -83.174533000001929, 36.593895000003144 ], [ -83.175839000001801, 36.593890000002609 ], [ -83.284904000001731, 36.59812300000258 ], [ -83.405614000002188, 36.597385000003143 ], [ -83.488813000001642, 36.597253000003214 ], [ -83.675395000002368, 36.600784000003259 ], [ -83.613896000001574, 36.634850000002601 ], [ -83.567853000002387, 36.646051000002821 ], [ -83.510758000002198, 36.669046000002801 ], [ -83.453690000002027, 36.664793000002881 ], [ -83.414829000001376, 36.670208000002738 ], [ -83.34763500000156, 36.700199000002769 ], [ -83.28703800000217, 36.714281000003012 ], [ -83.195831000002073, 36.738687000002628 ], [ -83.135120000002161, 36.742629000002864 ], [ -83.128987000001572, 36.775784000002787 ], [ -83.098480000001928, 36.813517000003181 ], [ -83.099904000001573, 36.831147000002687 ], [ -83.072836000001814, 36.854457000002625 ], [ -83.009242000002317, 36.847408000003107 ], [ -82.949154000002352, 36.86639300000266 ], [ -82.87840000000196, 36.892953000003146 ], [ -82.857644000001727, 36.928850000002683 ], [ -82.86708200000129, 36.978247000002533 ], [ -82.828720000001752, 37.005798000002571 ], [ -82.781479000001582, 37.009028000002722 ], [ -82.742759000001456, 37.042796000002888 ], [ -82.72502000000199, 37.042419000002575 ], [ -82.726486000002097, 37.0734110000027 ], [ -82.715149000002199, 37.121848000003169 ], [ -82.633918000002012, 37.154179000003388 ], [ -82.553874000002224, 37.202833000003203 ], [ -82.508419000001766, 37.221913000002566 ], [ -82.389960000001622, 37.2582030000031 ], [ -82.349146000001355, 37.267905000002621 ], [ -82.314628000002045, 37.295794000002793 ], [ -82.314195000002158, 37.296075000002659 ], [ -82.247060000001952, 37.342960000002691 ], [ -82.136744000002238, 37.419175000003172 ], [ -81.968012000001963, 37.538035000002601 ], [ -81.939989000001361, 37.512591000003006 ], [ -81.996578000001577, 37.476705000003221 ], [ -81.992270000001398, 37.460916000002889 ], [ -81.945765000002226, 37.440214000003181 ], [ -81.930050000001884, 37.397124000003245 ], [ -81.920737000001282, 37.355401000003354 ], [ -81.897331000002097, 37.332456000002594 ], [ -81.874059000001708, 37.327674000002709 ], [ -81.849844000002108, 37.287186000002606 ], [ -81.825851000001634, 37.279311000002835 ], [ -81.789294000002229, 37.284416000003077 ], [ -81.746039000001289, 37.263398000002816 ], [ -81.740124000002297, 37.23775200000339 ], [ -81.663329000002179, 37.202141000003373 ], [ -81.575223000002111, 37.206003000003008 ], [ -81.506865000001596, 37.234948000002746 ], [ -81.499472000001688, 37.25712500000305 ], [ -81.483559000002217, 37.250604000003293 ], [ -81.437158000001503, 37.274065000003041 ], [ -81.416663000001677, 37.273214000003335 ], [ -81.388057000001737, 37.319883000002555 ], [ -81.362156000001875, 37.337687000003363 ], [ -81.311874000001652, 37.293764000003257 ], [ -81.279139000001877, 37.271564000002591 ], [ -81.225104000001906, 37.234874000002627 ], [ -81.167029000001918, 37.262881000003347 ], [ -81.104147000001163, 37.280605000003042 ], [ -80.987319000001406, 37.301359000003309 ], [ -80.980146000001966, 37.292743000003355 ], [ -80.951018000001682, 37.29497000000314 ], [ -80.898050000001888, 37.316779000003343 ], [ -80.855679000001217, 37.353755000002792 ], [ -80.883247000001916, 37.383933000003275 ], [ -80.859457000001456, 37.429491000003011 ], [ -80.820228000002118, 37.413288000002581 ], [ -80.784188000001677, 37.39458700000295 ], [ -80.770082000001679, 37.372363000002679 ], [ -80.713545000002227, 37.391500000003376 ], [ -80.645893000001635, 37.422147000003228 ], [ -80.552036000001152, 37.473563000003296 ], [ -80.511391000002206, 37.481672000003186 ], [ -80.475796000001395, 37.423071000003311 ], [ -80.4727820000017, 37.423730000003424 ], [ -80.425629000002033, 37.449885000003157 ], [ -80.299789000001766, 37.508271000002978 ], [ -80.28256800000176, 37.533250000003399 ], [ -80.309347000001651, 37.527380000003028 ], [ -80.328504000001303, 37.56431500000329 ], [ -80.258919000001441, 37.595499000003443 ], [ -80.220984000001692, 37.627767000002919 ], [ -80.168436000001265, 37.615376000002691 ], [ -80.154692000001504, 37.601099000002968 ], [ -80.026743000001545, 37.653955000002618 ], [ -80.020554000001866, 37.647442000002968 ], [ -80.02762100000129, 37.624218000002678 ], [ -79.969071000002145, 37.544408000003138 ], [ -80.012185000001168, 37.503050000002759 ], [ -80.04759400000124, 37.443103000002978 ], [ -80.074119000002185, 37.422469000003041 ], [ -80.062622000001454, 37.408325000003359 ], [ -80.01940400000214, 37.391496000002697 ], [ -79.962395000001919, 37.36970300000344 ], [ -79.945616000002104, 37.362997000003205 ], [ -79.929296000001926, 37.356039000003108 ], [ -79.947310000001679, 37.344453000003277 ], [ -79.954814000002102, 37.33415700000333 ], [ -79.958832000001124, 37.345540000003183 ], [ -79.974023000001196, 37.335419000003 ], [ -79.94973400000147, 37.326254000003452 ], [ -79.934026000002092, 37.320846000002994 ], [ -79.926634000001286, 37.32403700000318 ], [ -79.90871000000179, 37.320339000003095 ], [ -79.886983000002189, 37.309574000003082 ], [ -79.865882000001221, 37.328752000003327 ], [ -79.857699000001489, 37.320408000003091 ], [ -79.84747600000189, 37.309352000002605 ], [ -79.850993000001637, 37.284442000002748 ], [ -79.850970000001581, 37.284316000003408 ], [ -79.857122000001738, 37.265412000002854 ], [ -79.846901000001424, 37.241304000003133 ], [ -79.84721700000182, 37.225406000002785 ], [ -79.882568000001356, 37.209712000002853 ], [ -79.896686000001296, 37.180962000002609 ], [ -79.922488000001792, 37.160769000002766 ], [ -79.961890000001475, 37.137349000003383 ], [ -79.989602000001753, 37.143419000002986 ], [ -80.005309000001361, 37.167816000003228 ], [ -80.040421000001416, 37.168197000002898 ], [ -80.082765000001828, 37.16090800000346 ], [ -80.12867400000151, 37.122901000002869 ], [ -80.111018000001252, 37.069718000003206 ], [ -80.115716000001271, 37.008132000003279 ], [ -80.133723000001694, 37.006061000003371 ], [ -80.139539000001378, 36.970786000003038 ], [ -80.172041000001315, 36.953449000003332 ], [ -80.198854000001106, 36.901524000003171 ], [ -80.235455000002091, 36.872130000003231 ], [ -80.10483600000147, 36.847260000002883 ], [ -80.102370000001144, 36.846818000003374 ], [ -80.041493000001225, 36.794365000003438 ], [ -80.094389000001499, 36.779552000002816 ], [ -80.089839000002073, 36.753211000003326 ], [ -80.094166000001408, 36.745104000002819 ], [ -80.081005000001625, 36.698436000003241 ], [ -80.069095000001852, 36.674018000002846 ], [ -80.050211000001354, 36.60933300000287 ], [ -80.053459000002064, 36.542523000003072 ], [ -80.169814000001097, 36.543164000003273 ], [ -80.295128000001554, 36.544067000003288 ], [ -80.377984000001618, 36.547844000003323 ], [ -80.480257000001757, 36.552507000002919 ], [ -80.53978600000184, 36.555271000003394 ], [ -80.612057000001627, 36.557898000002872 ], [ -80.653387000001786, 36.559183000003252 ], [ -80.696200000002094, 36.561946000002671 ], [ -80.815766000001588, 36.560248000002595 ], [ -80.837954000001616, 36.559143000003104 ], [ -80.978559000001454, 36.563432000003267 ], [ -81.103894000001716, 36.568172000002704 ], [ -81.203970000001718, 36.572302000002715 ], [ -81.270658000001873, 36.574083000002929 ], [ -81.443849000002004, 36.576923000003113 ], [ -81.496676000002253, 36.579386000002891 ], [ -81.600455000001588, 36.586948000002899 ], [ -81.677490000001313, 36.588137000003442 ], [ -81.646900000001651, 36.611918000002753 ], [ -81.681725000001762, 36.612130000003354 ], [ -81.891389000002235, 36.615609000003175 ], [ -81.919729000001865, 36.616162000003087 ], [ -81.934144000001396, 36.594213000002561 ], [ -82.014228000001552, 36.594491000003337 ], [ -82.145573000002017, 36.594725000002583 ], [ -82.147375000001531, 36.594721000003354 ], [ -82.183348000001715, 36.595005000003169 ], [ -82.18988600000138, 36.595177000002558 ], [ -82.243382000002157, 36.595651000002896 ], [ -82.294134000001392, 36.59569700000322 ], [ -82.406018000001936, 36.595012000002697 ], [ -82.486994000002028, 36.595822000003096 ], [ -82.572134000001839, 36.594599000002752 ] ] ] } },
{ "type": "Feature", "properties": { "opt_all": 10, "population": 785741.0, "voting_age_pop": 569683.0, "dem_votes": 210617.0, "rep_votes": 111118.0, "minority_pop": 336927.0, "dem_pct": 0.65462880922043643, "rep_pct": 0.34537119046874876 }, "geometry": { "type": "Polygon", "coordinates": [ [ [ -77.624978000001605, 38.696168000002679 ], [ -77.657967000001307, 38.745756000003411 ], [ -77.669725000001421, 38.763418000002723 ], [ -77.679854000001654, 38.778620000002732 ], [ -77.70996200000188, 38.823761000003117 ], [ -77.69967600000183, 38.863888000003492 ], [ -77.65516900000128, 38.94265600000297 ], [ -77.625044000000997, 38.931825000003165 ], [ -77.624235000001903, 38.936610000003398 ], [ -77.60626300000115, 38.937891000003162 ], [ -77.575733000001208, 38.965563000003101 ], [ -77.543704000001497, 38.95961100000288 ], [ -77.558201000001148, 38.980968000003159 ], [ -77.563899000002067, 38.992193000002935 ], [ -77.575977000002069, 39.017831000003234 ], [ -77.535146000001632, 39.039555000003467 ], [ -77.526716000001059, 39.030595000002712 ], [ -77.531698000001086, 39.012478000003149 ], [ -77.518735000001499, 39.017380000002909 ], [ -77.52344800000175, 39.030267000003469 ], [ -77.511495000001332, 39.026442000002938 ], [ -77.505990000002001, 39.016229000002937 ], [ -77.495192000001836, 39.014982000002639 ], [ -77.495206000001076, 39.033685000003075 ], [ -77.487297000001291, 39.027565000002973 ], [ -77.487492000001239, 39.043563000003104 ], [ -77.507540000001654, 39.046046000002711 ], [ -77.528884000000929, 39.050563000002803 ], [ -77.519384000001779, 39.069331000002762 ], [ -77.511085000001174, 39.063612000003396 ], [ -77.487431000001337, 39.043973000003227 ], [ -77.475412000001072, 39.036827000003328 ], [ -77.459100000001484, 39.026980000003228 ], [ -77.432124000001011, 39.01690400000323 ], [ -77.431252000001663, 39.027608000003234 ], [ -77.407186000001261, 39.022400000003366 ], [ -77.40156400000177, 39.030176000002982 ], [ -77.391704000001113, 39.025042000003467 ], [ -77.38486500000117, 39.021380000002893 ], [ -77.380869000000942, 39.019273000002933 ], [ -77.371316000001826, 39.014265000002972 ], [ -77.378344000001746, 39.007161000003194 ], [ -77.394338000001, 38.990984000003458 ], [ -77.400955000001133, 38.984292000003016 ], [ -77.402570000001802, 38.982649000003363 ], [ -77.413524000001615, 38.971573000003424 ], [ -77.422416000000979, 38.962579000002833 ], [ -77.429379000001276, 38.955523000002671 ], [ -77.432198000001236, 38.952673000003259 ], [ -77.473248000001888, 38.911077000003075 ], [ -77.485021000001652, 38.899128000002833 ], [ -77.492128000001401, 38.891918000003336 ], [ -77.496821000001304, 38.887154000003378 ], [ -77.51484400000173, 38.86885400000299 ], [ -77.535991000002028, 38.847368000003229 ], [ -77.503886000002012, 38.824041000002637 ], [ -77.490113000001998, 38.810033000003521 ], [ -77.494359000001765, 38.798917000003385 ], [ -77.469081000000998, 38.795913000003459 ], [ -77.468234000001814, 38.796299000002954 ], [ -77.466075000001979, 38.796623000002818 ], [ -77.448935000001129, 38.803170000003242 ], [ -77.432739000001249, 38.77976000000325 ], [ -77.430159000000984, 38.781184000003279 ], [ -77.413520000001412, 38.772681000003274 ], [ -77.410385000001995, 38.749558000003049 ], [ -77.388469000001678, 38.749054000002943 ], [ -77.380526000001083, 38.722537000003456 ], [ -77.360395000001375, 38.722262000002772 ], [ -77.33229600000125, 38.716525000003017 ], [ -77.308567000001815, 38.706727000003205 ], [ -77.299868000001482, 38.705162000002801 ], [ -77.282404000001293, 38.696468000003115 ], [ -77.255628000001892, 38.728090000002751 ], [ -77.287234000001291, 38.742599000002969 ], [ -77.252276000001629, 38.736498000002769 ], [ -77.250798000001254, 38.745336000002908 ], [ -77.248525000001919, 38.746110000003384 ], [ -77.244320000001835, 38.752967000002947 ], [ -77.237794000001429, 38.756452000002902 ], [ -77.226974000001562, 38.757526000003153 ], [ -77.217077000001851, 38.759149000003468 ], [ -77.215686000001696, 38.755287000003143 ], [ -77.203999000001176, 38.756305000003032 ], [ -77.190077000001523, 38.740543000002887 ], [ -77.185551000001482, 38.738724000003437 ], [ -77.185054000001827, 38.74044700000286 ], [ -77.16498300000093, 38.74175700000297 ], [ -77.163250000001099, 38.740042000003108 ], [ -77.163035000001003, 38.708157000002629 ], [ -77.1971210000019, 38.710076000003411 ], [ -77.210066000001717, 38.701344000003296 ], [ -77.240631000002054, 38.667749000002885 ], [ -77.226925000001856, 38.6306950000033 ], [ -77.229281000001961, 38.61840000000312 ], [ -77.227336000001515, 38.604570000003527 ], [ -77.24448000000109, 38.594575000002919 ], [ -77.251759000001698, 38.575014000003293 ], [ -77.281195000001659, 38.530244000002774 ], [ -77.29540600000189, 38.509239000002999 ], [ -77.326436000001792, 38.506376000003257 ], [ -77.372027000001935, 38.521189000003098 ], [ -77.425965000001128, 38.564997000003508 ], [ -77.476847000001612, 38.592286000003199 ], [ -77.531328000001068, 38.556550000003462 ], [ -77.579484000001983, 38.627653000003363 ], [ -77.619641000001408, 38.688149000002646 ], [ -77.624978000001605, 38.696168000002679 ] ] ] } },
{ "type": "Feature", "properties": { "opt_all": 11, "population": 784232.0, "voting_age_pop": 604701.0, "dem_votes": 261065.0, "rep_votes": 115937.0, "minority_pop": 281794.0, "dem_pct": 0.69247643230208955, "rep_pct": 0.30752356743265991 }, "geometry": { "type": "Polygon", "coordinates": [ [ [ -77.469081000000998, 38.795913000003459 ], [ -77.494359000001765, 38.798917000003385 ], [ -77.490113000001998, 38.810033000003521 ], [ -77.503886000002012, 38.824041000002637 ], [ -77.535991000002028, 38.847368000003229 ], [ -77.51484400000173, 38.86885400000299 ], [ -77.496821000001304, 38.887154000003378 ], [ -77.492128000001401, 38.891918000003336 ], [ -77.485021000001652, 38.899128000002833 ], [ -77.473248000001888, 38.911077000003075 ], [ -77.432198000001236, 38.952673000003259 ], [ -77.429379000001276, 38.955523000002671 ], [ -77.422416000000979, 38.962579000002833 ], [ -77.413524000001615, 38.971573000003424 ], [ -77.402570000001802, 38.982649000003363 ], [ -77.400955000001133, 38.984292000003016 ], [ -77.394338000001, 38.990984000003458 ], [ -77.378344000001746, 39.007161000003194 ], [ -77.371316000001826, 39.014265000002972 ], [ -77.380869000000942, 39.019273000002933 ], [ -77.38486500000117, 39.021380000002893 ], [ -77.391704000001113, 39.025042000003467 ], [ -77.40156400000177, 39.030176000002982 ], [ -77.407577000001879, 39.033231000002772 ], [ -77.423111000001512, 39.041282000003477 ], [ -77.419178000001381, 39.049625000002877 ], [ -77.420734000001545, 39.066329000003172 ], [ -77.40190300000161, 39.064442000003496 ], [ -77.378433000002005, 39.062445000003343 ], [ -77.367952000001878, 39.061760000002934 ], [ -77.333791000001881, 39.059612000003227 ], [ -77.328318000001673, 39.057678000003328 ], [ -77.311157000001757, 39.051813000002667 ], [ -77.282661000001497, 39.039320000003194 ], [ -77.245093000001091, 39.022146000002827 ], [ -77.255759000001959, 39.001991000002782 ], [ -77.234875000001693, 38.975976000002689 ], [ -77.179617000001429, 38.968301000003258 ], [ -77.150877000001742, 38.965662000003171 ], [ -77.119792000001766, 38.934374000003267 ], [ -77.121179000001703, 38.933287000002871 ], [ -77.124875000001097, 38.930408000002991 ], [ -77.139295000000914, 38.93623400000353 ], [ -77.155922000001709, 38.933242000002949 ], [ -77.169286000001406, 38.929585000003271 ], [ -77.17360800000192, 38.920711000002726 ], [ -77.177608000001129, 38.915396000003376 ], [ -77.188801000001874, 38.91351300000283 ], [ -77.202859000001865, 38.902561000002997 ], [ -77.189922000001388, 38.894267000002955 ], [ -77.189854000001574, 38.894395000002845 ], [ -77.172276000002014, 38.893245000003112 ], [ -77.163517000001278, 38.886391000003279 ], [ -77.153842000002015, 38.878851000003451 ], [ -77.149701000001528, 38.875670000003502 ], [ -77.158128000000943, 38.873295000002926 ], [ -77.156335000002045, 38.872372000002727 ], [ -77.174631000001639, 38.869776000002638 ], [ -77.174778000001496, 38.866754000002892 ], [ -77.16600000000102, 38.860260000002675 ], [ -77.174704000002009, 38.846474000003411 ], [ -77.18273100000178, 38.84733500000312 ], [ -77.182610000000963, 38.857413000002737 ], [ -77.185086000001789, 38.857062000002649 ], [ -77.197175000001309, 38.853351000002888 ], [ -77.212495000001226, 38.865979000002845 ], [ -77.219970000001695, 38.865854000002805 ], [ -77.227664000001994, 38.865665000003446 ], [ -77.223238000001928, 38.85521700000313 ], [ -77.219718000000924, 38.853808000002871 ], [ -77.217931000001627, 38.834253000003216 ], [ -77.231997000001186, 38.835965000002759 ], [ -77.23886500000161, 38.836829000002851 ], [ -77.251382000001556, 38.838447000003455 ], [ -77.254969000001452, 38.831723000003322 ], [ -77.25752300000191, 38.827980000002832 ], [ -77.269483000001159, 38.818368000003247 ], [ -77.269895000001355, 38.814909000002892 ], [ -77.266099000001816, 38.811461000003426 ], [ -77.256497000000977, 38.810715000003235 ], [ -77.248429000001309, 38.797924000002865 ], [ -77.247791000001286, 38.795932000003411 ], [ -77.233240000000976, 38.77922700000294 ], [ -77.245820000001544, 38.775174000002643 ], [ -77.226974000001562, 38.757526000003153 ], [ -77.237794000001429, 38.756452000002902 ], [ -77.244320000001835, 38.752967000002947 ], [ -77.248525000001919, 38.746110000003384 ], [ -77.250798000001254, 38.745336000002908 ], [ -77.252276000001629, 38.736498000002769 ], [ -77.287234000001291, 38.742599000002969 ], [ -77.255628000001892, 38.728090000002751 ], [ -77.282404000001293, 38.696468000003115 ], [ -77.299868000001482, 38.705162000002801 ], [ -77.308567000001815, 38.706727000003205 ], [ -77.33229600000125, 38.716525000003017 ], [ -77.360395000001375, 38.722262000002772 ], [ -77.380526000001083, 38.722537000003456 ], [ -77.388469000001678, 38.749054000002943 ], [ -77.410385000001995, 38.749558000003049 ], [ -77.413520000001412, 38.772681000003274 ], [ -77.430159000000984, 38.781184000003279 ], [ -77.432739000001249, 38.77976000000325 ], [ -77.448935000001129, 38.803170000003242 ], [ -77.466075000001979, 38.796623000002818 ], [ -77.468234000001814, 38.796299000002954 ], [ -77.469081000000998, 38.795913000003459 ] ] ] } }
]
}
