{
"type": "FeatureCollection",
"name": "west_virginia_enacted_districts",
"crs": { "type": "name", "properties": { "name": "urn:ogc:def:crs:OGC:1.3:CRS84" } },
"features": [
{ "type": "Feature", "properties": { "enacted_district": 1, "population": 896067.0, "voting_age_pop": 715682.0, "dem_votes": 112947.0, "rep_votes": 273523.0, "minority_pop": 65987.0, "dem_pct": 0.29225295616936553, "rep_pct": 0.70774704357188212 }, "geometry": { "type": "Polygon", "coordinates": [ [ [ -81.927697030015949, 37.512258633447964 ], [ -82.272021000001416, 37.663782000002882 ], [ -82.414757000001941, 37.855509000002549 ], [ -82.6373060000018, 38.139050000002754 ], [ -82.507678000002301, 38.410782000003266 ], [ -82.218967000001697, 38.591683000002782 ], [ -82.217269000001338, 38.795680000003372 ], [ -82.035963000001942, 39.025478000003048 ], [ -81.908645000001499, 38.878460000002548 ], [ -81.747253000002189, 39.095378000003237 ], [ -81.581447000002271, 39.026179000002791 ], [ -81.298017000002275, 39.185572000002999 ], [ -81.162455000002097, 39.030608000002935 ], [ -81.033632000002214, 39.009584000003386 ], [ -80.812970000002139, 39.109401000002791 ], [ -80.728326000001417, 39.095679000002825 ], [ -80.605799000001838, 38.904167000002651 ], [ -80.457332000002125, 38.739169000002903 ], [ -80.393063000002201, 38.727571000003216 ], [ -80.280059000001785, 38.694867000002738 ], [ -80.24551800000161, 38.388457000003449 ], [ -79.626774000002172, 38.664214000002723 ], [ -79.349867000002021, 38.957509000002872 ], [ -79.134296000001115, 38.813340000003357 ], [ -79.057253000001722, 38.761413000003273 ], [ -79.210591000001415, 38.492913000003149 ], [ -79.476638000002183, 38.457228000003433 ], [ -79.649075000002057, 38.59151500000268 ], [ -79.689675000001245, 38.431439000003181 ], [ -79.959844000001368, 38.063697000002584 ], [ -80.296138000001903, 37.691783000002985 ], [ -80.299789000001468, 37.508271000003376 ], [ -80.475601000002158, 37.422949000002909 ], [ -80.858473368301205, 37.428300705369999 ], [ -80.859563112821803, 37.429558233263784 ], [ -80.947896000002046, 37.295872000003428 ], [ -81.225104000001849, 37.234874000003401 ], [ -81.362156000001349, 37.337687000002887 ], [ -81.560625000001338, 37.206663000003424 ], [ -81.853551000001218, 37.287701000002798 ], [ -81.927697030015949, 37.512258633447964 ] ] ] } },
{ "type": "Feature", "properties": { "enacted_district": 2, "population": 897649.0, "voting_age_pop": 717250.0, "dem_votes": 123037.0, "rep_votes": 271859.0, "minority_pop": 73905.0, "dem_pct": 0.31156810899285681, "rep_pct": 0.68843189075391198 }, "geometry": { "type": "Polygon", "coordinates": [ [ [ -80.393063000002201, 38.727571000003216 ], [ -80.457332000002125, 38.739169000002903 ], [ -80.605799000001838, 38.904167000002651 ], [ -80.728326000001417, 39.095679000002825 ], [ -80.812970000002139, 39.109401000002791 ], [ -81.033632000002214, 39.009584000003386 ], [ -81.162455000002097, 39.030608000002935 ], [ -81.298017000002275, 39.185572000002999 ], [ -81.581447000002271, 39.026179000002791 ], [ -81.747253000002189, 39.095378000003237 ], [ -81.678331000001847, 39.27375500000332 ], [ -81.371270700280959, 39.342061636952451 ], [ -81.121472141060266, 39.457756779204509 ], [ -80.943782000002216, 39.606926000002872 ], [ -80.833462770068337, 39.720812350443893 ], [ -80.73326738458087, 40.033357435985721 ], [ -80.681812177814038, 40.185566237642185 ], [ -80.629699374597564, 40.395006652658672 ], [ -80.66691700000122, 40.573664000002957 ], [ -80.51899100000162, 40.638801000003077 ], [ -80.517987327447997, 40.399643982621747 ], [ -80.51910400000132, 40.159672000003155 ], [ -80.519120000001351, 40.016410000002622 ], [ -80.519342000001387, 39.721403000002809 ], [ -80.42138800000123, 39.721189000003328 ], [ -79.763774000002201, 39.72077600000263 ], [ -79.476662000001994, 39.721078000003281 ], [ -79.48687300000114, 39.205961000002866 ], [ -79.271770858327315, 39.328322649828273 ], [ -78.82600900000115, 39.588829000003329 ], [ -78.657416563135129, 39.535067724085977 ], [ -78.468639000001289, 39.516789000003172 ], [ -78.171361000001539, 39.695612000002619 ], [ -78.022401860151703, 39.619600466957024 ], [ -77.825498521709548, 39.494257799096907 ], [ -77.747287000001876, 39.295001000002962 ], [ -78.033186598459736, 39.264621805418784 ], [ -78.228766000001471, 39.391233000002671 ], [ -78.347087000001878, 39.466012000002877 ], [ -78.403697000001117, 39.167451000003069 ], [ -78.508132000001851, 39.088630000003292 ], [ -78.869276000001207, 38.762991000003169 ], [ -79.057253000001722, 38.761413000003273 ], [ -79.134296000001115, 38.813340000003357 ], [ -79.349867000002021, 38.957509000002872 ], [ -79.626774000002172, 38.664214000002723 ], [ -80.24551800000161, 38.388457000003449 ], [ -80.280059000001785, 38.694867000002738 ], [ -80.393063000002201, 38.727571000003216 ] ] ] } }
]
}
