{
"type": "FeatureCollection",
"name": "wisconsin_enacted_districts",
"crs": { "type": "name", "properties": { "name": "urn:ogc:def:crs:OGC:1.3:CRS84" } },
"features": [
{ "type": "Feature", "properties": { "enacted_district": 1.0, "population": 736286.0, "voting_age_pop": 575107.0, "dem_votes": 162729.0, "rep_votes": 164300.0, "minority_pop": 125189.0, "dem_pct": 0.49759807219005103, "rep_pct": 0.50240192750416568 }, "geometry": { "type": "Polygon", "coordinates": [ [ [ -89.046587000001821, 42.496220000002303 ], [ -89.053910000001437, 42.496229000002323 ], [ -89.067444000002467, 42.496248000002872 ], [ -89.067429000001482, 42.49900200000225 ], [ -89.071089000001905, 42.509489000002425 ], [ -89.075935000002275, 42.526395000002609 ], [ -89.075871000001698, 42.532384000002544 ], [ -89.079452000002263, 42.540179000002155 ], [ -89.058114000001908, 42.551769000002849 ], [ -89.046700000001906, 42.525464000002927 ], [ -89.037352000001434, 42.525193000002773 ], [ -89.040008000002089, 42.540161000002115 ], [ -89.036909000002623, 42.540825000002165 ], [ -89.037521000001675, 42.543666000002098 ], [ -89.026420000002545, 42.546823000002107 ], [ -89.011622000001992, 42.546710000002655 ], [ -89.011591000001701, 42.549430000002488 ], [ -89.011242000002568, 42.568529000002499 ], [ -88.99480500000152, 42.53936300000219 ], [ -88.953532000001431, 42.536681000002261 ], [ -88.947874000001732, 42.538345000002863 ], [ -88.974773000002102, 42.546675000002253 ], [ -88.981477000002087, 42.583921000002888 ], [ -88.982713000002008, 42.622981000002383 ], [ -89.002481000001453, 42.635081000002224 ], [ -89.007038000001771, 42.634980000002336 ], [ -89.011689000001681, 42.634131000002327 ], [ -89.011696000002004, 42.62661600000213 ], [ -89.021210000001815, 42.626806000002794 ], [ -89.030673000001684, 42.621723000002717 ], [ -89.063426000002593, 42.626961000002773 ], [ -89.064391000002075, 42.626991000002931 ], [ -89.064543000002203, 42.649759000002952 ], [ -89.05992700000192, 42.660632000002373 ], [ -89.05955800000207, 42.661066000002108 ], [ -89.06472900000189, 42.671806000002029 ], [ -89.074610000001741, 42.671813000002437 ], [ -89.079675000001501, 42.671862000002079 ], [ -89.07164700000169, 42.686386000002237 ], [ -89.069277000002387, 42.686391000002153 ], [ -89.069279000001941, 42.686508000002064 ], [ -89.069680000002108, 42.686508000002199 ], [ -89.07173900000214, 42.700974000002446 ], [ -89.071755000001545, 42.702319000002646 ], [ -89.062853000002505, 42.718779000002506 ], [ -89.061939000002539, 42.718797000002318 ], [ -89.080004000001779, 42.730220000002397 ], [ -89.092080000001772, 42.730273000002079 ], [ -89.131040000001548, 42.730736000002736 ], [ -89.131081000002155, 42.759551000002489 ], [ -89.114255000002032, 42.759648000002308 ], [ -89.111322000002417, 42.759652000002447 ], [ -89.082431000001577, 42.759807000002674 ], [ -89.062979000001931, 42.759975000002633 ], [ -89.01364800000195, 42.760182000002253 ], [ -89.013310000002122, 42.808241000002113 ], [ -89.013244000002103, 42.827034000002428 ], [ -89.01337100000201, 42.829827000002602 ], [ -89.013518000002378, 42.847628000002253 ], [ -89.000110000002309, 42.847256000002517 ], [ -88.969879000001512, 42.846503000002407 ], [ -88.918672000001706, 42.846121000002569 ], [ -88.894838000001755, 42.845934000002963 ], [ -88.866020000002365, 42.845002000002623 ], [ -88.855749000002206, 42.844579000002554 ], [ -88.777076000002566, 42.842694000002325 ], [ -88.762920000002197, 42.842798000002773 ], [ -88.752893000001791, 42.842766000002264 ], [ -88.744506000001422, 42.842743000002208 ], [ -88.740829000001852, 42.842783000002342 ], [ -88.734683000001951, 42.842721000002349 ], [ -88.723486000002012, 42.842694000002503 ], [ -88.717794000001916, 42.842680000002574 ], [ -88.717572000001624, 42.842679000002647 ], [ -88.698507000001754, 42.84263500000236 ], [ -88.698120000002064, 42.842634000002448 ], [ -88.659279000002243, 42.84254100000252 ], [ -88.541535000002028, 42.842996000002827 ], [ -88.541442000002576, 42.842995000002396 ], [ -88.483081000002414, 42.842699000002852 ], [ -88.424102000001611, 42.842587000002581 ], [ -88.424070000002203, 42.842587000002943 ], [ -88.424690000001974, 42.811918000002443 ], [ -88.425058000002281, 42.792330000002487 ], [ -88.425351000002166, 42.78329800000224 ], [ -88.426017000002133, 42.756253000002253 ], [ -88.426017000001593, 42.756237000002692 ], [ -88.386754000002341, 42.756087000002189 ], [ -88.317744000001952, 42.75559700000283 ], [ -88.308060000001518, 42.755487000002788 ], [ -88.307494000002407, 42.784398000002632 ], [ -88.30693700000208, 42.820533000002776 ], [ -88.306435000002452, 42.840675000002562 ], [ -88.306384000001401, 42.842095000002402 ], [ -88.286024000001873, 42.84207200000278 ], [ -88.212852000001917, 42.842360000002714 ], [ -88.197950000001455, 42.842712000002109 ], [ -88.188100000002038, 42.842840000002802 ], [ -88.188016000001994, 42.842840000002639 ], [ -88.161029000002202, 42.842864000002393 ], [ -88.134319000002478, 42.843119000002922 ], [ -88.094553000002449, 42.843310000002639 ], [ -88.069924000002374, 42.843323000002599 ], [ -88.069560000002554, 42.898257000002765 ], [ -88.069587000001945, 42.905989000002606 ], [ -88.069586000002147, 42.913285000002766 ], [ -88.069587000002159, 42.921952000002285 ], [ -88.069496000001635, 42.929955000002714 ], [ -88.069382000002278, 42.944533000002131 ], [ -88.069290000001601, 42.952374000002962 ], [ -88.05409500000188, 42.952389000002825 ], [ -88.040269000002127, 42.952477000002922 ], [ -88.030124000001763, 42.948769000002827 ], [ -88.028204000001836, 42.950663000002798 ], [ -88.024267000001785, 42.953590000002848 ], [ -88.008413000002392, 42.952010000002531 ], [ -88.008454000001592, 42.950389000002787 ], [ -87.988641000002403, 42.952134000002282 ], [ -87.9813080000024, 42.948896000002428 ], [ -87.976300000002027, 42.944893000002807 ], [ -87.969020000001663, 42.937645000002483 ], [ -87.969133000002572, 42.934034000002363 ], [ -87.969100000002442, 42.930390000002717 ], [ -87.963711000001766, 42.93039400000265 ], [ -87.959296000002439, 42.93039700000255 ], [ -87.949381000001935, 42.9303720000024 ], [ -87.944395000001563, 42.930339000002711 ], [ -87.935592000002458, 42.920844000002134 ], [ -87.929952000001464, 42.930277000002683 ], [ -87.910089000001406, 42.930133000002712 ], [ -87.887849000002191, 42.93003400000228 ], [ -87.885306000002231, 42.94457000000245 ], [ -87.883250000002548, 42.959128000002515 ], [ -87.894059000001661, 42.966190000002477 ], [ -87.894057000001538, 42.966455000002121 ], [ -87.894002000001919, 42.973192000002719 ], [ -87.886323000002392, 42.973712000002955 ], [ -87.88708200000255, 42.978296000002452 ], [ -87.883390000001384, 42.980556000002416 ], [ -87.87935600000246, 42.980536000002445 ], [ -87.869789000002555, 42.986148000002323 ], [ -87.853251000002231, 42.986464000002734 ], [ -87.855908000001421, 42.988088000002371 ], [ -87.873969000002418, 43.000248000002102 ], [ -87.878797000002436, 43.006083000002825 ], [ -87.889266000001584, 43.025621000002488 ], [ -87.878122000001426, 43.042323000002071 ], [ -87.334557000002135, 43.042362000002143 ], [ -87.097530000002379, 43.0423170000022 ], [ -87.069419000001645, 42.842146000002188 ], [ -87.043899000002369, 42.663729000002327 ], [ -87.01993500000205, 42.493498000002468 ], [ -87.375058000002156, 42.493815000002442 ], [ -87.793371000002509, 42.491720000002232 ], [ -87.844991000002281, 42.493056000002085 ], [ -87.862569000002182, 42.493306000002903 ], [ -87.951031000001777, 42.494606000002136 ], [ -88.025050000001698, 42.495113000002227 ], [ -88.06206300000251, 42.495507000002647 ], [ -88.068936000001997, 42.495552000002647 ], [ -88.078894000001483, 42.495619000002883 ], [ -88.108332000002065, 42.495613000002393 ], [ -88.157470000002547, 42.495507000002718 ], [ -88.187101000001988, 42.495250000002692 ], [ -88.196797000001382, 42.495157000002926 ], [ -88.206573000001939, 42.495170000002432 ], [ -88.21142500000154, 42.495135000002968 ], [ -88.226181000001489, 42.495021000002311 ], [ -88.265371000002204, 42.494709000002977 ], [ -88.274586000001889, 42.494818000002759 ], [ -88.285001000002552, 42.494772000002214 ], [ -88.302734000002474, 42.494622000002359 ], [ -88.304692000001722, 42.494618000002973 ], [ -88.311279000002443, 42.494618000002987 ], [ -88.311918000002564, 42.494617000002506 ], [ -88.316571000001829, 42.494619000002707 ], [ -88.317625000001428, 42.494619000002537 ], [ -88.334910000001813, 42.49461800000217 ], [ -88.339093000002052, 42.494618000002831 ], [ -88.422511000001478, 42.494529000002117 ], [ -88.447072000002436, 42.494749000002948 ], [ -88.540353000002369, 42.494965000002964 ], [ -88.599412000001664, 42.495057000002454 ], [ -88.658370000002549, 42.494815000002937 ], [ -88.721798000002295, 42.493213000002562 ], [ -88.737109000001965, 42.492743000002392 ], [ -88.776590000002145, 42.4919130000021 ], [ -88.894583000001475, 42.494175000002429 ], [ -88.977833000001468, 42.495739000002857 ], [ -88.978479000002451, 42.495751000002109 ], [ -88.992559000002416, 42.496009000002609 ], [ -89.001380000002001, 42.496037000002474 ], [ -89.011666000002251, 42.496093000002148 ], [ -89.026908000001598, 42.49612300000252 ], [ -89.042116000001684, 42.496196000002854 ], [ -89.046587000001821, 42.496220000002303 ] ] ] } },
{ "type": "Feature", "properties": { "enacted_district": 2.0, "population": 736822.0, "voting_age_pop": 584598.0, "dem_votes": 271260.0, "rep_votes": 109276.0, "minority_pop": 105204.0, "dem_pct": 0.71283663024974331, "rep_pct": 0.2871633694874694 }, "geometry": { "type": "Polygon", "coordinates": [ [ [ -90.367963000002121, 42.50734000000282 ], [ -90.426377000002418, 42.507173000002695 ], [ -90.426232000002599, 42.525379000002403 ], [ -90.426194000002397, 42.530097000002478 ], [ -90.426174000001495, 42.532628000002369 ], [ -90.42616900000192, 42.533425000002332 ], [ -90.426118000002106, 42.539946000002907 ], [ -90.426025000002156, 42.55082700000284 ], [ -90.425881000002434, 42.594804000002362 ], [ -90.425880000001484, 42.606414000002474 ], [ -90.425801000002082, 42.610315000002132 ], [ -90.425804000002159, 42.612957000002453 ], [ -90.42587400000248, 42.638270000002379 ], [ -90.425932000002163, 42.68189400000243 ], [ -90.426097000001647, 42.725558000002174 ], [ -90.42614300000146, 42.737176000002151 ], [ -90.42627900000204, 42.76929400000207 ], [ -90.426902000001903, 42.812862000002475 ], [ -90.427362000001821, 42.856249000002435 ], [ -90.427439000002522, 42.892730000002366 ], [ -90.427655000002559, 42.907279000002823 ], [ -90.427656000001875, 42.907372000002098 ], [ -90.4280450000022, 42.929216000002789 ], [ -90.428311000002523, 42.944213000002307 ], [ -90.428472000002444, 42.962418000002252 ], [ -90.428499000001722, 42.968675000002555 ], [ -90.428504000001922, 42.971954000002079 ], [ -90.428554000002379, 42.976957000002031 ], [ -90.428391000001781, 43.002488000002892 ], [ -90.428606000002119, 43.031599000002274 ], [ -90.429912000002517, 43.11831700000279 ], [ -90.429913000002401, 43.118413000002093 ], [ -90.429543000002639, 43.179614000002701 ], [ -90.429577000001601, 43.182989000002351 ], [ -90.429625000001565, 43.187433000002315 ], [ -90.42967700000176, 43.192237000002748 ], [ -90.429684000001885, 43.192962000002872 ], [ -90.429825000001642, 43.200940000002021 ], [ -90.3354990000024, 43.209687000002553 ], [ -90.315747000001579, 43.207369000002224 ], [ -90.311130000001882, 43.206677000002642 ], [ -90.271593000002397, 43.196050000002131 ], [ -90.260680000002225, 43.19777000000208 ], [ -90.193814000002376, 43.164464000001978 ], [ -90.192514000001765, 43.176745000002512 ], [ -90.1925060000017, 43.180698000002359 ], [ -90.192529000002324, 43.194338000002041 ], [ -90.192421000002113, 43.235163000002046 ], [ -90.191830000002284, 43.293136000002008 ], [ -90.191938000001457, 43.380083000002401 ], [ -90.191872000001766, 43.39175600000214 ], [ -90.191781000002138, 43.467383000002371 ], [ -90.167690000002239, 43.467517000002488 ], [ -90.1676260000024, 43.460271000002109 ], [ -90.14753700000206, 43.460365000002405 ], [ -90.147516000002483, 43.467574000002266 ], [ -90.072953000001661, 43.46753000000222 ], [ -90.072954000002326, 43.467603000002427 ], [ -90.073606000001604, 43.5552770000021 ], [ -90.0737300000023, 43.561870000002692 ], [ -90.072392000002381, 43.641729000002705 ], [ -90.034198000002476, 43.641637000001985 ], [ -90.009951000002019, 43.641548000002736 ], [ -89.954815000001801, 43.641240000002313 ], [ -89.870396000001847, 43.641251000002242 ], [ -89.837874000001761, 43.640929000002032 ], [ -89.801658000001765, 43.640965000002687 ], [ -89.79966300000153, 43.640992000002157 ], [ -89.790607000001472, 43.640988000002274 ], [ -89.789891000002527, 43.640995000002221 ], [ -89.788314000001719, 43.641048000002513 ], [ -89.785809000002317, 43.64104900000212 ], [ -89.776115000001639, 43.630165000002442 ], [ -89.779977000002091, 43.627660000002777 ], [ -89.774765000002517, 43.615518000002176 ], [ -89.761166000001523, 43.60360600000206 ], [ -89.753595000002335, 43.605912000002121 ], [ -89.740311000001469, 43.598231000002336 ], [ -89.718986000001948, 43.568297000002637 ], [ -89.659375000001745, 43.567338000002074 ], [ -89.599356000001492, 43.557858000002803 ], [ -89.599617000001999, 43.538541000002823 ], [ -89.600364000002173, 43.496231000002261 ], [ -89.600868000001924, 43.424058000002503 ], [ -89.600730000002599, 43.380666000002506 ], [ -89.602830000001603, 43.378787000002667 ], [ -89.639980000002325, 43.363208000002849 ], [ -89.641235000002624, 43.362874000002833 ], [ -89.677613000001955, 43.361197000002832 ], [ -89.709086000002415, 43.32610700000253 ], [ -89.716358000001449, 43.322030000002492 ], [ -89.726889000002629, 43.3021160000023 ], [ -89.721302000002112, 43.29386400000238 ], [ -89.720463000002454, 43.293084000002267 ], [ -89.640544000002365, 43.293142000002568 ], [ -89.600855000002355, 43.293132000002217 ], [ -89.581169000002461, 43.293260000002618 ], [ -89.52177400000258, 43.293742000002183 ], [ -89.481630000002028, 43.294094000002907 ], [ -89.44237200000218, 43.294160000002847 ], [ -89.363159000001957, 43.294036000002379 ], [ -89.363085000001547, 43.281305000002575 ], [ -89.324700000002551, 43.280960000002189 ], [ -89.285159000002054, 43.281195000002775 ], [ -89.245710000002063, 43.282084000002293 ], [ -89.24540500000154, 43.282093000002163 ], [ -89.211634000001695, 43.282492000002854 ], [ -89.127309000001929, 43.282486000002649 ], [ -89.127239000001481, 43.282485000002261 ], [ -89.009139000001383, 43.28483000000255 ], [ -89.008920000002192, 43.197721000002176 ], [ -89.008832000002045, 43.197724000002289 ], [ -89.009469000001815, 43.175394000002044 ], [ -89.009648000001519, 43.168722000002234 ], [ -89.012070000001998, 43.110686000002055 ], [ -89.012070000001657, 43.11065000000243 ], [ -89.011355000002169, 43.081700000002137 ], [ -89.012358000002436, 43.023495000002157 ], [ -89.012343000002517, 43.023489000002165 ], [ -89.012432000001681, 43.018972000002137 ], [ -89.012433000001664, 43.018894000002788 ], [ -89.012490000002117, 43.016227000002502 ], [ -89.012555000001512, 43.012510000002798 ], [ -89.012560000001841, 43.011609000002885 ], [ -89.01254500000249, 43.008828000002502 ], [ -89.012650000002267, 43.002727000002395 ], [ -89.012603000002343, 43.002243000002821 ], [ -89.012557000002374, 42.993423000002103 ], [ -89.013059000001476, 42.935349000002567 ], [ -89.013582000001435, 42.847630000002169 ], [ -89.013518000002378, 42.847628000002253 ], [ -89.01337100000201, 42.829827000002602 ], [ -89.013244000002103, 42.827034000002428 ], [ -89.013310000002122, 42.808241000002113 ], [ -89.01364800000195, 42.760182000002253 ], [ -89.062979000001931, 42.759975000002633 ], [ -89.082431000001577, 42.759807000002674 ], [ -89.111322000002417, 42.759652000002447 ], [ -89.114255000002032, 42.759648000002308 ], [ -89.131081000002155, 42.759551000002489 ], [ -89.131040000001548, 42.730736000002736 ], [ -89.092080000001772, 42.730273000002079 ], [ -89.080004000001779, 42.730220000002397 ], [ -89.061939000002539, 42.718797000002318 ], [ -89.062853000002505, 42.718779000002506 ], [ -89.071755000001545, 42.702319000002646 ], [ -89.07173900000214, 42.700974000002446 ], [ -89.069680000002108, 42.686508000002199 ], [ -89.069279000001941, 42.686508000002064 ], [ -89.069277000002387, 42.686391000002153 ], [ -89.07164700000169, 42.686386000002237 ], [ -89.079675000001501, 42.671862000002079 ], [ -89.074610000001741, 42.671813000002437 ], [ -89.06472900000189, 42.671806000002029 ], [ -89.05955800000207, 42.661066000002108 ], [ -89.05992700000192, 42.660632000002373 ], [ -89.064543000002203, 42.649759000002952 ], [ -89.064391000002075, 42.626991000002931 ], [ -89.063426000002593, 42.626961000002773 ], [ -89.030673000001684, 42.621723000002717 ], [ -89.021210000001815, 42.626806000002794 ], [ -89.011696000002004, 42.62661600000213 ], [ -89.011689000001681, 42.634131000002327 ], [ -89.007038000001771, 42.634980000002336 ], [ -89.002481000001453, 42.635081000002224 ], [ -88.982713000002008, 42.622981000002383 ], [ -88.981477000002087, 42.583921000002888 ], [ -88.974773000002102, 42.546675000002253 ], [ -88.947874000001732, 42.538345000002863 ], [ -88.953532000001431, 42.536681000002261 ], [ -88.99480500000152, 42.53936300000219 ], [ -89.011242000002568, 42.568529000002499 ], [ -89.011591000001701, 42.549430000002488 ], [ -89.011622000001992, 42.546710000002655 ], [ -89.026420000002545, 42.546823000002107 ], [ -89.037521000001675, 42.543666000002098 ], [ -89.036909000002623, 42.540825000002165 ], [ -89.040008000002089, 42.540161000002115 ], [ -89.037352000001434, 42.525193000002773 ], [ -89.046700000001906, 42.525464000002927 ], [ -89.058114000001908, 42.551769000002849 ], [ -89.079452000002263, 42.540179000002155 ], [ -89.075871000001698, 42.532384000002544 ], [ -89.075935000002275, 42.526395000002609 ], [ -89.071089000001905, 42.509489000002425 ], [ -89.067429000001482, 42.49900200000225 ], [ -89.067444000002467, 42.496248000002872 ], [ -89.129924000002134, 42.497087000002466 ], [ -89.228014000002219, 42.497934000002154 ], [ -89.247914000002552, 42.498130000002163 ], [ -89.365798000001959, 42.500078000002596 ], [ -89.483639000001673, 42.501541000002582 ], [ -89.542317000001461, 42.502231000002034 ], [ -89.60144000000146, 42.503722000002249 ], [ -89.66930300000233, 42.505001000002885 ], [ -89.719399000002255, 42.505215000002458 ], [ -89.837587000002159, 42.50571000000253 ], [ -89.955588000002294, 42.505677000002201 ], [ -90.0734370000024, 42.508271000002679 ], [ -90.220915000001483, 42.507785000002038 ], [ -90.309096000001844, 42.5074300000026 ], [ -90.367963000002121, 42.50734000000282 ] ] ] } },
{ "type": "Feature", "properties": { "enacted_district": 3.0, "population": 736959.0, "voting_age_pop": 580529.0, "dem_votes": 167652.0, "rep_votes": 163872.0, "minority_pop": 52545.0, "dem_pct": 0.50570094457544523, "rep_pct": 0.4942990551229175 }, "geometry": { "type": "Polygon", "coordinates": [ [ [ -92.298484000001636, 44.494621000002496 ], [ -92.316169000002475, 44.541009000002397 ], [ -92.347567000002158, 44.557149000002717 ], [ -92.375649000001516, 44.558740000001833 ], [ -92.41567500000248, 44.560506000001979 ], [ -92.436486000002475, 44.552884000002216 ], [ -92.47823700000238, 44.567860000002582 ], [ -92.497009000002663, 44.566884000002382 ], [ -92.53990900000224, 44.567456000002174 ], [ -92.568118000002556, 44.60273200000205 ], [ -92.578703000002079, 44.603974000002268 ], [ -92.622537000001643, 44.616054000002549 ], [ -92.621847000002106, 44.639018000002302 ], [ -92.664715000002062, 44.663379000001811 ], [ -92.694542000002315, 44.6887400000019 ], [ -92.732043000002662, 44.714345000002176 ], [ -92.776471000001862, 44.733732000002632 ], [ -92.803943000001794, 44.747864000002352 ], [ -92.804463000001718, 44.748885000001813 ], [ -92.806401000002595, 44.764567000002288 ], [ -92.787613000001727, 44.789208000002304 ], [ -92.769883000002565, 44.83135500000197 ], [ -92.769501000002037, 44.862001000002536 ], [ -92.731126000002277, 44.862376000002413 ], [ -92.68534600000244, 44.862625000002616 ], [ -92.659910000002682, 44.862614000002047 ], [ -92.657941000002694, 44.862620000002337 ], [ -92.657530000001984, 44.862620000002096 ], [ -92.652079000002274, 44.862638000002384 ], [ -92.649709000002247, 44.862663000002051 ], [ -92.649665000001633, 44.862673000002651 ], [ -92.634845000002244, 44.862617000002174 ], [ -92.623866000001797, 44.862612000002528 ], [ -92.61661500000254, 44.862592000002415 ], [ -92.606231000002325, 44.862567000002414 ], [ -92.580093000002364, 44.862483000002619 ], [ -92.579711000002462, 44.862483000002662 ], [ -92.497014000001784, 44.862466000002563 ], [ -92.435863000002101, 44.862347000002003 ], [ -92.374917000001716, 44.862301000002468 ], [ -92.258363000001765, 44.858083000002317 ], [ -92.251066000001956, 44.857993000002629 ], [ -92.250890000002258, 44.857993000001926 ], [ -92.235038000001637, 44.857808000002215 ], [ -92.233176000002643, 44.85784900000268 ], [ -92.197327000002062, 44.857941000002121 ], [ -92.136348000002513, 44.857848000002377 ], [ -92.13537900000172, 44.944807000002058 ], [ -92.136428000002553, 45.031744000002014 ], [ -92.136429000002025, 45.031879000002213 ], [ -92.136467000001502, 45.039126000002142 ], [ -92.136487000001793, 45.042740000002567 ], [ -92.136360000002483, 45.06784500000267 ], [ -92.136113000001686, 45.121388000001971 ], [ -92.157072000001961, 45.121608000002645 ], [ -92.156465000001674, 45.209554000002349 ], [ -92.033709000001423, 45.208851000001864 ], [ -92.03367400000198, 45.208851000001921 ], [ -91.987946000002481, 45.208803000002007 ], [ -91.911598000002044, 45.208453000002045 ], [ -91.901552000002127, 45.208459000002208 ], [ -91.887882000001483, 45.208486000002061 ], [ -91.788846000001783, 45.20822900000217 ], [ -91.665647000002295, 45.207991000002266 ], [ -91.666402000002179, 45.120823000002083 ], [ -91.651510000002503, 45.112908000002015 ], [ -91.651620000002566, 45.085181000001988 ], [ -91.65139100000232, 45.029830000002704 ], [ -91.651390000001925, 45.029781000002181 ], [ -91.528979000001755, 45.030906000001892 ], [ -91.528916000001942, 44.966114000002342 ], [ -91.528732000002563, 44.944458000002427 ], [ -91.479065000002635, 44.944500000002151 ], [ -91.448540000002396, 44.944366000002468 ], [ -91.433301000001919, 44.944318000002269 ], [ -91.428785000002435, 44.944328000002209 ], [ -91.425369000002647, 44.944344000001898 ], [ -91.407547000001713, 44.966128000002755 ], [ -91.398547000002594, 44.966224000002015 ], [ -91.398706000002605, 44.959125000002537 ], [ -91.398704000002198, 44.958976000001861 ], [ -91.395906000002398, 44.959003000002326 ], [ -91.378277000002115, 44.966224000001944 ], [ -91.368155000002005, 44.958666000002189 ], [ -91.357887000002364, 44.966017000002054 ], [ -91.3682970000024, 44.939897000002695 ], [ -91.342930000001559, 44.938545000002385 ], [ -91.340667000001517, 44.937779000002443 ], [ -91.315276000002314, 44.966687000002452 ], [ -91.313005000001823, 44.968437000002211 ], [ -91.282202000001803, 44.950328000002138 ], [ -91.257703000002422, 44.951058000001979 ], [ -91.22771000000246, 44.948997000002642 ], [ -91.226379000001643, 44.900543000002493 ], [ -91.226829000001899, 44.856930000002329 ], [ -91.226485000002398, 44.856929000002374 ], [ -91.145760000001744, 44.856941000002372 ], [ -91.105122000001643, 44.85707100000252 ], [ -91.105769000002155, 44.944309000001958 ], [ -91.054923000002319, 44.944287000002177 ], [ -91.034792000001474, 44.944233000001923 ], [ -91.024602000001565, 44.944204000002117 ], [ -90.958348000002601, 44.944360000002163 ], [ -90.954325000002157, 44.944378000002146 ], [ -90.945377000002594, 44.944416000002029 ], [ -90.922669000001463, 44.944428000002603 ], [ -90.922247000002457, 44.857404000002717 ], [ -90.922247000002244, 44.857309000002481 ], [ -90.921528000002155, 44.770483000002272 ], [ -90.9215280000018, 44.770408000002021 ], [ -90.921739000002447, 44.683322000002505 ], [ -90.9223500000016, 44.596293000002674 ], [ -90.942643000001624, 44.596378000002723 ], [ -90.972986000002166, 44.596516000002701 ], [ -91.043618000002397, 44.596660000002743 ], [ -91.043815000001842, 44.596640000001941 ], [ -91.044342000001478, 44.509832000002099 ], [ -91.04427700000268, 44.509832000002774 ], [ -91.044072000002657, 44.422571000002499 ], [ -90.923076000002382, 44.422620000002325 ], [ -90.923047000002597, 44.429839000002389 ], [ -90.923005000001822, 44.444302000002772 ], [ -90.902625000002644, 44.439279000002408 ], [ -90.901170000001756, 44.440330000002525 ], [ -90.899807000001843, 44.440893000002291 ], [ -90.902635000001567, 44.437914000002408 ], [ -90.902646000001525, 44.435812000002336 ], [ -90.897529000001981, 44.433350000002655 ], [ -90.842391000002081, 44.433103000002255 ], [ -90.839813000002081, 44.44407700000199 ], [ -90.84561800000256, 44.458615000002347 ], [ -90.827083000002276, 44.462168000002286 ], [ -90.822345000001803, 44.440518000002768 ], [ -90.812024000001657, 44.429579000002605 ], [ -90.832466000001858, 44.428348000002771 ], [ -90.832867000002324, 44.418159000002682 ], [ -90.832314000002356, 44.418142000002639 ], [ -90.802096000002237, 44.406859000002513 ], [ -90.801918000001777, 44.422442000002221 ], [ -90.705192000001759, 44.422227000002614 ], [ -90.680487000002444, 44.422239000002705 ], [ -90.619465000001696, 44.42212700000254 ], [ -90.558746000002017, 44.422210000002693 ], [ -90.558352000001506, 44.335252000002008 ], [ -90.553679000002205, 44.248358000002597 ], [ -90.553421000001521, 44.160215000002403 ], [ -90.553147000002582, 44.072744000002061 ], [ -90.553106000002302, 44.052431000002031 ], [ -90.553034000002597, 44.007731000002266 ], [ -90.552785000001634, 43.985865000002278 ], [ -90.53594600000234, 43.98591600000271 ], [ -90.536033000001964, 43.990328000002478 ], [ -90.531632000001977, 43.992800000002653 ], [ -90.514685000002203, 43.988419000002587 ], [ -90.514617000001977, 43.988576000002382 ], [ -90.505262000001878, 43.995644000002542 ], [ -90.519606000002, 44.000690000002145 ], [ -90.525003000001874, 44.004208000002549 ], [ -90.519966000001645, 44.00429500000233 ], [ -90.518368000002525, 44.00432100000252 ], [ -90.519967000002083, 44.004432000002126 ], [ -90.520029000002324, 44.00794400000234 ], [ -90.509800000001476, 44.024109000002341 ], [ -90.494835000002482, 44.012143000002332 ], [ -90.472064000001566, 43.997785000002033 ], [ -90.471329000002115, 43.997986000002228 ], [ -90.464605000002635, 43.994524000002798 ], [ -90.445367000001966, 43.986677000002231 ], [ -90.434354000002642, 43.986729000002583 ], [ -90.31269300000244, 43.98133500000236 ], [ -90.312694000001486, 43.98138400000218 ], [ -90.191832000001739, 43.981267000002241 ], [ -90.191740000001886, 43.900437000002512 ], [ -90.169784000002593, 43.894323000002593 ], [ -90.155615000001674, 43.887355000001975 ], [ -90.151690000002162, 43.885822000002378 ], [ -90.146478000002645, 43.894196000002452 ], [ -90.137900000002446, 43.894160000002579 ], [ -90.112651000001762, 43.923013000002513 ], [ -90.07249600000236, 43.920470000002851 ], [ -90.072489000002221, 43.922362000002813 ], [ -90.036377000001721, 43.930280000001993 ], [ -90.027960000001414, 43.909173000002227 ], [ -89.98067600000185, 43.905623000002613 ], [ -89.951200000002132, 43.926587000002655 ], [ -89.962711000002486, 43.96628200000265 ], [ -89.963118000002311, 43.981486000002548 ], [ -89.965541000001906, 43.987380000002837 ], [ -90.005887000001707, 44.00839100000227 ], [ -89.998977000002142, 44.024045000002381 ], [ -90.018701000002508, 44.048006000002438 ], [ -90.022127000002456, 44.068271000002412 ], [ -90.02533800000154, 44.068324000002335 ], [ -90.025953000002261, 44.091748000002013 ], [ -90.004801000001933, 44.102677000001997 ], [ -90.007056000001967, 44.12160700000252 ], [ -89.976919000002383, 44.122538000002386 ], [ -89.970482000001525, 44.167114000002201 ], [ -89.922802000002363, 44.155308000002051 ], [ -89.920430000001858, 44.178581000002175 ], [ -89.900160000001662, 44.184320000002728 ], [ -89.920478000001566, 44.208859000002398 ], [ -89.89758500000238, 44.229844000002615 ], [ -89.902783000002287, 44.249473000002169 ], [ -90.058107000002593, 44.248957000002711 ], [ -90.073245000001563, 44.248990000002159 ], [ -90.080822000002357, 44.249011000002589 ], [ -90.080977000001496, 44.292451000002352 ], [ -90.080134000001564, 44.336532000001974 ], [ -90.079620000002478, 44.394106000002317 ], [ -90.079527000001875, 44.424292000002048 ], [ -90.023912000002525, 44.42392700000282 ], [ -89.963602000002126, 44.423564000002393 ], [ -89.963968000002467, 44.47086800000276 ], [ -89.979029000002441, 44.474409000002382 ], [ -89.979191000002018, 44.488918000002712 ], [ -89.964284000002507, 44.489117000002423 ], [ -89.964298000002245, 44.511568000002313 ], [ -89.964661000002081, 44.555109000002325 ], [ -89.964587000002098, 44.59830400000267 ], [ -89.964013000002367, 44.684829000002317 ], [ -89.844975000002194, 44.684945000002614 ], [ -89.844931000001807, 44.684945000002266 ], [ -89.726699000002384, 44.684835000002494 ], [ -89.687872000002343, 44.68499000000282 ], [ -89.6830560000014, 44.685014000002703 ], [ -89.640933000001766, 44.685227000002023 ], [ -89.608094000001657, 44.685482000002409 ], [ -89.489905000001428, 44.685847000002738 ], [ -89.421018000001638, 44.683936000002177 ], [ -89.345887000001667, 44.681380000001951 ], [ -89.223745000002538, 44.681365000002238 ], [ -89.223524000002357, 44.59164100000276 ], [ -89.223331000002261, 44.503984000002021 ], [ -89.223581000001886, 44.453892000002554 ], [ -89.223668000001425, 44.417443000002457 ], [ -89.22386400000218, 44.388785000002109 ], [ -89.224121000001702, 44.330663000002289 ], [ -89.224556000002011, 44.268709000002808 ], [ -89.224813000001646, 44.243393000002271 ], [ -89.246994000001976, 44.243692000002071 ], [ -89.346268000001459, 44.243847000002688 ], [ -89.364915000002185, 44.243906000002198 ], [ -89.48223200000146, 44.243991000002019 ], [ -89.487542000001767, 44.244043000002222 ], [ -89.597980000001698, 44.245725000002359 ], [ -89.597699000001384, 44.15607300000223 ], [ -89.598035000002312, 44.068506000002856 ], [ -89.597950000002413, 43.982100000002262 ], [ -89.597350000002578, 43.894380000002428 ], [ -89.59798400000173, 43.817903000002154 ], [ -89.598619000001918, 43.781210000002289 ], [ -89.599041000002032, 43.73080100000238 ], [ -89.599042000002413, 43.730694000002558 ], [ -89.599547000002403, 43.642636000002035 ], [ -89.659673000001945, 43.642832000002329 ], [ -89.699791000002563, 43.643157000002638 ], [ -89.749005000001944, 43.642211000002369 ], [ -89.758918000002566, 43.641877000002317 ], [ -89.759275000002262, 43.641865000002419 ], [ -89.769976000002075, 43.641499000002007 ], [ -89.771849000002334, 43.641440000002198 ], [ -89.78490100000235, 43.641051000002797 ], [ -89.785809000002317, 43.64104900000212 ], [ -89.788314000001719, 43.641048000002513 ], [ -89.789891000002527, 43.640995000002221 ], [ -89.790607000001472, 43.640988000002274 ], [ -89.79966300000153, 43.640992000002157 ], [ -89.801658000001765, 43.640965000002687 ], [ -89.837874000001761, 43.640929000002032 ], [ -89.870396000001847, 43.641251000002242 ], [ -89.954815000001801, 43.641240000002313 ], [ -90.009951000002019, 43.641548000002736 ], [ -90.034198000002476, 43.641637000001985 ], [ -90.072392000002381, 43.641729000002705 ], [ -90.0737300000023, 43.561870000002692 ], [ -90.073606000001604, 43.5552770000021 ], [ -90.072954000002326, 43.467603000002427 ], [ -90.072953000001661, 43.46753000000222 ], [ -90.147516000002483, 43.467574000002266 ], [ -90.14753700000206, 43.460365000002405 ], [ -90.1676260000024, 43.460271000002109 ], [ -90.167690000002239, 43.467517000002488 ], [ -90.191781000002138, 43.467383000002371 ], [ -90.191872000001766, 43.39175600000214 ], [ -90.191938000001457, 43.380083000002401 ], [ -90.191830000002284, 43.293136000002008 ], [ -90.192421000002113, 43.235163000002046 ], [ -90.192529000002324, 43.194338000002041 ], [ -90.1925060000017, 43.180698000002359 ], [ -90.192514000001765, 43.176745000002512 ], [ -90.193814000002376, 43.164464000001978 ], [ -90.260680000002225, 43.19777000000208 ], [ -90.271593000002397, 43.196050000002131 ], [ -90.311130000001882, 43.206677000002642 ], [ -90.315747000001579, 43.207369000002224 ], [ -90.3354990000024, 43.209687000002553 ], [ -90.429825000001642, 43.200940000002021 ], [ -90.429684000001885, 43.192962000002872 ], [ -90.42967700000176, 43.192237000002748 ], [ -90.429625000001565, 43.187433000002315 ], [ -90.429577000001601, 43.182989000002351 ], [ -90.429543000002639, 43.179614000002701 ], [ -90.429913000002401, 43.118413000002093 ], [ -90.429912000002517, 43.11831700000279 ], [ -90.428606000002119, 43.031599000002274 ], [ -90.428391000001781, 43.002488000002892 ], [ -90.428554000002379, 42.976957000002031 ], [ -90.428504000001922, 42.971954000002079 ], [ -90.428499000001722, 42.968675000002555 ], [ -90.428472000002444, 42.962418000002252 ], [ -90.428311000002523, 42.944213000002307 ], [ -90.4280450000022, 42.929216000002789 ], [ -90.427656000001875, 42.907372000002098 ], [ -90.427655000002559, 42.907279000002823 ], [ -90.427439000002522, 42.892730000002366 ], [ -90.427362000001821, 42.856249000002435 ], [ -90.426902000001903, 42.812862000002475 ], [ -90.42627900000204, 42.76929400000207 ], [ -90.42614300000146, 42.737176000002151 ], [ -90.426097000001647, 42.725558000002174 ], [ -90.425932000002163, 42.68189400000243 ], [ -90.42587400000248, 42.638270000002379 ], [ -90.425804000002159, 42.612957000002453 ], [ -90.425801000002082, 42.610315000002132 ], [ -90.425880000001484, 42.606414000002474 ], [ -90.425881000002434, 42.594804000002362 ], [ -90.426025000002156, 42.55082700000284 ], [ -90.426118000002106, 42.539946000002907 ], [ -90.42616900000192, 42.533425000002332 ], [ -90.426174000001495, 42.532628000002369 ], [ -90.426194000002397, 42.530097000002478 ], [ -90.426232000002599, 42.525379000002403 ], [ -90.426377000002418, 42.507173000002695 ], [ -90.495541000002476, 42.507618000002317 ], [ -90.544355000001659, 42.50781000000238 ], [ -90.635988000001518, 42.515530000002215 ], [ -90.64403300000258, 42.539860000002093 ], [ -90.668279000001803, 42.573183000002537 ], [ -90.686975000001823, 42.591774000002339 ], [ -90.702671000002155, 42.630756000002719 ], [ -90.720209000002257, 42.640758000002407 ], [ -90.780985000002403, 42.653073000002166 ], [ -90.898899000001876, 42.675768000002002 ], [ -90.952415000002404, 42.686778000002775 ], [ -90.980578000001842, 42.698932000002266 ], [ -90.995536000002474, 42.713704000002359 ], [ -91.051275000001738, 42.737001000002493 ], [ -91.069879000002643, 42.771450000002609 ], [ -91.078665000002403, 42.827678000002592 ], [ -91.092985000001619, 42.843536000002061 ], [ -91.100565000002462, 42.883078000002662 ], [ -91.130711000002606, 42.900804000002275 ], [ -91.146203000001677, 42.909868000002056 ], [ -91.146550000001554, 42.963345000002512 ], [ -91.156812000001594, 42.988170000002441 ], [ -91.175395000002041, 43.043028000002693 ], [ -91.177728000001764, 43.118733000002479 ], [ -91.156200000002542, 43.142945000002335 ], [ -91.119115000002338, 43.20036600000212 ], [ -91.109425000002403, 43.205635000002658 ], [ -91.062562000002444, 43.243165000002548 ], [ -91.057910000002323, 43.253968000002693 ], [ -91.085652000001815, 43.291870000002149 ], [ -91.120970000002004, 43.321282000002654 ], [ -91.181115000002606, 43.345926000002528 ], [ -91.214770000001877, 43.365874000002478 ], [ -91.197670000002219, 43.395334000002833 ], [ -91.205550000001537, 43.422949000002696 ], [ -91.228750000001725, 43.445537000002645 ], [ -91.218000000002618, 43.494671000001908 ], [ -91.243820000002117, 43.5491300000023 ], [ -91.232812000002397, 43.564842000002045 ], [ -91.24364700000244, 43.593238000002401 ], [ -91.268748000001537, 43.615348000002712 ], [ -91.262719000001823, 43.643908000001986 ], [ -91.271749000002515, 43.654929000002575 ], [ -91.268455000001438, 43.709824000002669 ], [ -91.257839000002178, 43.725661000002312 ], [ -91.244135000001677, 43.774667000002751 ], [ -91.25364800000176, 43.783380000002609 ], [ -91.273160000001724, 43.818855000002216 ], [ -91.276738000002567, 43.829665000002585 ], [ -91.300051000001559, 43.857820000002611 ], [ -91.315310000001645, 43.881808000002209 ], [ -91.347741000002046, 43.911964000002456 ], [ -91.387660000002526, 43.955286000002211 ], [ -91.425188000002478, 43.98432200000267 ], [ -91.435341000002595, 43.998646000002495 ], [ -91.451068000001683, 44.004359000002431 ], [ -91.507121000002542, 44.018980000002067 ], [ -91.559004000001565, 44.025315000002351 ], [ -91.582604000002235, 44.02738100000262 ], [ -91.605015000002041, 44.045306000002483 ], [ -91.646446000002598, 44.063337000002157 ], [ -91.671658000001486, 44.090636000002007 ], [ -91.707491000001525, 44.103906000002262 ], [ -91.720180000002046, 44.129510000002043 ], [ -91.732942000002041, 44.133128000002031 ], [ -91.751747000001487, 44.134786000002386 ], [ -91.817302000001646, 44.16423500000208 ], [ -91.829167000002158, 44.17835000000246 ], [ -91.875462000002202, 44.201283000002306 ], [ -91.892963000001799, 44.235149000002266 ], [ -91.887189000001797, 44.252513000002388 ], [ -91.902519000002457, 44.279779000002137 ], [ -91.924258000002126, 44.291112000001938 ], [ -91.919174000001675, 44.32358600000186 ], [ -91.965833000001879, 44.363416000002573 ], [ -92.083572000002164, 44.40733600000226 ], [ -92.135454000002483, 44.424014000002479 ], [ -92.16633400000164, 44.427897000002275 ], [ -92.216776000001914, 44.43901600000197 ], [ -92.282364000002474, 44.477707000002624 ], [ -92.298484000001636, 44.494621000002496 ] ] ] } },
{ "type": "Feature", "properties": { "enacted_district": 4.0, "population": 736395.0, "voting_age_pop": 557841.0, "dem_votes": 231275.0, "rep_votes": 75398.0, "minority_pop": 295430.0, "dem_pct": 0.7541420337772996, "rep_pct": 0.24585796589662018 }, "geometry": { "type": "Polygon", "coordinates": [ [ [ -88.037684000001946, 42.973630000002366 ], [ -88.037687000002009, 42.988103000002305 ], [ -88.033622000002467, 42.988141000002912 ], [ -88.027464000001714, 42.988199000002801 ], [ -88.027392000001427, 42.991826000002497 ], [ -88.035847000002335, 42.995386000002654 ], [ -88.027156000001938, 43.002695000002369 ], [ -88.027147000001634, 43.004939000002572 ], [ -88.027124000002502, 43.01003700000269 ], [ -88.020801000002351, 43.016541000002348 ], [ -88.030398000001981, 43.016486000002949 ], [ -88.030232000001817, 43.025011000002429 ], [ -88.047173000002587, 43.031007000002873 ], [ -88.066993000001574, 43.030885000002534 ], [ -88.066938000002025, 43.03643600000283 ], [ -88.066897000002385, 43.045458000002931 ], [ -88.06688000000203, 43.049050000002325 ], [ -88.066891000001803, 43.050864000002719 ], [ -88.066837000002124, 43.059293000002128 ], [ -88.066825000001984, 43.059935000002746 ], [ -88.066602000001637, 43.074463000002943 ], [ -88.066603000002033, 43.074541000002277 ], [ -88.066267000001687, 43.088965000002538 ], [ -88.066142000001818, 43.098483000002688 ], [ -88.066025000001844, 43.104221000002688 ], [ -88.066015000002409, 43.104728000002368 ], [ -88.065918000001702, 43.107931000002139 ], [ -88.065668000002447, 43.116890000002641 ], [ -88.065576000002167, 43.119095000002439 ], [ -88.065589000001523, 43.120677000002829 ], [ -88.065621000001755, 43.1254160000029 ], [ -88.065085000002142, 43.133544000002153 ], [ -88.0644030000025, 43.147993000002323 ], [ -88.064316000002535, 43.160412000002225 ], [ -88.064276000002536, 43.162490000002151 ], [ -88.063353000002309, 43.192117000002099 ], [ -88.023724000002304, 43.192487000002906 ], [ -88.003814000002549, 43.192581000002299 ], [ -87.994171000002439, 43.192550000002598 ], [ -87.983958000002119, 43.192541000002784 ], [ -87.973742000001508, 43.192487000002451 ], [ -87.959255000002528, 43.192407000002447 ], [ -87.957683000002376, 43.192403000002258 ], [ -87.944300000001817, 43.192264000002261 ], [ -87.924941000002164, 43.192147000002393 ], [ -87.924662000001462, 43.19214500000237 ], [ -87.923369000002083, 43.192138000002153 ], [ -87.920648000002075, 43.192122000002655 ], [ -87.91410600000151, 43.192084000002318 ], [ -87.898928000001902, 43.192195000002371 ], [ -87.895007000001755, 43.192090000002082 ], [ -87.892686000001376, 43.192017000002842 ], [ -87.88585600000215, 43.192298000002872 ], [ -87.375075000001459, 43.190889000002791 ], [ -87.119008000001784, 43.190816000002357 ], [ -87.097530000002379, 43.0423170000022 ], [ -87.334557000002135, 43.042362000002143 ], [ -87.878122000001426, 43.042323000002071 ], [ -87.889266000001584, 43.025621000002488 ], [ -87.878797000002436, 43.006083000002825 ], [ -87.873969000002418, 43.000248000002102 ], [ -87.855908000001421, 42.988088000002371 ], [ -87.853251000002231, 42.986464000002734 ], [ -87.869789000002555, 42.986148000002323 ], [ -87.87935600000246, 42.980536000002445 ], [ -87.883390000001384, 42.980556000002416 ], [ -87.88708200000255, 42.978296000002452 ], [ -87.886323000002392, 42.973712000002955 ], [ -87.894002000001919, 42.973192000002719 ], [ -87.894057000001538, 42.966455000002121 ], [ -87.894059000001661, 42.966190000002477 ], [ -87.883250000002548, 42.959128000002515 ], [ -87.885306000002231, 42.94457000000245 ], [ -87.887849000002191, 42.93003400000228 ], [ -87.910089000001406, 42.930133000002712 ], [ -87.929952000001464, 42.930277000002683 ], [ -87.935592000002458, 42.920844000002134 ], [ -87.944395000001563, 42.930339000002711 ], [ -87.949381000001935, 42.9303720000024 ], [ -87.963099000002288, 42.937636000002243 ], [ -87.964507000002229, 42.944885000002763 ], [ -87.958058000002026, 42.944871000002571 ], [ -87.949052000001643, 42.944860000002613 ], [ -87.948874000002419, 42.952135000002912 ], [ -87.948723000002218, 42.959408000002945 ], [ -87.948664000001784, 42.962665000002332 ], [ -87.948513000002151, 42.973936000002702 ], [ -87.953932000002538, 42.977970000002941 ], [ -87.953921000001998, 42.978516000002131 ], [ -87.953304000002305, 42.978520000002433 ], [ -87.953264000002562, 42.980698000002278 ], [ -87.954504000002473, 42.980322000002552 ], [ -87.958262000001767, 42.977840000002473 ], [ -87.958293000002129, 42.976392000002953 ], [ -87.968250000002158, 42.972700000002803 ], [ -87.969948000001835, 42.974982000002512 ], [ -87.977887000002227, 42.982986000002477 ], [ -87.970161000001852, 42.974982000002626 ], [ -87.97483300000178, 42.973908000002858 ], [ -87.978328000002435, 42.966652000002803 ], [ -87.988258000001665, 42.966630000002901 ], [ -87.98304800000156, 42.973905000002816 ], [ -87.981866000002185, 42.980554000002677 ], [ -87.998080000002517, 42.970472000002843 ], [ -88.008074000001855, 42.969939000002178 ], [ -88.017852000002264, 42.973730000002881 ], [ -88.024022000001722, 42.973706000002608 ], [ -88.027746000001898, 42.973691000002248 ], [ -88.030234000001684, 42.973674000002447 ], [ -88.037684000001946, 42.973630000002366 ] ] ] } },
{ "type": "Feature", "properties": { "enacted_district": 5.0, "population": 737306.0, "voting_age_pop": 579362.0, "dem_votes": 140225.0, "rep_votes": 252595.0, "minority_pop": 67483.0, "dem_pct": 0.35697011344713353, "rep_pct": 0.64302988629829694 }, "geometry": { "type": "Polygon", "coordinates": [ [ [ -88.866020000002365, 42.845002000002623 ], [ -88.894838000001755, 42.845934000002963 ], [ -88.918672000001706, 42.846121000002569 ], [ -88.969879000001512, 42.846503000002407 ], [ -89.000110000002309, 42.847256000002517 ], [ -89.013518000002378, 42.847628000002253 ], [ -89.013582000001435, 42.847630000002169 ], [ -89.013059000001476, 42.935349000002567 ], [ -89.012557000002374, 42.993423000002103 ], [ -89.012603000002343, 43.002243000002821 ], [ -89.012650000002267, 43.002727000002395 ], [ -89.01254500000249, 43.008828000002502 ], [ -89.012560000001841, 43.011609000002885 ], [ -89.012555000001512, 43.012510000002798 ], [ -89.012490000002117, 43.016227000002502 ], [ -89.012433000001664, 43.018894000002788 ], [ -89.012432000001681, 43.018972000002137 ], [ -89.012343000002517, 43.023489000002165 ], [ -89.012358000002436, 43.023495000002157 ], [ -89.011355000002169, 43.081700000002137 ], [ -89.012070000001657, 43.11065000000243 ], [ -89.012070000001998, 43.110686000002055 ], [ -89.009648000001519, 43.168722000002234 ], [ -89.009469000001815, 43.175394000002044 ], [ -89.008832000002045, 43.197724000002289 ], [ -89.008920000002192, 43.197721000002176 ], [ -89.009139000001383, 43.28483000000255 ], [ -89.009532000002196, 43.323467000002758 ], [ -89.009352000002181, 43.327028000002919 ], [ -89.006762000001501, 43.33044300000244 ], [ -89.009329000002595, 43.330461000002543 ], [ -89.009342000002135, 43.335741000002365 ], [ -89.009301000002282, 43.339658000002885 ], [ -89.009157000002205, 43.350106000002377 ], [ -89.00882800000177, 43.371637000002167 ], [ -89.004686000002053, 43.371693000002239 ], [ -89.005087000001495, 43.41482100000281 ], [ -89.00611700000249, 43.458759000002871 ], [ -88.931124000002143, 43.458888000002304 ], [ -88.89503100000239, 43.459112000002257 ], [ -88.888532000002229, 43.459106000002272 ], [ -88.867553000001479, 43.491624000002673 ], [ -88.855564000002246, 43.480634000002809 ], [ -88.858256000001759, 43.472535000002232 ], [ -88.858128000001486, 43.461587000002893 ], [ -88.859564000001981, 43.458996000002529 ], [ -88.859359000001689, 43.451506000002482 ], [ -88.851073000001406, 43.443826000002275 ], [ -88.851052000001886, 43.443332000002101 ], [ -88.852705000001919, 43.442205000002389 ], [ -88.852825000001985, 43.441990000002569 ], [ -88.851742000001749, 43.441733000002777 ], [ -88.856249000002421, 43.42942300000248 ], [ -88.841865000001505, 43.440810000002259 ], [ -88.842313000001454, 43.440227000002317 ], [ -88.828685000002295, 43.442298000002367 ], [ -88.827113000001717, 43.443899000002368 ], [ -88.818926000002506, 43.448705000002583 ], [ -88.815469000002295, 43.458918000002299 ], [ -88.809572000002063, 43.458934000002372 ], [ -88.809039000002471, 43.458933000002929 ], [ -88.804662000001443, 43.458915000002655 ], [ -88.81473300000188, 43.466241000002881 ], [ -88.800009000002234, 43.480778000002175 ], [ -88.805214000001939, 43.502668000002323 ], [ -88.800049000001877, 43.5025810000026 ], [ -88.795225000002375, 43.502459000002027 ], [ -88.765383000001876, 43.502409000002153 ], [ -88.764845000002026, 43.466214000002736 ], [ -88.764768000001951, 43.458834000002881 ], [ -88.669303000002103, 43.458860000002531 ], [ -88.661265000002103, 43.458788000002166 ], [ -88.644027000002339, 43.458581000002418 ], [ -88.627966000001635, 43.458494000002887 ], [ -88.613716000001915, 43.458406000002107 ], [ -88.596208000002605, 43.458175000002313 ], [ -88.561469000002361, 43.457814000002784 ], [ -88.521804000002248, 43.457221000002768 ], [ -88.450294000002543, 43.456893000002594 ], [ -88.450210000001562, 43.51079100000279 ], [ -88.45019200000192, 43.511114000002657 ], [ -88.450232000002302, 43.514590000002286 ], [ -88.450201000001456, 43.514683000002861 ], [ -88.445201000002129, 43.51467900000285 ], [ -88.445292000001842, 43.517105000002047 ], [ -88.445485000001966, 43.525320000002893 ], [ -88.451370000002029, 43.525508000002468 ], [ -88.451427000002155, 43.525429000002717 ], [ -88.452055000001437, 43.525512000002522 ], [ -88.456350000001763, 43.521922000002448 ], [ -88.456588000002185, 43.521922000002306 ], [ -88.456783000001977, 43.5265820000022 ], [ -88.460263000001831, 43.514193000002763 ], [ -88.461996000001804, 43.511725000002109 ], [ -88.461224000001636, 43.511430000002754 ], [ -88.461694000002169, 43.511070000002711 ], [ -88.464625000002258, 43.508746000002624 ], [ -88.487249000001398, 43.50213000000214 ], [ -88.489926000001944, 43.536614000002338 ], [ -88.521236000001593, 43.529471000002147 ], [ -88.521286000002348, 43.543939000002212 ], [ -88.442477000001844, 43.543785000002821 ], [ -88.443379000001713, 43.550994000002014 ], [ -88.411470000001529, 43.543576000002751 ], [ -88.400426000002199, 43.543532000002315 ], [ -88.36112200000143, 43.54333800000267 ], [ -88.321036000002024, 43.543142000002739 ], [ -88.281033000002466, 43.542844000002916 ], [ -88.270680000002173, 43.542859000002323 ], [ -88.265682000002116, 43.542869000002106 ], [ -88.236391000001944, 43.542919000002207 ], [ -88.160873000001772, 43.542943000002118 ], [ -88.085784000001468, 43.542410000002107 ], [ -88.040528000001885, 43.542361000002366 ], [ -88.040558000002051, 43.50269400000284 ], [ -88.040630000002508, 43.49822400000258 ], [ -88.040793000002296, 43.470607000002474 ], [ -88.040701000002315, 43.454481000002879 ], [ -88.040869000001877, 43.439665000002776 ], [ -88.040992000001594, 43.432421000002655 ], [ -88.040881000002457, 43.429496000002089 ], [ -88.040966000002001, 43.427895000002351 ], [ -88.040953000002361, 43.42517600000216 ], [ -88.040918000001469, 43.410704000002561 ], [ -88.040126000002033, 43.367313000002859 ], [ -88.055365000001956, 43.367237000002326 ], [ -88.062426000001409, 43.367289000002749 ], [ -88.062888000001848, 43.336817000002895 ], [ -88.062891000001414, 43.322319000002118 ], [ -88.062891000002082, 43.307858000002454 ], [ -88.063010000001782, 43.30061600000262 ], [ -88.063292000002434, 43.278881000002499 ], [ -88.063861000001637, 43.250143000002147 ], [ -88.063787000002264, 43.221123000002912 ], [ -88.063522000001939, 43.206672000002229 ], [ -88.063383000002403, 43.194766000002517 ], [ -88.063353000002309, 43.192117000002099 ], [ -88.064276000002536, 43.162490000002151 ], [ -88.064316000002535, 43.160412000002225 ], [ -88.0644030000025, 43.147993000002323 ], [ -88.065085000002142, 43.133544000002153 ], [ -88.065621000001755, 43.1254160000029 ], [ -88.065589000001523, 43.120677000002829 ], [ -88.065576000002167, 43.119095000002439 ], [ -88.065668000002447, 43.116890000002641 ], [ -88.065918000001702, 43.107931000002139 ], [ -88.066015000002409, 43.104728000002368 ], [ -88.066025000001844, 43.104221000002688 ], [ -88.066142000001818, 43.098483000002688 ], [ -88.066267000001687, 43.088965000002538 ], [ -88.066603000002033, 43.074541000002277 ], [ -88.066602000001637, 43.074463000002943 ], [ -88.066825000001984, 43.059935000002746 ], [ -88.066837000002124, 43.059293000002128 ], [ -88.066891000001803, 43.050864000002719 ], [ -88.06688000000203, 43.049050000002325 ], [ -88.066897000002385, 43.045458000002931 ], [ -88.066938000002025, 43.03643600000283 ], [ -88.066993000001574, 43.030885000002534 ], [ -88.047173000002587, 43.031007000002873 ], [ -88.030232000001817, 43.025011000002429 ], [ -88.030398000001981, 43.016486000002949 ], [ -88.020801000002351, 43.016541000002348 ], [ -88.027124000002502, 43.01003700000269 ], [ -88.027147000001634, 43.004939000002572 ], [ -88.027156000001938, 43.002695000002369 ], [ -88.035847000002335, 42.995386000002654 ], [ -88.027392000001427, 42.991826000002497 ], [ -88.027464000001714, 42.988199000002801 ], [ -88.033622000002467, 42.988141000002912 ], [ -88.037687000002009, 42.988103000002305 ], [ -88.037684000001946, 42.973630000002366 ], [ -88.030234000001684, 42.973674000002447 ], [ -88.027746000001898, 42.973691000002248 ], [ -88.024022000001722, 42.973706000002608 ], [ -88.017852000002264, 42.973730000002881 ], [ -88.008074000001855, 42.969939000002178 ], [ -87.998080000002517, 42.970472000002843 ], [ -87.981866000002185, 42.980554000002677 ], [ -87.98304800000156, 42.973905000002816 ], [ -87.988258000001665, 42.966630000002901 ], [ -87.978328000002435, 42.966652000002803 ], [ -87.97483300000178, 42.973908000002858 ], [ -87.970161000001852, 42.974982000002626 ], [ -87.977887000002227, 42.982986000002477 ], [ -87.969948000001835, 42.974982000002512 ], [ -87.968250000002158, 42.972700000002803 ], [ -87.958293000002129, 42.976392000002953 ], [ -87.958262000001767, 42.977840000002473 ], [ -87.954504000002473, 42.980322000002552 ], [ -87.953264000002562, 42.980698000002278 ], [ -87.953304000002305, 42.978520000002433 ], [ -87.953921000001998, 42.978516000002131 ], [ -87.953932000002538, 42.977970000002941 ], [ -87.948513000002151, 42.973936000002702 ], [ -87.948664000001784, 42.962665000002332 ], [ -87.948723000002218, 42.959408000002945 ], [ -87.948874000002419, 42.952135000002912 ], [ -87.949052000001643, 42.944860000002613 ], [ -87.958058000002026, 42.944871000002571 ], [ -87.964507000002229, 42.944885000002763 ], [ -87.963099000002288, 42.937636000002243 ], [ -87.949381000001935, 42.9303720000024 ], [ -87.959296000002439, 42.93039700000255 ], [ -87.963711000001766, 42.93039400000265 ], [ -87.969100000002442, 42.930390000002717 ], [ -87.969133000002572, 42.934034000002363 ], [ -87.969020000001663, 42.937645000002483 ], [ -87.976300000002027, 42.944893000002807 ], [ -87.9813080000024, 42.948896000002428 ], [ -87.988641000002403, 42.952134000002282 ], [ -88.008454000001592, 42.950389000002787 ], [ -88.008413000002392, 42.952010000002531 ], [ -88.024267000001785, 42.953590000002848 ], [ -88.028204000001836, 42.950663000002798 ], [ -88.030124000001763, 42.948769000002827 ], [ -88.040269000002127, 42.952477000002922 ], [ -88.05409500000188, 42.952389000002825 ], [ -88.069290000001601, 42.952374000002962 ], [ -88.069382000002278, 42.944533000002131 ], [ -88.069496000001635, 42.929955000002714 ], [ -88.069587000002159, 42.921952000002285 ], [ -88.069586000002147, 42.913285000002766 ], [ -88.069587000001945, 42.905989000002606 ], [ -88.069560000002554, 42.898257000002765 ], [ -88.069924000002374, 42.843323000002599 ], [ -88.094553000002449, 42.843310000002639 ], [ -88.134319000002478, 42.843119000002922 ], [ -88.161029000002202, 42.842864000002393 ], [ -88.188016000001994, 42.842840000002639 ], [ -88.188100000002038, 42.842840000002802 ], [ -88.197950000001455, 42.842712000002109 ], [ -88.212852000001917, 42.842360000002714 ], [ -88.286024000001873, 42.84207200000278 ], [ -88.306384000001401, 42.842095000002402 ], [ -88.306435000002452, 42.840675000002562 ], [ -88.30693700000208, 42.820533000002776 ], [ -88.307494000002407, 42.784398000002632 ], [ -88.308060000001518, 42.755487000002788 ], [ -88.317744000001952, 42.75559700000283 ], [ -88.386754000002341, 42.756087000002189 ], [ -88.426017000001593, 42.756237000002692 ], [ -88.426017000002133, 42.756253000002253 ], [ -88.425351000002166, 42.78329800000224 ], [ -88.425058000002281, 42.792330000002487 ], [ -88.424690000001974, 42.811918000002443 ], [ -88.424070000002203, 42.842587000002943 ], [ -88.424102000001611, 42.842587000002581 ], [ -88.483081000002414, 42.842699000002852 ], [ -88.541442000002576, 42.842995000002396 ], [ -88.541535000002028, 42.842996000002827 ], [ -88.659279000002243, 42.84254100000252 ], [ -88.698120000002064, 42.842634000002448 ], [ -88.698507000001754, 42.84263500000236 ], [ -88.717572000001624, 42.842679000002647 ], [ -88.717794000001916, 42.842680000002574 ], [ -88.723486000002012, 42.842694000002503 ], [ -88.734683000001951, 42.842721000002349 ], [ -88.740829000001852, 42.842783000002342 ], [ -88.744506000001422, 42.842743000002208 ], [ -88.752893000001791, 42.842766000002264 ], [ -88.762920000002197, 42.842798000002773 ], [ -88.777076000002566, 42.842694000002325 ], [ -88.855749000002206, 42.844579000002554 ], [ -88.866020000002365, 42.845002000002623 ] ] ] } },
{ "type": "Feature", "properties": { "enacted_district": 6.0, "population": 736554.0, "voting_age_pop": 582689.0, "dem_votes": 147310.0, "rep_votes": 199710.0, "minority_pop": 66853.0, "dem_pct": 0.42450002869445563, "rep_pct": 0.57549997101737649 }, "geometry": { "type": "Polygon", "coordinates": [ [ [ -89.641235000002624, 43.362874000002833 ], [ -89.639980000002325, 43.363208000002849 ], [ -89.602830000001603, 43.378787000002667 ], [ -89.600730000002599, 43.380666000002506 ], [ -89.600868000001924, 43.424058000002503 ], [ -89.600364000002173, 43.496231000002261 ], [ -89.599617000001999, 43.538541000002823 ], [ -89.599356000001492, 43.557858000002803 ], [ -89.659375000001745, 43.567338000002074 ], [ -89.718986000001948, 43.568297000002637 ], [ -89.740311000001469, 43.598231000002336 ], [ -89.753595000002335, 43.605912000002121 ], [ -89.761166000001523, 43.60360600000206 ], [ -89.774765000002517, 43.615518000002176 ], [ -89.779977000002091, 43.627660000002777 ], [ -89.776115000001639, 43.630165000002442 ], [ -89.785809000002317, 43.64104900000212 ], [ -89.78490100000235, 43.641051000002797 ], [ -89.771849000002334, 43.641440000002198 ], [ -89.769976000002075, 43.641499000002007 ], [ -89.759275000002262, 43.641865000002419 ], [ -89.758918000002566, 43.641877000002317 ], [ -89.749005000001944, 43.642211000002369 ], [ -89.699791000002563, 43.643157000002638 ], [ -89.659673000001945, 43.642832000002329 ], [ -89.599547000002403, 43.642636000002035 ], [ -89.599042000002413, 43.730694000002558 ], [ -89.599041000002032, 43.73080100000238 ], [ -89.598619000001918, 43.781210000002289 ], [ -89.59798400000173, 43.817903000002154 ], [ -89.597350000002578, 43.894380000002428 ], [ -89.597950000002413, 43.982100000002262 ], [ -89.598035000002312, 44.068506000002856 ], [ -89.597699000001384, 44.15607300000223 ], [ -89.597980000001698, 44.245725000002359 ], [ -89.487542000001767, 44.244043000002222 ], [ -89.48223200000146, 44.243991000002019 ], [ -89.364915000002185, 44.243906000002198 ], [ -89.346268000001459, 44.243847000002688 ], [ -89.246994000001976, 44.243692000002071 ], [ -89.224813000001646, 44.243393000002271 ], [ -89.12847500000251, 44.243057000002793 ], [ -89.10335000000147, 44.243070000002433 ], [ -89.022128000002496, 44.242858000002393 ], [ -89.006739000002312, 44.242832000002849 ], [ -88.982162000001537, 44.242772000002134 ], [ -88.927152000001612, 44.242637000002567 ], [ -88.886673000001664, 44.242622000002612 ], [ -88.854182000001956, 44.242637000002638 ], [ -88.850304000002254, 44.242594000002754 ], [ -88.820397000002032, 44.242736000002715 ], [ -88.797446000001614, 44.242999000002492 ], [ -88.785988000002433, 44.243187000002749 ], [ -88.766200000002172, 44.243366000002709 ], [ -88.765567000001681, 44.214396000002672 ], [ -88.764830000001751, 44.156227000002048 ], [ -88.764812000002252, 44.155012000002579 ], [ -88.664455000002107, 44.155160000002248 ], [ -88.644334000001365, 44.155264000002717 ], [ -88.634359000002092, 44.155279000002857 ], [ -88.604551000001479, 44.170025000002227 ], [ -88.605255000002344, 44.199141000002228 ], [ -88.564685000002285, 44.19963700000234 ], [ -88.56477200000225, 44.205991000002243 ], [ -88.56472400000159, 44.217581000002703 ], [ -88.564981000001708, 44.243710000002807 ], [ -88.557424000001561, 44.243709000002433 ], [ -88.524791000001784, 44.244028000002459 ], [ -88.496818000001767, 44.244100000002064 ], [ -88.485374000002494, 44.244106000002098 ], [ -88.476116000002236, 44.244107000002387 ], [ -88.455957000001902, 44.244112000002112 ], [ -88.450119000001905, 44.24411700000234 ], [ -88.445830000002303, 44.244139000002754 ], [ -88.439099000001718, 44.244286000002127 ], [ -88.436532000002444, 44.244308000002349 ], [ -88.435907000001492, 44.244386000002336 ], [ -88.429007000002102, 44.244286000002077 ], [ -88.417769000002352, 44.244037000002777 ], [ -88.414053000002014, 44.244035000002832 ], [ -88.404202000002186, 44.244100000002454 ], [ -88.404070000001397, 44.244102000002741 ], [ -88.404044000002358, 44.238642000002038 ], [ -88.403930000001878, 44.233850000002704 ], [ -88.403965000002344, 44.231569000002743 ], [ -88.404006000002454, 44.23004100000216 ], [ -88.404007000002082, 44.229578000002761 ], [ -88.404050000002272, 44.226449000002184 ], [ -88.404184000001706, 44.218487000002632 ], [ -88.404211000002263, 44.21723500000239 ], [ -88.404234000002063, 44.216059000002083 ], [ -88.404235000002444, 44.216011000002517 ], [ -88.404242000002498, 44.215640000002779 ], [ -88.404255000001967, 44.214848000002014 ], [ -88.404315000001617, 44.212402000002427 ], [ -88.404342000001549, 44.211080000002646 ], [ -88.404359000001463, 44.210220000002188 ], [ -88.40440200000188, 44.209475000002541 ], [ -88.404425000001453, 44.209254000002119 ], [ -88.404537000002009, 44.193699000002518 ], [ -88.40450700000244, 44.191163000002575 ], [ -88.404446000001684, 44.159376000002268 ], [ -88.404429000001898, 44.12768500000287 ], [ -88.404496000002041, 44.123015000002859 ], [ -88.404598000001883, 44.098344000002861 ], [ -88.404409000002431, 44.084086000002038 ], [ -88.404289000002407, 44.071017000002847 ], [ -88.403510000001745, 44.001286000002686 ], [ -88.324320000002075, 44.000518000002451 ], [ -88.266539000002396, 44.000331000002554 ], [ -88.236839000001353, 44.000213000002773 ], [ -88.151173000002402, 44.000243000002719 ], [ -88.150813000001449, 43.978876000002188 ], [ -88.142682000002424, 43.978989000002272 ], [ -88.042138000001742, 43.979181000002704 ], [ -88.042936000002356, 44.066412000002849 ], [ -88.04322900000156, 44.101384000002518 ], [ -88.043650000001406, 44.153497000002211 ], [ -88.043765000002253, 44.173483000002477 ], [ -88.043767000001637, 44.17376100000233 ], [ -88.043240000002385, 44.241018000002242 ], [ -88.010007000002062, 44.240936000002371 ], [ -87.923755000002302, 44.240402000002447 ], [ -87.91081600000166, 44.240438000002463 ], [ -87.888087000001676, 44.240461000002142 ], [ -87.88799900000194, 44.28403400000267 ], [ -87.887526000001884, 44.327589000002405 ], [ -87.826771000001941, 44.327478000002799 ], [ -87.766026000001816, 44.327184000002532 ], [ -87.765984000002121, 44.327184000002376 ], [ -87.704991000002252, 44.327324000002108 ], [ -87.644196000001415, 44.327543000002109 ], [ -87.58336000000142, 44.327563000002776 ], [ -87.543612000001929, 44.32751300000254 ], [ -87.25008200000228, 44.327177000002131 ], [ -86.923403000002082, 44.328825000002055 ], [ -86.963964000001582, 44.236642000002753 ], [ -87.013234000001788, 44.131905000002163 ], [ -87.046249000001524, 44.000000000002203 ], [ -87.075335000001843, 43.894774000002094 ], [ -87.097042000002261, 43.803978000002921 ], [ -87.114102000001424, 43.734111000002898 ], [ -87.125079000001492, 43.670445000002431 ], [ -87.128493000001967, 43.621371000002988 ], [ -87.1347780000022, 43.541433000002861 ], [ -87.14716600000196, 43.379859000002895 ], [ -87.119008000001784, 43.190816000002357 ], [ -87.375075000001459, 43.190889000002791 ], [ -87.88585600000215, 43.192298000002872 ], [ -87.892686000001376, 43.192017000002842 ], [ -87.895007000001755, 43.192090000002082 ], [ -87.898928000001902, 43.192195000002371 ], [ -87.91410600000151, 43.192084000002318 ], [ -87.920648000002075, 43.192122000002655 ], [ -87.923369000002083, 43.192138000002153 ], [ -87.924662000001462, 43.19214500000237 ], [ -87.924941000002164, 43.192147000002393 ], [ -87.944300000001817, 43.192264000002261 ], [ -87.957683000002376, 43.192403000002258 ], [ -87.959255000002528, 43.192407000002447 ], [ -87.973742000001508, 43.192487000002451 ], [ -87.983958000002119, 43.192541000002784 ], [ -87.994171000002439, 43.192550000002598 ], [ -88.003814000002549, 43.192581000002299 ], [ -88.023724000002304, 43.192487000002906 ], [ -88.063353000002309, 43.192117000002099 ], [ -88.063383000002403, 43.194766000002517 ], [ -88.063522000001939, 43.206672000002229 ], [ -88.063787000002264, 43.221123000002912 ], [ -88.063861000001637, 43.250143000002147 ], [ -88.063292000002434, 43.278881000002499 ], [ -88.063010000001782, 43.30061600000262 ], [ -88.062891000002082, 43.307858000002454 ], [ -88.062891000001414, 43.322319000002118 ], [ -88.062888000001848, 43.336817000002895 ], [ -88.062426000001409, 43.367289000002749 ], [ -88.055365000001956, 43.367237000002326 ], [ -88.040126000002033, 43.367313000002859 ], [ -88.040918000001469, 43.410704000002561 ], [ -88.040953000002361, 43.42517600000216 ], [ -88.040966000002001, 43.427895000002351 ], [ -88.040881000002457, 43.429496000002089 ], [ -88.040992000001594, 43.432421000002655 ], [ -88.040869000001877, 43.439665000002776 ], [ -88.040701000002315, 43.454481000002879 ], [ -88.040793000002296, 43.470607000002474 ], [ -88.040630000002508, 43.49822400000258 ], [ -88.040558000002051, 43.50269400000284 ], [ -88.040528000001885, 43.542361000002366 ], [ -88.085784000001468, 43.542410000002107 ], [ -88.160873000001772, 43.542943000002118 ], [ -88.236391000001944, 43.542919000002207 ], [ -88.265682000002116, 43.542869000002106 ], [ -88.270680000002173, 43.542859000002323 ], [ -88.281033000002466, 43.542844000002916 ], [ -88.321036000002024, 43.543142000002739 ], [ -88.36112200000143, 43.54333800000267 ], [ -88.400426000002199, 43.543532000002315 ], [ -88.411470000001529, 43.543576000002751 ], [ -88.443379000001713, 43.550994000002014 ], [ -88.442477000001844, 43.543785000002821 ], [ -88.521286000002348, 43.543939000002212 ], [ -88.521236000001593, 43.529471000002147 ], [ -88.489926000001944, 43.536614000002338 ], [ -88.487249000001398, 43.50213000000214 ], [ -88.464625000002258, 43.508746000002624 ], [ -88.461694000002169, 43.511070000002711 ], [ -88.461224000001636, 43.511430000002754 ], [ -88.461996000001804, 43.511725000002109 ], [ -88.460263000001831, 43.514193000002763 ], [ -88.456783000001977, 43.5265820000022 ], [ -88.456588000002185, 43.521922000002306 ], [ -88.456350000001763, 43.521922000002448 ], [ -88.452055000001437, 43.525512000002522 ], [ -88.451427000002155, 43.525429000002717 ], [ -88.451370000002029, 43.525508000002468 ], [ -88.445485000001966, 43.525320000002893 ], [ -88.445292000001842, 43.517105000002047 ], [ -88.445201000002129, 43.51467900000285 ], [ -88.450201000001456, 43.514683000002861 ], [ -88.450232000002302, 43.514590000002286 ], [ -88.45019200000192, 43.511114000002657 ], [ -88.450210000001562, 43.51079100000279 ], [ -88.450294000002543, 43.456893000002594 ], [ -88.521804000002248, 43.457221000002768 ], [ -88.561469000002361, 43.457814000002784 ], [ -88.596208000002605, 43.458175000002313 ], [ -88.613716000001915, 43.458406000002107 ], [ -88.627966000001635, 43.458494000002887 ], [ -88.644027000002339, 43.458581000002418 ], [ -88.661265000002103, 43.458788000002166 ], [ -88.669303000002103, 43.458860000002531 ], [ -88.764768000001951, 43.458834000002881 ], [ -88.764845000002026, 43.466214000002736 ], [ -88.765383000001876, 43.502409000002153 ], [ -88.795225000002375, 43.502459000002027 ], [ -88.800049000001877, 43.5025810000026 ], [ -88.805214000001939, 43.502668000002323 ], [ -88.800009000002234, 43.480778000002175 ], [ -88.81473300000188, 43.466241000002881 ], [ -88.804662000001443, 43.458915000002655 ], [ -88.809039000002471, 43.458933000002929 ], [ -88.809572000002063, 43.458934000002372 ], [ -88.815469000002295, 43.458918000002299 ], [ -88.818926000002506, 43.448705000002583 ], [ -88.827113000001717, 43.443899000002368 ], [ -88.828685000002295, 43.442298000002367 ], [ -88.842313000001454, 43.440227000002317 ], [ -88.841865000001505, 43.440810000002259 ], [ -88.856249000002421, 43.42942300000248 ], [ -88.851742000001749, 43.441733000002777 ], [ -88.852825000001985, 43.441990000002569 ], [ -88.852705000001919, 43.442205000002389 ], [ -88.851052000001886, 43.443332000002101 ], [ -88.851073000001406, 43.443826000002275 ], [ -88.859359000001689, 43.451506000002482 ], [ -88.859564000001981, 43.458996000002529 ], [ -88.858128000001486, 43.461587000002893 ], [ -88.858256000001759, 43.472535000002232 ], [ -88.855564000002246, 43.480634000002809 ], [ -88.867553000001479, 43.491624000002673 ], [ -88.888532000002229, 43.459106000002272 ], [ -88.89503100000239, 43.459112000002257 ], [ -88.931124000002143, 43.458888000002304 ], [ -89.00611700000249, 43.458759000002871 ], [ -89.005087000001495, 43.41482100000281 ], [ -89.004686000002053, 43.371693000002239 ], [ -89.00882800000177, 43.371637000002167 ], [ -89.009157000002205, 43.350106000002377 ], [ -89.009301000002282, 43.339658000002885 ], [ -89.009342000002135, 43.335741000002365 ], [ -89.009329000002595, 43.330461000002543 ], [ -89.006762000001501, 43.33044300000244 ], [ -89.009352000002181, 43.327028000002919 ], [ -89.009532000002196, 43.323467000002758 ], [ -89.009139000001383, 43.28483000000255 ], [ -89.127239000001481, 43.282485000002261 ], [ -89.127309000001929, 43.282486000002649 ], [ -89.211634000001695, 43.282492000002854 ], [ -89.24540500000154, 43.282093000002163 ], [ -89.245710000002063, 43.282084000002293 ], [ -89.285159000002054, 43.281195000002775 ], [ -89.324700000002551, 43.280960000002189 ], [ -89.363085000001547, 43.281305000002575 ], [ -89.363159000001957, 43.294036000002379 ], [ -89.44237200000218, 43.294160000002847 ], [ -89.481630000002028, 43.294094000002907 ], [ -89.52177400000258, 43.293742000002183 ], [ -89.581169000002461, 43.293260000002618 ], [ -89.600855000002355, 43.293132000002217 ], [ -89.640544000002365, 43.293142000002568 ], [ -89.720463000002454, 43.293084000002267 ], [ -89.721302000002112, 43.29386400000238 ], [ -89.726889000002629, 43.3021160000023 ], [ -89.716358000001449, 43.322030000002492 ], [ -89.709086000002415, 43.32610700000253 ], [ -89.677613000001955, 43.361197000002832 ], [ -89.641235000002624, 43.362874000002833 ] ] ] } },
{ "type": "Feature", "properties": { "enacted_district": 7.0, "population": 736572.0, "voting_age_pop": 580155.0, "dem_votes": 144649.0, "rep_votes": 198450.0, "minority_pop": 49682.0, "dem_pct": 0.42159551604009471, "rep_pct": 0.57840448366844421 }, "geometry": { "type": "Polygon", "coordinates": [ [ [ -92.649665000001633, 44.862673000002651 ], [ -92.649709000002247, 44.862663000002051 ], [ -92.652079000002274, 44.862638000002384 ], [ -92.657530000001984, 44.862620000002096 ], [ -92.657941000002694, 44.862620000002337 ], [ -92.659910000002682, 44.862614000002047 ], [ -92.68534600000244, 44.862625000002616 ], [ -92.731126000002277, 44.862376000002413 ], [ -92.769501000002037, 44.862001000002536 ], [ -92.7739460000018, 44.889997000002239 ], [ -92.764767000002038, 44.905431000002096 ], [ -92.752652000001873, 44.948740000002189 ], [ -92.753218000001837, 44.950944000001869 ], [ -92.759582000001643, 44.962804000002372 ], [ -92.770300000002123, 44.978944000001938 ], [ -92.770079000002596, 45.004445000002399 ], [ -92.767506000001944, 45.010406000002106 ], [ -92.763900000001513, 45.017525000002237 ], [ -92.770362000002336, 45.03380300000201 ], [ -92.8017890000026, 45.056920000002584 ], [ -92.792581000001462, 45.078794000001928 ], [ -92.74493800000154, 45.108309000002578 ], [ -92.745665000002447, 45.123073000001824 ], [ -92.753207000002007, 45.17476600000267 ], [ -92.7668080000022, 45.185466000002343 ], [ -92.758008000001638, 45.209566000002432 ], [ -92.753302000001753, 45.260148000001848 ], [ -92.762004000001966, 45.28821300000255 ], [ -92.732962000002445, 45.303897000002074 ], [ -92.704389000002536, 45.32711700000246 ], [ -92.698996000002438, 45.336295000002146 ], [ -92.704054000002159, 45.353660000002002 ], [ -92.674543000001762, 45.382868000002368 ], [ -92.652094000002521, 45.397976000002181 ], [ -92.650474000002561, 45.401921000001906 ], [ -92.648680000002003, 45.426422000002248 ], [ -92.652698000002687, 45.454527000002294 ], [ -92.682474000002003, 45.469704000002231 ], [ -92.726677000002496, 45.514462000002332 ], [ -92.72608200000208, 45.541112000002542 ], [ -92.753730000001781, 45.556356000002445 ], [ -92.773412000002381, 45.568235000002467 ], [ -92.823309000002155, 45.560934000002383 ], [ -92.883749000001913, 45.575483000002329 ], [ -92.887067000002006, 45.644148000002097 ], [ -92.869193000001957, 45.717568000002373 ], [ -92.841051000002281, 45.730024000001855 ], [ -92.785779000001526, 45.763493000002171 ], [ -92.781328000002418, 45.773348000002287 ], [ -92.760909000002641, 45.816640000001847 ], [ -92.761712000001964, 45.833861000002152 ], [ -92.712503000002144, 45.891705000001778 ], [ -92.67573700000186, 45.907478000002598 ], [ -92.655558000001434, 45.924586000002471 ], [ -92.610708000002646, 45.936400000001825 ], [ -92.551186000002659, 45.952240000001829 ], [ -92.549806000002704, 45.967986000002576 ], [ -92.525186000001398, 45.983862000002134 ], [ -92.472761000002336, 45.972952000002167 ], [ -92.464584000002034, 45.983605000001781 ], [ -92.442259000001755, 46.016177000002145 ], [ -92.410014000001894, 46.027251000002479 ], [ -92.372717000001458, 46.01419800000221 ], [ -92.350407000002434, 46.016368000002323 ], [ -92.329806000002662, 46.065216000002515 ], [ -92.312740000002236, 46.070007000002171 ], [ -92.294033000001605, 46.074377000001775 ], [ -92.293705000002035, 46.157321000001907 ], [ -92.292995000001724, 46.332161000002301 ], [ -92.292585000002077, 46.432029000002437 ], [ -92.291855000001803, 46.532778000002267 ], [ -92.292192000001819, 46.666042000002463 ], [ -92.265993000001998, 46.651041000001925 ], [ -92.203023000002602, 46.654575000001977 ], [ -92.201884000001513, 46.658766000002124 ], [ -92.181438000002075, 46.680220000002308 ], [ -92.189363000002501, 46.696004000002155 ], [ -92.189091000002662, 46.717541000002477 ], [ -92.146730000001938, 46.715794000002241 ], [ -92.14527000000156, 46.718845000001977 ], [ -92.143387000001439, 46.728430000002128 ], [ -92.13789000000196, 46.73954000000235 ], [ -92.100965000002304, 46.749061000002413 ], [ -92.064875000001621, 46.731186000002197 ], [ -92.059446000002296, 46.727306000002443 ], [ -92.042925000002597, 46.715264000002399 ], [ -92.024724000001399, 46.705611000002349 ], [ -92.015290000002238, 46.706469000002095 ], [ -91.931232000001984, 46.742072000002025 ], [ -91.742095000001527, 46.816391000002255 ], [ -91.549385000002516, 46.893213000002376 ], [ -91.500181000002115, 46.913320000002578 ], [ -91.29585300000268, 47.011084000002604 ], [ -91.039831000002366, 47.131167000002272 ], [ -90.867318000001646, 47.210962000002212 ], [ -90.654660000002167, 47.309822000001986 ], [ -90.250140000001693, 47.29989100000185 ], [ -89.95710200000218, 47.291103000001783 ], [ -90.000145000002405, 47.214969000002135 ], [ -90.125164000001618, 47.02067900000187 ], [ -90.269622000001817, 46.79818200000237 ], [ -90.418392000001802, 46.566099000002012 ], [ -90.395069000002124, 46.533768000002041 ], [ -90.341350000001555, 46.547923000002115 ], [ -90.310839000001664, 46.53628900000249 ], [ -90.313843000002166, 46.51606300000212 ], [ -90.275324000002044, 46.518230000002553 ], [ -90.263139000001516, 46.502668000002537 ], [ -90.216172000001677, 46.501272000002082 ], [ -90.188051000002503, 46.458269000002311 ], [ -90.178835000002394, 46.451728000001935 ], [ -90.176109000002043, 46.439793000002673 ], [ -90.176059000001359, 46.4397940000026 ], [ -90.158345000001674, 46.409696000002015 ], [ -90.118822000001913, 46.359531000002633 ], [ -90.12057200000244, 46.337039000002505 ], [ -89.929158000002076, 46.299748000002062 ], [ -89.805159000002405, 46.276141000002731 ], [ -89.554815000002037, 46.227903000002129 ], [ -89.179896000002131, 46.155249000002719 ], [ -89.091638000002504, 46.138447000002387 ], [ -88.9468670000022, 46.079410000002547 ], [ -88.932757000002354, 46.073668000002314 ], [ -88.851133000001326, 46.04044400000231 ], [ -88.838508000001312, 46.030217000002779 ], [ -88.782073000001546, 46.016185000002693 ], [ -88.739671000001778, 46.027423000002472 ], [ -88.683312000001493, 46.014113000001927 ], [ -88.65865400000169, 45.989290000002541 ], [ -88.616471000001908, 45.987732000002772 ], [ -88.559661000002123, 46.014122000001919 ], [ -88.507480000002019, 46.018516000002499 ], [ -88.497978000002234, 45.995794000002782 ], [ -88.464731000002274, 46.000738000002563 ], [ -88.423493000001528, 45.982072000002667 ], [ -88.380891000002222, 45.991813000001947 ], [ -88.328041000001804, 45.96353900000242 ], [ -88.219139000002272, 45.947503000001966 ], [ -88.197126000001447, 45.953213000002492 ], [ -88.148128000001748, 45.937546000002442 ], [ -88.126373000002076, 45.923893000001982 ], [ -88.102461000002094, 45.921546000002586 ], [ -88.101891000002126, 45.883597000002602 ], [ -88.070483000001673, 45.874329000002525 ], [ -88.12183200000257, 45.831761000002189 ], [ -88.136212000001976, 45.818735000002469 ], [ -88.102484000002136, 45.790778000002256 ], [ -88.058253000002097, 45.780629000002257 ], [ -88.058426000002513, 45.744814000002542 ], [ -88.059301000001298, 45.713065000002736 ], [ -88.178181000001814, 45.718094000002758 ], [ -88.240021000001803, 45.719570000002086 ], [ -88.365253000001317, 45.72214900000241 ], [ -88.425302000002418, 45.72242600000218 ], [ -88.425950000002075, 45.621453000002802 ], [ -88.426070000002383, 45.549052000002803 ], [ -88.425781000002132, 45.506594000002011 ], [ -88.428102000001445, 45.377010000002308 ], [ -88.55435300000245, 45.377672000002228 ], [ -88.556617000001523, 45.377677000002855 ], [ -88.677820000002541, 45.378929000002003 ], [ -88.677996000001428, 45.378683000002688 ], [ -88.679242000002489, 45.277052000002065 ], [ -88.679739000001703, 45.225007000001987 ], [ -88.680066000002384, 45.204994000002358 ], [ -88.638174000002223, 45.204815000002824 ], [ -88.641159000002105, 45.117346000002001 ], [ -88.806791000002121, 45.117675000002706 ], [ -88.821887000002278, 45.117687000002697 ], [ -88.930554000002559, 45.117810000002443 ], [ -88.98246000000168, 45.117998000001911 ], [ -88.981680000002058, 45.028917000002309 ], [ -89.101906000001676, 45.029497000002856 ], [ -89.223814000002591, 45.029246000002637 ], [ -89.223735000002137, 45.022442000002201 ], [ -89.223478000002501, 45.000724000002727 ], [ -89.223450000002003, 44.942853000002195 ], [ -89.223674000002035, 44.928422000002136 ], [ -89.223679000002619, 44.924775000002057 ], [ -89.223739000002382, 44.921109000002737 ], [ -89.223903000001513, 44.877957000002517 ], [ -89.224008000002343, 44.856265000002637 ], [ -89.224009000001402, 44.856165000002299 ], [ -89.224296000002141, 44.783607000002149 ], [ -89.22422500000205, 44.76917400000243 ], [ -89.224332000001993, 44.724703000002762 ], [ -89.223745000002538, 44.681365000002238 ], [ -89.345887000001667, 44.681380000001951 ], [ -89.421018000001638, 44.683936000002177 ], [ -89.489905000001428, 44.685847000002738 ], [ -89.608094000001657, 44.685482000002409 ], [ -89.640933000001766, 44.685227000002023 ], [ -89.6830560000014, 44.685014000002703 ], [ -89.687872000002343, 44.68499000000282 ], [ -89.726699000002384, 44.684835000002494 ], [ -89.844931000001807, 44.684945000002266 ], [ -89.844975000002194, 44.684945000002614 ], [ -89.964013000002367, 44.684829000002317 ], [ -89.964587000002098, 44.59830400000267 ], [ -89.964661000002081, 44.555109000002325 ], [ -89.964298000002245, 44.511568000002313 ], [ -89.964284000002507, 44.489117000002423 ], [ -89.979191000002018, 44.488918000002712 ], [ -89.979029000002441, 44.474409000002382 ], [ -89.963968000002467, 44.47086800000276 ], [ -89.963602000002126, 44.423564000002393 ], [ -90.023912000002525, 44.42392700000282 ], [ -90.079527000001875, 44.424292000002048 ], [ -90.079620000002478, 44.394106000002317 ], [ -90.080134000001564, 44.336532000001974 ], [ -90.080977000001496, 44.292451000002352 ], [ -90.080822000002357, 44.249011000002589 ], [ -90.073245000001563, 44.248990000002159 ], [ -90.058107000002593, 44.248957000002711 ], [ -89.902783000002287, 44.249473000002169 ], [ -89.89758500000238, 44.229844000002615 ], [ -89.920478000001566, 44.208859000002398 ], [ -89.900160000001662, 44.184320000002728 ], [ -89.920430000001858, 44.178581000002175 ], [ -89.922802000002363, 44.155308000002051 ], [ -89.970482000001525, 44.167114000002201 ], [ -89.976919000002383, 44.122538000002386 ], [ -90.007056000001967, 44.12160700000252 ], [ -90.004801000001933, 44.102677000001997 ], [ -90.025953000002261, 44.091748000002013 ], [ -90.02533800000154, 44.068324000002335 ], [ -90.022127000002456, 44.068271000002412 ], [ -90.018701000002508, 44.048006000002438 ], [ -89.998977000002142, 44.024045000002381 ], [ -90.005887000001707, 44.00839100000227 ], [ -89.965541000001906, 43.987380000002837 ], [ -89.963118000002311, 43.981486000002548 ], [ -89.962711000002486, 43.96628200000265 ], [ -89.951200000002132, 43.926587000002655 ], [ -89.98067600000185, 43.905623000002613 ], [ -90.027960000001414, 43.909173000002227 ], [ -90.036377000001721, 43.930280000001993 ], [ -90.072489000002221, 43.922362000002813 ], [ -90.07249600000236, 43.920470000002851 ], [ -90.112651000001762, 43.923013000002513 ], [ -90.137900000002446, 43.894160000002579 ], [ -90.146478000002645, 43.894196000002452 ], [ -90.151690000002162, 43.885822000002378 ], [ -90.155615000001674, 43.887355000001975 ], [ -90.169784000002593, 43.894323000002593 ], [ -90.191740000001886, 43.900437000002512 ], [ -90.191832000001739, 43.981267000002241 ], [ -90.312694000001486, 43.98138400000218 ], [ -90.31269300000244, 43.98133500000236 ], [ -90.434354000002642, 43.986729000002583 ], [ -90.445367000001966, 43.986677000002231 ], [ -90.464605000002635, 43.994524000002798 ], [ -90.471329000002115, 43.997986000002228 ], [ -90.472064000001566, 43.997785000002033 ], [ -90.494835000002482, 44.012143000002332 ], [ -90.509800000001476, 44.024109000002341 ], [ -90.520029000002324, 44.00794400000234 ], [ -90.519967000002083, 44.004432000002126 ], [ -90.518368000002525, 44.00432100000252 ], [ -90.519966000001645, 44.00429500000233 ], [ -90.525003000001874, 44.004208000002549 ], [ -90.519606000002, 44.000690000002145 ], [ -90.505262000001878, 43.995644000002542 ], [ -90.514617000001977, 43.988576000002382 ], [ -90.514685000002203, 43.988419000002587 ], [ -90.531632000001977, 43.992800000002653 ], [ -90.536033000001964, 43.990328000002478 ], [ -90.53594600000234, 43.98591600000271 ], [ -90.552785000001634, 43.985865000002278 ], [ -90.553034000002597, 44.007731000002266 ], [ -90.553106000002302, 44.052431000002031 ], [ -90.553147000002582, 44.072744000002061 ], [ -90.553421000001521, 44.160215000002403 ], [ -90.553679000002205, 44.248358000002597 ], [ -90.558352000001506, 44.335252000002008 ], [ -90.558746000002017, 44.422210000002693 ], [ -90.619465000001696, 44.42212700000254 ], [ -90.680487000002444, 44.422239000002705 ], [ -90.705192000001759, 44.422227000002614 ], [ -90.801918000001777, 44.422442000002221 ], [ -90.802096000002237, 44.406859000002513 ], [ -90.832314000002356, 44.418142000002639 ], [ -90.832867000002324, 44.418159000002682 ], [ -90.832466000001858, 44.428348000002771 ], [ -90.812024000001657, 44.429579000002605 ], [ -90.822345000001803, 44.440518000002768 ], [ -90.827083000002276, 44.462168000002286 ], [ -90.84561800000256, 44.458615000002347 ], [ -90.839813000002081, 44.44407700000199 ], [ -90.842391000002081, 44.433103000002255 ], [ -90.897529000001981, 44.433350000002655 ], [ -90.902646000001525, 44.435812000002336 ], [ -90.902635000001567, 44.437914000002408 ], [ -90.899807000001843, 44.440893000002291 ], [ -90.901170000001756, 44.440330000002525 ], [ -90.902625000002644, 44.439279000002408 ], [ -90.923005000001822, 44.444302000002772 ], [ -90.923047000002597, 44.429839000002389 ], [ -90.923076000002382, 44.422620000002325 ], [ -91.044072000002657, 44.422571000002499 ], [ -91.04427700000268, 44.509832000002774 ], [ -91.044342000001478, 44.509832000002099 ], [ -91.043815000001842, 44.596640000001941 ], [ -91.043618000002397, 44.596660000002743 ], [ -90.972986000002166, 44.596516000002701 ], [ -90.942643000001624, 44.596378000002723 ], [ -90.9223500000016, 44.596293000002674 ], [ -90.921739000002447, 44.683322000002505 ], [ -90.9215280000018, 44.770408000002021 ], [ -90.921528000002155, 44.770483000002272 ], [ -90.922247000002244, 44.857309000002481 ], [ -90.922247000002457, 44.857404000002717 ], [ -90.922669000001463, 44.944428000002603 ], [ -90.945377000002594, 44.944416000002029 ], [ -90.954325000002157, 44.944378000002146 ], [ -90.958348000002601, 44.944360000002163 ], [ -91.024602000001565, 44.944204000002117 ], [ -91.034792000001474, 44.944233000001923 ], [ -91.054923000002319, 44.944287000002177 ], [ -91.105769000002155, 44.944309000001958 ], [ -91.105122000001643, 44.85707100000252 ], [ -91.145760000001744, 44.856941000002372 ], [ -91.226485000002398, 44.856929000002374 ], [ -91.226829000001899, 44.856930000002329 ], [ -91.226379000001643, 44.900543000002493 ], [ -91.22771000000246, 44.948997000002642 ], [ -91.257703000002422, 44.951058000001979 ], [ -91.282202000001803, 44.950328000002138 ], [ -91.313005000001823, 44.968437000002211 ], [ -91.315276000002314, 44.966687000002452 ], [ -91.340667000001517, 44.937779000002443 ], [ -91.342930000001559, 44.938545000002385 ], [ -91.3682970000024, 44.939897000002695 ], [ -91.357887000002364, 44.966017000002054 ], [ -91.368155000002005, 44.958666000002189 ], [ -91.378277000002115, 44.966224000001944 ], [ -91.395906000002398, 44.959003000002326 ], [ -91.398704000002198, 44.958976000001861 ], [ -91.398706000002605, 44.959125000002537 ], [ -91.398547000002594, 44.966224000002015 ], [ -91.407547000001713, 44.966128000002755 ], [ -91.425369000002647, 44.944344000001898 ], [ -91.428785000002435, 44.944328000002209 ], [ -91.433301000001919, 44.944318000002269 ], [ -91.448540000002396, 44.944366000002468 ], [ -91.479065000002635, 44.944500000002151 ], [ -91.528732000002563, 44.944458000002427 ], [ -91.528916000001942, 44.966114000002342 ], [ -91.528979000001755, 45.030906000001892 ], [ -91.651390000001925, 45.029781000002181 ], [ -91.65139100000232, 45.029830000002704 ], [ -91.651620000002566, 45.085181000001988 ], [ -91.651510000002503, 45.112908000002015 ], [ -91.666402000002179, 45.120823000002083 ], [ -91.665647000002295, 45.207991000002266 ], [ -91.788846000001783, 45.20822900000217 ], [ -91.887882000001483, 45.208486000002061 ], [ -91.901552000002127, 45.208459000002208 ], [ -91.911598000002044, 45.208453000002045 ], [ -91.987946000002481, 45.208803000002007 ], [ -92.03367400000198, 45.208851000001921 ], [ -92.033709000001423, 45.208851000001864 ], [ -92.156465000001674, 45.209554000002349 ], [ -92.157072000001961, 45.121608000002645 ], [ -92.136113000001686, 45.121388000001971 ], [ -92.136360000002483, 45.06784500000267 ], [ -92.136487000001793, 45.042740000002567 ], [ -92.136467000001502, 45.039126000002142 ], [ -92.136429000002025, 45.031879000002213 ], [ -92.136428000002553, 45.031744000002014 ], [ -92.13537900000172, 44.944807000002058 ], [ -92.136348000002513, 44.857848000002377 ], [ -92.197327000002062, 44.857941000002121 ], [ -92.233176000002643, 44.85784900000268 ], [ -92.235038000001637, 44.857808000002215 ], [ -92.250890000002258, 44.857993000001926 ], [ -92.251066000001956, 44.857993000002629 ], [ -92.258363000001765, 44.858083000002317 ], [ -92.374917000001716, 44.862301000002468 ], [ -92.435863000002101, 44.862347000002003 ], [ -92.497014000001784, 44.862466000002563 ], [ -92.579711000002462, 44.862483000002662 ], [ -92.580093000002364, 44.862483000002619 ], [ -92.606231000002325, 44.862567000002414 ], [ -92.61661500000254, 44.862592000002415 ], [ -92.623866000001797, 44.862612000002528 ], [ -92.634845000002244, 44.862617000002174 ], [ -92.649665000001633, 44.862673000002651 ] ] ] } },
{ "type": "Feature", "properties": { "enacted_district": 8.0, "population": 736824.0, "voting_age_pop": 572019.0, "dem_votes": 145469.0, "rep_votes": 192934.0, "minority_pop": 75688.0, "dem_pct": 0.42986912041859288, "rep_pct": 0.57013087928590145 }, "geometry": { "type": "Polygon", "coordinates": [ [ [ -89.12847500000251, 44.243057000002793 ], [ -89.224813000001646, 44.243393000002271 ], [ -89.224556000002011, 44.268709000002808 ], [ -89.224121000001702, 44.330663000002289 ], [ -89.22386400000218, 44.388785000002109 ], [ -89.223668000001425, 44.417443000002457 ], [ -89.223581000001886, 44.453892000002554 ], [ -89.223331000002261, 44.503984000002021 ], [ -89.223524000002357, 44.59164100000276 ], [ -89.223745000002538, 44.681365000002238 ], [ -89.224332000001993, 44.724703000002762 ], [ -89.22422500000205, 44.76917400000243 ], [ -89.224296000002141, 44.783607000002149 ], [ -89.224009000001402, 44.856165000002299 ], [ -89.224008000002343, 44.856265000002637 ], [ -89.223903000001513, 44.877957000002517 ], [ -89.223739000002382, 44.921109000002737 ], [ -89.223679000002619, 44.924775000002057 ], [ -89.223674000002035, 44.928422000002136 ], [ -89.223450000002003, 44.942853000002195 ], [ -89.223478000002501, 45.000724000002727 ], [ -89.223735000002137, 45.022442000002201 ], [ -89.223814000002591, 45.029246000002637 ], [ -89.101906000001676, 45.029497000002856 ], [ -88.981680000002058, 45.028917000002309 ], [ -88.98246000000168, 45.117998000001911 ], [ -88.930554000002559, 45.117810000002443 ], [ -88.821887000002278, 45.117687000002697 ], [ -88.806791000002121, 45.117675000002706 ], [ -88.641159000002105, 45.117346000002001 ], [ -88.638174000002223, 45.204815000002824 ], [ -88.680066000002384, 45.204994000002358 ], [ -88.679739000001703, 45.225007000001987 ], [ -88.679242000002489, 45.277052000002065 ], [ -88.677996000001428, 45.378683000002688 ], [ -88.677820000002541, 45.378929000002003 ], [ -88.556617000001523, 45.377677000002855 ], [ -88.55435300000245, 45.377672000002228 ], [ -88.428102000001445, 45.377010000002308 ], [ -88.425781000002132, 45.506594000002011 ], [ -88.426070000002383, 45.549052000002803 ], [ -88.425950000002075, 45.621453000002802 ], [ -88.425302000002418, 45.72242600000218 ], [ -88.365253000001317, 45.72214900000241 ], [ -88.240021000001803, 45.719570000002086 ], [ -88.178181000001814, 45.718094000002758 ], [ -88.059301000001298, 45.713065000002736 ], [ -88.058426000002513, 45.744814000002542 ], [ -88.058253000002097, 45.780629000002257 ], [ -88.019289000001365, 45.792007000002222 ], [ -87.998821000001811, 45.794769000002105 ], [ -87.97266200000216, 45.766352000002783 ], [ -87.879812000002573, 45.754843000002346 ], [ -87.839402000001499, 45.717814000002399 ], [ -87.812338000001546, 45.711303000002751 ], [ -87.781007000001594, 45.673934000002369 ], [ -87.802440000001937, 45.666893000002368 ], [ -87.824392000001552, 45.647710000002533 ], [ -87.776936000002451, 45.595499000002263 ], [ -87.803446000001657, 45.538344000002581 ], [ -87.792769000002153, 45.499967000002258 ], [ -87.812884000001787, 45.464329000002522 ], [ -87.834843000001612, 45.45211700000219 ], [ -87.861697000001428, 45.434473000002114 ], [ -87.849668000001969, 45.409518000002507 ], [ -87.87199800000208, 45.371192000002452 ], [ -87.887049000002506, 45.359744000002614 ], [ -87.838141000002437, 45.345101000002735 ], [ -87.814164000002251, 45.351760000002841 ], [ -87.75410400000213, 45.349442000002028 ], [ -87.693956000001407, 45.389893000002495 ], [ -87.658175000002089, 45.369476000002159 ], [ -87.647768000002145, 45.340563000002255 ], [ -87.687729000002051, 45.297492000002485 ], [ -87.709994000001885, 45.248446000002758 ], [ -87.738499000001781, 45.202889000002749 ], [ -87.735282000001547, 45.176565000002626 ], [ -87.68390200000259, 45.144135000002287 ], [ -87.662090000002564, 45.113320000002254 ], [ -87.619237000001519, 45.101573000002759 ], [ -87.598302000001766, 45.096204000002722 ], [ -87.591880000001694, 45.094689000002603 ], [ -87.585388000002183, 45.096925000002457 ], [ -87.442760000001982, 45.076471000002222 ], [ -87.432419000001815, 45.11177200000224 ], [ -87.405694000001418, 45.201969000002869 ], [ -87.315422000002016, 45.240657000002578 ], [ -87.271331000001283, 45.275354000002807 ], [ -87.171170000002405, 45.352540000002463 ], [ -87.101133000002037, 45.444230000002513 ], [ -86.754236000001995, 45.443610000002586 ], [ -86.325760000001821, 45.26790000000252 ], [ -86.250100000002533, 45.235735000002144 ], [ -86.429682000001719, 45.127077000002132 ], [ -86.499930000002138, 45.080800000002085 ], [ -86.565510000001908, 45.010407000002317 ], [ -86.636365000001277, 44.9348290000029 ], [ -86.686288000002477, 44.881002000002319 ], [ -86.699834000002227, 44.850770000002619 ], [ -86.738962000001379, 44.763161000002178 ], [ -86.778398000001658, 44.675219000002578 ], [ -86.855184000001842, 44.500339000002221 ], [ -86.847694000001923, 44.500339000002398 ], [ -86.923403000002082, 44.328825000002055 ], [ -87.25008200000228, 44.327177000002131 ], [ -87.543612000001929, 44.32751300000254 ], [ -87.58336000000142, 44.327563000002776 ], [ -87.644196000001415, 44.327543000002109 ], [ -87.704991000002252, 44.327324000002108 ], [ -87.765984000002121, 44.327184000002376 ], [ -87.766026000001816, 44.327184000002532 ], [ -87.826771000001941, 44.327478000002799 ], [ -87.887526000001884, 44.327589000002405 ], [ -87.88799900000194, 44.28403400000267 ], [ -87.888087000001676, 44.240461000002142 ], [ -87.91081600000166, 44.240438000002463 ], [ -87.923755000002302, 44.240402000002447 ], [ -88.010007000002062, 44.240936000002371 ], [ -88.043240000002385, 44.241018000002242 ], [ -88.043767000001637, 44.17376100000233 ], [ -88.043765000002253, 44.173483000002477 ], [ -88.043650000001406, 44.153497000002211 ], [ -88.04322900000156, 44.101384000002518 ], [ -88.042936000002356, 44.066412000002849 ], [ -88.042138000001742, 43.979181000002704 ], [ -88.142682000002424, 43.978989000002272 ], [ -88.150813000001449, 43.978876000002188 ], [ -88.151173000002402, 44.000243000002719 ], [ -88.236839000001353, 44.000213000002773 ], [ -88.266539000002396, 44.000331000002554 ], [ -88.324320000002075, 44.000518000002451 ], [ -88.403510000001745, 44.001286000002686 ], [ -88.404289000002407, 44.071017000002847 ], [ -88.404409000002431, 44.084086000002038 ], [ -88.404598000001883, 44.098344000002861 ], [ -88.404496000002041, 44.123015000002859 ], [ -88.404429000001898, 44.12768500000287 ], [ -88.404446000001684, 44.159376000002268 ], [ -88.40450700000244, 44.191163000002575 ], [ -88.404537000002009, 44.193699000002518 ], [ -88.404425000001453, 44.209254000002119 ], [ -88.40440200000188, 44.209475000002541 ], [ -88.404359000001463, 44.210220000002188 ], [ -88.404342000001549, 44.211080000002646 ], [ -88.404315000001617, 44.212402000002427 ], [ -88.404255000001967, 44.214848000002014 ], [ -88.404242000002498, 44.215640000002779 ], [ -88.404235000002444, 44.216011000002517 ], [ -88.404234000002063, 44.216059000002083 ], [ -88.404211000002263, 44.21723500000239 ], [ -88.404184000001706, 44.218487000002632 ], [ -88.404050000002272, 44.226449000002184 ], [ -88.404007000002082, 44.229578000002761 ], [ -88.404006000002454, 44.23004100000216 ], [ -88.403965000002344, 44.231569000002743 ], [ -88.403930000001878, 44.233850000002704 ], [ -88.404044000002358, 44.238642000002038 ], [ -88.404070000001397, 44.244102000002741 ], [ -88.404202000002186, 44.244100000002454 ], [ -88.414053000002014, 44.244035000002832 ], [ -88.417769000002352, 44.244037000002777 ], [ -88.429007000002102, 44.244286000002077 ], [ -88.435907000001492, 44.244386000002336 ], [ -88.436532000002444, 44.244308000002349 ], [ -88.439099000001718, 44.244286000002127 ], [ -88.445830000002303, 44.244139000002754 ], [ -88.450119000001905, 44.24411700000234 ], [ -88.455957000001902, 44.244112000002112 ], [ -88.476116000002236, 44.244107000002387 ], [ -88.485374000002494, 44.244106000002098 ], [ -88.496818000001767, 44.244100000002064 ], [ -88.524791000001784, 44.244028000002459 ], [ -88.557424000001561, 44.243709000002433 ], [ -88.564981000001708, 44.243710000002807 ], [ -88.56472400000159, 44.217581000002703 ], [ -88.56477200000225, 44.205991000002243 ], [ -88.564685000002285, 44.19963700000234 ], [ -88.605255000002344, 44.199141000002228 ], [ -88.604551000001479, 44.170025000002227 ], [ -88.634359000002092, 44.155279000002857 ], [ -88.644334000001365, 44.155264000002717 ], [ -88.664455000002107, 44.155160000002248 ], [ -88.764812000002252, 44.155012000002579 ], [ -88.764830000001751, 44.156227000002048 ], [ -88.765567000001681, 44.214396000002672 ], [ -88.766200000002172, 44.243366000002709 ], [ -88.785988000002433, 44.243187000002749 ], [ -88.797446000001614, 44.242999000002492 ], [ -88.820397000002032, 44.242736000002715 ], [ -88.850304000002254, 44.242594000002754 ], [ -88.854182000001956, 44.242637000002638 ], [ -88.886673000001664, 44.242622000002612 ], [ -88.927152000001612, 44.242637000002567 ], [ -88.982162000001537, 44.242772000002134 ], [ -89.006739000002312, 44.242832000002849 ], [ -89.022128000002496, 44.242858000002393 ], [ -89.10335000000147, 44.243070000002433 ], [ -89.12847500000251, 44.243057000002793 ] ] ] } }
]
}
