{
"type": "FeatureCollection",
"name": "wyoming_optimized_districts_all",
"crs": { "type": "name", "properties": { "name": "urn:ogc:def:crs:OGC:1.3:CRS84" } },
"features": [
{ "type": "Feature", "properties": { "opt_all": 1, "population": 576851.0, "voting_age_pop": 441337.0, "dem_votes": 61984.0, "rep_votes": 168932.0, "minority_pop": 71296.0, "dem_pct": 0.2684266138905807, "rep_pct": 0.73157338567636132 }, "geometry": { "type": "Polygon", "coordinates": [ [ [ -109.56680000000236, 40.998389000001772 ], [ -110.505074000001798, 40.994804000001857 ], [ -111.046815000001601, 40.997875000001983 ], [ -111.0469390000017, 42.484263000001825 ], [ -111.044014000002122, 43.233369000001701 ], [ -111.04907700000156, 44.020130000001686 ], [ -111.054556000001824, 45.000955000001483 ], [ -110.704476000001918, 44.992174000000972 ], [ -109.103228000001337, 45.005815000001412 ], [ -108.03380600000142, 45.000512000001422 ], [ -106.625610000001757, 44.994927000001624 ], [ -105.160531000002166, 45.000107000001776 ], [ -104.05787900000216, 44.997605000001322 ], [ -104.05487900000206, 43.582999000002211 ], [ -104.052620000002079, 42.660549000001843 ], [ -104.052967000001914, 41.916972000001685 ], [ -104.053249000001884, 41.001406000002149 ], [ -104.855273000002597, 40.998048000001731 ], [ -105.726441000002353, 40.996836000001707 ], [ -106.625592000002442, 41.002110000001458 ], [ -107.750627000002325, 41.001971000002072 ], [ -108.526029000002296, 40.999592000001783 ], [ -109.56680000000236, 40.998389000001772 ] ] ] } }
]
}
